{
  "version": 0.6,
  "generator": "Overpass API 0.7.57.1 74a55df1",
  "osm3s": {
    "timestamp_osm_base": "2022-02-13T13:18:30Z",
    "timestamp_areas_base": "2022-02-13T02:36:10Z",
    "copyright": "The data included in this document is from www.openstreetmap.org. The data is made available under ODbL."
  },
  "elements": [

{
  "type": "way",
  "id": 8584789,
  "nodes": [
    60939746,
    8558019067,
    283301013,
    951411775,
    278251136,
    278241276,
    278241218
  ],
  "tags": {
    "admin_level": "10",
    "boundary": "administrative",
    "cycleway:right": "lane",
    "highway": "secondary",
    "maxspeed": "30",
    "name": "Boulevard Vieussens",
    "parking:lane:both": "parallel",
    "surface": "asphalt"
  }
},
{
  "type": "way",
  "id": 9501969,
  "nodes": [
    73105464,
    3780633109,
    73105468,
    3780633113,
    73105440,
    3780633114,
    73105444,
    3780633112,
    73105448,
    3780633108,
    73105451,
    73105455,
    3780633102,
    73105459,
    3780633101,
    73105461,
    3780633103,
    9069379593,
    9069379594,
    73105463,
    73105464
  ],
  "tags": {
    "cycleway:right": "lane",
    "highway": "residential",
    "junction": "roundabout",
    "maxspeed": "30"
  }
},
{
  "type": "way",
  "id": 9703171,
  "nodes": [
    76470549,
    1764339865,
    1764339877,
    1433363219,
    3574717808,
    1764339895,
    76470537,
    1764339860,
    1330006080,
    1764339868,
    1450588873,
    1764339858,
    76470665,
    1764339864,
    1764339854,
    76470666,
    1764339859,
    1330006079,
    1764339857,
    76470549
  ],
  "tags": {
    "cycleway:right": "lane",
    "highway": "tertiary",
    "junction": "roundabout",
    "maxspeed": "30",
    "name": "Rond-Point Odette Branger Capion",
    "surface": "asphalt"
  }
},
{
  "type": "way",
  "id": 11255599,
  "nodes": [
    245459865,
    2004133948,
    3906240630,
    1073084849,
    3906240626,
    2004133941,
    3780929432,
    1073084844,
    2004133935,
    2004133926,
    3780929431,
    99974850
  ],
  "tags": {
    "cycleway:right": "lane",
    "highway": "secondary",
    "lanes": "1",
    "maxspeed": "30",
    "name": "Route de Mende",
    "oneway": "yes",
    "surface": "asphalt"
  }
},
{
  "type": "way",
  "id": 16123284,
  "nodes": [
    38459337,
    162676119,
    3644694924,
    162676124
  ],
  "tags": {
    "cycleway:right": "lane",
    "highway": "primary",
    "lit": "yes",
    "maxspeed": "30",
    "name": "Avenue de Toulouse",
    "oneway": "yes",
    "surface": "asphalt"
  }
},
{
  "type": "way",
  "id": 22918091,
  "nodes": [
    247257065,
    246773528
  ],
  "tags": {
    "bicycle": "yes",
    "cycleway:right": "lane",
    "destination:forward": "Esplnanade de l'Europe",
    "highway": "service",
    "maxspeed": "30"
  }
},
{
  "type": "way",
  "id": 22950505,
  "nodes": [
    38458764,
    38458765,
    289139083,
    2001356549,
    5064352127,
    6776005312,
    5064352129,
    3071651129,
    3071651433,
    3071651131,
    5064352130,
    6776005313,
    6579731414,
    3071651132,
    2001356528,
    289143742,
    38458768,
    6579731418,
    6579731419,
    3071651124,
    5117317273,
    3071651125,
    3071651126,
    3433548995,
    5156689345,
    6776005314,
    6579731420,
    3575554203,
    3071651127
  ],
  "tags": {
    "busway:left": "lane",
    "cycleway:left": "share_busway",
    "cycleway:right": "lane",
    "highway": "secondary",
    "lanes": "2",
    "lit": "yes",
    "maxspeed": "30",
    "maxspeed:type": "FR:urban",
    "name": "Avenue de Toulouse",
    "parking:lane:right": "parallel",
    "sidewalk": "both",
    "surface": "asphalt"
  }
},
{
  "type": "way",
  "id": 22960140,
  "nodes": [
    247386210,
    1931294230,
    247386333,
    247386327
  ],
  "tags": {
    "cycleway:right": "lane",
    "highway": "secondary",
    "maxspeed": "30",
    "name": "Avenue du Père Soulas",
    "oneway": "yes"
  }
},
{
  "type": "way",
  "id": 22960141,
  "nodes": [
    247386327,
    247386328,
    1931294215,
    247386331
  ],
  "tags": {
    "cycleway:right": "lane",
    "highway": "secondary",
    "maxspeed": "30",
    "name": "Avenue du Père Soulas",
    "oneway": "yes"
  }
},
{
  "type": "way",
  "id": 23004172,
  "nodes": [
    248087706,
    1728423376,
    1222040585,
    2362899722
  ],
  "tags": {
    "cycleway:right": "lane",
    "highway": "residential",
    "maxspeed": "30",
    "name": "Rue Hippolyte Rech",
    "oneway": "yes"
  }
},
{
  "type": "way",
  "id": 25529557,
  "nodes": [
    283301267,
    938646842,
    278223174,
    281257272,
    3744335459
  ],
  "tags": {
    "admin_level": "10",
    "boundary": "administrative",
    "cycleway:right": "lane",
    "highway": "secondary",
    "lanes": "2",
    "maxspeed": "30",
    "name": "Boulevard d'Orient",
    "oneway": "yes"
  }
},
{
  "type": "way",
  "id": 25530150,
  "nodes": [
    247279474,
    2129896105,
    6788141826,
    2948127143,
    281257021
  ],
  "tags": {
    "admin_level": "10",
    "boundary": "administrative",
    "cycleway:right": "lane",
    "highway": "secondary",
    "lanes": "2",
    "maxspeed": "30",
    "name": "Boulevard Rabelais",
    "oneway": "yes",
    "parking:lane:both": "parallel",
    "surface": "asphalt"
  }
},
{
  "type": "way",
  "id": 25677785,
  "nodes": [
    323248028,
    281252891,
    281251839,
    281253479,
    4122974064,
    1627079598
  ],
  "tags": {
    "admin_level": "10",
    "boundary": "administrative",
    "cycleway:right": "lane",
    "highway": "secondary",
    "lanes": "2",
    "lit": "yes",
    "maxspeed": "30",
    "maxspeed:type": "sign",
    "name": "Boulevard de Strasbourg",
    "oneway": "yes",
    "surface": "asphalt"
  }
},
{
  "type": "way",
  "id": 25743831,
  "nodes": [
    280735047,
    289128488,
    280734940,
    286502495,
    280734941,
    280734942,
    280734814
  ],
  "tags": {
    "cycleway:right": "lane",
    "highway": "residential",
    "maxspeed": "30",
    "name": "Rue de Pinville",
    "oneway": "yes"
  }
},
{
  "type": "way",
  "id": 25744391,
  "nodes": [
    280738581,
    280739252,
    2489265379
  ],
  "tags": {
    "cycleway:right": "lane",
    "highway": "residential",
    "maxspeed": "30",
    "name": "Rue Léonard de Vinci",
    "oneway": "yes"
  }
},
{
  "type": "way",
  "id": 25786677,
  "nodes": [
    265366547,
    1678816177,
    3945401296,
    5566049703,
    256036878,
    256102862,
    1678816137,
    1678816132,
    256104225
  ],
  "tags": {
    "cycleway:right": "lane",
    "highway": "secondary",
    "lanes": "2",
    "maxspeed": "30",
    "name": "Avenue des États du Languedoc",
    "oneway": "yes",
    "parking:lane:right": "parallel",
    "source:maxspeed": "sign",
    "surface": "paved"
  }
},
{
  "type": "way",
  "id": 25788268,
  "nodes": [
    247279474,
    2129896113,
    246690046
  ],
  "tags": {
    "cycleway:right": "lane",
    "highway": "secondary",
    "maxspeed": "30",
    "name": "Rue Frédéric Bazille",
    "oneway": "yes",
    "source:maxspeed": "FR:urban",
    "surface": "asphalt"
  }
},
{
  "type": "way",
  "id": 25893362,
  "nodes": [
    6338274486,
    282449627,
    6338274487,
    6338274383,
    282449628,
    6338274384,
    4223730958,
    282449629,
    4223730924,
    5728571564,
    282449630,
    5728571584,
    282449631,
    282449633,
    4223730902,
    1616117824
  ],
  "tags": {
    "cycleway:right": "lane",
    "cycleway:start_date": "2017",
    "highway": "residential",
    "maxspeed": "30",
    "name": "Rue de la Croix Verte",
    "source": "cadastre-dgi-fr source : Direction Générale des Impôts - Cadastre;mise à jour : 2009"
  }
},
{
  "type": "way",
  "id": 25893511,
  "nodes": [
    282451520,
    2104787655,
    6789296293,
    282451521,
    282452516,
    2104753912,
    282451522,
    4504795525,
    5263791465,
    282451523,
    282451524,
    5263791484,
    282452588,
    282452590,
    5263791444,
    2799500002,
    282452591,
    2799500008,
    3417520078,
    282452592,
    2122741450,
    3417520057,
    282452593,
    3986451408,
    2122741455,
    6789296294,
    6789296295,
    2799500055,
    280291139
  ],
  "tags": {
    "access": "yes",
    "bicycle": "yes",
    "cyclability": "good",
    "cycleway:right": "lane",
    "doubleway": "yes",
    "foot": "yes",
    "highway": "residential",
    "maxspeed": "30",
    "name": "Rue de la Galéra",
    "oneway": "no",
    "surface": "asphalt"
  }
},
{
  "type": "way",
  "id": 26164092,
  "nodes": [
    280734814,
    280734815,
    280735046
  ],
  "tags": {
    "cycleway:right": "lane",
    "highway": "residential",
    "maxspeed": "30",
    "name": "Rue de Pinville",
    "oneway": "yes"
  }
},
{
  "type": "way",
  "id": 26392823,
  "nodes": [
    612281166,
    581200500,
    289135168,
    4063167908
  ],
  "tags": {
    "cycleway:right": "lane",
    "highway": "residential",
    "lit": "yes",
    "maxspeed": "30",
    "name": "Rue des Chasseurs",
    "sidewalk": "both",
    "surface": "asphalt"
  }
},
{
  "type": "way",
  "id": 26393398,
  "nodes": [
    289142679,
    289142714,
    2424041083,
    289142712,
    1856130697,
    3788301559,
    2424041081,
    289142711,
    2424041079,
    289142715,
    2424041076,
    2424041078,
    289142716,
    2424041080,
    289142710,
    3788301156,
    289142679
  ],
  "tags": {
    "cycleway:right": "lane",
    "highway": "residential",
    "junction": "roundabout",
    "maxspeed": "30",
    "name": "Place Cardinal Verdier",
    "surface": "asphalt"
  }
},
{
  "type": "way",
  "id": 26393404,
  "nodes": [
    2424041081,
    3788301150,
    3788301149,
    289142705
  ],
  "tags": {
    "cycleway:right": "lane",
    "highway": "residential",
    "maxspeed": "30",
    "name": "Avenue de Villeneuve-Angoulème",
    "oneway": "yes",
    "surface": "asphalt"
  }
},
{
  "type": "way",
  "id": 31427369,
  "nodes": [
    287739131,
    716035998,
    4023259875,
    6192473808,
    3426792599
  ],
  "tags": {
    "cycleway:right": "lane",
    "highway": "tertiary",
    "maxspeed": "30",
    "name": "Rue du Pas du Loup",
    "surface": "asphalt"
  }
},
{
  "type": "way",
  "id": 31429706,
  "nodes": [
    350256055,
    3629357499,
    3629362994,
    350256053,
    1460329975,
    350256047,
    3629357500,
    3629357501,
    350256043,
    350256040,
    523752376
  ],
  "tags": {
    "busway": "opposite_lane",
    "cycleway:right": "lane",
    "highway": "tertiary",
    "maxspeed": "30",
    "name": "Avenue de Maurin",
    "oneway": "yes",
    "surface": "asphalt"
  }
},
{
  "type": "way",
  "id": 31438136,
  "nodes": [
    289142705,
    3788301148,
    1560685541,
    2424041076
  ],
  "tags": {
    "cycleway:right": "lane",
    "highway": "residential",
    "maxspeed": "30",
    "name": "Avenue de Villeneuve-Angoulème",
    "oneway": "yes",
    "surface": "asphalt"
  }
},
{
  "type": "way",
  "id": 31438862,
  "nodes": [
    283317437,
    1357871408,
    1547396393,
    1547389478,
    1357871413,
    283317439,
    1357871431,
    7466108065,
    2126507984,
    3860535616
  ],
  "tags": {
    "admin_level": "10",
    "boundary": "administrative",
    "cycleway:right": "lane",
    "highway": "secondary",
    "maxspeed": "30",
    "name": "Boulevard Vieussens",
    "parking:lane:left": "parallel",
    "surface": "asphalt"
  }
},
{
  "type": "way",
  "id": 36994349,
  "nodes": [
    245459863,
    245459862,
    1728535849
  ],
  "tags": {
    "cycleway:right": "lane",
    "highway": "secondary",
    "junction": "roundabout",
    "maxspeed": "30",
    "name": "Carrefour Professeur Armand Imbert",
    "surface": "asphalt"
  }
},
{
  "type": "way",
  "id": 37214991,
  "nodes": [
    278241218,
    278240968,
    60939751,
    348407493,
    5557073533,
    6527932170,
    2129896102,
    247279474
  ],
  "tags": {
    "admin_level": "10",
    "boundary": "administrative",
    "cycleway:right": "lane",
    "highway": "secondary",
    "lanes": "2",
    "maxspeed": "30",
    "name": "Boulevard Rabelais",
    "oneway": "yes",
    "parking:lane:both": "parallel",
    "surface": "asphalt"
  }
},
{
  "type": "way",
  "id": 38102519,
  "nodes": [
    8795759060,
    280738799,
    280738579,
    970736097,
    8795759054,
    280738578,
    3658932732,
    3658911236,
    8795759055,
    970736197,
    8795759056,
    280734456,
    280738592,
    8795759057,
    970736251,
    8795759058,
    280738800,
    970736119,
    8795759059,
    280738582,
    970736175,
    280738581,
    970736213,
    8795759060
  ],
  "tags": {
    "cycleway:right": "lane",
    "highway": "residential",
    "junction": "roundabout",
    "maxspeed": "30",
    "name": "Rond-Point Charlotte Cooper"
  }
},
{
  "type": "way",
  "id": 39186079,
  "nodes": [
    469395739,
    469395740,
    469395741
  ],
  "tags": {
    "cyclability": "inadvisable",
    "cycleway:right": "lane",
    "cycleway:right:lane": "advisory",
    "highway": "primary",
    "lanes": "1",
    "maxspeed": "50",
    "name": "Route de Ganges",
    "oneway": "yes",
    "source:maxspeed": "sign"
  }
},
{
  "type": "way",
  "id": 41968176,
  "nodes": [
    247279086,
    5116893234,
    1597113905,
    247279070,
    247279069,
    309947992,
    534710832
  ],
  "tags": {
    "cycleway:right": "lane",
    "highway": "secondary",
    "maxspeed": "30",
    "name": "Boulevard Benjamin Milhaud",
    "parking:lane:right": "parallel",
    "source:maxspeed": "sign",
    "surface": "asphalt"
  }
},
{
  "type": "way",
  "id": 89969507,
  "nodes": [
    99974302,
    3780929427,
    3780929428,
    2004133931,
    1073084838,
    1640422414,
    2004133938,
    1073084803,
    6750046008
  ],
  "tags": {
    "cycleway:right": "lane",
    "highway": "secondary",
    "lanes": "1",
    "maxspeed": "30",
    "name": "Route de Mende",
    "oneway": "yes",
    "source": "cadastre-dgi-fr source : Direction Générale des Impôts - Cadastre. Mise à jour : 2010",
    "surface": "asphalt"
  }
},
{
  "type": "way",
  "id": 92420764,
  "nodes": [
    298979765,
    298979823
  ],
  "tags": {
    "alt_name": "Avenue de l'École d'Agriculture-Gabriel Buchet",
    "cycleway:right": "lane",
    "highway": "secondary",
    "maxspeed": "30",
    "name": "Avenue de l'École d'Agriculture Gabriel Buchet",
    "oneway": "yes"
  }
},
{
  "type": "way",
  "id": 92420772,
  "nodes": [
    1072903426,
    3416277493,
    5361260108,
    1072903418,
    5361260109,
    5361260110,
    5361260111,
    309948117
  ],
  "tags": {
    "alt_name": "Avenue de l'École d'Agriculture Gabriel Buchet",
    "cycleway:right": "lane",
    "highway": "secondary",
    "maxspeed": "30",
    "name": "Place Marcel Galot",
    "oneway": "yes",
    "surface": "asphalt"
  }
},
{
  "type": "way",
  "id": 92420773,
  "nodes": [
    1072903424,
    6779363689,
    1072903420,
    1072903426
  ],
  "tags": {
    "alt_name": "Avenue de l'École d'Agriculture-Gabriel Buchet",
    "cycleway:right": "lane",
    "highway": "secondary",
    "maxspeed": "30",
    "maxspeed:type": "FR:urban",
    "name": "Avenue de l'École d'Agriculture Gabriel Buchet",
    "oneway": "yes",
    "surface": "asphalt"
  }
},
{
  "type": "way",
  "id": 92433590,
  "nodes": [
    245461588,
    3672498377,
    2004133956,
    6750046024
  ],
  "tags": {
    "cycleway:right": "lane",
    "highway": "secondary",
    "maxspeed": "30",
    "name": "Route de Mende",
    "oneway": "yes",
    "surface": "asphalt"
  }
},
{
  "type": "way",
  "id": 92433604,
  "nodes": [
    245460082,
    2004133954,
    3672498378,
    245461588
  ],
  "tags": {
    "cycleway:right": "lane",
    "destination": "PLAN des 4 SEIGNEURS;C.N.R.S.",
    "highway": "secondary",
    "maxspeed": "30",
    "name": "Route de Mende",
    "oneway": "yes",
    "surface": "asphalt"
  }
},
{
  "type": "way",
  "id": 95498676,
  "nodes": [
    286656301,
    3417540793,
    282455358,
    282449254,
    1107412274,
    282449255,
    1107412273,
    282449256,
    2104729325,
    1107412266,
    282449257,
    1107412271,
    282449249,
    1107412272,
    2400450539,
    282449250,
    1107412267,
    282449251,
    282449252,
    282449253,
    286656302,
    286656301
  ],
  "tags": {
    "cycleway:right": "lane",
    "highway": "secondary",
    "junction": "roundabout",
    "maxspeed": "30",
    "name": "Avenue des Apothicaires"
  }
},
{
  "type": "way",
  "id": 95635978,
  "nodes": [
    523752376,
    3629357503,
    1460330108,
    350256039,
    1460329999,
    6270245271,
    350256032,
    350256028
  ],
  "tags": {
    "access": "destination",
    "cycleway:right": "lane",
    "highway": "tertiary",
    "maxspeed": "30",
    "name": "Avenue de Maurin",
    "surface": "asphalt"
  }
},
{
  "type": "way",
  "id": 95635979,
  "nodes": [
    350256028,
    350256021
  ],
  "tags": {
    "cycleway:right": "lane",
    "highway": "tertiary",
    "maxspeed": "30",
    "name": "Avenue de Maurin",
    "oneway": "yes",
    "surface": "asphalt"
  }
},
{
  "type": "way",
  "id": 105575464,
  "nodes": [
    76469983,
    6256333662,
    20932981,
    3156352736
  ],
  "tags": {
    "admin_level": "10",
    "alt_name": "Avenue François Delmas",
    "boundary": "administrative",
    "cycleway:right": "lane",
    "highway": "secondary",
    "lanes": "4",
    "name": "Avenue François Delmas",
    "old_name": "Avenue de Nîmes",
    "political_division": "canton",
    "source": "Ville de Montpellier - 06/2012"
  }
},
{
  "type": "way",
  "id": 120820769,
  "nodes": [
    1608606283,
    2279471912,
    282726564,
    560158504,
    560989763,
    2279471925
  ],
  "tags": {
    "cycleway:right": "lane",
    "highway": "secondary",
    "lanes": "2",
    "maxspeed": "30",
    "name": "Avenue des États du Languedoc",
    "oneway": "yes",
    "parking:lane:right": "parallel",
    "surface": "paved"
  }
},
{
  "type": "way",
  "id": 120829486,
  "nodes": [
    2994872551,
    279921801,
    944511202,
    944511207,
    279919396,
    4122974067,
    1111379588,
    943983725
  ],
  "tags": {
    "cycleway:right": "lane",
    "cycleway:right:lane": "advisory",
    "highway": "tertiary",
    "lane_markings": "no",
    "lit": "yes",
    "maxspeed": "30",
    "name": "Chemin de Moularès",
    "oneway": "yes",
    "source": "cadastre-dgi-fr source : Direction Générale des Impôts - Cadastre. Mise à jour : 2010",
    "surface": "asphalt"
  }
},
{
  "type": "way",
  "id": 121252836,
  "nodes": [
    1357894418,
    247081160,
    6566153247,
    247081183,
    3966283972,
    247081488,
    3966283968,
    246534628,
    978690469,
    3966283965,
    246534629,
    3966283963,
    5414611516,
    247081727
  ],
  "tags": {
    "bicycle": "designated",
    "cycleway:right": "lane",
    "highway": "residential",
    "lit": "yes",
    "maxspeed": "30",
    "maxspeed:type": "FR:urban",
    "name": "Rue de la Pépinière",
    "oneway": "yes",
    "surface": "asphalt"
  }
},
{
  "type": "way",
  "id": 135001718,
  "nodes": [
    289282154,
    6268095845,
    536435067,
    247280859
  ],
  "tags": {
    "admin_level": "10",
    "boundary": "administrative",
    "cyclability": "acceptable",
    "cycleway:right": "lane",
    "highway": "secondary",
    "maxspeed": "30",
    "name": "Avenue du Père Soulas"
  }
},
{
  "type": "way",
  "id": 137152941,
  "nodes": [
    247279067,
    6498632191,
    247279066,
    247276876,
    2807638495
  ],
  "tags": {
    "admin_level": "10",
    "boundary": "administrative",
    "cycleway:right": "lane",
    "highway": "secondary",
    "maxspeed": "30",
    "name": "Boulevard Benjamin Milhaud",
    "source:maxspeed": "sign",
    "surface": "asphalt"
  }
},
{
  "type": "way",
  "id": 146370215,
  "nodes": [
    20932984,
    6255494310,
    147049979,
    147048381,
    2128182566,
    20932982,
    147039877,
    3156352735
  ],
  "tags": {
    "admin_level": "11",
    "alt_name": "Avenue François Delmas",
    "boundary": "administrative",
    "cycleway:right": "lane",
    "highway": "secondary",
    "lanes": "3",
    "lanes:forward": "1",
    "name": "Avenue François Delmas",
    "old_name": "Avenue de Nîmes",
    "political_division": "canton",
    "source": "Ville de Montpellier - 06/2012"
  }
},
{
  "type": "way",
  "id": 146499063,
  "nodes": [
    3071651127,
    3575554202,
    6579731423,
    6776005315,
    3575554201,
    1560685574,
    3575554199
  ],
  "tags": {
    "busway:left": "lane",
    "cycleway:left": "share_busway",
    "cycleway:right": "lane",
    "highway": "secondary",
    "lanes": "2",
    "lit": "yes",
    "maxspeed": "30",
    "name": "Avenue de Toulouse",
    "surface": "asphalt"
  }
},
{
  "type": "way",
  "id": 146500995,
  "nodes": [
    280735046,
    280734818,
    280735047
  ],
  "tags": {
    "bicycle": "yes",
    "cycleway:right": "lane",
    "highway": "residential",
    "maxspeed": "30",
    "name": "Rue de Pinville",
    "oneway": "yes"
  }
},
{
  "type": "way",
  "id": 146821863,
  "nodes": [
    245459860,
    1728535847,
    245459865
  ],
  "tags": {
    "cycleway:right": "lane",
    "highway": "secondary",
    "junction": "roundabout",
    "maxspeed": "30",
    "name": "Carrefour Professeur Armand Imbert",
    "surface": "asphalt"
  }
},
{
  "type": "way",
  "id": 146821865,
  "nodes": [
    245459865,
    1728535846,
    245459864,
    3672498373,
    1728535845,
    245459863
  ],
  "tags": {
    "cycleway:right": "lane",
    "highway": "secondary",
    "junction": "roundabout",
    "lane_markings": "no",
    "maxspeed": "30",
    "name": "Carrefour Professeur Armand Imbert",
    "surface": "asphalt"
  }
},
{
  "type": "way",
  "id": 146821869,
  "nodes": [
    1728535849,
    3672498374,
    245459861,
    3672498376,
    245460082
  ],
  "tags": {
    "cycleway:right": "lane",
    "highway": "secondary",
    "junction": "roundabout",
    "maxspeed": "30",
    "name": "Carrefour Professeur Armand Imbert",
    "surface": "asphalt"
  }
},
{
  "type": "way",
  "id": 146821870,
  "nodes": [
    245460082,
    245460091,
    3672498375,
    1728535850,
    245459860
  ],
  "tags": {
    "cycleway:right": "lane",
    "highway": "secondary",
    "junction": "roundabout",
    "maxspeed": "30",
    "name": "Carrefour Professeur Armand Imbert",
    "surface": "asphalt"
  }
},
{
  "type": "way",
  "id": 146822071,
  "nodes": [
    99974758,
    1728535842,
    5254121977,
    5254121978,
    99974302,
    3780929426,
    1042865918,
    3780929429,
    99974850,
    3780929430,
    1728535844,
    287615956,
    3780929425,
    1728535843,
    3780929424,
    99970056,
    1728535841,
    5254121979,
    1042865916,
    3780929422,
    1728535840,
    3780929423,
    99974758
  ],
  "tags": {
    "cycleway:right": "lane",
    "highway": "secondary",
    "junction": "roundabout",
    "lanes": "1",
    "maxspeed": "30",
    "name": "Place Bob Marley",
    "source": "cadastre-dgi-fr source : Direction Générale des Impôts - Cadastre. Mise à jour : 2010",
    "surface": "asphalt"
  }
},
{
  "type": "way",
  "id": 154994597,
  "nodes": [
    317541900,
    3416196601,
    392247083,
    3416194901,
    575795748,
    575795747,
    392244797,
    3416196499,
    3416196593,
    3416196394,
    317541907,
    9346082730,
    1105585385
  ],
  "tags": {
    "cycleway:right": "lane",
    "highway": "tertiary",
    "maxspeed": "30",
    "name": "Rue du Pont de Lavérune"
  }
},
{
  "type": "way",
  "id": 155686418,
  "nodes": [
    73118890,
    1680636986,
    1680636977,
    1680636964,
    1680636932,
    2617147919,
    2617147915,
    1680636910,
    1680636868,
    2617147907,
    280940873
  ],
  "tags": {
    "cycleway:right": "lane",
    "description:covid19": "piste cyclable temporaire",
    "highway": "secondary",
    "lanes": "1",
    "maxspeed": "30",
    "name": "Avenue de l'Europe",
    "oneway": "yes"
  }
},
{
  "type": "way",
  "id": 155686423,
  "nodes": [
    280940873,
    2617147908,
    1680636880,
    1680636914,
    2617147917,
    6314182457,
    1680636923,
    280940205,
    1680636980,
    1680636989,
    1680637012,
    73118876
  ],
  "tags": {
    "cycleway:right": "lane",
    "description:covid19": "piste cyclable temporaire",
    "highway": "secondary",
    "lanes": "1",
    "maxspeed": "30",
    "name": "Avenue de l'Europe",
    "oneway": "yes"
  }
},
{
  "type": "way",
  "id": 157053564,
  "nodes": [
    1692917904,
    1692917911,
    2041635883,
    8728526141,
    1692917938,
    1692917956
  ],
  "tags": {
    "cycleway:right": "lane",
    "highway": "residential",
    "maxspeed": "30",
    "name": "Avenue Abbé Paul Parguel",
    "source": "Bing",
    "surface": "asphalt"
  }
},
{
  "type": "way",
  "id": 168188755,
  "nodes": [
    6727634713,
    60939795,
    653597,
    948086219,
    294598629,
    294598632,
    1605478328,
    1605478327,
    1605478324,
    946858914,
    1605478310,
    653600,
    294598636,
    132817806,
    653601
  ],
  "tags": {
    "cycleway:right": "lane",
    "highway": "primary",
    "junction": "roundabout",
    "lanes": "2",
    "maxspeed": "30",
    "name": "Place Christophe Colomb",
    "source": "cadastre-dgi-fr source : Direction Générale des Impôts - Cadastre. Mise à jour : 2012",
    "start_date:cycleway:right": "2018-08",
    "surface": "asphalt"
  }
},
{
  "type": "way",
  "id": 182777604,
  "nodes": [
    1931294254,
    1931294245,
    1931294241,
    1931294236,
    247386209
  ],
  "tags": {
    "cycleway:right": "lane",
    "highway": "residential",
    "maxspeed": "30",
    "name": "Rue Hippolyte Rech",
    "oneway": "yes"
  }
},
{
  "type": "way",
  "id": 182777605,
  "nodes": [
    247386216,
    1931294222,
    1931294232,
    1931294248,
    1931294254
  ],
  "tags": {
    "cycleway:right": "lane",
    "highway": "residential",
    "maxspeed": "30",
    "name": "Rue Hippolyte Rech",
    "oneway": "yes"
  }
},
{
  "type": "way",
  "id": 194340955,
  "nodes": [
    276891314,
    5281772476,
    276891316,
    5281772475,
    276891318,
    276891319,
    5281772474,
    276891320,
    276891304
  ],
  "tags": {
    "cycleway:right": "lane",
    "highway": "tertiary",
    "junction": "roundabout",
    "maxspeed": "30",
    "name": "Rond-Point La Pérouse"
  }
},
{
  "type": "way",
  "id": 194343364,
  "nodes": [
    247386207,
    247386216,
    5357172414,
    247386208,
    247386209,
    5357172413,
    1931294231,
    247386210,
    1931294218,
    3577576843,
    247386331,
    1931294200,
    3011019995,
    1931294186,
    1931294180,
    247386213,
    1931294175
  ],
  "tags": {
    "cycleway:right": "lane",
    "highway": "secondary",
    "junction": "roundabout",
    "loc_name": "Rond-Point Jules Ventre",
    "maxspeed": "30",
    "name": "Rond-Point Jules Ventre"
  }
},
{
  "type": "way",
  "id": 227636526,
  "nodes": [
    2362899722,
    248091306,
    248090734,
    5575795557,
    248087740
  ],
  "tags": {
    "cycleway:right": "lane",
    "highway": "residential",
    "maxspeed": "30",
    "name": "Rue Hippolyte Rech"
  }
},
{
  "type": "way",
  "id": 250081972,
  "nodes": [
    2515753658,
    2959278520,
    2515753660,
    2959278519,
    2959280735,
    2959280761,
    5268017812,
    2959280737,
    7271676648,
    2541590267,
    7271676647,
    6333485666,
    333571671,
    6333485665,
    3770850291,
    3770850292,
    1597541058,
    7271676646,
    1316275036,
    1316275017,
    1597541067,
    1316275059,
    323156569,
    3770850313,
    7271676645,
    1316275071,
    3770856390,
    323156570,
    323156568
  ],
  "tags": {
    "cycleway:right": "lane",
    "highway": "tertiary",
    "maxspeed": "30",
    "name": "Avenue Nina Simone",
    "start_date:cycleway:left": "2018",
    "surface": "asphalt"
  }
},
{
  "type": "way",
  "id": 256041738,
  "nodes": [
    5006529791,
    5006529795,
    5006529804,
    5006529802,
    5006529792
  ],
  "tags": {
    "cycleway:right": "lane",
    "description:covid19": "piste cyclable temporaire",
    "highway": "secondary",
    "lanes": "2",
    "name": "Avenue de l'Europe",
    "oneway": "yes"
  }
},
{
  "type": "way",
  "id": 276145664,
  "nodes": [
    1597113954,
    1597113934,
    5116893233,
    247279086
  ],
  "tags": {
    "cycleway:right": "lane",
    "highway": "secondary",
    "maxspeed": "30",
    "name": "Boulevard Benjamin Milhaud",
    "oneway": "yes",
    "source:maxspeed": "sign",
    "surface": "asphalt"
  }
},
{
  "type": "way",
  "id": 281125780,
  "nodes": [
    276891313,
    5281772467,
    5281772482,
    5281772483,
    276891301
  ],
  "tags": {
    "cycleway:right": "lane",
    "highway": "tertiary",
    "junction": "roundabout",
    "maxspeed": "30",
    "name": "Rond-Point La Pérouse"
  }
},
{
  "type": "way",
  "id": 281125783,
  "nodes": [
    276891301,
    5281772472,
    1999659051,
    5281772473,
    276891314
  ],
  "tags": {
    "cycleway:right": "lane",
    "highway": "tertiary",
    "junction": "roundabout",
    "maxspeed": "30",
    "name": "Rond-Point La Pérouse"
  }
},
{
  "type": "way",
  "id": 281125786,
  "nodes": [
    276891306,
    5281772477,
    276891307,
    5281772478,
    276891308,
    5281772479,
    276891309,
    5281772480,
    276891311,
    5281772481,
    276891312,
    276891313
  ],
  "tags": {
    "cycleway:right": "lane",
    "highway": "tertiary",
    "junction": "roundabout",
    "maxspeed": "30",
    "name": "Rond-Point La Pérouse"
  }
},
{
  "type": "way",
  "id": 281125790,
  "nodes": [
    290914541,
    276884874,
    276884876,
    3780633133,
    276884878,
    276884880,
    276884882,
    276884884,
    3780633141,
    276884885,
    276884887,
    280437769,
    3780633557,
    3780633564,
    276884892,
    276884894,
    3780633536,
    276884896,
    3780633576,
    276888268,
    60025127,
    2577355058,
    3780633563,
    1352406178,
    276884856,
    276884857,
    276884859,
    276884861,
    276884862,
    2104915173,
    2104915171,
    2104915169,
    276884866,
    276884867,
    276884869,
    276884871,
    276884873,
    2577354999,
    3123093679,
    290914541
  ],
  "tags": {
    "cycleway:right": "lane",
    "highway": "secondary",
    "junction": "roundabout",
    "lanes": "2",
    "maxspeed": "30",
    "name": "Rond-Point de l'Appel du 18 Juin 1940",
    "ref:MMM": "M 127"
  }
},
{
  "type": "way",
  "id": 284243054,
  "nodes": [
    283308306,
    283308307,
    3800523661,
    283317437
  ],
  "tags": {
    "admin_level": "10",
    "cycleway:right": "lane",
    "highway": "secondary",
    "maxspeed": "30",
    "name": "Boulevard Berthelot",
    "oneway": "no",
    "parking:lane:both": "parallel",
    "source:maxspeed": "FR:urban",
    "surface": "asphalt"
  }
},
{
  "type": "way",
  "id": 295726077,
  "nodes": [
    278298539,
    5545926723,
    305440053,
    3143675530,
    3147213458,
    283310418,
    3145364416,
    3145357044,
    8725247434,
    274488975,
    3145357046,
    283310419,
    247279091
  ],
  "tags": {
    "admin_level": "11",
    "boundary": "administrative",
    "cycleway:right": "lane",
    "highway": "secondary",
    "lanes": "2",
    "maxspeed": "30",
    "name": "Boulevard Renouvier",
    "parking:lane:both": "parallel",
    "surface": "asphalt"
  }
},
{
  "type": "way",
  "id": 295726557,
  "nodes": [
    305431356,
    3071651105,
    3071651106,
    247279113,
    3071651094,
    278293314,
    3941980983
  ],
  "tags": {
    "admin_level": "10",
    "boundary": "administrative",
    "cycleway:left": "no",
    "cycleway:right": "lane",
    "cycleway:right:lane": "exclusive",
    "highway": "secondary",
    "maxspeed": "30",
    "name": "Boulevard Berthelot",
    "oneway": "no",
    "parking:lane:both": "parallel",
    "source": "Bing",
    "surface": "asphalt"
  }
},
{
  "type": "way",
  "id": 295728925,
  "nodes": [
    2994762692,
    6402104311,
    6788141827,
    6788141828,
    278242909,
    283301014,
    6399616932,
    283301015,
    278242910,
    6399616935,
    6788141825,
    283301017
  ],
  "tags": {
    "cycleway:left": "no",
    "cycleway:right": "lane",
    "cycleway:right:lane": "advisory",
    "highway": "residential",
    "maxspeed": "30",
    "name": "Rue Frédéric Fabrèges",
    "surface": "asphalt"
  }
},
{
  "type": "way",
  "id": 295737809,
  "nodes": [
    1601172848,
    1353858899,
    9373060727,
    256106422
  ],
  "tags": {
    "cycleway:left": "no",
    "cycleway:right": "lane",
    "cycleway:right:lane": "exclusive",
    "highway": "residential",
    "lit": "yes",
    "maxspeed": "30",
    "name": "Rue de Barcelone",
    "oneway": "yes",
    "surface": "asphalt"
  }
},
{
  "type": "way",
  "id": 299644774,
  "nodes": [
    6192473810,
    1557333963,
    3566426196,
    60011549,
    1557333936,
    3422200459,
    3422200460,
    60011550
  ],
  "tags": {
    "cycleway:right": "lane",
    "highway": "tertiary",
    "maxspeed": "30",
    "name": "Rue du Pas du Loup"
  }
},
{
  "type": "way",
  "id": 299746453,
  "nodes": [
    1105585395,
    3678727901,
    3678727902,
    3678727906,
    317541910,
    3416196297,
    3416193904,
    9346082729,
    1105585385
  ],
  "tags": {
    "cycleway:right": "lane",
    "highway": "tertiary",
    "maxspeed": "30",
    "name": "Rue du Pont de Lavérune",
    "surface": "asphalt"
  }
},
{
  "type": "way",
  "id": 299746454,
  "nodes": [
    3037845736,
    317541897,
    1102013040
  ],
  "tags": {
    "cycleway:right": "lane",
    "highway": "tertiary",
    "lanes": "3",
    "lanes:forward": "2",
    "maxspeed": "30",
    "name": "Rue du Pont de Lavérune"
  }
},
{
  "type": "way",
  "id": 299746455,
  "nodes": [
    3037845737,
    390829312,
    3037845738
  ],
  "tags": {
    "cycleway:right": "lane",
    "highway": "tertiary",
    "maxspeed": "30",
    "name": "Rue des Bouisses",
    "surface": "asphalt"
  }
},
{
  "type": "way",
  "id": 303018509,
  "nodes": [
    3702112965,
    9111012837,
    3417321498,
    3073119644,
    9110966240,
    616900330
  ],
  "tags": {
    "cycleway:right": "lane",
    "highway": "residential",
    "lit": "yes",
    "maxspeed": "30",
    "name": "Rue des Chasseurs",
    "oneway": "yes",
    "surface": "asphalt"
  }
},
{
  "type": "way",
  "id": 303018513,
  "nodes": [
    521482245,
    289137451
  ],
  "tags": {
    "cycleway:right": "lane",
    "highway": "residential",
    "lit": "yes",
    "maxspeed": "30",
    "name": "Rue des Chasseurs",
    "oneway": "yes",
    "surface": "asphalt"
  }
},
{
  "type": "way",
  "id": 310240832,
  "nodes": [
    3156352735,
    76469988,
    6256333663,
    6256333665,
    76469983
  ],
  "tags": {
    "admin_level": "11",
    "alt_name": "Avenue François Delmas",
    "boundary": "administrative",
    "cycleway:right": "lane",
    "highway": "secondary",
    "lanes": "4",
    "name": "Avenue François Delmas",
    "old_name": "Avenue de Nîmes",
    "political_division": "canton",
    "source": "Ville de Montpellier - 06/2012"
  }
},
{
  "type": "way",
  "id": 310240837,
  "nodes": [
    3156352736,
    911055760,
    7507240442,
    911055599
  ],
  "tags": {
    "admin_level": "10",
    "boundary": "administrative",
    "cycleway:right": "lane",
    "highway": "secondary",
    "lanes": "4",
    "name": "Avenue François Delmas",
    "note": "2x2 voies sans véritable marquage au sol",
    "old_name": "Avenue de Nîmes",
    "political_division": "canton",
    "source": "Ville de Montpellier - 06/2012"
  }
},
{
  "type": "way",
  "id": 330550657,
  "nodes": [
    298979323,
    6779363690,
    298979324
  ],
  "tags": {
    "alt_name": "Avenue de l'École d'Agriculture-Gabriel Buchet",
    "cycleway:right": "lane",
    "highway": "secondary",
    "maxspeed": "30",
    "name": "Avenue de l'École d'Agriculture Gabriel Buchet",
    "oneway": "yes",
    "surface": "asphalt"
  }
},
{
  "type": "way",
  "id": 330550664,
  "nodes": [
    5398045329,
    247279067
  ],
  "tags": {
    "cycleway:right": "lane",
    "highway": "secondary",
    "maxspeed": "30",
    "name": "Boulevard Benjamin Milhaud",
    "source:maxspeed": "sign",
    "surface": "asphalt"
  }
},
{
  "type": "way",
  "id": 330598692,
  "nodes": [
    281252811,
    1627079572,
    323248041,
    3944529372,
    323248028
  ],
  "tags": {
    "admin_level": "10",
    "boundary": "administrative",
    "cycleway:right": "lane",
    "cycleway:right:lane": "advisory",
    "highway": "secondary",
    "lanes": "2",
    "maxspeed": "30",
    "name": "Boulevard d'Orient",
    "oneway": "yes",
    "source": "cadastre-dgi-fr source : Direction Générale des Impôts - Cadastre. Mise à jour : 2011",
    "surface": "asphalt"
  }
},
{
  "type": "way",
  "id": 330997203,
  "nodes": [
    3380456666,
    3380456681,
    3380456678,
    3380456667,
    6059013282,
    3380456668,
    3380456669,
    3380456670,
    3380456671
  ],
  "tags": {
    "cycleway:right": "lane",
    "highway": "secondary",
    "lanes": "2",
    "maxspeed": "30",
    "name": "Avenue de Lodève",
    "oneway": "yes",
    "surface": "asphalt"
  }
},
{
  "type": "way",
  "id": 353870112,
  "nodes": [
    247279091,
    5064352137,
    247279118
  ],
  "tags": {
    "admin_level": "11",
    "boundary": "administrative",
    "cycleway:right": "lane",
    "highway": "secondary",
    "lanes": "2",
    "lit": "yes",
    "maxspeed": "30",
    "name": "Boulevard Renouvier",
    "oneway": "yes",
    "parking:lane:right": "parallel",
    "sidewalk": "both",
    "surface": "asphalt"
  }
},
{
  "type": "way",
  "id": 362994826,
  "nodes": [
    6902998924,
    280736126
  ],
  "tags": {
    "cycleway": "lane",
    "cycleway:right": "lane",
    "highway": "residential",
    "junction": "roundabout",
    "maxspeed": "30",
    "surface": "asphalt"
  }
},
{
  "type": "way",
  "id": 363042641,
  "nodes": [
    5254368898,
    2163769898,
    454101185,
    290660552,
    2163769894,
    290660553,
    2163769896,
    290660554,
    2163769899,
    290660555,
    246697299,
    2163769900,
    2163769901,
    290660551,
    2163769904,
    2163769905,
    2163769907,
    290660549,
    2163769911,
    245558663,
    290660560,
    245558662,
    290660556,
    3743197175,
    290660557,
    3743197173,
    290660558,
    290660559,
    5254368897,
    290660547,
    5254368898
  ],
  "tags": {
    "cycleway:right": "lane",
    "highway": "secondary",
    "junction": "roundabout",
    "maxspeed": "30",
    "name": "Rond-Point Professeur Louis Malassis"
  }
},
{
  "type": "way",
  "id": 363346347,
  "nodes": [
    1102013040,
    575795777
  ],
  "tags": {
    "cycleway:right": "lane",
    "highway": "tertiary",
    "lanes": "3",
    "lanes:forward": "2",
    "maxspeed": "30",
    "name": "Rue du Pont de Lavérune"
  }
},
{
  "type": "way",
  "id": 363346348,
  "nodes": [
    575795777,
    6579731392,
    3416197202,
    6579731391,
    575795773
  ],
  "tags": {
    "cycleway:right": "lane",
    "highway": "tertiary",
    "lanes": "3",
    "lanes:forward": "2",
    "maxspeed": "30",
    "name": "Rue du Pont de Lavérune"
  }
},
{
  "type": "way",
  "id": 363346349,
  "nodes": [
    575795773,
    3416196414,
    317541900
  ],
  "tags": {
    "cycleway:right": "lane",
    "highway": "tertiary",
    "lanes": "3",
    "lanes:forward": "2",
    "maxspeed": "30",
    "name": "Rue du Pont de Lavérune"
  }
},
{
  "type": "way",
  "id": 363734153,
  "nodes": [
    3037845735,
    390791233,
    390791237,
    3678727900,
    3030629639,
    3030629640,
    1105585395
  ],
  "tags": {
    "cycleway:right": "lane",
    "highway": "tertiary",
    "junction": "roundabout",
    "maxspeed": "30",
    "name": "Rond-Point Alexandre Yersin",
    "surface": "asphalt"
  }
},
{
  "type": "way",
  "id": 377638746,
  "nodes": [
    316624663,
    248036362
  ],
  "tags": {
    "bicycle": "yes",
    "cyclability": "inadvisable",
    "cycleway:right": "lane",
    "cycleway:right:lane": "advisory",
    "highway": "secondary",
    "lane_markings": "no",
    "maxspeed": "30",
    "name": "Avenue Charles Flahault",
    "oneway": "yes",
    "source:maxspeed": "sign",
    "surface": "asphalt"
  }
},
{
  "type": "way",
  "id": 377976471,
  "nodes": [
    3744335459,
    281253006,
    281253002,
    1627079570,
    281252811
  ],
  "tags": {
    "admin_level": "10",
    "boundary": "administrative",
    "cycleway:right": "lane",
    "highway": "secondary",
    "lanes": "3",
    "maxspeed": "30",
    "name": "Boulevard d'Orient",
    "oneway": "yes",
    "parking:lane:both": "parallel",
    "surface": "asphalt"
  }
},
{
  "type": "way",
  "id": 387310293,
  "nodes": [
    38459300,
    3417280793,
    6266895464,
    581703881,
    6266895449,
    6266895228,
    6266895231,
    6776005319,
    523752600,
    38459337
  ],
  "tags": {
    "busway:left": "lane",
    "cycleway:left": "share_busway",
    "cycleway:right": "lane",
    "highway": "secondary",
    "lanes": "2",
    "lit": "yes",
    "maxspeed": "30",
    "name": "Avenue de Toulouse",
    "surface": "asphalt"
  }
},
{
  "type": "way",
  "id": 387310294,
  "nodes": [
    3906155169,
    3644694835,
    3417272595,
    38459299,
    3417280695,
    3417279997,
    3644646131
  ],
  "tags": {
    "busway:left": "lane",
    "cycleway:left": "share_busway",
    "cycleway:right": "lane",
    "highway": "secondary",
    "lanes": "2",
    "lit": "yes",
    "maxspeed": "30",
    "name": "Avenue de Toulouse",
    "surface": "asphalt"
  }
},
{
  "type": "way",
  "id": 387310295,
  "nodes": [
    3644646131,
    38459300
  ],
  "tags": {
    "busway:left": "lane",
    "cycleway:left": "share_busway",
    "cycleway:right": "lane",
    "highway": "secondary",
    "lanes": "2",
    "lit": "yes",
    "maxspeed": "30",
    "name": "Avenue de Toulouse",
    "parking:lane:right": "parallel",
    "surface": "asphalt"
  }
},
{
  "type": "way",
  "id": 387310296,
  "nodes": [
    3906155170,
    581276146,
    6776005317,
    6776005318,
    3906155169
  ],
  "tags": {
    "busway:left": "lane",
    "cycleway:left": "share_busway",
    "cycleway:right": "lane",
    "highway": "secondary",
    "lanes": "2",
    "lit": "yes",
    "maxspeed": "30",
    "name": "Avenue de Toulouse",
    "parking:lane:both": "parallel",
    "surface": "asphalt"
  }
},
{
  "type": "way",
  "id": 387310297,
  "nodes": [
    3417280101,
    5117315411,
    3644646869,
    3906155170
  ],
  "tags": {
    "busway:left": "lane",
    "cycleway:left": "share_busway",
    "cycleway:right": "lane",
    "highway": "secondary",
    "lanes": "2",
    "lit": "yes",
    "maxspeed": "30",
    "name": "Avenue de Toulouse",
    "parking:lane:left": "parallel",
    "surface": "asphalt"
  }
},
{
  "type": "way",
  "id": 387310298,
  "nodes": [
    3071651128,
    6775996366,
    2345419647,
    6776005316,
    5117315410,
    3575554198,
    349036745,
    946355432,
    3417280101
  ],
  "tags": {
    "busway:left": "lane",
    "cycleway:left": "share_busway",
    "cycleway:right": "lane",
    "highway": "secondary",
    "lanes": "2",
    "lit": "yes",
    "maxspeed": "30",
    "name": "Avenue de Toulouse",
    "surface": "asphalt"
  }
},
{
  "type": "way",
  "id": 387310299,
  "nodes": [
    3575554199,
    3071651128
  ],
  "tags": {
    "busway:left": "lane",
    "cycleway:left": "share_busway",
    "cycleway:right": "lane",
    "highway": "secondary",
    "lanes": "2",
    "lit": "yes",
    "maxspeed": "30",
    "name": "Avenue de Toulouse",
    "parking:lane:both": "parallel",
    "surface": "asphalt"
  }
},
{
  "type": "way",
  "id": 391038883,
  "nodes": [
    247279465,
    5559121612,
    247279467,
    3941980978,
    247279468
  ],
  "tags": {
    "admin_level": "10",
    "boundary": "administrative",
    "cycleway:left": "no",
    "cycleway:right": "lane",
    "cycleway:right:lane": "exclusive",
    "highway": "secondary",
    "lanes": "2",
    "maxspeed": "30",
    "name": "Boulevard Berthelot",
    "oneway": "no",
    "source": "Bing",
    "surface": "asphalt"
  }
},
{
  "type": "way",
  "id": 391038885,
  "nodes": [
    3941980983,
    3941980982,
    247279463,
    3071651091,
    247279465
  ],
  "tags": {
    "admin_level": "10",
    "boundary": "administrative",
    "cycleway:right": "lane",
    "highway": "secondary",
    "maxspeed": "30",
    "name": "Boulevard Berthelot",
    "oneway": "no",
    "parking:lane:both": "parallel",
    "source": "Bing",
    "surface": "asphalt"
  }
},
{
  "type": "way",
  "id": 391335822,
  "nodes": [
    2279471925,
    265089999,
    1678816175,
    282726631,
    1678816178,
    2279471929,
    265366544
  ],
  "tags": {
    "cycleway:right": "lane",
    "highway": "secondary",
    "lanes": "2",
    "maxspeed": "30",
    "name": "Avenue des États du Languedoc",
    "oneway": "yes",
    "surface": "paved"
  }
},
{
  "type": "way",
  "id": 391335823,
  "nodes": [
    256104225,
    560989762,
    256036877,
    256104214
  ],
  "tags": {
    "cycleway:right": "lane",
    "highway": "secondary",
    "lanes": "2",
    "maxspeed": "30",
    "name": "Avenue des États du Languedoc",
    "oneway": "yes",
    "surface": "paved"
  }
},
{
  "type": "way",
  "id": 404037090,
  "nodes": [
    4063167908,
    4063167909,
    4063167898,
    289060441,
    4063167899,
    3701010383,
    289059064,
    9110298178,
    3073119647
  ],
  "tags": {
    "cycleway:right": "lane",
    "highway": "residential",
    "maxspeed": "30",
    "name": "Rue des Chasseurs",
    "oneway": "yes"
  }
},
{
  "type": "way",
  "id": 409236320,
  "nodes": [
    287937780,
    2392215496,
    1989560586,
    2123565331,
    1989560595,
    287937781,
    8728554034,
    287937782
  ],
  "tags": {
    "cycleway:right": "lane",
    "highway": "residential",
    "maxspeed": "30",
    "name": "Avenue Abbé Paul Parguel",
    "source": "cadastre-dgi-fr source : Direction Générale des Impôts - Cadastre ; mise à jour : 2009"
  }
},
{
  "type": "way",
  "id": 449390714,
  "nodes": [
    1105585395,
    390791241,
    3030629641,
    3030629642
  ],
  "tags": {
    "cycleway:right": "lane",
    "highway": "tertiary",
    "junction": "roundabout",
    "maxspeed": "30",
    "name": "Rond-Point Alexandre Yersin",
    "surface": "asphalt"
  }
},
{
  "type": "way",
  "id": 449390715,
  "nodes": [
    3030629642,
    5308387913,
    5308387912,
    390791244,
    390791246,
    390791248,
    4834863876,
    390791221,
    390791225,
    3030629643,
    3030629644,
    5308387895,
    5308387894,
    3030629637,
    3030629638,
    3037845735
  ],
  "tags": {
    "cycleway:right": "lane",
    "highway": "tertiary",
    "junction": "roundabout",
    "maxspeed": "30",
    "name": "Rond-Point Alexandre Yersin",
    "surface": "asphalt"
  }
},
{
  "type": "way",
  "id": 479277034,
  "nodes": [
    3860535616,
    5422158841,
    4397067045,
    60939745
  ],
  "tags": {
    "admin_level": "10",
    "boundary": "administrative",
    "cycleway:right": "lane",
    "highway": "secondary",
    "maxspeed": "30",
    "name": "Boulevard Vieussens",
    "surface": "asphalt"
  }
},
{
  "type": "way",
  "id": 511920377,
  "nodes": [
    5006529792,
    5006529803,
    5006529793,
    5006529794,
    5006529791
  ],
  "tags": {
    "cycleway:right": "lane",
    "description:covid19": "piste cyclable temporaire",
    "highway": "secondary",
    "name": "Avenue de l'Europe",
    "oneway": "yes"
  }
},
{
  "type": "way",
  "id": 555740591,
  "nodes": [
    309948117,
    298979765
  ],
  "tags": {
    "alt_name": "Avenue de l'École d'Agriculture-Gabriel Buchet",
    "cycleway:right": "lane",
    "highway": "secondary",
    "maxspeed": "30",
    "name": "Avenue de l'École d'Agriculture Gabriel Buchet",
    "oneway": "yes"
  }
},
{
  "type": "way",
  "id": 559264317,
  "nodes": [
    309948117,
    3416277393,
    3416277394,
    5361260112,
    5361260113,
    298979823
  ],
  "tags": {
    "alt_name": "Avenue de l'École d'Agriculture Gabriel Buchet",
    "cycleway:right": "lane",
    "highway": "secondary",
    "maxspeed": "30",
    "name": "Place Marcel Galot",
    "oneway": "yes"
  }
},
{
  "type": "way",
  "id": 559264318,
  "nodes": [
    298979324,
    6779363688,
    1072903424
  ],
  "tags": {
    "alt_name": "Avenue de l'École d'Agriculture-Gabriel Buchet",
    "cycleway:right": "lane",
    "highway": "secondary",
    "maxspeed": "30",
    "name": "Avenue de l'École d'Agriculture Gabriel Buchet",
    "oneway": "yes",
    "surface": "asphalt"
  }
},
{
  "type": "way",
  "id": 561893540,
  "nodes": [
    280131553,
    3675244817,
    3675244818,
    808371948,
    3675244815,
    5254362594,
    808370015,
    808372009,
    808372000,
    5254362595,
    317628157,
    808371981,
    808370759,
    808371973,
    3675244806,
    3675244808,
    3675244809,
    280131551,
    3675244810,
    3675244812,
    317628173,
    3675244813,
    3675244814,
    280131553
  ],
  "tags": {
    "cycleway:right": "lane",
    "highway": "tertiary",
    "junction": "roundabout",
    "lit": "yes",
    "maxspeed": "30",
    "name": "Place Antonio Machado",
    "source": "http://data.montpellier3m.fr/dataset/offre-de-transport-tam-en-gtfs",
    "surface": "asphalt"
  }
},
{
  "type": "way",
  "id": 578980631,
  "nodes": [
    283311192,
    5545926722,
    5545926721,
    278298539
  ],
  "tags": {
    "admin_level": "11",
    "boundary": "administrative",
    "cycleway:right": "lane",
    "highway": "secondary",
    "lanes": "2",
    "maxspeed": "30",
    "name": "Boulevard Renouvier",
    "parking:lane:both": "parallel",
    "surface": "asphalt"
  }
},
{
  "type": "way",
  "id": 579006098,
  "nodes": [
    348216855,
    3700390225
  ],
  "tags": {
    "cycleway:right": "lane",
    "highway": "residential",
    "maxspeed": "30",
    "name": "Rue des Chasseurs"
  }
},
{
  "type": "way",
  "id": 579006100,
  "nodes": [
    348216854,
    3417322594,
    5546109337
  ],
  "tags": {
    "cycleway:right": "lane",
    "highway": "residential",
    "maxspeed": "30",
    "name": "Rue des Chasseurs",
    "oneway": "yes"
  }
},
{
  "type": "way",
  "id": 661451561,
  "nodes": [
    60011550,
    6192473816
  ],
  "tags": {
    "cycleway:right": "lane",
    "highway": "tertiary",
    "maxspeed": "30",
    "name": "Rue du Pas du Loup"
  }
},
{
  "type": "way",
  "id": 676866167,
  "nodes": [
    6338274485,
    6338274486
  ],
  "tags": {
    "cycleway:right": "lane",
    "cycleway:start_date": "2017",
    "highway": "residential",
    "maxspeed": "30",
    "name": "Rue de la Croix Verte",
    "source": "cadastre-dgi-fr source : Direction Générale des Impôts - Cadastre;mise à jour : 2009",
    "tunnel": "building_passage"
  }
},
{
  "type": "way",
  "id": 676866168,
  "nodes": [
    282449621,
    2400450288,
    2400450321,
    9125707587,
    4223730963,
    6338274488,
    6338274485
  ],
  "tags": {
    "cycleway:right": "lane",
    "cycleway:start_date": "2017",
    "highway": "residential",
    "maxspeed": "30",
    "name": "Rue de la Croix Verte",
    "source": "cadastre-dgi-fr source : Direction Générale des Impôts - Cadastre;mise à jour : 2009"
  }
},
{
  "type": "way",
  "id": 684990396,
  "nodes": [
    5545921207,
    283311192
  ],
  "tags": {
    "admin_level": "11",
    "boundary": "administrative",
    "cycleway:left": "no",
    "cycleway:right": "lane",
    "cycleway:right:lane": "exclusive",
    "highway": "secondary",
    "lanes": "3",
    "lanes:backward": "2",
    "maxspeed": "30",
    "name": "Boulevard Renouvier",
    "parking:lane:left": "parallel",
    "surface": "asphalt"
  }
},
{
  "type": "way",
  "id": 698868685,
  "nodes": [
    247386250,
    6562704217
  ],
  "tags": {
    "cycleway:left": "no",
    "cycleway:right": "lane",
    "cycleway:right:lane": "advisory",
    "highway": "secondary",
    "maxspeed": "30",
    "name": "Carrefour Jules Rimet",
    "surface": "asphalt"
  }
},
{
  "type": "way",
  "id": 698925080,
  "nodes": [
    247386214,
    5357172412,
    247386206,
    1931294193,
    247386207
  ],
  "tags": {
    "cycleway:right": "lane",
    "highway": "secondary",
    "junction": "roundabout",
    "loc_name": "Rond-Point Jules Ventre",
    "maxspeed": "30",
    "name": "Rond-Point Jules Ventre"
  }
},
{
  "type": "way",
  "id": 698925082,
  "nodes": [
    1931294175,
    247386205,
    247386214
  ],
  "tags": {
    "cycleway:right": "lane",
    "highway": "secondary",
    "junction": "roundabout",
    "loc_name": "Rond-Point Jules Ventre",
    "maxspeed": "30",
    "name": "Rond-Point Jules Ventre"
  }
},
{
  "type": "way",
  "id": 703034959,
  "nodes": [
    276891304,
    5281772484,
    5281772485,
    5281772470,
    276891306
  ],
  "tags": {
    "cycleway:right": "lane",
    "highway": "tertiary",
    "junction": "roundabout",
    "maxspeed": "30",
    "name": "Rond-Point La Pérouse"
  }
},
{
  "type": "way",
  "id": 721526147,
  "nodes": [
    946858828,
    6562444229,
    946858858
  ],
  "tags": {
    "cycleway:right": "lane",
    "highway": "primary",
    "junction": "roundabout",
    "lanes": "2",
    "maxspeed": "30",
    "name": "Place Christophe Colomb",
    "source": "cadastre-dgi-fr source : Direction Générale des Impôts - Cadastre. Mise à jour : 2012",
    "start_date:cycleway:right": "2018-08",
    "surface": "asphalt"
  }
},
{
  "type": "way",
  "id": 721526148,
  "nodes": [
    946858858,
    6562444230,
    292876714,
    653604
  ],
  "tags": {
    "cycleway:right": "lane",
    "highway": "primary",
    "junction": "roundabout",
    "lanes": "2",
    "maxspeed": "30",
    "name": "Place Christophe Colomb",
    "source": "cadastre-dgi-fr source : Direction Générale des Impôts - Cadastre. Mise à jour : 2012",
    "start_date:cycleway:right": "2018-08",
    "surface": "asphalt"
  }
},
{
  "type": "way",
  "id": 721526153,
  "nodes": [
    653601,
    653602,
    132819256,
    946858828
  ],
  "tags": {
    "cycleway:right": "lane",
    "highway": "primary",
    "junction": "roundabout",
    "lanes": "2",
    "maxspeed": "30",
    "name": "Place Christophe Colomb",
    "source": "cadastre-dgi-fr source : Direction Générale des Impôts - Cadastre. Mise à jour : 2012",
    "start_date:cycleway:right": "2018-08",
    "surface": "asphalt"
  }
},
{
  "type": "way",
  "id": 721526154,
  "nodes": [
    6727634714,
    60939794,
    6727634713
  ],
  "tags": {
    "cycleway:right": "lane",
    "highway": "primary",
    "junction": "roundabout",
    "lanes": "2",
    "maxspeed": "30",
    "name": "Place Christophe Colomb",
    "source": "cadastre-dgi-fr source : Direction Générale des Impôts - Cadastre. Mise à jour : 2012",
    "start_date:cycleway:right": "2018-08",
    "surface": "asphalt"
  }
},
{
  "type": "way",
  "id": 721526155,
  "nodes": [
    653604,
    946858846,
    653605,
    946858869,
    653606,
    294598634,
    946858889,
    6727634714
  ],
  "tags": {
    "cycleway:right": "lane",
    "highway": "primary",
    "junction": "roundabout",
    "lanes": "2",
    "maxspeed": "30",
    "name": "Place Christophe Colomb",
    "source": "cadastre-dgi-fr source : Direction Générale des Impôts - Cadastre. Mise à jour : 2012",
    "start_date:cycleway:right": "2018-08",
    "surface": "asphalt"
  }
},
{
  "type": "way",
  "id": 722720411,
  "nodes": [
    298979323,
    3416277993,
    3416277893,
    1072903422,
    3416277693,
    3416270894,
    1072903426
  ],
  "tags": {
    "alt_name": "Avenue de l'École d'Agriculture Gabriel Buchet",
    "cycleway:right": "lane",
    "highway": "secondary",
    "maxspeed": "30",
    "name": "Place Marcel Galot",
    "oneway": "yes",
    "surface": "asphalt"
  }
},
{
  "type": "way",
  "id": 722720412,
  "nodes": [
    298979823,
    5361260114,
    5361260115,
    5361260116,
    298979323
  ],
  "tags": {
    "alt_name": "Avenue de l'École d'Agriculture Gabriel Buchet",
    "cycleway:right": "lane",
    "highway": "secondary",
    "maxspeed": "30",
    "name": "Place Marcel Galot",
    "oneway": "yes"
  }
},
{
  "type": "way",
  "id": 723771321,
  "nodes": [
    283301017,
    2994762693
  ],
  "tags": {
    "cycleway:left": "no",
    "cycleway:right": "lane",
    "cycleway:right:lane": "advisory",
    "highway": "residential",
    "maxspeed": "30",
    "name": "Rue Frédéric Fabrèges",
    "surface": "asphalt"
  }
},
{
  "type": "way",
  "id": 779970984,
  "nodes": [
    1111919968,
    3803865770,
    1111919974,
    280983836,
    1111919983,
    6902998923,
    280983867
  ],
  "tags": {
    "cycleway": "lane",
    "cycleway:right": "lane",
    "highway": "residential",
    "junction": "roundabout",
    "maxspeed": "30",
    "surface": "asphalt"
  }
},
{
  "type": "way",
  "id": 779970990,
  "nodes": [
    280983867,
    1111919973,
    6902998924
  ],
  "tags": {
    "cycleway": "lane",
    "cycleway:right": "lane",
    "highway": "residential",
    "junction": "roundabout",
    "maxspeed": "30",
    "surface": "asphalt"
  }
},
{
  "type": "way",
  "id": 779973715,
  "nodes": [
    280736126,
    1111919960,
    280983794,
    1111919984,
    280983795,
    6902998921,
    1111919959,
    1111919976,
    1111919971,
    1111919975,
    280983835,
    1111919962,
    280983797,
    6902998922,
    1111919968
  ],
  "tags": {
    "cycleway": "lane",
    "cycleway:right": "lane",
    "highway": "residential",
    "junction": "roundabout",
    "maxspeed": "30",
    "surface": "asphalt"
  }
},
{
  "type": "way",
  "id": 801660547,
  "nodes": [
    911055599,
    7498251073,
    7498251074,
    7498251075,
    6255493123
  ],
  "tags": {
    "cycleway:right": "lane",
    "highway": "secondary",
    "lanes": "2",
    "maxspeed": "50",
    "name": "Avenue François Delmas",
    "surface": "asphalt"
  }
},
{
  "type": "way",
  "id": 804687557,
  "nodes": [
    534710832,
    7526740903,
    2305042923,
    5398045329
  ],
  "tags": {
    "cycleway:right": "lane",
    "highway": "secondary",
    "maxspeed": "30",
    "name": "Boulevard Benjamin Milhaud",
    "parking:lane:right": "parallel",
    "source:maxspeed": "sign",
    "surface": "asphalt"
  }
},
{
  "type": "way",
  "id": 886733408,
  "nodes": [
    3380465250,
    4319492307,
    4319492306,
    1692917904
  ],
  "tags": {
    "cycleway:right": "lane",
    "highway": "residential",
    "maxspeed": "30",
    "name": "Avenue Abbé Paul Parguel",
    "source": "cadastre-dgi-fr source : Direction Générale des Impôts - Cadastre ; mise à jour : 2009",
    "surface": "asphalt"
  }
},
{
  "type": "way",
  "id": 996270233,
  "nodes": [
    3073119647,
    9110966239,
    3073119646,
    3417321298,
    3702112968
  ],
  "tags": {
    "cycleway:right": "lane",
    "highway": "residential",
    "lit": "yes",
    "maxspeed": "30",
    "name": "Rue des Chasseurs",
    "oneway": "yes",
    "surface": "asphalt"
  }
},
{
  "type": "way",
  "id": 996270234,
  "nodes": [
    616900330,
    3417313096,
    521482242,
    4063167900,
    521482245
  ],
  "tags": {
    "cycleway:right": "lane",
    "highway": "residential",
    "lit": "yes",
    "maxspeed": "30",
    "name": "Rue des Chasseurs",
    "oneway": "yes",
    "sidewalk": "right",
    "surface": "asphalt"
  }
},
{
  "type": "area",
  "id": 3600028722,
  "tags": {
    "admin_level": "8",
    "alt_name:eo": "Monpeljero",
    "boundary": "administrative",
    "capital": "6",
    "name": "Montpellier",
    "name:ar": "مونبيلييه",
    "name:bg": "Монпелие",
    "name:br": "Moñtpelhier",
    "name:ca": "Montpeller",
    "name:el": "Μονπελιέ",
    "name:eo": "Montpeliero",
    "name:fa": "مون‌پلیه",
    "name:fr": "Montpellier",
    "name:frp": "Montpelyiér",
    "name:he": "מונפלייה",
    "name:ja": "モンペリエ",
    "name:ko": "몽펠리에",
    "name:la": "Monspessulanus",
    "name:mk": "Монпелје",
    "name:oc": "Montpelhièr",
    "name:ru": "Монпелье",
    "name:sr": "Монпеље",
    "name:uk": "Монпельє",
    "name:zh": "蒙彼利埃",
    "population": "295542",
    "population:date": "2019",
    "postal_code": "34000;34070;34080;34090",
    "ref:INSEE": "34172",
    "source:name:oc": "ieo-bdtopoc",
    "source:population": "INSEE 2022",
    "type": "boundary",
    "website": "https://www.montpellier.fr/",
    "wikidata": "Q6441",
    "wikipedia": "fr:Montpellier"
  }
},
{
  "type": "node",
  "id": 73105440,
  "lat": 43.6344207,
  "lon": 3.8203025
},
{
  "type": "node",
  "id": 73105444,
  "lat": 43.6344192,
  "lon": 3.8202259
},
{
  "type": "node",
  "id": 73105448,
  "lat": 43.6343844,
  "lon": 3.8201662
},
{
  "type": "node",
  "id": 73105451,
  "lat": 43.6343304,
  "lon": 3.8201482
},
{
  "type": "node",
  "id": 73105455,
  "lat": 43.6343032,
  "lon": 3.8201579
},
{
  "type": "node",
  "id": 73105459,
  "lat": 43.6342634,
  "lon": 3.8202071
},
{
  "type": "node",
  "id": 73105461,
  "lat": 43.6342522,
  "lon": 3.8202792
},
{
  "type": "node",
  "id": 73105463,
  "lat": 43.6343198,
  "lon": 3.8203838
},
{
  "type": "node",
  "id": 73105464,
  "lat": 43.6343453,
  "lon": 3.8203861
},
{
  "type": "node",
  "id": 73105468,
  "lat": 43.6343922,
  "lon": 3.8203602
},
{
  "type": "node",
  "id": 3780633101,
  "lat": 43.6342537,
  "lon": 3.8202419
},
{
  "type": "node",
  "id": 3780633102,
  "lat": 43.6342805,
  "lon": 3.8201781
},
{
  "type": "node",
  "id": 3780633103,
  "lat": 43.6342591,
  "lon": 3.8203153
},
{
  "type": "node",
  "id": 3780633108,
  "lat": 43.6343585,
  "lon": 3.8201510
},
{
  "type": "node",
  "id": 3780633109,
  "lat": 43.6343702,
  "lon": 3.8203780
},
{
  "type": "node",
  "id": 3780633112,
  "lat": 43.6344054,
  "lon": 3.8201921
},
{
  "type": "node",
  "id": 3780633113,
  "lat": 43.6344096,
  "lon": 3.8203343
},
{
  "type": "node",
  "id": 3780633114,
  "lat": 43.6344245,
  "lon": 3.8202640
},
{
  "type": "node",
  "id": 9069379593,
  "lat": 43.6342737,
  "lon": 3.8203467
},
{
  "type": "node",
  "id": 9069379594,
  "lat": 43.6342946,
  "lon": 3.8203703
},
{
  "type": "node",
  "id": 5006529791,
  "lat": 43.6350933,
  "lon": 3.8225578
},
{
  "type": "node",
  "id": 5006529792,
  "lat": 43.6344464,
  "lon": 3.8225932
},
{
  "type": "node",
  "id": 5006529793,
  "lat": 43.6348615,
  "lon": 3.8226235
},
{
  "type": "node",
  "id": 5006529794,
  "lat": 43.6350532,
  "lon": 3.8226008
},
{
  "type": "node",
  "id": 5006529795,
  "lat": 43.6350446,
  "lon": 3.8225319
},
{
  "type": "node",
  "id": 5006529802,
  "lat": 43.6344751,
  "lon": 3.8225509
},
{
  "type": "node",
  "id": 5006529803,
  "lat": 43.6344802,
  "lon": 3.8226382
},
{
  "type": "node",
  "id": 5006529804,
  "lat": 43.6345903,
  "lon": 3.8225470
},
{
  "type": "node",
  "id": 287739131,
  "lat": 43.5967017,
  "lon": 3.8450353
},
{
  "type": "node",
  "id": 716035998,
  "lat": 43.5967899,
  "lon": 3.8451026
},
{
  "type": "node",
  "id": 1557333963,
  "lat": 43.5977837,
  "lon": 3.8459305
},
{
  "type": "node",
  "id": 3426792599,
  "lat": 43.5971405,
  "lon": 3.8454073
},
{
  "type": "node",
  "id": 4023259875,
  "lat": 43.5968078,
  "lon": 3.8451182
},
{
  "type": "node",
  "id": 6192473808,
  "lat": 43.5969819,
  "lon": 3.8452698
},
{
  "type": "node",
  "id": 6192473810,
  "lat": 43.5977039,
  "lon": 3.8458734
},
{
  "type": "node",
  "id": 317541910,
  "lat": 43.6040755,
  "lon": 3.8338306
},
{
  "type": "node",
  "id": 390791221,
  "lat": 43.6034593,
  "lon": 3.8327991
},
{
  "type": "node",
  "id": 390791225,
  "lat": 43.6034213,
  "lon": 3.8328023
},
{
  "type": "node",
  "id": 390791233,
  "lat": 43.6033869,
  "lon": 3.8330993
},
{
  "type": "node",
  "id": 390791237,
  "lat": 43.6034149,
  "lon": 3.8331161
},
{
  "type": "node",
  "id": 390791241,
  "lat": 43.6035324,
  "lon": 3.8330723
},
{
  "type": "node",
  "id": 390791244,
  "lat": 43.6035509,
  "lon": 3.8328838
},
{
  "type": "node",
  "id": 390791246,
  "lat": 43.6035277,
  "lon": 3.8328421
},
{
  "type": "node",
  "id": 390791248,
  "lat": 43.6034961,
  "lon": 3.8328128
},
{
  "type": "node",
  "id": 1105585395,
  "lat": 43.6035037,
  "lon": 3.8331027
},
{
  "type": "node",
  "id": 3030629637,
  "lat": 43.6033301,
  "lon": 3.8329621
},
{
  "type": "node",
  "id": 3030629638,
  "lat": 43.6033388,
  "lon": 3.8330220
},
{
  "type": "node",
  "id": 3030629639,
  "lat": 43.6034450,
  "lon": 3.8331225
},
{
  "type": "node",
  "id": 3030629640,
  "lat": 43.6034753,
  "lon": 3.8331179
},
{
  "type": "node",
  "id": 3030629641,
  "lat": 43.6035530,
  "lon": 3.8330313
},
{
  "type": "node",
  "id": 3030629642,
  "lat": 43.6035631,
  "lon": 3.8330029
},
{
  "type": "node",
  "id": 3030629643,
  "lat": 43.6033860,
  "lon": 3.8328222
},
{
  "type": "node",
  "id": 3030629644,
  "lat": 43.6033616,
  "lon": 3.8328439
},
{
  "type": "node",
  "id": 3037845735,
  "lat": 43.6033604,
  "lon": 3.8330620
},
{
  "type": "node",
  "id": 3037845737,
  "lat": 43.6043830,
  "lon": 3.8323003
},
{
  "type": "node",
  "id": 3678727900,
  "lat": 43.6034330,
  "lon": 3.8331200
},
{
  "type": "node",
  "id": 3678727901,
  "lat": 43.6035217,
  "lon": 3.8331431
},
{
  "type": "node",
  "id": 3678727902,
  "lat": 43.6035381,
  "lon": 3.8331738
},
{
  "type": "node",
  "id": 3678727906,
  "lat": 43.6039914,
  "lon": 3.8337046
},
{
  "type": "node",
  "id": 4834863876,
  "lat": 43.6034799,
  "lon": 3.8328068
},
{
  "type": "node",
  "id": 5308387894,
  "lat": 43.6033335,
  "lon": 3.8329263
},
{
  "type": "node",
  "id": 5308387895,
  "lat": 43.6033412,
  "lon": 3.8328955
},
{
  "type": "node",
  "id": 5308387912,
  "lat": 43.6035617,
  "lon": 3.8329162
},
{
  "type": "node",
  "id": 5308387913,
  "lat": 43.6035627,
  "lon": 3.8329478
},
{
  "type": "node",
  "id": 280131551,
  "lat": 43.5990903,
  "lon": 3.8352528
},
{
  "type": "node",
  "id": 280131553,
  "lat": 43.5992135,
  "lon": 3.8352160
},
{
  "type": "node",
  "id": 317541907,
  "lat": 43.6043371,
  "lon": 3.8344971
},
{
  "type": "node",
  "id": 317628157,
  "lat": 43.5990899,
  "lon": 3.8350566
},
{
  "type": "node",
  "id": 317628173,
  "lat": 43.5991577,
  "lon": 3.8352712
},
{
  "type": "node",
  "id": 808370015,
  "lat": 43.5991879,
  "lon": 3.8350557
},
{
  "type": "node",
  "id": 808370759,
  "lat": 43.5990600,
  "lon": 3.8351073
},
{
  "type": "node",
  "id": 808371948,
  "lat": 43.5992240,
  "lon": 3.8351300
},
{
  "type": "node",
  "id": 808371973,
  "lat": 43.5990536,
  "lon": 3.8351392
},
{
  "type": "node",
  "id": 808371981,
  "lat": 43.5990724,
  "lon": 3.8350791
},
{
  "type": "node",
  "id": 808372000,
  "lat": 43.5991388,
  "lon": 3.8350351
},
{
  "type": "node",
  "id": 808372009,
  "lat": 43.5991645,
  "lon": 3.8350403
},
{
  "type": "node",
  "id": 1105585385,
  "lat": 43.6042803,
  "lon": 3.8343619
},
{
  "type": "node",
  "id": 3416193904,
  "lat": 43.6041591,
  "lon": 3.8339948
},
{
  "type": "node",
  "id": 3416196297,
  "lat": 43.6041164,
  "lon": 3.8339101
},
{
  "type": "node",
  "id": 3416196394,
  "lat": 43.6043798,
  "lon": 3.8345721
},
{
  "type": "node",
  "id": 3675244806,
  "lat": 43.5990538,
  "lon": 3.8351718
},
{
  "type": "node",
  "id": 3675244808,
  "lat": 43.5990604,
  "lon": 3.8352031
},
{
  "type": "node",
  "id": 3675244809,
  "lat": 43.5990729,
  "lon": 3.8352308
},
{
  "type": "node",
  "id": 3675244810,
  "lat": 43.5991112,
  "lon": 3.8352674
},
{
  "type": "node",
  "id": 3675244812,
  "lat": 43.5991343,
  "lon": 3.8352737
},
{
  "type": "node",
  "id": 3675244813,
  "lat": 43.5991797,
  "lon": 3.8352601
},
{
  "type": "node",
  "id": 3675244814,
  "lat": 43.5991988,
  "lon": 3.8352412
},
{
  "type": "node",
  "id": 3675244815,
  "lat": 43.5992170,
  "lon": 3.8351020
},
{
  "type": "node",
  "id": 3675244817,
  "lat": 43.5992222,
  "lon": 3.8351889
},
{
  "type": "node",
  "id": 3675244818,
  "lat": 43.5992258,
  "lon": 3.8351596
},
{
  "type": "node",
  "id": 5254362594,
  "lat": 43.5992046,
  "lon": 3.8350762
},
{
  "type": "node",
  "id": 5254362595,
  "lat": 43.5991132,
  "lon": 3.8350407
},
{
  "type": "node",
  "id": 9346082729,
  "lat": 43.6042480,
  "lon": 3.8342642
},
{
  "type": "node",
  "id": 9346082730,
  "lat": 43.6043090,
  "lon": 3.8344344
},
{
  "type": "node",
  "id": 390829312,
  "lat": 43.6046448,
  "lon": 3.8321024
},
{
  "type": "node",
  "id": 3037845738,
  "lat": 43.6047814,
  "lon": 3.8320298
},
{
  "type": "node",
  "id": 317541897,
  "lat": 43.6073738,
  "lon": 3.8385412
},
{
  "type": "node",
  "id": 317541900,
  "lat": 43.6063903,
  "lon": 3.8370963
},
{
  "type": "node",
  "id": 392244797,
  "lat": 43.6048550,
  "lon": 3.8351825
},
{
  "type": "node",
  "id": 392247083,
  "lat": 43.6055380,
  "lon": 3.8360275
},
{
  "type": "node",
  "id": 575795747,
  "lat": 43.6050123,
  "lon": 3.8353780
},
{
  "type": "node",
  "id": 575795748,
  "lat": 43.6050728,
  "lon": 3.8354536
},
{
  "type": "node",
  "id": 575795773,
  "lat": 43.6066865,
  "lon": 3.8375234
},
{
  "type": "node",
  "id": 575795777,
  "lat": 43.6071867,
  "lon": 3.8382698
},
{
  "type": "node",
  "id": 1102013040,
  "lat": 43.6072647,
  "lon": 3.8383825
},
{
  "type": "node",
  "id": 3037845736,
  "lat": 43.6075636,
  "lon": 3.8388194
},
{
  "type": "node",
  "id": 3416194901,
  "lat": 43.6051752,
  "lon": 3.8355792
},
{
  "type": "node",
  "id": 3416196414,
  "lat": 43.6064749,
  "lon": 3.8372128
},
{
  "type": "node",
  "id": 3416196499,
  "lat": 43.6044835,
  "lon": 3.8347272
},
{
  "type": "node",
  "id": 3416196593,
  "lat": 43.6044409,
  "lon": 3.8346726
},
{
  "type": "node",
  "id": 3416196601,
  "lat": 43.6063271,
  "lon": 3.8370053
},
{
  "type": "node",
  "id": 3416197202,
  "lat": 43.6070834,
  "lon": 3.8381176
},
{
  "type": "node",
  "id": 6579731391,
  "lat": 43.6070673,
  "lon": 3.8380934
},
{
  "type": "node",
  "id": 6579731392,
  "lat": 43.6070991,
  "lon": 3.8381408
},
{
  "type": "node",
  "id": 60011549,
  "lat": 43.5983072,
  "lon": 3.8462841
},
{
  "type": "node",
  "id": 1557333936,
  "lat": 43.5985237,
  "lon": 3.8464289
},
{
  "type": "node",
  "id": 3422200459,
  "lat": 43.5988919,
  "lon": 3.8467203
},
{
  "type": "node",
  "id": 3422200460,
  "lat": 43.5990970,
  "lon": 3.8468958
},
{
  "type": "node",
  "id": 3566426196,
  "lat": 43.5979115,
  "lon": 3.8460125
},
{
  "type": "node",
  "id": 60011550,
  "lat": 43.5992536,
  "lon": 3.8470442
},
{
  "type": "node",
  "id": 6192473816,
  "lat": 43.5993065,
  "lon": 3.8471098
},
{
  "type": "node",
  "id": 162676124,
  "lat": 43.5910214,
  "lon": 3.8572857
},
{
  "type": "node",
  "id": 3644694924,
  "lat": 43.5912301,
  "lon": 3.8575077
},
{
  "type": "node",
  "id": 38459299,
  "lat": 43.5935861,
  "lon": 3.8600536
},
{
  "type": "node",
  "id": 38459300,
  "lat": 43.5930219,
  "lon": 3.8594468
},
{
  "type": "node",
  "id": 38459337,
  "lat": 43.5914228,
  "lon": 3.8577507
},
{
  "type": "node",
  "id": 162676119,
  "lat": 43.5913512,
  "lon": 3.8576384
},
{
  "type": "node",
  "id": 523752600,
  "lat": 43.5915481,
  "lon": 3.8578724
},
{
  "type": "node",
  "id": 581703881,
  "lat": 43.5922772,
  "lon": 3.8586426
},
{
  "type": "node",
  "id": 3417279997,
  "lat": 43.5933976,
  "lon": 3.8598570
},
{
  "type": "node",
  "id": 3417280695,
  "lat": 43.5934508,
  "lon": 3.8599124
},
{
  "type": "node",
  "id": 3417280793,
  "lat": 43.5929346,
  "lon": 3.8593558
},
{
  "type": "node",
  "id": 3644646131,
  "lat": 43.5933760,
  "lon": 3.8598344
},
{
  "type": "node",
  "id": 6266895228,
  "lat": 43.5920637,
  "lon": 3.8584171
},
{
  "type": "node",
  "id": 6266895231,
  "lat": 43.5919330,
  "lon": 3.8582790
},
{
  "type": "node",
  "id": 6266895449,
  "lat": 43.5922206,
  "lon": 3.8585828
},
{
  "type": "node",
  "id": 6266895464,
  "lat": 43.5927580,
  "lon": 3.8591642
},
{
  "type": "node",
  "id": 6776005319,
  "lat": 43.5918156,
  "lon": 3.8581578
},
{
  "type": "node",
  "id": 349036745,
  "lat": 43.5952458,
  "lon": 3.8618782
},
{
  "type": "node",
  "id": 581276146,
  "lat": 43.5941717,
  "lon": 3.8606940
},
{
  "type": "node",
  "id": 946355432,
  "lat": 43.5950923,
  "lon": 3.8617087
},
{
  "type": "node",
  "id": 1560685574,
  "lat": 43.5968472,
  "lon": 3.8636235
},
{
  "type": "node",
  "id": 2345419647,
  "lat": 43.5957505,
  "lon": 3.8624182
},
{
  "type": "node",
  "id": 3071651127,
  "lat": 43.5973967,
  "lon": 3.8642174
},
{
  "type": "node",
  "id": 3071651128,
  "lat": 43.5959612,
  "lon": 3.8626642
},
{
  "type": "node",
  "id": 3417272595,
  "lat": 43.5936345,
  "lon": 3.8601042
},
{
  "type": "node",
  "id": 3417280101,
  "lat": 43.5949621,
  "lon": 3.8615664
},
{
  "type": "node",
  "id": 3575554198,
  "lat": 43.5953464,
  "lon": 3.8619921
},
{
  "type": "node",
  "id": 3575554199,
  "lat": 43.5967852,
  "lon": 3.8635514
},
{
  "type": "node",
  "id": 3575554201,
  "lat": 43.5968935,
  "lon": 3.8636776
},
{
  "type": "node",
  "id": 3575554202,
  "lat": 43.5973229,
  "lon": 3.8641347
},
{
  "type": "node",
  "id": 3575554203,
  "lat": 43.5974692,
  "lon": 3.8642986
},
{
  "type": "node",
  "id": 3644646869,
  "lat": 43.5946177,
  "lon": 3.8611863
},
{
  "type": "node",
  "id": 3644694835,
  "lat": 43.5936706,
  "lon": 3.8601419
},
{
  "type": "node",
  "id": 3906155169,
  "lat": 43.5937622,
  "lon": 3.8602428
},
{
  "type": "node",
  "id": 3906155170,
  "lat": 43.5944947,
  "lon": 3.8610505
},
{
  "type": "node",
  "id": 5117315410,
  "lat": 43.5953667,
  "lon": 3.8620095
},
{
  "type": "node",
  "id": 5117315411,
  "lat": 43.5949442,
  "lon": 3.8615441
},
{
  "type": "node",
  "id": 6579731420,
  "lat": 43.5975571,
  "lon": 3.8643972
},
{
  "type": "node",
  "id": 6579731423,
  "lat": 43.5972940,
  "lon": 3.8641022
},
{
  "type": "node",
  "id": 6775996366,
  "lat": 43.5958629,
  "lon": 3.8625494
},
{
  "type": "node",
  "id": 6776005314,
  "lat": 43.5976899,
  "lon": 3.8645338
},
{
  "type": "node",
  "id": 6776005315,
  "lat": 43.5970975,
  "lon": 3.8638867
},
{
  "type": "node",
  "id": 6776005316,
  "lat": 43.5957214,
  "lon": 3.8623873
},
{
  "type": "node",
  "id": 6776005317,
  "lat": 43.5938886,
  "lon": 3.8603821
},
{
  "type": "node",
  "id": 6776005318,
  "lat": 43.5937936,
  "lon": 3.8602773
},
{
  "type": "node",
  "id": 289142679,
  "lat": 43.5970247,
  "lon": 3.8690455
},
{
  "type": "node",
  "id": 289142705,
  "lat": 43.5968196,
  "lon": 3.8687459
},
{
  "type": "node",
  "id": 289142710,
  "lat": 43.5969750,
  "lon": 3.8690644
},
{
  "type": "node",
  "id": 289142711,
  "lat": 43.5969641,
  "lon": 3.8688871
},
{
  "type": "node",
  "id": 289142712,
  "lat": 43.5970468,
  "lon": 3.8689469
},
{
  "type": "node",
  "id": 289142714,
  "lat": 43.5970383,
  "lon": 3.8690263
},
{
  "type": "node",
  "id": 289142715,
  "lat": 43.5969270,
  "lon": 3.8689277
},
{
  "type": "node",
  "id": 289142716,
  "lat": 43.5969306,
  "lon": 3.8690281
},
{
  "type": "node",
  "id": 1560685541,
  "lat": 43.5968685,
  "lon": 3.8688641
},
{
  "type": "node",
  "id": 1856130697,
  "lat": 43.5970341,
  "lon": 3.8689151
},
{
  "type": "node",
  "id": 2424041076,
  "lat": 43.5969187,
  "lon": 3.8689589
},
{
  "type": "node",
  "id": 2424041078,
  "lat": 43.5969196,
  "lon": 3.8689952
},
{
  "type": "node",
  "id": 2424041079,
  "lat": 43.5969428,
  "lon": 3.8689026
},
{
  "type": "node",
  "id": 2424041080,
  "lat": 43.5969502,
  "lon": 3.8690525
},
{
  "type": "node",
  "id": 2424041081,
  "lat": 43.5969880,
  "lon": 3.8688831
},
{
  "type": "node",
  "id": 2424041083,
  "lat": 43.5970494,
  "lon": 3.8689830
},
{
  "type": "node",
  "id": 3788301148,
  "lat": 43.5968291,
  "lon": 3.8687979
},
{
  "type": "node",
  "id": 3788301149,
  "lat": 43.5968573,
  "lon": 3.8687483
},
{
  "type": "node",
  "id": 3788301150,
  "lat": 43.5969162,
  "lon": 3.8688040
},
{
  "type": "node",
  "id": 3788301156,
  "lat": 43.5969984,
  "lon": 3.8690618
},
{
  "type": "node",
  "id": 3788301559,
  "lat": 43.5970134,
  "lon": 3.8688926
},
{
  "type": "node",
  "id": 350256021,
  "lat": 43.5964067,
  "lon": 3.8737086
},
{
  "type": "node",
  "id": 350256028,
  "lat": 43.5965465,
  "lon": 3.8740143
},
{
  "type": "node",
  "id": 350256032,
  "lat": 43.5966679,
  "lon": 3.8741585
},
{
  "type": "node",
  "id": 350256039,
  "lat": 43.5968075,
  "lon": 3.8744656
},
{
  "type": "node",
  "id": 350256040,
  "lat": 43.5968098,
  "lon": 3.8749543
},
{
  "type": "node",
  "id": 350256043,
  "lat": 43.5967800,
  "lon": 3.8750610
},
{
  "type": "node",
  "id": 350256047,
  "lat": 43.5965972,
  "lon": 3.8753921
},
{
  "type": "node",
  "id": 350256053,
  "lat": 43.5965463,
  "lon": 3.8755131
},
{
  "type": "node",
  "id": 350256055,
  "lat": 43.5965431,
  "lon": 3.8757474
},
{
  "type": "node",
  "id": 523752376,
  "lat": 43.5968352,
  "lon": 3.8748415
},
{
  "type": "node",
  "id": 1460329975,
  "lat": 43.5965599,
  "lon": 3.8754648
},
{
  "type": "node",
  "id": 1460329999,
  "lat": 43.5967783,
  "lon": 3.8743573
},
{
  "type": "node",
  "id": 1460330108,
  "lat": 43.5968314,
  "lon": 3.8745901
},
{
  "type": "node",
  "id": 3629357499,
  "lat": 43.5965351,
  "lon": 3.8756551
},
{
  "type": "node",
  "id": 3629357500,
  "lat": 43.5966947,
  "lon": 3.8752448
},
{
  "type": "node",
  "id": 3629357501,
  "lat": 43.5967467,
  "lon": 3.8751474
},
{
  "type": "node",
  "id": 3629357503,
  "lat": 43.5968413,
  "lon": 3.8747133
},
{
  "type": "node",
  "id": 3629362994,
  "lat": 43.5965324,
  "lon": 3.8755795
},
{
  "type": "node",
  "id": 6270245271,
  "lat": 43.5967350,
  "lon": 3.8742722
},
{
  "type": "node",
  "id": 348216854,
  "lat": 43.6028013,
  "lon": 3.8550304
},
{
  "type": "node",
  "id": 348216855,
  "lat": 43.6026673,
  "lon": 3.8556158
},
{
  "type": "node",
  "id": 616900330,
  "lat": 43.6002000,
  "lon": 3.8594259
},
{
  "type": "node",
  "id": 3073119644,
  "lat": 43.6006592,
  "lon": 3.8587384
},
{
  "type": "node",
  "id": 3073119646,
  "lat": 43.6007031,
  "lon": 3.8588012
},
{
  "type": "node",
  "id": 3073119647,
  "lat": 43.6002465,
  "lon": 3.8595227
},
{
  "type": "node",
  "id": 3417313096,
  "lat": 43.5997670,
  "lon": 3.8600458
},
{
  "type": "node",
  "id": 3417321298,
  "lat": 43.6017741,
  "lon": 3.8574136
},
{
  "type": "node",
  "id": 3417321498,
  "lat": 43.6014038,
  "lon": 3.8577747
},
{
  "type": "node",
  "id": 3417322594,
  "lat": 43.6027937,
  "lon": 3.8552310
},
{
  "type": "node",
  "id": 3700390225,
  "lat": 43.6027262,
  "lon": 3.8554985
},
{
  "type": "node",
  "id": 3702112965,
  "lat": 43.6017874,
  "lon": 3.8572727
},
{
  "type": "node",
  "id": 3702112968,
  "lat": 43.6018323,
  "lon": 3.8573457
},
{
  "type": "node",
  "id": 5546109337,
  "lat": 43.6027780,
  "lon": 3.8553918
},
{
  "type": "node",
  "id": 9110298178,
  "lat": 43.6001289,
  "lon": 3.8596768
},
{
  "type": "node",
  "id": 9110966239,
  "lat": 43.6003454,
  "lon": 3.8593777
},
{
  "type": "node",
  "id": 9110966240,
  "lat": 43.6002818,
  "lon": 3.8593008
},
{
  "type": "node",
  "id": 9111012837,
  "lat": 43.6017383,
  "lon": 3.8573370
},
{
  "type": "node",
  "id": 38458768,
  "lat": 43.5989612,
  "lon": 3.8659098
},
{
  "type": "node",
  "id": 289059064,
  "lat": 43.5998111,
  "lon": 3.8601079
},
{
  "type": "node",
  "id": 289060441,
  "lat": 43.5993858,
  "lon": 3.8607383
},
{
  "type": "node",
  "id": 289135168,
  "lat": 43.5985706,
  "lon": 3.8624381
},
{
  "type": "node",
  "id": 289137451,
  "lat": 43.5990628,
  "lon": 3.8612375
},
{
  "type": "node",
  "id": 289143742,
  "lat": 43.5990197,
  "lon": 3.8659789
},
{
  "type": "node",
  "id": 521482242,
  "lat": 43.5997394,
  "lon": 3.8600844
},
{
  "type": "node",
  "id": 521482245,
  "lat": 43.5993347,
  "lon": 3.8606750
},
{
  "type": "node",
  "id": 581200500,
  "lat": 43.5984744,
  "lon": 3.8626168
},
{
  "type": "node",
  "id": 612281166,
  "lat": 43.5982496,
  "lon": 3.8630345
},
{
  "type": "node",
  "id": 2001356528,
  "lat": 43.5991519,
  "lon": 3.8661261
},
{
  "type": "node",
  "id": 3071651124,
  "lat": 43.5986132,
  "lon": 3.8655302
},
{
  "type": "node",
  "id": 3071651125,
  "lat": 43.5983054,
  "lon": 3.8651863
},
{
  "type": "node",
  "id": 3071651126,
  "lat": 43.5982152,
  "lon": 3.8650914
},
{
  "type": "node",
  "id": 3071651132,
  "lat": 43.5991827,
  "lon": 3.8661633
},
{
  "type": "node",
  "id": 3433548995,
  "lat": 43.5981554,
  "lon": 3.8650308
},
{
  "type": "node",
  "id": 3701010383,
  "lat": 43.5997813,
  "lon": 3.8601525
},
{
  "type": "node",
  "id": 4063167898,
  "lat": 43.5992172,
  "lon": 3.8611033
},
{
  "type": "node",
  "id": 4063167899,
  "lat": 43.5994039,
  "lon": 3.8607101
},
{
  "type": "node",
  "id": 4063167900,
  "lat": 43.5993535,
  "lon": 3.8606475
},
{
  "type": "node",
  "id": 4063167908,
  "lat": 43.5985955,
  "lon": 3.8623919
},
{
  "type": "node",
  "id": 4063167909,
  "lat": 43.5986539,
  "lon": 3.8623848
},
{
  "type": "node",
  "id": 5117317273,
  "lat": 43.5983426,
  "lon": 3.8652268
},
{
  "type": "node",
  "id": 5156689345,
  "lat": 43.5979097,
  "lon": 3.8647651
},
{
  "type": "node",
  "id": 6579731414,
  "lat": 43.5992033,
  "lon": 3.8661857
},
{
  "type": "node",
  "id": 6579731418,
  "lat": 43.5989138,
  "lon": 3.8658581
},
{
  "type": "node",
  "id": 6579731419,
  "lat": 43.5988890,
  "lon": 3.8658310
},
{
  "type": "node",
  "id": 6776005313,
  "lat": 43.5995701,
  "lon": 3.8665851
},
{
  "type": "node",
  "id": 247276876,
  "lat": 43.6108189,
  "lon": 3.8569300
},
{
  "type": "node",
  "id": 2807638495,
  "lat": 43.6105777,
  "lon": 3.8565631
},
{
  "type": "node",
  "id": 38458764,
  "lat": 43.6004833,
  "lon": 3.8675760
},
{
  "type": "node",
  "id": 38458765,
  "lat": 43.6004593,
  "lon": 3.8675488
},
{
  "type": "node",
  "id": 247279091,
  "lat": 43.6025956,
  "lon": 3.8679478
},
{
  "type": "node",
  "id": 247279113,
  "lat": 43.6006441,
  "lon": 3.8705646
},
{
  "type": "node",
  "id": 247279118,
  "lat": 43.6016574,
  "lon": 3.8680789
},
{
  "type": "node",
  "id": 247279463,
  "lat": 43.5997417,
  "lon": 3.8720672
},
{
  "type": "node",
  "id": 247279465,
  "lat": 43.5995551,
  "lon": 3.8725001
},
{
  "type": "node",
  "id": 247279467,
  "lat": 43.5994367,
  "lon": 3.8728897
},
{
  "type": "node",
  "id": 274488975,
  "lat": 43.6032579,
  "lon": 3.8678484
},
{
  "type": "node",
  "id": 278293314,
  "lat": 43.6004113,
  "lon": 3.8709447
},
{
  "type": "node",
  "id": 283310418,
  "lat": 43.6035899,
  "lon": 3.8677877
},
{
  "type": "node",
  "id": 283310419,
  "lat": 43.6028162,
  "lon": 3.8679067
},
{
  "type": "node",
  "id": 289139083,
  "lat": 43.6002551,
  "lon": 3.8673228
},
{
  "type": "node",
  "id": 305431356,
  "lat": 43.6011370,
  "lon": 3.8696910
},
{
  "type": "node",
  "id": 305440053,
  "lat": 43.6037744,
  "lon": 3.8677518
},
{
  "type": "node",
  "id": 2001356549,
  "lat": 43.6001846,
  "lon": 3.8672472
},
{
  "type": "node",
  "id": 3071651091,
  "lat": 43.5996332,
  "lon": 3.8723055
},
{
  "type": "node",
  "id": 3071651094,
  "lat": 43.6005275,
  "lon": 3.8707504
},
{
  "type": "node",
  "id": 3071651105,
  "lat": 43.6009671,
  "lon": 3.8700267
},
{
  "type": "node",
  "id": 3071651106,
  "lat": 43.6008030,
  "lon": 3.8702992
},
{
  "type": "node",
  "id": 3071651129,
  "lat": 43.5998063,
  "lon": 3.8668417
},
{
  "type": "node",
  "id": 3071651131,
  "lat": 43.5997354,
  "lon": 3.8667651
},
{
  "type": "node",
  "id": 3071651433,
  "lat": 43.5997681,
  "lon": 3.8668007
},
{
  "type": "node",
  "id": 3143675530,
  "lat": 43.6037286,
  "lon": 3.8677586
},
{
  "type": "node",
  "id": 3145357044,
  "lat": 43.6033317,
  "lon": 3.8678349
},
{
  "type": "node",
  "id": 3145357046,
  "lat": 43.6031224,
  "lon": 3.8678663
},
{
  "type": "node",
  "id": 3145364416,
  "lat": 43.6034667,
  "lon": 3.8678102
},
{
  "type": "node",
  "id": 3147213458,
  "lat": 43.6037194,
  "lon": 3.8677605
},
{
  "type": "node",
  "id": 3941980982,
  "lat": 43.5998834,
  "lon": 3.8718203
},
{
  "type": "node",
  "id": 3941980983,
  "lat": 43.6003459,
  "lon": 3.8710522
},
{
  "type": "node",
  "id": 5064352127,
  "lat": 43.6001741,
  "lon": 3.8672360
},
{
  "type": "node",
  "id": 5064352129,
  "lat": 43.5998182,
  "lon": 3.8668544
},
{
  "type": "node",
  "id": 5064352130,
  "lat": 43.5997234,
  "lon": 3.8667520
},
{
  "type": "node",
  "id": 5064352137,
  "lat": 43.6018011,
  "lon": 3.8680596
},
{
  "type": "node",
  "id": 5559121612,
  "lat": 43.5994954,
  "lon": 3.8726807
},
{
  "type": "node",
  "id": 6776005312,
  "lat": 43.5999705,
  "lon": 3.8670177
},
{
  "type": "node",
  "id": 8725247434,
  "lat": 43.6033153,
  "lon": 3.8678379
},
{
  "type": "node",
  "id": 60939745,
  "lat": 43.5999482,
  "lon": 3.8767767
},
{
  "type": "node",
  "id": 60939746,
  "lat": 43.6001237,
  "lon": 3.8774923
},
{
  "type": "node",
  "id": 247279468,
  "lat": 43.5993497,
  "lon": 3.8734001
},
{
  "type": "node",
  "id": 278241218,
  "lat": 43.6005778,
  "lon": 3.8793384
},
{
  "type": "node",
  "id": 278241276,
  "lat": 43.6004808,
  "lon": 3.8789376
},
{
  "type": "node",
  "id": 278251136,
  "lat": 43.6003220,
  "lon": 3.8782818
},
{
  "type": "node",
  "id": 283301013,
  "lat": 43.6001995,
  "lon": 3.8778084
},
{
  "type": "node",
  "id": 283308306,
  "lat": 43.5995771,
  "lon": 3.8746545
},
{
  "type": "node",
  "id": 283308307,
  "lat": 43.5996740,
  "lon": 3.8751691
},
{
  "type": "node",
  "id": 283317437,
  "lat": 43.5997342,
  "lon": 3.8754977
},
{
  "type": "node",
  "id": 283317439,
  "lat": 43.5997808,
  "lon": 3.8758290
},
{
  "type": "node",
  "id": 951411775,
  "lat": 43.6003054,
  "lon": 3.8782200
},
{
  "type": "node",
  "id": 1357871408,
  "lat": 43.5997455,
  "lon": 3.8755778
},
{
  "type": "node",
  "id": 1357871413,
  "lat": 43.5997585,
  "lon": 3.8756707
},
{
  "type": "node",
  "id": 1357871431,
  "lat": 43.5997865,
  "lon": 3.8758693
},
{
  "type": "node",
  "id": 1547389478,
  "lat": 43.5997546,
  "lon": 3.8756429
},
{
  "type": "node",
  "id": 1547396393,
  "lat": 43.5997494,
  "lon": 3.8756056
},
{
  "type": "node",
  "id": 2126507984,
  "lat": 43.5998534,
  "lon": 3.8762341
},
{
  "type": "node",
  "id": 2994762692,
  "lat": 43.6005085,
  "lon": 3.8794993
},
{
  "type": "node",
  "id": 3800523661,
  "lat": 43.5997067,
  "lon": 3.8753599
},
{
  "type": "node",
  "id": 3860535616,
  "lat": 43.5998848,
  "lon": 3.8764118
},
{
  "type": "node",
  "id": 3941980978,
  "lat": 43.5993624,
  "lon": 3.8732751
},
{
  "type": "node",
  "id": 4397067045,
  "lat": 43.5999331,
  "lon": 3.8766933
},
{
  "type": "node",
  "id": 5422158841,
  "lat": 43.5999137,
  "lon": 3.8765864
},
{
  "type": "node",
  "id": 6402104311,
  "lat": 43.6004952,
  "lon": 3.8795297
},
{
  "type": "node",
  "id": 7466108065,
  "lat": 43.5998394,
  "lon": 3.8761577
},
{
  "type": "node",
  "id": 8558019067,
  "lat": 43.6001635,
  "lon": 3.8776583
},
{
  "type": "node",
  "id": 278298539,
  "lat": 43.6048292,
  "lon": 3.8675934
},
{
  "type": "node",
  "id": 283311192,
  "lat": 43.6052999,
  "lon": 3.8675247
},
{
  "type": "node",
  "id": 5545921207,
  "lat": 43.6057623,
  "lon": 3.8674436
},
{
  "type": "node",
  "id": 5545926721,
  "lat": 43.6048950,
  "lon": 3.8675804
},
{
  "type": "node",
  "id": 5545926722,
  "lat": 43.6049193,
  "lon": 3.8675764
},
{
  "type": "node",
  "id": 5545926723,
  "lat": 43.6047795,
  "lon": 3.8676019
},
{
  "type": "node",
  "id": 3380456666,
  "lat": 43.6138798,
  "lon": 3.8384921
},
{
  "type": "node",
  "id": 3380456667,
  "lat": 43.6137437,
  "lon": 3.8387702
},
{
  "type": "node",
  "id": 3380456668,
  "lat": 43.6137092,
  "lon": 3.8388529
},
{
  "type": "node",
  "id": 3380456669,
  "lat": 43.6136961,
  "lon": 3.8389025
},
{
  "type": "node",
  "id": 3380456670,
  "lat": 43.6136841,
  "lon": 3.8389575
},
{
  "type": "node",
  "id": 3380456671,
  "lat": 43.6136804,
  "lon": 3.8389796
},
{
  "type": "node",
  "id": 3380456678,
  "lat": 43.6137528,
  "lon": 3.8387419
},
{
  "type": "node",
  "id": 3380456681,
  "lat": 43.6137852,
  "lon": 3.8386531
},
{
  "type": "node",
  "id": 6059013282,
  "lat": 43.6137183,
  "lon": 3.8388312
},
{
  "type": "node",
  "id": 276891301,
  "lat": 43.6261412,
  "lon": 3.8389583
},
{
  "type": "node",
  "id": 276891304,
  "lat": 43.6261630,
  "lon": 3.8384003
},
{
  "type": "node",
  "id": 276891306,
  "lat": 43.6259756,
  "lon": 3.8384459
},
{
  "type": "node",
  "id": 276891307,
  "lat": 43.6259299,
  "lon": 3.8385142
},
{
  "type": "node",
  "id": 276891308,
  "lat": 43.6258977,
  "lon": 3.8386216
},
{
  "type": "node",
  "id": 276891309,
  "lat": 43.6258969,
  "lon": 3.8387232
},
{
  "type": "node",
  "id": 276891311,
  "lat": 43.6259217,
  "lon": 3.8388188
},
{
  "type": "node",
  "id": 276891312,
  "lat": 43.6259643,
  "lon": 3.8388910
},
{
  "type": "node",
  "id": 276891313,
  "lat": 43.6259914,
  "lon": 3.8389191
},
{
  "type": "node",
  "id": 276891314,
  "lat": 43.6262810,
  "lon": 3.8388235
},
{
  "type": "node",
  "id": 276891316,
  "lat": 43.6263098,
  "lon": 3.8387004
},
{
  "type": "node",
  "id": 276891318,
  "lat": 43.6262967,
  "lon": 3.8385722
},
{
  "type": "node",
  "id": 276891319,
  "lat": 43.6262749,
  "lon": 3.8385144
},
{
  "type": "node",
  "id": 276891320,
  "lat": 43.6262062,
  "lon": 3.8384262
},
{
  "type": "node",
  "id": 1999659051,
  "lat": 43.6262215,
  "lon": 3.8389116
},
{
  "type": "node",
  "id": 5281772467,
  "lat": 43.6260290,
  "lon": 3.8389459
},
{
  "type": "node",
  "id": 5281772470,
  "lat": 43.6260096,
  "lon": 3.8384215
},
{
  "type": "node",
  "id": 5281772472,
  "lat": 43.6261831,
  "lon": 3.8389408
},
{
  "type": "node",
  "id": 5281772473,
  "lat": 43.6262546,
  "lon": 3.8388719
},
{
  "type": "node",
  "id": 5281772474,
  "lat": 43.6262442,
  "lon": 3.8384649
},
{
  "type": "node",
  "id": 5281772475,
  "lat": 43.6263085,
  "lon": 3.8386352
},
{
  "type": "node",
  "id": 5281772476,
  "lat": 43.6263005,
  "lon": 3.8387642
},
{
  "type": "node",
  "id": 5281772477,
  "lat": 43.6259570,
  "lon": 3.8384694
},
{
  "type": "node",
  "id": 5281772478,
  "lat": 43.6259098,
  "lon": 3.8385656
},
{
  "type": "node",
  "id": 5281772479,
  "lat": 43.6258940,
  "lon": 3.8386723
},
{
  "type": "node",
  "id": 5281772480,
  "lat": 43.6259062,
  "lon": 3.8387725
},
{
  "type": "node",
  "id": 5281772481,
  "lat": 43.6259408,
  "lon": 3.8388573
},
{
  "type": "node",
  "id": 5281772482,
  "lat": 43.6260602,
  "lon": 3.8389574
},
{
  "type": "node",
  "id": 5281772483,
  "lat": 43.6261007,
  "lon": 3.8389633
},
{
  "type": "node",
  "id": 5281772484,
  "lat": 43.6261039,
  "lon": 3.8383879
},
{
  "type": "node",
  "id": 5281772485,
  "lat": 43.6260446,
  "lon": 3.8383991
},
{
  "type": "node",
  "id": 276884859,
  "lat": 43.6371109,
  "lon": 3.8307805
},
{
  "type": "node",
  "id": 276884861,
  "lat": 43.6370526,
  "lon": 3.8307529
},
{
  "type": "node",
  "id": 276884862,
  "lat": 43.6369920,
  "lon": 3.8307369
},
{
  "type": "node",
  "id": 276884866,
  "lat": 43.6366591,
  "lon": 3.8308725
},
{
  "type": "node",
  "id": 276884867,
  "lat": 43.6366059,
  "lon": 3.8309448
},
{
  "type": "node",
  "id": 276884869,
  "lat": 43.6365623,
  "lon": 3.8310285
},
{
  "type": "node",
  "id": 276884871,
  "lat": 43.6365299,
  "lon": 3.8311203
},
{
  "type": "node",
  "id": 276884873,
  "lat": 43.6365090,
  "lon": 3.8312183
},
{
  "type": "node",
  "id": 276884874,
  "lat": 43.6365054,
  "lon": 3.8314340
},
{
  "type": "node",
  "id": 276884876,
  "lat": 43.6365292,
  "lon": 3.8315575
},
{
  "type": "node",
  "id": 276884878,
  "lat": 43.6366294,
  "lon": 3.8317706
},
{
  "type": "node",
  "id": 276884880,
  "lat": 43.6366893,
  "lon": 3.8318395
},
{
  "type": "node",
  "id": 276884882,
  "lat": 43.6367570,
  "lon": 3.8318928
},
{
  "type": "node",
  "id": 276884884,
  "lat": 43.6368304,
  "lon": 3.8319287
},
{
  "type": "node",
  "id": 276884885,
  "lat": 43.6369852,
  "lon": 3.8319445
},
{
  "type": "node",
  "id": 276884887,
  "lat": 43.6370617,
  "lon": 3.8319240
},
{
  "type": "node",
  "id": 280437769,
  "lat": 43.6371343,
  "lon": 3.8318851
},
{
  "type": "node",
  "id": 290914541,
  "lat": 43.6365025,
  "lon": 3.8314043
},
{
  "type": "node",
  "id": 2104915169,
  "lat": 43.6367204,
  "lon": 3.8308137
},
{
  "type": "node",
  "id": 2104915171,
  "lat": 43.6368062,
  "lon": 3.8307613
},
{
  "type": "node",
  "id": 2104915173,
  "lat": 43.6368982,
  "lon": 3.8307353
},
{
  "type": "node",
  "id": 2577354999,
  "lat": 43.6365003,
  "lon": 3.8313198
},
{
  "type": "node",
  "id": 3123093679,
  "lat": 43.6365004,
  "lon": 3.8313621
},
{
  "type": "node",
  "id": 3780633133,
  "lat": 43.6365712,
  "lon": 3.8316714
},
{
  "type": "node",
  "id": 3780633141,
  "lat": 43.6369073,
  "lon": 3.8319461
},
{
  "type": "node",
  "id": 282451520,
  "lat": 43.6364065,
  "lon": 3.8364638
},
{
  "type": "node",
  "id": 282451521,
  "lat": 43.6367802,
  "lon": 3.8366235
},
{
  "type": "node",
  "id": 282452516,
  "lat": 43.6368933,
  "lon": 3.8366679
},
{
  "type": "node",
  "id": 2104753912,
  "lat": 43.6369941,
  "lon": 3.8367237
},
{
  "type": "node",
  "id": 2104787655,
  "lat": 43.6364688,
  "lon": 3.8364926
},
{
  "type": "node",
  "id": 6789296293,
  "lat": 43.6367115,
  "lon": 3.8365946
},
{
  "type": "node",
  "id": 247279066,
  "lat": 43.6110388,
  "lon": 3.8572190
},
{
  "type": "node",
  "id": 247279067,
  "lat": 43.6111764,
  "lon": 3.8575426
},
{
  "type": "node",
  "id": 247279069,
  "lat": 43.6114899,
  "lon": 3.8594061
},
{
  "type": "node",
  "id": 247279070,
  "lat": 43.6115616,
  "lon": 3.8598650
},
{
  "type": "node",
  "id": 298979323,
  "lat": 43.6131936,
  "lon": 3.8590782
},
{
  "type": "node",
  "id": 298979324,
  "lat": 43.6133676,
  "lon": 3.8588991
},
{
  "type": "node",
  "id": 298979765,
  "lat": 43.6127836,
  "lon": 3.8595575
},
{
  "type": "node",
  "id": 298979823,
  "lat": 43.6131157,
  "lon": 3.8591940
},
{
  "type": "node",
  "id": 309947992,
  "lat": 43.6114184,
  "lon": 3.8589602
},
{
  "type": "node",
  "id": 309948117,
  "lat": 43.6129945,
  "lon": 3.8590945
},
{
  "type": "node",
  "id": 534710832,
  "lat": 43.6113781,
  "lon": 3.8587252
},
{
  "type": "node",
  "id": 1072903418,
  "lat": 43.6130272,
  "lon": 3.8589486
},
{
  "type": "node",
  "id": 1072903420,
  "lat": 43.6132708,
  "lon": 3.8587771
},
{
  "type": "node",
  "id": 1072903422,
  "lat": 43.6131721,
  "lon": 3.8589680
},
{
  "type": "node",
  "id": 1072903424,
  "lat": 43.6134741,
  "lon": 3.8587146
},
{
  "type": "node",
  "id": 1072903426,
  "lat": 43.6130985,
  "lon": 3.8589159
},
{
  "type": "node",
  "id": 2305042923,
  "lat": 43.6112739,
  "lon": 3.8580683
},
{
  "type": "node",
  "id": 3416270894,
  "lat": 43.6131263,
  "lon": 3.8589235
},
{
  "type": "node",
  "id": 3416277393,
  "lat": 43.6130072,
  "lon": 3.8591336
},
{
  "type": "node",
  "id": 3416277394,
  "lat": 43.6130279,
  "lon": 3.8591655
},
{
  "type": "node",
  "id": 3416277493,
  "lat": 43.6130730,
  "lon": 3.8589184
},
{
  "type": "node",
  "id": 3416277693,
  "lat": 43.6131514,
  "lon": 3.8589413
},
{
  "type": "node",
  "id": 3416277893,
  "lat": 43.6131867,
  "lon": 3.8590014
},
{
  "type": "node",
  "id": 3416277993,
  "lat": 43.6131940,
  "lon": 3.8590391
},
{
  "type": "node",
  "id": 5361260108,
  "lat": 43.6130487,
  "lon": 3.8589295
},
{
  "type": "node",
  "id": 5361260109,
  "lat": 43.6130078,
  "lon": 3.8589786
},
{
  "type": "node",
  "id": 5361260110,
  "lat": 43.6129953,
  "lon": 3.8590149
},
{
  "type": "node",
  "id": 5361260111,
  "lat": 43.6129907,
  "lon": 3.8590546
},
{
  "type": "node",
  "id": 5361260112,
  "lat": 43.6130546,
  "lon": 3.8591874
},
{
  "type": "node",
  "id": 5361260113,
  "lat": 43.6130848,
  "lon": 3.8591972
},
{
  "type": "node",
  "id": 5361260114,
  "lat": 43.6131439,
  "lon": 3.8591786
},
{
  "type": "node",
  "id": 5361260115,
  "lat": 43.6131675,
  "lon": 3.8591526
},
{
  "type": "node",
  "id": 5361260116,
  "lat": 43.6131846,
  "lon": 3.8591181
},
{
  "type": "node",
  "id": 5398045329,
  "lat": 43.6112488,
  "lon": 3.8578995
},
{
  "type": "node",
  "id": 6498632191,
  "lat": 43.6111147,
  "lon": 3.8573880
},
{
  "type": "node",
  "id": 6779363688,
  "lat": 43.6134138,
  "lon": 3.8588190
},
{
  "type": "node",
  "id": 6779363689,
  "lat": 43.6133728,
  "lon": 3.8587458
},
{
  "type": "node",
  "id": 6779363690,
  "lat": 43.6132941,
  "lon": 3.8589748
},
{
  "type": "node",
  "id": 7526740903,
  "lat": 43.6112867,
  "lon": 3.8581489
},
{
  "type": "node",
  "id": 247279086,
  "lat": 43.6117602,
  "lon": 3.8611060
},
{
  "type": "node",
  "id": 1597113905,
  "lat": 43.6116866,
  "lon": 3.8607374
},
{
  "type": "node",
  "id": 1597113934,
  "lat": 43.6118721,
  "lon": 3.8614163
},
{
  "type": "node",
  "id": 1597113954,
  "lat": 43.6119012,
  "lon": 3.8614717
},
{
  "type": "node",
  "id": 5116893233,
  "lat": 43.6117890,
  "lon": 3.8611411
},
{
  "type": "node",
  "id": 5116893234,
  "lat": 43.6117259,
  "lon": 3.8609661
},
{
  "type": "node",
  "id": 247280859,
  "lat": 43.6212449,
  "lon": 3.8566168
},
{
  "type": "node",
  "id": 289282154,
  "lat": 43.6214810,
  "lon": 3.8562443
},
{
  "type": "node",
  "id": 536435067,
  "lat": 43.6214328,
  "lon": 3.8563157
},
{
  "type": "node",
  "id": 6268095845,
  "lat": 43.6214637,
  "lon": 3.8562700
},
{
  "type": "node",
  "id": 247386205,
  "lat": 43.6182621,
  "lon": 3.8632842
},
{
  "type": "node",
  "id": 247386206,
  "lat": 43.6183315,
  "lon": 3.8633861
},
{
  "type": "node",
  "id": 247386207,
  "lat": 43.6184025,
  "lon": 3.8633889
},
{
  "type": "node",
  "id": 247386208,
  "lat": 43.6184702,
  "lon": 3.8633112
},
{
  "type": "node",
  "id": 247386209,
  "lat": 43.6184810,
  "lon": 3.8632667
},
{
  "type": "node",
  "id": 247386210,
  "lat": 43.6184632,
  "lon": 3.8631525
},
{
  "type": "node",
  "id": 247386213,
  "lat": 43.6182628,
  "lon": 3.8631922
},
{
  "type": "node",
  "id": 247386214,
  "lat": 43.6182758,
  "lon": 3.8633252
},
{
  "type": "node",
  "id": 247386216,
  "lat": 43.6184230,
  "lon": 3.8633772
},
{
  "type": "node",
  "id": 247386327,
  "lat": 43.6185659,
  "lon": 3.8628638
},
{
  "type": "node",
  "id": 247386328,
  "lat": 43.6184380,
  "lon": 3.8630019
},
{
  "type": "node",
  "id": 247386331,
  "lat": 43.6183814,
  "lon": 3.8630851
},
{
  "type": "node",
  "id": 247386333,
  "lat": 43.6184901,
  "lon": 3.8630427
},
{
  "type": "node",
  "id": 248036362,
  "lat": 43.6223667,
  "lon": 3.8637993
},
{
  "type": "node",
  "id": 248087706,
  "lat": 43.6199519,
  "lon": 3.8653455
},
{
  "type": "node",
  "id": 248087740,
  "lat": 43.6189835,
  "lon": 3.8638345
},
{
  "type": "node",
  "id": 248090734,
  "lat": 43.6193071,
  "lon": 3.8643079
},
{
  "type": "node",
  "id": 248091306,
  "lat": 43.6195493,
  "lon": 3.8646881
},
{
  "type": "node",
  "id": 316624663,
  "lat": 43.6224729,
  "lon": 3.8638317
},
{
  "type": "node",
  "id": 1222040585,
  "lat": 43.6198076,
  "lon": 3.8650504
},
{
  "type": "node",
  "id": 1728423376,
  "lat": 43.6198986,
  "lon": 3.8652328
},
{
  "type": "node",
  "id": 1931294175,
  "lat": 43.6182574,
  "lon": 3.8632396
},
{
  "type": "node",
  "id": 1931294180,
  "lat": 43.6182785,
  "lon": 3.8631493
},
{
  "type": "node",
  "id": 1931294186,
  "lat": 43.6183028,
  "lon": 3.8631151
},
{
  "type": "node",
  "id": 1931294193,
  "lat": 43.6183669,
  "lon": 3.8633954
},
{
  "type": "node",
  "id": 1931294200,
  "lat": 43.6183572,
  "lon": 3.8630853
},
{
  "type": "node",
  "id": 1931294215,
  "lat": 43.6184164,
  "lon": 3.8630378
},
{
  "type": "node",
  "id": 1931294218,
  "lat": 43.6184412,
  "lon": 3.8631192
},
{
  "type": "node",
  "id": 1931294222,
  "lat": 43.6184520,
  "lon": 3.8633937
},
{
  "type": "node",
  "id": 1931294230,
  "lat": 43.6184734,
  "lon": 3.8631072
},
{
  "type": "node",
  "id": 1931294231,
  "lat": 43.6184762,
  "lon": 3.8631880
},
{
  "type": "node",
  "id": 1931294232,
  "lat": 43.6184915,
  "lon": 3.8634225
},
{
  "type": "node",
  "id": 1931294236,
  "lat": 43.6184946,
  "lon": 3.8633030
},
{
  "type": "node",
  "id": 1931294241,
  "lat": 43.6185349,
  "lon": 3.8633836
},
{
  "type": "node",
  "id": 1931294245,
  "lat": 43.6185761,
  "lon": 3.8634312
},
{
  "type": "node",
  "id": 1931294248,
  "lat": 43.6185553,
  "lon": 3.8634678
},
{
  "type": "node",
  "id": 1931294254,
  "lat": 43.6185864,
  "lon": 3.8634665
},
{
  "type": "node",
  "id": 2362899722,
  "lat": 43.6197803,
  "lon": 3.8650394
},
{
  "type": "node",
  "id": 3011019995,
  "lat": 43.6183336,
  "lon": 3.8630927
},
{
  "type": "node",
  "id": 3577576843,
  "lat": 43.6184131,
  "lon": 3.8630961
},
{
  "type": "node",
  "id": 5357172412,
  "lat": 43.6183001,
  "lon": 3.8633619
},
{
  "type": "node",
  "id": 5357172413,
  "lat": 43.6184823,
  "lon": 3.8632269
},
{
  "type": "node",
  "id": 5357172414,
  "lat": 43.6184503,
  "lon": 3.8633492
},
{
  "type": "node",
  "id": 5575795557,
  "lat": 43.6190565,
  "lon": 3.8639179
},
{
  "type": "node",
  "id": 247386250,
  "lat": 43.6174828,
  "lon": 3.8674976
},
{
  "type": "node",
  "id": 76470537,
  "lat": 43.6229275,
  "lon": 3.8726211
},
{
  "type": "node",
  "id": 76470549,
  "lat": 43.6228260,
  "lon": 3.8724831
},
{
  "type": "node",
  "id": 76470665,
  "lat": 43.6229803,
  "lon": 3.8724317
},
{
  "type": "node",
  "id": 76470666,
  "lat": 43.6229051,
  "lon": 3.8723845
},
{
  "type": "node",
  "id": 1330006079,
  "lat": 43.6228533,
  "lon": 3.8724150
},
{
  "type": "node",
  "id": 1330006080,
  "lat": 43.6229769,
  "lon": 3.8725817
},
{
  "type": "node",
  "id": 1433363219,
  "lat": 43.6228449,
  "lon": 3.8725804
},
{
  "type": "node",
  "id": 1450588873,
  "lat": 43.6229977,
  "lon": 3.8725083
},
{
  "type": "node",
  "id": 1764339854,
  "lat": 43.6229336,
  "lon": 3.8723882
},
{
  "type": "node",
  "id": 1764339857,
  "lat": 43.6228355,
  "lon": 3.8724459
},
{
  "type": "node",
  "id": 1764339858,
  "lat": 43.6229938,
  "lon": 3.8724680
},
{
  "type": "node",
  "id": 1764339859,
  "lat": 43.6228774,
  "lon": 3.8723937
},
{
  "type": "node",
  "id": 1764339860,
  "lat": 43.6229546,
  "lon": 3.8726072
},
{
  "type": "node",
  "id": 1764339864,
  "lat": 43.6229596,
  "lon": 3.8724046
},
{
  "type": "node",
  "id": 1764339865,
  "lat": 43.6228253,
  "lon": 3.8725177
},
{
  "type": "node",
  "id": 1764339868,
  "lat": 43.6229918,
  "lon": 3.8725475
},
{
  "type": "node",
  "id": 1764339877,
  "lat": 43.6228318,
  "lon": 3.8725510
},
{
  "type": "node",
  "id": 1764339895,
  "lat": 43.6228985,
  "lon": 3.8726220
},
{
  "type": "node",
  "id": 3574717808,
  "lat": 43.6228690,
  "lon": 3.8726080
},
{
  "type": "node",
  "id": 6562704217,
  "lat": 43.6175046,
  "lon": 3.8674001
},
{
  "type": "node",
  "id": 469395739,
  "lat": 43.6286442,
  "lon": 3.8575384
},
{
  "type": "node",
  "id": 469395740,
  "lat": 43.6286684,
  "lon": 3.8574427
},
{
  "type": "node",
  "id": 469395741,
  "lat": 43.6290128,
  "lon": 3.8571112
},
{
  "type": "node",
  "id": 99970056,
  "lat": 43.6346757,
  "lon": 3.8679838
},
{
  "type": "node",
  "id": 99974302,
  "lat": 43.6347351,
  "lon": 3.8681730
},
{
  "type": "node",
  "id": 99974758,
  "lat": 43.6346581,
  "lon": 3.8681529
},
{
  "type": "node",
  "id": 99974850,
  "lat": 43.6347831,
  "lon": 3.8680801
},
{
  "type": "node",
  "id": 245459860,
  "lat": 43.6356671,
  "lon": 3.8681684
},
{
  "type": "node",
  "id": 245459861,
  "lat": 43.6357160,
  "lon": 3.8683405
},
{
  "type": "node",
  "id": 245459862,
  "lat": 43.6355779,
  "lon": 3.8683803
},
{
  "type": "node",
  "id": 245459863,
  "lat": 43.6354956,
  "lon": 3.8683763
},
{
  "type": "node",
  "id": 245459864,
  "lat": 43.6354893,
  "lon": 3.8682870
},
{
  "type": "node",
  "id": 245459865,
  "lat": 43.6355169,
  "lon": 3.8682389
},
{
  "type": "node",
  "id": 245460082,
  "lat": 43.6357473,
  "lon": 3.8682899
},
{
  "type": "node",
  "id": 245460091,
  "lat": 43.6357228,
  "lon": 3.8682136
},
{
  "type": "node",
  "id": 245461588,
  "lat": 43.6359557,
  "lon": 3.8679969
},
{
  "type": "node",
  "id": 287615956,
  "lat": 43.6347650,
  "lon": 3.8680091
},
{
  "type": "node",
  "id": 1042865916,
  "lat": 43.6346356,
  "lon": 3.8680533
},
{
  "type": "node",
  "id": 1042865918,
  "lat": 43.6347692,
  "lon": 3.8681365
},
{
  "type": "node",
  "id": 1073084803,
  "lat": 43.6353088,
  "lon": 3.8683544
},
{
  "type": "node",
  "id": 1073084838,
  "lat": 43.6348882,
  "lon": 3.8682670
},
{
  "type": "node",
  "id": 1073084844,
  "lat": 43.6349047,
  "lon": 3.8681871
},
{
  "type": "node",
  "id": 1073084849,
  "lat": 43.6353194,
  "lon": 3.8682596
},
{
  "type": "node",
  "id": 1640422414,
  "lat": 43.6349357,
  "lon": 3.8682776
},
{
  "type": "node",
  "id": 1728535840,
  "lat": 43.6346371,
  "lon": 3.8681073
},
{
  "type": "node",
  "id": 1728535841,
  "lat": 43.6346575,
  "lon": 3.8680010
},
{
  "type": "node",
  "id": 1728535842,
  "lat": 43.6346751,
  "lon": 3.8681690
},
{
  "type": "node",
  "id": 1728535843,
  "lat": 43.6347234,
  "lon": 3.8679754
},
{
  "type": "node",
  "id": 1728535844,
  "lat": 43.6347753,
  "lon": 3.8680304
},
{
  "type": "node",
  "id": 1728535845,
  "lat": 43.6354895,
  "lon": 3.8683526
},
{
  "type": "node",
  "id": 1728535846,
  "lat": 43.6354985,
  "lon": 3.8682662
},
{
  "type": "node",
  "id": 1728535847,
  "lat": 43.6355754,
  "lon": 3.8682176
},
{
  "type": "node",
  "id": 1728535849,
  "lat": 43.6356694,
  "lon": 3.8683758
},
{
  "type": "node",
  "id": 1728535850,
  "lat": 43.6356948,
  "lon": 3.8681814
},
{
  "type": "node",
  "id": 2004133926,
  "lat": 43.6348216,
  "lon": 3.8681370
},
{
  "type": "node",
  "id": 2004133931,
  "lat": 43.6348479,
  "lon": 3.8682521
},
{
  "type": "node",
  "id": 2004133935,
  "lat": 43.6348678,
  "lon": 3.8681720
},
{
  "type": "node",
  "id": 2004133938,
  "lat": 43.6350484,
  "lon": 3.8682984
},
{
  "type": "node",
  "id": 2004133941,
  "lat": 43.6350573,
  "lon": 3.8682239
},
{
  "type": "node",
  "id": 2004133948,
  "lat": 43.6354169,
  "lon": 3.8682556
},
{
  "type": "node",
  "id": 2004133954,
  "lat": 43.6358070,
  "lon": 3.8682045
},
{
  "type": "node",
  "id": 2004133956,
  "lat": 43.6358518,
  "lon": 3.8680451
},
{
  "type": "node",
  "id": 3672498373,
  "lat": 43.6354854,
  "lon": 3.8683147
},
{
  "type": "node",
  "id": 3672498374,
  "lat": 43.6356939,
  "lon": 3.8683612
},
{
  "type": "node",
  "id": 3672498375,
  "lat": 43.6357120,
  "lon": 3.8681973
},
{
  "type": "node",
  "id": 3672498376,
  "lat": 43.6357333,
  "lon": 3.8683190
},
{
  "type": "node",
  "id": 3672498377,
  "lat": 43.6359059,
  "lon": 3.8680044
},
{
  "type": "node",
  "id": 3672498378,
  "lat": 43.6359312,
  "lon": 3.8680539
},
{
  "type": "node",
  "id": 3780929422,
  "lat": 43.6346337,
  "lon": 3.8680804
},
{
  "type": "node",
  "id": 3780929423,
  "lat": 43.6346454,
  "lon": 3.8681321
},
{
  "type": "node",
  "id": 3780929424,
  "lat": 43.6346990,
  "lon": 3.8679741
},
{
  "type": "node",
  "id": 3780929425,
  "lat": 43.6347462,
  "lon": 3.8679875
},
{
  "type": "node",
  "id": 3780929426,
  "lat": 43.6347541,
  "lon": 3.8681582
},
{
  "type": "node",
  "id": 3780929427,
  "lat": 43.6347658,
  "lon": 3.8681821
},
{
  "type": "node",
  "id": 3780929428,
  "lat": 43.6347787,
  "lon": 3.8681896
},
{
  "type": "node",
  "id": 3780929429,
  "lat": 43.6347792,
  "lon": 3.8681097
},
{
  "type": "node",
  "id": 3780929430,
  "lat": 43.6347814,
  "lon": 3.8680546
},
{
  "type": "node",
  "id": 3780929431,
  "lat": 43.6347992,
  "lon": 3.8681049
},
{
  "type": "node",
  "id": 3780929432,
  "lat": 43.6349447,
  "lon": 3.8681976
},
{
  "type": "node",
  "id": 3906240626,
  "lat": 43.6352425,
  "lon": 3.8682545
},
{
  "type": "node",
  "id": 3906240630,
  "lat": 43.6353639,
  "lon": 3.8682595
},
{
  "type": "node",
  "id": 5254121977,
  "lat": 43.6346946,
  "lon": 3.8681780
},
{
  "type": "node",
  "id": 5254121978,
  "lat": 43.6347151,
  "lon": 3.8681794
},
{
  "type": "node",
  "id": 5254121979,
  "lat": 43.6346437,
  "lon": 3.8680249
},
{
  "type": "node",
  "id": 6750046008,
  "lat": 43.6353541,
  "lon": 3.8683601
},
{
  "type": "node",
  "id": 6750046024,
  "lat": 43.6358008,
  "lon": 3.8680880
},
{
  "type": "node",
  "id": 60939751,
  "lat": 43.6009924,
  "lon": 3.8809100
},
{
  "type": "node",
  "id": 246690046,
  "lat": 43.6011220,
  "lon": 3.8842050
},
{
  "type": "node",
  "id": 247279474,
  "lat": 43.6015450,
  "lon": 3.8826321
},
{
  "type": "node",
  "id": 278240968,
  "lat": 43.6008262,
  "lon": 3.8802607
},
{
  "type": "node",
  "id": 278242909,
  "lat": 43.6002710,
  "lon": 3.8800424
},
{
  "type": "node",
  "id": 278242910,
  "lat": 43.5999138,
  "lon": 3.8808092
},
{
  "type": "node",
  "id": 281257021,
  "lat": 43.6018143,
  "lon": 3.8846780
},
{
  "type": "node",
  "id": 283301014,
  "lat": 43.6001509,
  "lon": 3.8803011
},
{
  "type": "node",
  "id": 283301015,
  "lat": 43.6000159,
  "lon": 3.8805941
},
{
  "type": "node",
  "id": 283301017,
  "lat": 43.5996653,
  "lon": 3.8813647
},
{
  "type": "node",
  "id": 348407493,
  "lat": 43.6011732,
  "lon": 3.8815764
},
{
  "type": "node",
  "id": 2129896102,
  "lat": 43.6014819,
  "lon": 3.8824580
},
{
  "type": "node",
  "id": 2129896105,
  "lat": 43.6015708,
  "lon": 3.8828279
},
{
  "type": "node",
  "id": 2129896113,
  "lat": 43.6014950,
  "lon": 3.8828179
},
{
  "type": "node",
  "id": 2948127143,
  "lat": 43.6017989,
  "lon": 3.8845583
},
{
  "type": "node",
  "id": 2994762693,
  "lat": 43.5995711,
  "lon": 3.8815636
},
{
  "type": "node",
  "id": 5557073533,
  "lat": 43.6011950,
  "lon": 3.8816453
},
{
  "type": "node",
  "id": 6399616932,
  "lat": 43.6000924,
  "lon": 3.8804279
},
{
  "type": "node",
  "id": 6399616935,
  "lat": 43.5998672,
  "lon": 3.8809133
},
{
  "type": "node",
  "id": 6527932170,
  "lat": 43.6014696,
  "lon": 3.8824231
},
{
  "type": "node",
  "id": 6788141825,
  "lat": 43.5997146,
  "lon": 3.8812544
},
{
  "type": "node",
  "id": 6788141826,
  "lat": 43.6015974,
  "lon": 3.8830299
},
{
  "type": "node",
  "id": 6788141827,
  "lat": 43.6003567,
  "lon": 3.8798465
},
{
  "type": "node",
  "id": 6788141828,
  "lat": 43.6003184,
  "lon": 3.8799340
},
{
  "type": "node",
  "id": 256106422,
  "lat": 43.6038143,
  "lon": 3.8877798
},
{
  "type": "node",
  "id": 278223174,
  "lat": 43.6026891,
  "lon": 3.8867379
},
{
  "type": "node",
  "id": 281251839,
  "lat": 43.6035623,
  "lon": 3.8891938
},
{
  "type": "node",
  "id": 281252811,
  "lat": 43.6033841,
  "lon": 3.8882924
},
{
  "type": "node",
  "id": 281252891,
  "lat": 43.6035489,
  "lon": 3.8889491
},
{
  "type": "node",
  "id": 281253002,
  "lat": 43.6032490,
  "lon": 3.8879546
},
{
  "type": "node",
  "id": 281253006,
  "lat": 43.6030637,
  "lon": 3.8875251
},
{
  "type": "node",
  "id": 281253479,
  "lat": 43.6035826,
  "lon": 3.8895477
},
{
  "type": "node",
  "id": 281257272,
  "lat": 43.6028499,
  "lon": 3.8870305
},
{
  "type": "node",
  "id": 283301267,
  "lat": 43.6026122,
  "lon": 3.8866094
},
{
  "type": "node",
  "id": 323248028,
  "lat": 43.6035320,
  "lon": 3.8887828
},
{
  "type": "node",
  "id": 323248041,
  "lat": 43.6034524,
  "lon": 3.8884962
},
{
  "type": "node",
  "id": 938646842,
  "lat": 43.6026464,
  "lon": 3.8866709
},
{
  "type": "node",
  "id": 1353858899,
  "lat": 43.6036078,
  "lon": 3.8880836
},
{
  "type": "node",
  "id": 1601172848,
  "lat": 43.6035977,
  "lon": 3.8880990
},
{
  "type": "node",
  "id": 1627079570,
  "lat": 43.6033546,
  "lon": 3.8882068
},
{
  "type": "node",
  "id": 1627079572,
  "lat": 43.6034103,
  "lon": 3.8883800
},
{
  "type": "node",
  "id": 1627079598,
  "lat": 43.6036138,
  "lon": 3.8900261
},
{
  "type": "node",
  "id": 3744335459,
  "lat": 43.6029180,
  "lon": 3.8871473
},
{
  "type": "node",
  "id": 3944529372,
  "lat": 43.6035102,
  "lon": 3.8886721
},
{
  "type": "node",
  "id": 4122974064,
  "lat": 43.6036116,
  "lon": 3.8899930
},
{
  "type": "node",
  "id": 9373060727,
  "lat": 43.6036276,
  "lon": 3.8880545
},
{
  "type": "node",
  "id": 265366544,
  "lat": 43.6071319,
  "lon": 3.8859105
},
{
  "type": "node",
  "id": 265366547,
  "lat": 43.6070635,
  "lon": 3.8857867
},
{
  "type": "node",
  "id": 282726631,
  "lat": 43.6069123,
  "lon": 3.8861545
},
{
  "type": "node",
  "id": 1678816177,
  "lat": 43.6070123,
  "lon": 3.8858597
},
{
  "type": "node",
  "id": 1678816178,
  "lat": 43.6069954,
  "lon": 3.8860313
},
{
  "type": "node",
  "id": 2279471929,
  "lat": 43.6070545,
  "lon": 3.8859644
},
{
  "type": "node",
  "id": 3945401296,
  "lat": 43.6069977,
  "lon": 3.8858821
},
{
  "type": "node",
  "id": 256036877,
  "lat": 43.6055495,
  "lon": 3.8879033
},
{
  "type": "node",
  "id": 256036878,
  "lat": 43.6066104,
  "lon": 3.8864524
},
{
  "type": "node",
  "id": 256102862,
  "lat": 43.6064130,
  "lon": 3.8867335
},
{
  "type": "node",
  "id": 256104214,
  "lat": 43.6054524,
  "lon": 3.8880248
},
{
  "type": "node",
  "id": 256104225,
  "lat": 43.6057504,
  "lon": 3.8876386
},
{
  "type": "node",
  "id": 265089999,
  "lat": 43.6067443,
  "lon": 3.8864043
},
{
  "type": "node",
  "id": 282726564,
  "lat": 43.6056249,
  "lon": 3.8879612
},
{
  "type": "node",
  "id": 560158504,
  "lat": 43.6059211,
  "lon": 3.8875471
},
{
  "type": "node",
  "id": 560989762,
  "lat": 43.6055664,
  "lon": 3.8878824
},
{
  "type": "node",
  "id": 560989763,
  "lat": 43.6066437,
  "lon": 3.8865482
},
{
  "type": "node",
  "id": 1608606283,
  "lat": 43.6054473,
  "lon": 3.8882011
},
{
  "type": "node",
  "id": 1678816132,
  "lat": 43.6059080,
  "lon": 3.8874304
},
{
  "type": "node",
  "id": 1678816137,
  "lat": 43.6060927,
  "lon": 3.8871713
},
{
  "type": "node",
  "id": 1678816175,
  "lat": 43.6067751,
  "lon": 3.8863578
},
{
  "type": "node",
  "id": 2279471912,
  "lat": 43.6055369,
  "lon": 3.8880801
},
{
  "type": "node",
  "id": 2279471925,
  "lat": 43.6066600,
  "lon": 3.8865235
},
{
  "type": "node",
  "id": 5566049703,
  "lat": 43.6066299,
  "lon": 3.8864270
},
{
  "type": "node",
  "id": 279919396,
  "lat": 43.6034366,
  "lon": 3.8935477
},
{
  "type": "node",
  "id": 279921801,
  "lat": 43.6029045,
  "lon": 3.8941014
},
{
  "type": "node",
  "id": 943983725,
  "lat": 43.6038183,
  "lon": 3.8931339
},
{
  "type": "node",
  "id": 944511202,
  "lat": 43.6030315,
  "lon": 3.8939670
},
{
  "type": "node",
  "id": 944511207,
  "lat": 43.6032711,
  "lon": 3.8937059
},
{
  "type": "node",
  "id": 1111379588,
  "lat": 43.6037790,
  "lon": 3.8931823
},
{
  "type": "node",
  "id": 2994872551,
  "lat": 43.6025487,
  "lon": 3.8944870
},
{
  "type": "node",
  "id": 4122974067,
  "lat": 43.6037595,
  "lon": 3.8932031
},
{
  "type": "node",
  "id": 653597,
  "lat": 43.6060004,
  "lon": 3.8985503
},
{
  "type": "node",
  "id": 653600,
  "lat": 43.6054686,
  "lon": 3.8985157
},
{
  "type": "node",
  "id": 653601,
  "lat": 43.6053900,
  "lon": 3.8988397
},
{
  "type": "node",
  "id": 653602,
  "lat": 43.6054055,
  "lon": 3.8989560
},
{
  "type": "node",
  "id": 653604,
  "lat": 43.6058047,
  "lon": 3.8992674
},
{
  "type": "node",
  "id": 653605,
  "lat": 43.6058957,
  "lon": 3.8992131
},
{
  "type": "node",
  "id": 653606,
  "lat": 43.6059970,
  "lon": 3.8990854
},
{
  "type": "node",
  "id": 60939794,
  "lat": 43.6060526,
  "lon": 3.8987156
},
{
  "type": "node",
  "id": 60939795,
  "lat": 43.6060324,
  "lon": 3.8986294
},
{
  "type": "node",
  "id": 132817806,
  "lat": 43.6053963,
  "lon": 3.8987217
},
{
  "type": "node",
  "id": 132819256,
  "lat": 43.6054419,
  "lon": 3.8990631
},
{
  "type": "node",
  "id": 246773528,
  "lat": 43.6087752,
  "lon": 3.8967057
},
{
  "type": "node",
  "id": 247257065,
  "lat": 43.6087676,
  "lon": 3.8968241
},
{
  "type": "node",
  "id": 292876714,
  "lat": 43.6057009,
  "lon": 3.8992765
},
{
  "type": "node",
  "id": 294598629,
  "lat": 43.6059065,
  "lon": 3.8984250
},
{
  "type": "node",
  "id": 294598632,
  "lat": 43.6058423,
  "lon": 3.8983805
},
{
  "type": "node",
  "id": 294598634,
  "lat": 43.6060406,
  "lon": 3.8989710
},
{
  "type": "node",
  "id": 294598636,
  "lat": 43.6054231,
  "lon": 3.8986125
},
{
  "type": "node",
  "id": 946858828,
  "lat": 43.6054967,
  "lon": 3.8991540
},
{
  "type": "node",
  "id": 946858846,
  "lat": 43.6058424,
  "lon": 3.8992484
},
{
  "type": "node",
  "id": 946858858,
  "lat": 43.6056190,
  "lon": 3.8992709
},
{
  "type": "node",
  "id": 946858869,
  "lat": 43.6059511,
  "lon": 3.8991565
},
{
  "type": "node",
  "id": 946858889,
  "lat": 43.6060596,
  "lon": 3.8988445
},
{
  "type": "node",
  "id": 946858914,
  "lat": 43.6055829,
  "lon": 3.8983949
},
{
  "type": "node",
  "id": 948086219,
  "lat": 43.6059579,
  "lon": 3.8984813
},
{
  "type": "node",
  "id": 1605478310,
  "lat": 43.6055300,
  "lon": 3.8984375
},
{
  "type": "node",
  "id": 1605478324,
  "lat": 43.6056405,
  "lon": 3.8983662
},
{
  "type": "node",
  "id": 1605478327,
  "lat": 43.6057009,
  "lon": 3.8983524
},
{
  "type": "node",
  "id": 1605478328,
  "lat": 43.6057727,
  "lon": 3.8983560
},
{
  "type": "node",
  "id": 6562444229,
  "lat": 43.6055670,
  "lon": 3.8992332
},
{
  "type": "node",
  "id": 6562444230,
  "lat": 43.6056486,
  "lon": 3.8992714
},
{
  "type": "node",
  "id": 6727634713,
  "lat": 43.6060499,
  "lon": 3.8987040
},
{
  "type": "node",
  "id": 6727634714,
  "lat": 43.6060533,
  "lon": 3.8987278
},
{
  "type": "node",
  "id": 2515753658,
  "lat": 43.5998916,
  "lon": 3.9091033
},
{
  "type": "node",
  "id": 2515753660,
  "lat": 43.6001838,
  "lon": 3.9107464
},
{
  "type": "node",
  "id": 2541590267,
  "lat": 43.6004166,
  "lon": 3.9121668
},
{
  "type": "node",
  "id": 2959278519,
  "lat": 43.6001979,
  "lon": 3.9109051
},
{
  "type": "node",
  "id": 2959278520,
  "lat": 43.5999244,
  "lon": 3.9092582
},
{
  "type": "node",
  "id": 2959280735,
  "lat": 43.6002256,
  "lon": 3.9110156
},
{
  "type": "node",
  "id": 2959280737,
  "lat": 43.6002588,
  "lon": 3.9111959
},
{
  "type": "node",
  "id": 2959280761,
  "lat": 43.6002451,
  "lon": 3.9111114
},
{
  "type": "node",
  "id": 5268017812,
  "lat": 43.6002511,
  "lon": 3.9111411
},
{
  "type": "node",
  "id": 7271676647,
  "lat": 43.6004413,
  "lon": 3.9122963
},
{
  "type": "node",
  "id": 7271676648,
  "lat": 43.6003795,
  "lon": 3.9119387
},
{
  "type": "node",
  "id": 323156568,
  "lat": 43.6013484,
  "lon": 3.9158957
},
{
  "type": "node",
  "id": 323156569,
  "lat": 43.6009881,
  "lon": 3.9151132
},
{
  "type": "node",
  "id": 323156570,
  "lat": 43.6013028,
  "lon": 3.9158159
},
{
  "type": "node",
  "id": 333571671,
  "lat": 43.6005644,
  "lon": 3.9130761
},
{
  "type": "node",
  "id": 1316275017,
  "lat": 43.6007852,
  "lon": 3.9144205
},
{
  "type": "node",
  "id": 1316275036,
  "lat": 43.6007255,
  "lon": 3.9141150
},
{
  "type": "node",
  "id": 1316275059,
  "lat": 43.6008857,
  "lon": 3.9148148
},
{
  "type": "node",
  "id": 1316275071,
  "lat": 43.6012445,
  "lon": 3.9157026
},
{
  "type": "node",
  "id": 1597541058,
  "lat": 43.6006723,
  "lon": 3.9137950
},
{
  "type": "node",
  "id": 1597541067,
  "lat": 43.6008497,
  "lon": 3.9146740
},
{
  "type": "node",
  "id": 3770850291,
  "lat": 43.6006191,
  "lon": 3.9134335
},
{
  "type": "node",
  "id": 3770850292,
  "lat": 43.6006295,
  "lon": 3.9134897
},
{
  "type": "node",
  "id": 3770850313,
  "lat": 43.6010459,
  "lon": 3.9152614
},
{
  "type": "node",
  "id": 3770856390,
  "lat": 43.6012683,
  "lon": 3.9157549
},
{
  "type": "node",
  "id": 6333485665,
  "lat": 43.6005918,
  "lon": 3.9132524
},
{
  "type": "node",
  "id": 6333485666,
  "lat": 43.6005268,
  "lon": 3.9128353
},
{
  "type": "node",
  "id": 7271676645,
  "lat": 43.6011717,
  "lon": 3.9155504
},
{
  "type": "node",
  "id": 7271676646,
  "lat": 43.6006897,
  "lon": 3.9138996
},
{
  "type": "node",
  "id": 280738578,
  "lat": 43.6108515,
  "lon": 3.9064447
},
{
  "type": "node",
  "id": 280738579,
  "lat": 43.6108063,
  "lon": 3.9064020
},
{
  "type": "node",
  "id": 280738581,
  "lat": 43.6107915,
  "lon": 3.9062774
},
{
  "type": "node",
  "id": 280738582,
  "lat": 43.6108287,
  "lon": 3.9062131
},
{
  "type": "node",
  "id": 280738799,
  "lat": 43.6107957,
  "lon": 3.9063790
},
{
  "type": "node",
  "id": 280738800,
  "lat": 43.6109038,
  "lon": 3.9061970
},
{
  "type": "node",
  "id": 280739252,
  "lat": 43.6107581,
  "lon": 3.9063041
},
{
  "type": "node",
  "id": 970736097,
  "lat": 43.6108201,
  "lon": 3.9064214
},
{
  "type": "node",
  "id": 970736119,
  "lat": 43.6108780,
  "lon": 3.9061925
},
{
  "type": "node",
  "id": 970736175,
  "lat": 43.6108063,
  "lon": 3.9062410
},
{
  "type": "node",
  "id": 970736213,
  "lat": 43.6107862,
  "lon": 3.9063114
},
{
  "type": "node",
  "id": 2489265379,
  "lat": 43.6106918,
  "lon": 3.9063393
},
{
  "type": "node",
  "id": 3658911236,
  "lat": 43.6109127,
  "lon": 3.9064421
},
{
  "type": "node",
  "id": 3658932732,
  "lat": 43.6108823,
  "lon": 3.9064505
},
{
  "type": "node",
  "id": 8795759054,
  "lat": 43.6108350,
  "lon": 3.9064351
},
{
  "type": "node",
  "id": 8795759055,
  "lat": 43.6109394,
  "lon": 3.9064204
},
{
  "type": "node",
  "id": 8795759058,
  "lat": 43.6109266,
  "lon": 3.9062102
},
{
  "type": "node",
  "id": 8795759059,
  "lat": 43.6108523,
  "lon": 3.9061980
},
{
  "type": "node",
  "id": 8795759060,
  "lat": 43.6107876,
  "lon": 3.9063461
},
{
  "type": "node",
  "id": 246534628,
  "lat": 43.6141817,
  "lon": 3.8904158
},
{
  "type": "node",
  "id": 246534629,
  "lat": 43.6141054,
  "lon": 3.8896520
},
{
  "type": "node",
  "id": 247081160,
  "lat": 43.6146780,
  "lon": 3.8913283
},
{
  "type": "node",
  "id": 247081183,
  "lat": 43.6144087,
  "lon": 3.8908813
},
{
  "type": "node",
  "id": 247081488,
  "lat": 43.6142491,
  "lon": 3.8906030
},
{
  "type": "node",
  "id": 247081727,
  "lat": 43.6140698,
  "lon": 3.8893194
},
{
  "type": "node",
  "id": 978690469,
  "lat": 43.6141603,
  "lon": 3.8903103
},
{
  "type": "node",
  "id": 1357894418,
  "lat": 43.6147941,
  "lon": 3.8914964
},
{
  "type": "node",
  "id": 3966283963,
  "lat": 43.6140799,
  "lon": 3.8894124
},
{
  "type": "node",
  "id": 3966283965,
  "lat": 43.6141013,
  "lon": 3.8897279
},
{
  "type": "node",
  "id": 3966283968,
  "lat": 43.6142039,
  "lon": 3.8904986
},
{
  "type": "node",
  "id": 3966283972,
  "lat": 43.6142832,
  "lon": 3.8906714
},
{
  "type": "node",
  "id": 5414611516,
  "lat": 43.6140723,
  "lon": 3.8893405
},
{
  "type": "node",
  "id": 6566153247,
  "lat": 43.6144299,
  "lon": 3.8909165
},
{
  "type": "node",
  "id": 20932982,
  "lat": 43.6218929,
  "lon": 3.8906145
},
{
  "type": "node",
  "id": 20932984,
  "lat": 43.6196293,
  "lon": 3.8882484
},
{
  "type": "node",
  "id": 76469983,
  "lat": 43.6236520,
  "lon": 3.8924357
},
{
  "type": "node",
  "id": 76469988,
  "lat": 43.6232805,
  "lon": 3.8920402
},
{
  "type": "node",
  "id": 147039877,
  "lat": 43.6223851,
  "lon": 3.8911132
},
{
  "type": "node",
  "id": 147048381,
  "lat": 43.6203896,
  "lon": 3.8890140
},
{
  "type": "node",
  "id": 147049979,
  "lat": 43.6198245,
  "lon": 3.8884318
},
{
  "type": "node",
  "id": 2128182566,
  "lat": 43.6208508,
  "lon": 3.8895071
},
{
  "type": "node",
  "id": 3156352735,
  "lat": 43.6228482,
  "lon": 3.8915937
},
{
  "type": "node",
  "id": 6255494310,
  "lat": 43.6197543,
  "lon": 3.8883658
},
{
  "type": "node",
  "id": 6256333662,
  "lat": 43.6236906,
  "lon": 3.8924723
},
{
  "type": "node",
  "id": 6256333663,
  "lat": 43.6234004,
  "lon": 3.8921665
},
{
  "type": "node",
  "id": 6256333665,
  "lat": 43.6234525,
  "lon": 3.8922214
},
{
  "type": "node",
  "id": 280734814,
  "lat": 43.6172406,
  "lon": 3.9028402
},
{
  "type": "node",
  "id": 280734815,
  "lat": 43.6174610,
  "lon": 3.9028133
},
{
  "type": "node",
  "id": 280734941,
  "lat": 43.6174953,
  "lon": 3.9027240
},
{
  "type": "node",
  "id": 280734942,
  "lat": 43.6173656,
  "lon": 3.9027659
},
{
  "type": "node",
  "id": 20932981,
  "lat": 43.6240424,
  "lon": 3.8928455
},
{
  "type": "node",
  "id": 280734818,
  "lat": 43.6177747,
  "lon": 3.9029154
},
{
  "type": "node",
  "id": 280734940,
  "lat": 43.6177480,
  "lon": 3.9028325
},
{
  "type": "node",
  "id": 280735046,
  "lat": 43.6176207,
  "lon": 3.9028268
},
{
  "type": "node",
  "id": 280735047,
  "lat": 43.6179352,
  "lon": 3.9030420
},
{
  "type": "node",
  "id": 280736126,
  "lat": 43.6215686,
  "lon": 3.9043144
},
{
  "type": "node",
  "id": 280983794,
  "lat": 43.6215930,
  "lon": 3.9043514
},
{
  "type": "node",
  "id": 280983795,
  "lat": 43.6216277,
  "lon": 3.9043655
},
{
  "type": "node",
  "id": 280983797,
  "lat": 43.6216837,
  "lon": 3.9042193
},
{
  "type": "node",
  "id": 280983835,
  "lat": 43.6216958,
  "lon": 3.9042663
},
{
  "type": "node",
  "id": 280983836,
  "lat": 43.6215988,
  "lon": 3.9041894
},
{
  "type": "node",
  "id": 280983867,
  "lat": 43.6215633,
  "lon": 3.9042509
},
{
  "type": "node",
  "id": 286502495,
  "lat": 43.6176279,
  "lon": 3.9027550
},
{
  "type": "node",
  "id": 289128488,
  "lat": 43.6178435,
  "lon": 3.9029155
},
{
  "type": "node",
  "id": 1111919959,
  "lat": 43.6216509,
  "lon": 3.9043603
},
{
  "type": "node",
  "id": 1111919960,
  "lat": 43.6215790,
  "lon": 3.9043352
},
{
  "type": "node",
  "id": 1111919962,
  "lat": 43.6216921,
  "lon": 3.9042417
},
{
  "type": "node",
  "id": 1111919968,
  "lat": 43.6216558,
  "lon": 3.9041876
},
{
  "type": "node",
  "id": 1111919971,
  "lat": 43.6216848,
  "lon": 3.9043238
},
{
  "type": "node",
  "id": 1111919973,
  "lat": 43.6215614,
  "lon": 3.9042724
},
{
  "type": "node",
  "id": 1111919974,
  "lat": 43.6216174,
  "lon": 3.9041811
},
{
  "type": "node",
  "id": 1111919975,
  "lat": 43.6216937,
  "lon": 3.9042963
},
{
  "type": "node",
  "id": 1111919976,
  "lat": 43.6216700,
  "lon": 3.9043459
},
{
  "type": "node",
  "id": 1111919983,
  "lat": 43.6215828,
  "lon": 3.9042048
},
{
  "type": "node",
  "id": 1111919984,
  "lat": 43.6216096,
  "lon": 3.9043617
},
{
  "type": "node",
  "id": 3803865770,
  "lat": 43.6216369,
  "lon": 3.9041804
},
{
  "type": "node",
  "id": 6902998921,
  "lat": 43.6216394,
  "lon": 3.9043643
},
{
  "type": "node",
  "id": 6902998922,
  "lat": 43.6216713,
  "lon": 3.9042008
},
{
  "type": "node",
  "id": 6902998923,
  "lat": 43.6215706,
  "lon": 3.9042259
},
{
  "type": "node",
  "id": 6902998924,
  "lat": 43.6215632,
  "lon": 3.9042940
},
{
  "type": "node",
  "id": 911055599,
  "lat": 43.6261069,
  "lon": 3.8950134
},
{
  "type": "node",
  "id": 911055760,
  "lat": 43.6247822,
  "lon": 3.8936184
},
{
  "type": "node",
  "id": 3156352736,
  "lat": 43.6242678,
  "lon": 3.8930857
},
{
  "type": "node",
  "id": 6255493123,
  "lat": 43.6269911,
  "lon": 3.8959361
},
{
  "type": "node",
  "id": 7498251073,
  "lat": 43.6262963,
  "lon": 3.8952138
},
{
  "type": "node",
  "id": 7498251074,
  "lat": 43.6263551,
  "lon": 3.8952801
},
{
  "type": "node",
  "id": 7498251075,
  "lat": 43.6266977,
  "lon": 3.8956288
},
{
  "type": "node",
  "id": 7507240442,
  "lat": 43.6259887,
  "lon": 3.8948889
},
{
  "type": "node",
  "id": 280734456,
  "lat": 43.6109715,
  "lon": 3.9063430
},
{
  "type": "node",
  "id": 280738592,
  "lat": 43.6109718,
  "lon": 3.9063027
},
{
  "type": "node",
  "id": 970736197,
  "lat": 43.6109595,
  "lon": 3.9063878
},
{
  "type": "node",
  "id": 970736251,
  "lat": 43.6109461,
  "lon": 3.9062313
},
{
  "type": "node",
  "id": 8795759056,
  "lat": 43.6109670,
  "lon": 3.9063662
},
{
  "type": "node",
  "id": 8795759057,
  "lat": 43.6109631,
  "lon": 3.9062642
},
{
  "type": "node",
  "id": 73118876,
  "lat": 43.6422185,
  "lon": 3.8191447
},
{
  "type": "node",
  "id": 73118890,
  "lat": 43.6420661,
  "lon": 3.8190402
},
{
  "type": "node",
  "id": 280940205,
  "lat": 43.6419611,
  "lon": 3.8195659
},
{
  "type": "node",
  "id": 1680636910,
  "lat": 43.6413976,
  "lon": 3.8204143
},
{
  "type": "node",
  "id": 1680636914,
  "lat": 43.6415057,
  "lon": 3.8203744
},
{
  "type": "node",
  "id": 1680636923,
  "lat": 43.6416740,
  "lon": 3.8200797
},
{
  "type": "node",
  "id": 1680636932,
  "lat": 43.6418149,
  "lon": 3.8196538
},
{
  "type": "node",
  "id": 1680636964,
  "lat": 43.6419831,
  "lon": 3.8193528
},
{
  "type": "node",
  "id": 1680636977,
  "lat": 43.6420400,
  "lon": 3.8192255
},
{
  "type": "node",
  "id": 1680636980,
  "lat": 43.6420504,
  "lon": 3.8194092
},
{
  "type": "node",
  "id": 1680636986,
  "lat": 43.6420664,
  "lon": 3.8191225
},
{
  "type": "node",
  "id": 1680636989,
  "lat": 43.6421025,
  "lon": 3.8192775
},
{
  "type": "node",
  "id": 1680637012,
  "lat": 43.6421505,
  "lon": 3.8191812
},
{
  "type": "node",
  "id": 2617147915,
  "lat": 43.6416193,
  "lon": 3.8200234
},
{
  "type": "node",
  "id": 2617147917,
  "lat": 43.6416276,
  "lon": 3.8201655
},
{
  "type": "node",
  "id": 2617147919,
  "lat": 43.6416614,
  "lon": 3.8199491
},
{
  "type": "node",
  "id": 6314182457,
  "lat": 43.6416534,
  "lon": 3.8201166
},
{
  "type": "node",
  "id": 280940873,
  "lat": 43.6410773,
  "lon": 3.8210757
},
{
  "type": "node",
  "id": 1680636868,
  "lat": 43.6411374,
  "lon": 3.8208755
},
{
  "type": "node",
  "id": 1680636880,
  "lat": 43.6411885,
  "lon": 3.8209328
},
{
  "type": "node",
  "id": 2617147907,
  "lat": 43.6411241,
  "lon": 3.8209306
},
{
  "type": "node",
  "id": 2617147908,
  "lat": 43.6411663,
  "lon": 3.8209792
},
{
  "type": "node",
  "id": 60025127,
  "lat": 43.6373081,
  "lon": 3.8310081
},
{
  "type": "node",
  "id": 276884856,
  "lat": 43.6372164,
  "lon": 3.8308679
},
{
  "type": "node",
  "id": 276884857,
  "lat": 43.6371659,
  "lon": 3.8308191
},
{
  "type": "node",
  "id": 276884892,
  "lat": 43.6373297,
  "lon": 3.8316213
},
{
  "type": "node",
  "id": 276884894,
  "lat": 43.6373621,
  "lon": 3.8315099
},
{
  "type": "node",
  "id": 276884896,
  "lat": 43.6373768,
  "lon": 3.8312718
},
{
  "type": "node",
  "id": 276888268,
  "lat": 43.6373408,
  "lon": 3.8310907
},
{
  "type": "node",
  "id": 1352406178,
  "lat": 43.6372615,
  "lon": 3.8309260
},
{
  "type": "node",
  "id": 2577355058,
  "lat": 43.6372874,
  "lon": 3.8309680
},
{
  "type": "node",
  "id": 3780633536,
  "lat": 43.6373780,
  "lon": 3.8313918
},
{
  "type": "node",
  "id": 3780633557,
  "lat": 43.6372125,
  "lon": 3.8318169
},
{
  "type": "node",
  "id": 3780633563,
  "lat": 43.6372748,
  "lon": 3.8309466
},
{
  "type": "node",
  "id": 3780633564,
  "lat": 43.6372785,
  "lon": 3.8317276
},
{
  "type": "node",
  "id": 3780633576,
  "lat": 43.6373639,
  "lon": 3.8311793
},
{
  "type": "node",
  "id": 280291139,
  "lat": 43.6395641,
  "lon": 3.8394637
},
{
  "type": "node",
  "id": 282449621,
  "lat": 43.6428410,
  "lon": 3.8367018
},
{
  "type": "node",
  "id": 282451522,
  "lat": 43.6371657,
  "lon": 3.8368156
},
{
  "type": "node",
  "id": 282451523,
  "lat": 43.6374273,
  "lon": 3.8370463
},
{
  "type": "node",
  "id": 282451524,
  "lat": 43.6376020,
  "lon": 3.8372809
},
{
  "type": "node",
  "id": 282452588,
  "lat": 43.6377657,
  "lon": 3.8375730
},
{
  "type": "node",
  "id": 282452590,
  "lat": 43.6379032,
  "lon": 3.8378941
},
{
  "type": "node",
  "id": 282452591,
  "lat": 43.6380854,
  "lon": 3.8381857
},
{
  "type": "node",
  "id": 282452592,
  "lat": 43.6383200,
  "lon": 3.8384217
},
{
  "type": "node",
  "id": 282452593,
  "lat": 43.6389978,
  "lon": 3.8389824
},
{
  "type": "node",
  "id": 2122741450,
  "lat": 43.6386726,
  "lon": 3.8387134
},
{
  "type": "node",
  "id": 2122741455,
  "lat": 43.6391646,
  "lon": 3.8391142
},
{
  "type": "node",
  "id": 2400450288,
  "lat": 43.6429388,
  "lon": 3.8367093
},
{
  "type": "node",
  "id": 2400450321,
  "lat": 43.6431604,
  "lon": 3.8367264
},
{
  "type": "node",
  "id": 2799500002,
  "lat": 43.6380410,
  "lon": 3.8381146
},
{
  "type": "node",
  "id": 2799500008,
  "lat": 43.6381686,
  "lon": 3.8382694
},
{
  "type": "node",
  "id": 2799500055,
  "lat": 43.6394678,
  "lon": 3.8393818
},
{
  "type": "node",
  "id": 3417520057,
  "lat": 43.6387971,
  "lon": 3.8388164
},
{
  "type": "node",
  "id": 3417520078,
  "lat": 43.6383052,
  "lon": 3.8384068
},
{
  "type": "node",
  "id": 3986451408,
  "lat": 43.6390176,
  "lon": 3.8389980
},
{
  "type": "node",
  "id": 4223730963,
  "lat": 43.6432710,
  "lon": 3.8367349
},
{
  "type": "node",
  "id": 4504795525,
  "lat": 43.6372331,
  "lon": 3.8368750
},
{
  "type": "node",
  "id": 5263791444,
  "lat": 43.6379524,
  "lon": 3.8379728
},
{
  "type": "node",
  "id": 5263791465,
  "lat": 43.6373061,
  "lon": 3.8369394
},
{
  "type": "node",
  "id": 5263791484,
  "lat": 43.6376764,
  "lon": 3.8374137
},
{
  "type": "node",
  "id": 6338274488,
  "lat": 43.6436491,
  "lon": 3.8367687
},
{
  "type": "node",
  "id": 6789296294,
  "lat": 43.6392730,
  "lon": 3.8392099
},
{
  "type": "node",
  "id": 6789296295,
  "lat": 43.6392883,
  "lon": 3.8392234
},
{
  "type": "node",
  "id": 9125707587,
  "lat": 43.6432181,
  "lon": 3.8367308
},
{
  "type": "node",
  "id": 282449627,
  "lat": 43.6439762,
  "lon": 3.8368038
},
{
  "type": "node",
  "id": 282449628,
  "lat": 43.6442496,
  "lon": 3.8368843
},
{
  "type": "node",
  "id": 282449629,
  "lat": 43.6445970,
  "lon": 3.8371182
},
{
  "type": "node",
  "id": 282449630,
  "lat": 43.6449433,
  "lon": 3.8374977
},
{
  "type": "node",
  "id": 282449631,
  "lat": 43.6452669,
  "lon": 3.8378608
},
{
  "type": "node",
  "id": 282449633,
  "lat": 43.6458524,
  "lon": 3.8385379
},
{
  "type": "node",
  "id": 1616117824,
  "lat": 43.6462028,
  "lon": 3.8389265
},
{
  "type": "node",
  "id": 4223730902,
  "lat": 43.6460187,
  "lon": 3.8387223
},
{
  "type": "node",
  "id": 4223730924,
  "lat": 43.6446740,
  "lon": 3.8372026
},
{
  "type": "node",
  "id": 4223730958,
  "lat": 43.6444307,
  "lon": 3.8369893
},
{
  "type": "node",
  "id": 5728571564,
  "lat": 43.6447463,
  "lon": 3.8372818
},
{
  "type": "node",
  "id": 5728571584,
  "lat": 43.6450624,
  "lon": 3.8376313
},
{
  "type": "node",
  "id": 6338274383,
  "lat": 43.6441535,
  "lon": 3.8368430
},
{
  "type": "node",
  "id": 6338274384,
  "lat": 43.6443377,
  "lon": 3.8369306
},
{
  "type": "node",
  "id": 6338274485,
  "lat": 43.6438358,
  "lon": 3.8367887
},
{
  "type": "node",
  "id": 6338274486,
  "lat": 43.6438649,
  "lon": 3.8367918
},
{
  "type": "node",
  "id": 6338274487,
  "lat": 43.6440787,
  "lon": 3.8368209
},
{
  "type": "node",
  "id": 282449249,
  "lat": 43.6445170,
  "lon": 3.8416283
},
{
  "type": "node",
  "id": 282449250,
  "lat": 43.6444419,
  "lon": 3.8417492
},
{
  "type": "node",
  "id": 282449251,
  "lat": 43.6444433,
  "lon": 3.8418566
},
{
  "type": "node",
  "id": 282449252,
  "lat": 43.6444605,
  "lon": 3.8419053
},
{
  "type": "node",
  "id": 282449253,
  "lat": 43.6445052,
  "lon": 3.8419624
},
{
  "type": "node",
  "id": 282449254,
  "lat": 43.6447020,
  "lon": 3.8418581
},
{
  "type": "node",
  "id": 282449255,
  "lat": 43.6447070,
  "lon": 3.8417698
},
{
  "type": "node",
  "id": 282449256,
  "lat": 43.6446823,
  "lon": 3.8416881
},
{
  "type": "node",
  "id": 282449257,
  "lat": 43.6445950,
  "lon": 3.8416142
},
{
  "type": "node",
  "id": 282455358,
  "lat": 43.6446847,
  "lon": 3.8419062
},
{
  "type": "node",
  "id": 286656301,
  "lat": 43.6445925,
  "lon": 3.8419913
},
{
  "type": "node",
  "id": 286656302,
  "lat": 43.6445633,
  "lon": 3.8419869
},
{
  "type": "node",
  "id": 1107412266,
  "lat": 43.6446284,
  "lon": 3.8416281
},
{
  "type": "node",
  "id": 1107412267,
  "lat": 43.6444369,
  "lon": 3.8418030
},
{
  "type": "node",
  "id": 1107412271,
  "lat": 43.6445553,
  "lon": 3.8416133
},
{
  "type": "node",
  "id": 1107412272,
  "lat": 43.6444836,
  "lon": 3.8416579
},
{
  "type": "node",
  "id": 1107412273,
  "lat": 43.6446982,
  "lon": 3.8417269
},
{
  "type": "node",
  "id": 1107412274,
  "lat": 43.6447083,
  "lon": 3.8418143
},
{
  "type": "node",
  "id": 2104729325,
  "lat": 43.6446581,
  "lon": 3.8416533
},
{
  "type": "node",
  "id": 2400450539,
  "lat": 43.6444577,
  "lon": 3.8416996
},
{
  "type": "node",
  "id": 3417540793,
  "lat": 43.6446576,
  "lon": 3.8419463
},
{
  "type": "node",
  "id": 287937780,
  "lat": 43.6379826,
  "lon": 3.8595193
},
{
  "type": "node",
  "id": 287937781,
  "lat": 43.6385540,
  "lon": 3.8594161
},
{
  "type": "node",
  "id": 287937782,
  "lat": 43.6387493,
  "lon": 3.8593361
},
{
  "type": "node",
  "id": 1692917904,
  "lat": 43.6405487,
  "lon": 3.8577149
},
{
  "type": "node",
  "id": 1692917911,
  "lat": 43.6406460,
  "lon": 3.8576830
},
{
  "type": "node",
  "id": 1692917938,
  "lat": 43.6407188,
  "lon": 3.8576954
},
{
  "type": "node",
  "id": 1692917956,
  "lat": 43.6407814,
  "lon": 3.8577498
},
{
  "type": "node",
  "id": 1989560586,
  "lat": 43.6382131,
  "lon": 3.8594841
},
{
  "type": "node",
  "id": 1989560595,
  "lat": 43.6384898,
  "lon": 3.8594332
},
{
  "type": "node",
  "id": 2041635883,
  "lat": 43.6406816,
  "lon": 3.8576882
},
{
  "type": "node",
  "id": 2123565331,
  "lat": 43.6383542,
  "lon": 3.8594613
},
{
  "type": "node",
  "id": 2392215496,
  "lat": 43.6381634,
  "lon": 3.8594918
},
{
  "type": "node",
  "id": 3380465250,
  "lat": 43.6404192,
  "lon": 3.8579062
},
{
  "type": "node",
  "id": 4319492306,
  "lat": 43.6404832,
  "lon": 3.8578116
},
{
  "type": "node",
  "id": 4319492307,
  "lat": 43.6404749,
  "lon": 3.8578238
},
{
  "type": "node",
  "id": 8728526141,
  "lat": 43.6407002,
  "lon": 3.8576918
},
{
  "type": "node",
  "id": 8728554034,
  "lat": 43.6386517,
  "lon": 3.8593761
},
{
  "type": "node",
  "id": 245558662,
  "lat": 43.6450389,
  "lon": 3.8691259
},
{
  "type": "node",
  "id": 245558663,
  "lat": 43.6450461,
  "lon": 3.8692237
},
{
  "type": "node",
  "id": 246697299,
  "lat": 43.6448247,
  "lon": 3.8693866
},
{
  "type": "node",
  "id": 290660547,
  "lat": 43.6448007,
  "lon": 3.8690260
},
{
  "type": "node",
  "id": 290660549,
  "lat": 43.6450209,
  "lon": 3.8693156
},
{
  "type": "node",
  "id": 290660551,
  "lat": 43.6449000,
  "lon": 3.8694087
},
{
  "type": "node",
  "id": 290660552,
  "lat": 43.6447429,
  "lon": 3.8691507
},
{
  "type": "node",
  "id": 290660553,
  "lat": 43.6447422,
  "lon": 3.8692371
},
{
  "type": "node",
  "id": 290660554,
  "lat": 43.6447665,
  "lon": 3.8693168
},
{
  "type": "node",
  "id": 290660555,
  "lat": 43.6448025,
  "lon": 3.8693680
},
{
  "type": "node",
  "id": 290660556,
  "lat": 43.6450232,
  "lon": 3.8690814
},
{
  "type": "node",
  "id": 290660557,
  "lat": 43.6449735,
  "lon": 3.8690142
},
{
  "type": "node",
  "id": 290660558,
  "lat": 43.6449074,
  "lon": 3.8689840
},
{
  "type": "node",
  "id": 290660559,
  "lat": 43.6448625,
  "lon": 3.8689875
},
{
  "type": "node",
  "id": 290660560,
  "lat": 43.6450466,
  "lon": 3.8691742
},
{
  "type": "node",
  "id": 454101185,
  "lat": 43.6447527,
  "lon": 3.8691094
},
{
  "type": "node",
  "id": 2163769894,
  "lat": 43.6447393,
  "lon": 3.8691938
},
{
  "type": "node",
  "id": 2163769896,
  "lat": 43.6447514,
  "lon": 3.8692787
},
{
  "type": "node",
  "id": 2163769898,
  "lat": 43.6447638,
  "lon": 3.8690808
},
{
  "type": "node",
  "id": 2163769899,
  "lat": 43.6447830,
  "lon": 3.8693445
},
{
  "type": "node",
  "id": 2163769900,
  "lat": 43.6448488,
  "lon": 3.8693998
},
{
  "type": "node",
  "id": 2163769901,
  "lat": 43.6448741,
  "lon": 3.8694072
},
{
  "type": "node",
  "id": 2163769904,
  "lat": 43.6449354,
  "lon": 3.8694009
},
{
  "type": "node",
  "id": 2163769905,
  "lat": 43.6449684,
  "lon": 3.8693820
},
{
  "type": "node",
  "id": 2163769907,
  "lat": 43.6449975,
  "lon": 3.8693530
},
{
  "type": "node",
  "id": 2163769911,
  "lat": 43.6450374,
  "lon": 3.8692717
},
{
  "type": "node",
  "id": 3743197173,
  "lat": 43.6449417,
  "lon": 3.8689939
},
{
  "type": "node",
  "id": 3743197175,
  "lat": 43.6450011,
  "lon": 3.8690439
},
{
  "type": "node",
  "id": 5254368897,
  "lat": 43.6448300,
  "lon": 3.8690020
},
{
  "type": "node",
  "id": 5254368898,
  "lat": 43.6447805,
  "lon": 3.8690511
}

  ]
}
