{
  "version": 0.6,
  "generator": "Overpass API 0.7.57 93a4d346",
  "osm3s": {
    "timestamp_osm_base": "2022-02-13T13:49:54Z",
    "timestamp_areas_base": "2022-02-13T06:31:57Z",
    "copyright": "The data included in this document is from www.openstreetmap.org. The data is made available under ODbL."
  },
  "elements": [

{
  "type": "node",
  "id": 279699138,
  "lat": 16.2620367,
  "lon": -61.5017580,
  "tags": {
    "bus": "yes",
    "highway": "bus_stop",
    "name": "Carrefour Nérée",
    "operator": "Karu'lis",
    "public_transport": "platform"
  }
},
{
  "type": "node",
  "id": 300010721,
  "lat": 16.2799842,
  "lon": -61.4955054,
  "tags": {
    "bus": "yes",
    "highway": "bus_stop",
    "public_transport": "platform"
  }
},
{
  "type": "node",
  "id": 300014069,
  "lat": 16.2919328,
  "lon": -61.4924870,
  "tags": {
    "bus": "yes",
    "highway": "bus_stop",
    "public_transport": "platform"
  }
},
{
  "type": "node",
  "id": 483268731,
  "lat": 16.2645534,
  "lon": -61.4674164,
  "tags": {
    "bus": "yes",
    "highway": "bus_stop",
    "name": "Rue Henry",
    "operator": "Karu'lis",
    "public_transport": "platform",
    "source": "cadastre-dgi-fr source : Direction Générale des Impôts - Cadastre;mise à jour : 2008"
  }
},
{
  "type": "node",
  "id": 483329693,
  "lat": 16.2617322,
  "lon": -61.4518478,
  "tags": {
    "bus": "yes",
    "highway": "bus_stop",
    "name": "Impase Farhasmane",
    "operator": "Karu'lis",
    "public_transport": "platform",
    "source": "cadastre-dgi-fr source : Direction Générale des Impôts - Cadastre. Mise à jour : 2008"
  }
},
{
  "type": "node",
  "id": 519916306,
  "lat": 16.2690382,
  "lon": -61.5067390,
  "tags": {
    "bus": "yes",
    "highway": "bus_stop",
    "name": "Bourg",
    "operator": "Karu'lis",
    "public_transport": "platform"
  }
},
{
  "type": "node",
  "id": 560860428,
  "lat": 16.2599755,
  "lon": -61.5290366,
  "tags": {
    "bus": "yes",
    "highway": "bus_stop",
    "public_transport": "platform",
    "source": "cadastre-dgi-fr source : Direction Générale des Impôts - Cadastre ; mise à jour : 2008"
  }
},
{
  "type": "node",
  "id": 560862620,
  "lat": 16.2554475,
  "lon": -61.5300854,
  "tags": {
    "bus": "yes",
    "highway": "bus_stop",
    "public_transport": "platform",
    "source": "cadastre-dgi-fr source : Direction Générale des Impôts - Cadastre ; mise à jour : 2008"
  }
},
{
  "type": "node",
  "id": 568749153,
  "lat": 16.2935055,
  "lon": -61.4810143,
  "tags": {
    "bus": "yes",
    "highway": "bus_stop",
    "public_transport": "platform",
    "source": "cadastre-dgi-fr source : Direction Générale des Impôts - Cadastre. Mise à jour : 2009"
  }
},
{
  "type": "node",
  "id": 1741202564,
  "lat": 16.2694255,
  "lon": -61.5063306,
  "tags": {
    "bench": "yes",
    "bus": "yes",
    "highway": "bus_stop",
    "name": "Bourg/ Daniel  Capou",
    "operator": "Karu'lis",
    "public_transport": "platform",
    "shelter": "yes"
  }
},
{
  "type": "node",
  "id": 3903798998,
  "lat": 16.2641271,
  "lon": -61.4654779,
  "tags": {
    "bus": "yes",
    "highway": "bus_stop",
    "name": "Impasse René Lambert",
    "operator": "Karu'lis",
    "public_transport": "platform"
  }
},
{
  "type": "node",
  "id": 5079811721,
  "lat": 16.2645562,
  "lon": -61.4891856,
  "tags": {
    "bus": "yes",
    "highway": "bus_stop",
    "operator": "Karu'lis",
    "public_transport": "platform"
  }
},
{
  "type": "node",
  "id": 5079811821,
  "lat": 16.2663022,
  "lon": -61.4823823,
  "tags": {
    "bus": "yes",
    "highway": "bus_stop",
    "operator": "Karu'lis",
    "public_transport": "platform"
  }
},
{
  "type": "node",
  "id": 5097653630,
  "lat": 16.2244487,
  "lon": -61.5269333,
  "tags": {
    "bus": "yes",
    "highway": "bus_stop",
    "name": "Blanchard Université",
    "operator": "Karu'lis",
    "public_transport": "platform"
  }
},
{
  "type": "node",
  "id": 5108552963,
  "lat": 16.2491227,
  "lon": -61.5245370,
  "tags": {
    "bus": "yes",
    "highway": "bus_stop",
    "name": "Lycée Baimbridge",
    "public_transport": "platform"
  }
},
{
  "type": "node",
  "id": 5108553045,
  "lat": 16.2580689,
  "lon": -61.4548970,
  "tags": {
    "bus": "yes",
    "highway": "bus_stop",
    "name": "Carrefour Bouliqui",
    "operator": "Karu'lis",
    "public_transport": "platform"
  }
},
{
  "type": "node",
  "id": 5121274426,
  "lat": 16.2542170,
  "lon": -61.5228515,
  "tags": {
    "bus": "yes",
    "highway": "bus_stop",
    "name": "Résidence Marie-Galante",
    "operator": "Karu'lis",
    "public_transport": "platform"
  }
},
{
  "type": "node",
  "id": 5121274427,
  "lat": 16.2570408,
  "lon": -61.5203148,
  "tags": {
    "bus": "yes",
    "highway": "bus_stop",
    "name": "Creps",
    "operator": "Karu'lis",
    "public_transport": "platform"
  }
},
{
  "type": "node",
  "id": 5343308751,
  "lat": 16.2574886,
  "lon": -61.4579882,
  "tags": {
    "bus": "yes",
    "highway": "bus_stop",
    "name": "Carrefour Leroux",
    "operator": "Karu'lis",
    "public_transport": "platform"
  }
},
{
  "type": "node",
  "id": 6348453585,
  "lat": 16.2637118,
  "lon": -61.5131009,
  "tags": {
    "bus": "yes",
    "highway": "bus_stop",
    "name": "Mamiel/C.C. Milenis",
    "network": "SMT",
    "operator": "Karu'lis",
    "public_transport": "platform",
    "wheelchair": "limited"
  }
},
{
  "type": "node",
  "id": 6348453589,
  "lat": 16.2470210,
  "lon": -61.5334759,
  "tags": {
    "bus": "yes",
    "highway": "bus_stop",
    "name": "Rd Pt Miquel",
    "name:en": "Rd Pt Miquel",
    "public_transport": "platform"
  }
},
{
  "type": "node",
  "id": 6761600486,
  "lat": 16.2712634,
  "lon": -61.5175591,
  "tags": {
    "bus": "yes",
    "highway": "bus_stop",
    "name": "La Coulée Verte",
    "public_transport": "platform"
  }
},
{
  "type": "node",
  "id": 6761691467,
  "lat": 16.2386786,
  "lon": -61.5267147,
  "tags": {
    "bus": "yes",
    "highway": "bus_stop",
    "name": "C.H.U De PAP / Abymes",
    "public_transport": "platform"
  }
},
{
  "type": "node",
  "id": 6786388748,
  "lat": 16.2387675,
  "lon": -61.5266896,
  "tags": {
    "bus": "yes",
    "highway": "bus_stop",
    "name": "C.H.U De PAP / Abymes",
    "network": "SMT",
    "operator": "Karu'lis",
    "public_transport": "platform"
  }
},
{
  "type": "node",
  "id": 6786458202,
  "lat": 16.2516168,
  "lon": -61.5210269,
  "tags": {
    "bus": "yes",
    "highway": "bus_stop",
    "name": "Rond-point Ignace",
    "network": "SMT",
    "operator": "Karu'lis",
    "public_transport": "platform"
  }
},
{
  "type": "node",
  "id": 6786458203,
  "lat": 16.2711118,
  "lon": -61.5050883,
  "tags": {
    "bus": "yes",
    "highway": "bus_stop",
    "name": "Mairie des Abymes",
    "network": "SMT",
    "operator": "Karu'lis",
    "public_transport": "platform"
  }
},
{
  "type": "node",
  "id": 6786458204,
  "lat": 16.2722257,
  "lon": -61.5049047,
  "tags": {
    "bus": "yes",
    "highway": "bus_stop",
    "name": "Rue du Cimetiere",
    "network": "SMT",
    "operator": "Karu'lis",
    "public_transport": "platform"
  }
},
{
  "type": "node",
  "id": 6786458205,
  "lat": 16.2784214,
  "lon": -61.5074952,
  "tags": {
    "bus": "yes",
    "highway": "bus_stop",
    "name": "Bvd 10 Mai 1981",
    "network": "SMT",
    "operator": "Karu'lis",
    "public_transport": "platform"
  }
},
{
  "type": "node",
  "id": 6786458206,
  "lat": 16.2807918,
  "lon": -61.5052228,
  "tags": {
    "bus": "yes",
    "highway": "bus_stop",
    "name": "Boisripeaux",
    "network": "SMT",
    "operator": "Karu'lis",
    "public_transport": "platform"
  }
},
{
  "type": "node",
  "id": 8815953289,
  "lat": 16.2231180,
  "lon": -61.5250505,
  "tags": {
    "bus": "yes",
    "highway": "bus_stop",
    "name": "Blanchard",
    "operator": "Karu'lis",
    "public_transport": "platform"
  }
},
{
  "type": "node",
  "id": 8818446031,
  "lat": 16.2269195,
  "lon": -61.5292172,
  "tags": {
    "bus": "yes",
    "highway": "bus_stop",
    "name": "Universite",
    "network": "U61",
    "operator": "Karu'lis",
    "public_transport": "platform"
  }
},
{
  "type": "node",
  "id": 8837264357,
  "lat": 16.2487629,
  "lon": -61.5384468,
  "tags": {
    "bus": "yes",
    "highway": "bus_stop",
    "name": "Rond Point G Archimède",
    "public_transport": "platform"
  }
},
{
  "type": "node",
  "id": 8837264358,
  "lat": 16.2525798,
  "lon": -61.5415824,
  "tags": {
    "bus": "yes",
    "highway": "bus_stop",
    "name": "Rond point Grand Camp",
    "public_transport": "platform"
  }
},
{
  "type": "node",
  "id": 9178273892,
  "lat": 16.2412023,
  "lon": -61.4911478,
  "tags": {
    "bus": "yes",
    "highway": "bus_stop",
    "name": "La Bouaye",
    "public_transport": "platform"
  }
},
{
  "type": "node",
  "id": 9178273893,
  "lat": 16.2370249,
  "lon": -61.5118217,
  "tags": {
    "bus": "yes",
    "highway": "bus_stop",
    "public_transport": "platform"
  }
},
{
  "type": "node",
  "id": 9178273894,
  "lat": 16.2391261,
  "lon": -61.5240402,
  "tags": {
    "bus": "yes",
    "highway": "bus_stop",
    "name": "Chauvel Ouest",
    "public_transport": "platform"
  }
},
{
  "type": "node",
  "id": 9178325694,
  "lat": 16.2746497,
  "lon": -61.5104812,
  "tags": {
    "bus": "yes",
    "highway": "bus_stop",
    "name": "Rectorat",
    "operator": "Karu'lis",
    "public_transport": "platform",
    "shelter": "yes"
  }
},
{
  "type": "node",
  "id": 9178325696,
  "lat": 16.2800017,
  "lon": -61.5043717,
  "tags": {
    "bus": "yes",
    "highway": "bus_stop",
    "public_transport": "platform"
  }
},
{
  "type": "node",
  "id": 9178325697,
  "lat": 16.2571258,
  "lon": -61.5203734,
  "tags": {
    "bus": "yes",
    "highway": "bus_stop",
    "operator": "Karu'lis",
    "public_transport": "platform"
  }
},
{
  "type": "node",
  "id": 9178325698,
  "lat": 16.2504272,
  "lon": -61.5227535,
  "tags": {
    "bus": "yes",
    "highway": "bus_stop",
    "public_transport": "platform"
  }
},
{
  "type": "node",
  "id": 9178325699,
  "lat": 16.2453470,
  "lon": -61.5300233,
  "tags": {
    "bus": "yes",
    "highway": "bus_stop",
    "public_transport": "platform"
  }
},
{
  "type": "node",
  "id": 9178325700,
  "lat": 16.2431603,
  "lon": -61.5308527,
  "tags": {
    "bus": "yes",
    "highway": "bus_stop",
    "public_transport": "platform"
  }
},
{
  "type": "node",
  "id": 9241099706,
  "lat": 16.2749919,
  "lon": -61.5238938,
  "tags": {
    "bus": "yes",
    "highway": "bus_stop",
    "name": "Antillo Pole Aéroport",
    "operator": "Karu'lis",
    "public_transport": "platform",
    "shelter": "yes"
  }
},
{
  "type": "node",
  "id": 9244242493,
  "lat": 16.2525135,
  "lon": -61.5421120,
  "tags": {
    "bus": "yes",
    "highway": "bus_stop",
    "public_transport": "platform"
  }
},
{
  "type": "node",
  "id": 9257057174,
  "lat": 16.2766595,
  "lon": -61.5119673,
  "tags": {
    "bus": "yes",
    "highway": "bus_stop",
    "name": "Pôle emploi Dothémare",
    "operator": "Karu'lis",
    "public_transport": "platform"
  }
},
{
  "type": "node",
  "id": 9258550923,
  "lat": 16.2486002,
  "lon": -61.5333328,
  "tags": {
    "bus": "yes",
    "highway": "bus_stop",
    "public_transport": "platform"
  }
},
{
  "type": "node",
  "id": 9258550925,
  "lat": 16.2523751,
  "lon": -61.5387544,
  "tags": {
    "bus": "yes",
    "highway": "bus_stop",
    "name": "Belvédère",
    "public_transport": "platform"
  }
},
{
  "type": "node",
  "id": 9258563859,
  "lat": 16.2522579,
  "lon": -61.5251840,
  "tags": {
    "bus": "yes",
    "highway": "bus_stop",
    "name": "Anquetil",
    "operator": "Karu'lis",
    "public_transport": "platform"
  }
},
{
  "type": "node",
  "id": 9258563860,
  "lat": 16.2636150,
  "lon": -61.5128629,
  "tags": {
    "bus": "yes",
    "highway": "bus_stop",
    "name": "C.C Milenis",
    "operator": "Karu'lis",
    "public_transport": "platform"
  }
},
{
  "type": "node",
  "id": 9258563861,
  "lat": 16.2808512,
  "lon": -61.4968524,
  "tags": {
    "bus": "yes",
    "highway": "bus_stop",
    "operator": "Karu'lis",
    "public_transport": "platform"
  }
},
{
  "type": "node",
  "id": 9267053361,
  "lat": 16.2776070,
  "lon": -61.5087193,
  "tags": {
    "bus": "yes",
    "highway": "bus_stop",
    "public_transport": "platform"
  }
},
{
  "type": "node",
  "id": 9269756272,
  "lat": 16.2944684,
  "lon": -61.5113097,
  "tags": {
    "bus": "yes",
    "highway": "bus_stop",
    "operator": "Karu'lis",
    "public_transport": "platform"
  }
},
{
  "type": "node",
  "id": 9273503445,
  "lat": 16.2615196,
  "lon": -61.4451261,
  "tags": {
    "bus": "yes",
    "highway": "bus_stop",
    "name": "Montee Masselas",
    "operator": "Karu'lis",
    "public_transport": "platform"
  }
},
{
  "type": "node",
  "id": 9273503446,
  "lat": 16.2629013,
  "lon": -61.4483770,
  "tags": {
    "bus": "yes",
    "highway": "bus_stop",
    "name": "Rue Chabus",
    "operator": "Karu'lis",
    "public_transport": "platform"
  }
},
{
  "type": "node",
  "id": 9273503447,
  "lat": 16.2567266,
  "lon": -61.4597548,
  "tags": {
    "bus": "yes",
    "highway": "bus_stop",
    "name": "Carrefour leroux est",
    "operator": "Karu'lis",
    "public_transport": "platform"
  }
},
{
  "type": "node",
  "id": 9273503448,
  "lat": 16.2620681,
  "lon": -61.4636497,
  "tags": {
    "bus": "yes",
    "highway": "bus_stop",
    "name": "Jacob",
    "operator": "Karu'lis",
    "public_transport": "platform"
  }
},
{
  "type": "node",
  "id": 9273503449,
  "lat": 16.2662386,
  "lon": -61.4717650,
  "tags": {
    "bus": "yes",
    "highway": "bus_stop",
    "name": "Impasse Frederic",
    "operator": "Karu'lis",
    "public_transport": "platform"
  }
},
{
  "type": "node",
  "id": 9273503450,
  "lat": 16.2651394,
  "lon": -61.4767688,
  "tags": {
    "bus": "yes",
    "highway": "bus_stop",
    "name": "Rue J Manlius",
    "operator": "Karu'lis",
    "public_transport": "platform"
  }
},
{
  "type": "node",
  "id": 9273503451,
  "lat": 16.2648567,
  "lon": -61.4802033,
  "tags": {
    "bus": "yes",
    "highway": "bus_stop",
    "name": "Impasse Capet",
    "operator": "Karu'lis",
    "public_transport": "platform"
  }
},
{
  "type": "node",
  "id": 9273503452,
  "lat": 16.2663428,
  "lon": -61.4823238,
  "tags": {
    "bus": "yes",
    "highway": "bus_stop",
    "name": "Ecole de Boisvin",
    "operator": "Karu'lis",
    "public_transport": "platform"
  }
},
{
  "type": "node",
  "id": 9273503453,
  "lat": 16.2671414,
  "lon": -61.4846950,
  "tags": {
    "bus": "yes",
    "highway": "bus_stop",
    "name": "London",
    "operator": "Karu'lis",
    "public_transport": "platform"
  }
},
{
  "type": "node",
  "id": 9273503454,
  "lat": 16.2647024,
  "lon": -61.4891337,
  "tags": {
    "bus": "yes",
    "highway": "bus_stop",
    "name": "Rue Charlemagne",
    "operator": "Karu'lis",
    "public_transport": "platform"
  }
},
{
  "type": "node",
  "id": 9273503455,
  "lat": 16.2623818,
  "lon": -61.4923234,
  "tags": {
    "bus": "yes",
    "highway": "bus_stop",
    "name": "Route De Bonnier Nord",
    "operator": "Karu'lis",
    "public_transport": "platform"
  }
},
{
  "type": "node",
  "id": 9273503456,
  "lat": 16.2612487,
  "lon": -61.4979376,
  "tags": {
    "bus": "yes",
    "highway": "bus_stop",
    "name": "Pont de Caraque",
    "operator": "Karu'lis",
    "public_transport": "platform"
  }
},
{
  "type": "node",
  "id": 9273503458,
  "lat": 16.2634103,
  "lon": -61.5006784,
  "tags": {
    "bus": "yes",
    "highway": "bus_stop",
    "name": "Nérée 1",
    "public_transport": "platform"
  }
},
{
  "type": "node",
  "id": 9273503459,
  "lat": 16.2657764,
  "lon": -61.5008996,
  "tags": {
    "bus": "yes",
    "highway": "bus_stop",
    "name": "Nérée 2",
    "public_transport": "platform"
  }
},
{
  "type": "node",
  "id": 9273503460,
  "lat": 16.2687413,
  "lon": -61.5029140,
  "tags": {
    "bus": "yes",
    "highway": "bus_stop",
    "name": "Nérée 3",
    "public_transport": "platform"
  }
},
{
  "type": "node",
  "id": 9273503461,
  "lat": 16.2690961,
  "lon": -61.5057396,
  "tags": {
    "bus": "yes",
    "highway": "bus_stop",
    "name": "Salle des Fete",
    "public_transport": "platform"
  }
},
{
  "type": "node",
  "id": 9273503462,
  "lat": 16.2691607,
  "lon": -61.5065984,
  "tags": {
    "bus": "yes",
    "highway": "bus_stop",
    "name": "Bourg / Daniel  Capou",
    "operator": "Karu'lis",
    "public_transport": "platform"
  }
},
{
  "type": "node",
  "id": 9273503463,
  "lat": 16.2661055,
  "lon": -61.5098008,
  "tags": {
    "bus": "yes",
    "highway": "bus_stop",
    "name": "Providence",
    "operator": "Karu'lis",
    "public_transport": "platform"
  }
},
{
  "type": "node",
  "id": 9273503464,
  "lat": 16.2600640,
  "lon": -61.5181482,
  "tags": {
    "bus": "yes",
    "highway": "bus_stop",
    "name": "Mamiel",
    "operator": "Karu'lis",
    "public_transport": "platform"
  }
},
{
  "type": "node",
  "id": 9273503465,
  "lat": 16.2578527,
  "lon": -61.5198058,
  "tags": {
    "bus": "yes",
    "highway": "bus_stop",
    "name": "creps",
    "operator": "Karu'lis",
    "public_transport": "platform"
  }
},
{
  "type": "node",
  "id": 9273503466,
  "lat": 16.2549653,
  "lon": -61.5222900,
  "tags": {
    "bus": "yes",
    "highway": "bus_stop",
    "name": "Residence Marie Galante",
    "operator": "Karu'lis",
    "public_transport": "platform"
  }
},
{
  "type": "node",
  "id": 9273503467,
  "lat": 16.2523021,
  "lon": -61.5254120,
  "tags": {
    "bus": "yes",
    "highway": "bus_stop",
    "name": "Anquetil",
    "operator": "Karu'lis",
    "public_transport": "platform"
  }
},
{
  "type": "node",
  "id": 9273503468,
  "lat": 16.2507317,
  "lon": -61.5280938,
  "tags": {
    "bus": "yes",
    "highway": "bus_stop",
    "name": "Hibiscus",
    "operator": "Karu'lis",
    "public_transport": "platform"
  }
},
{
  "type": "node",
  "id": 9273503469,
  "lat": 16.2488752,
  "lon": -61.5312281,
  "tags": {
    "bus": "yes",
    "highway": "bus_stop",
    "name": "Vieux Bourg (Abymes)",
    "operator": "Karu'lis",
    "public_transport": "platform"
  }
},
{
  "type": "node",
  "id": 9273503470,
  "lat": 16.2470920,
  "lon": -61.5336203,
  "tags": {
    "bus": "yes",
    "highway": "bus_stop",
    "name": "Rd Pt Miquel",
    "public_transport": "platform"
  }
},
{
  "type": "node",
  "id": 9275340990,
  "lat": 16.2772021,
  "lon": -61.5097673,
  "tags": {
    "bus": "yes",
    "highway": "bus_stop",
    "name": "SDIS",
    "operator": "Karu'lis",
    "public_transport": "platform"
  }
},
{
  "type": "node",
  "id": 9275340991,
  "lat": 16.2788461,
  "lon": -61.5103331,
  "tags": {
    "bus": "yes",
    "highway": "bus_stop",
    "name": "Zac de Dothémare 1",
    "operator": "Karu'lis",
    "public_transport": "platform",
    "shelter": "yes"
  }
},
{
  "type": "node",
  "id": 9281977818,
  "lat": 16.2886914,
  "lon": -61.4746568,
  "tags": {
    "bus": "yes",
    "highway": "bus_stop",
    "name": "Ancien Ecole de Chazeau",
    "public_transport": "platform"
  }
},
{
  "type": "node",
  "id": 9281977819,
  "lat": 16.2891582,
  "lon": -61.4794427,
  "tags": {
    "bus": "yes",
    "highway": "bus_stop",
    "name": "Chapelle Doubs",
    "public_transport": "platform"
  }
},
{
  "type": "node",
  "id": 9281977820,
  "lat": 16.2853083,
  "lon": -61.4839002,
  "tags": {
    "bus": "yes",
    "highway": "bus_stop",
    "name": "Superette Nofrap",
    "public_transport": "platform"
  }
},
{
  "type": "node",
  "id": 9281977821,
  "lat": 16.2830240,
  "lon": -61.4851452,
  "tags": {
    "bus": "yes",
    "highway": "bus_stop",
    "name": "Tamarin",
    "public_transport": "platform"
  }
},
{
  "type": "node",
  "id": 9281977822,
  "lat": 16.2814936,
  "lon": -61.4916133,
  "tags": {
    "bus": "yes",
    "highway": "bus_stop",
    "name": "Route Desravinière",
    "public_transport": "platform"
  }
},
{
  "type": "node",
  "id": 9281977823,
  "lat": 16.2761510,
  "lon": -61.5017355,
  "tags": {
    "bus": "yes",
    "highway": "bus_stop",
    "name": "Boisripeau école",
    "operator": "Karu'lis",
    "public_transport": "platform"
  }
},
{
  "type": "node",
  "id": 9283178459,
  "lat": 16.2600333,
  "lon": -61.5179585,
  "tags": {
    "bus": "yes",
    "highway": "bus_stop",
    "name": "Mamiel",
    "operator": "Karu'lis",
    "public_transport": "platform"
  }
},
{
  "type": "node",
  "id": 9283178461,
  "lat": 16.2659624,
  "lon": -61.5098207,
  "tags": {
    "bus": "yes",
    "highway": "bus_stop",
    "name": "Providence",
    "operator": "Karu'lis",
    "public_transport": "platform"
  }
},
{
  "type": "node",
  "id": 9283178462,
  "lat": 16.2741100,
  "lon": -61.5042579,
  "tags": {
    "bus": "yes",
    "highway": "bus_stop",
    "name": "Boisripeux",
    "operator": "Karu'lis",
    "public_transport": "platform"
  }
},
{
  "type": "node",
  "id": 9283178463,
  "lat": 16.2761294,
  "lon": -61.5016796,
  "tags": {
    "bus": "yes",
    "highway": "bus_stop",
    "name": "Boisripeau ecole",
    "operator": "Karu'lis",
    "public_transport": "platform"
  }
},
{
  "type": "node",
  "id": 9283178464,
  "lat": 16.2801753,
  "lon": -61.4965123,
  "tags": {
    "bus": "yes",
    "highway": "bus_stop",
    "name": "4 Chemins bis",
    "public_transport": "platform"
  }
},
{
  "type": "node",
  "id": 9283178465,
  "lat": 16.2851062,
  "lon": -61.4837941,
  "tags": {
    "bus": "yes",
    "highway": "bus_stop",
    "name": "Superette Nofrap",
    "public_transport": "platform"
  }
},
{
  "type": "node",
  "id": 9283178466,
  "lat": 16.2891442,
  "lon": -61.4793707,
  "tags": {
    "bus": "yes",
    "highway": "bus_stop",
    "name": "Chapelle Doubs",
    "public_transport": "platform"
  }
},
{
  "type": "node",
  "id": 9283178467,
  "lat": 16.2887022,
  "lon": -61.4749250,
  "tags": {
    "bus": "yes",
    "highway": "bus_stop",
    "name": "Ancien Ecole de Chazeau",
    "public_transport": "platform"
  }
},
{
  "type": "node",
  "id": 9283178468,
  "lat": 16.2909151,
  "lon": -61.4565913,
  "tags": {
    "bus": "yes",
    "highway": "bus_stop",
    "name": "Musée De Pierre",
    "public_transport": "platform"
  }
},
{
  "type": "node",
  "id": 9283178469,
  "lat": 16.2895936,
  "lon": -61.4547864,
  "tags": {
    "bus": "yes",
    "highway": "bus_stop",
    "name": "Radar",
    "public_transport": "platform"
  }
},
{
  "type": "node",
  "id": 9283178471,
  "lat": 16.2836873,
  "lon": -61.4466612,
  "tags": {
    "bus": "yes",
    "highway": "bus_stop",
    "name": "Chemin de Terasson",
    "public_transport": "platform"
  }
},
{
  "type": "node",
  "id": 9283178472,
  "lat": 16.2804248,
  "lon": -61.4430590,
  "tags": {
    "bus": "yes",
    "highway": "bus_stop",
    "name": "Sarrazin",
    "public_transport": "platform"
  }
},
{
  "type": "node",
  "id": 9291347901,
  "lat": 16.2681010,
  "lon": -61.5178093,
  "tags": {
    "bus": "yes",
    "highway": "bus_stop",
    "public_transport": "platform"
  }
},
{
  "type": "node",
  "id": 9291347902,
  "lat": 16.2695078,
  "lon": -61.5178304,
  "tags": {
    "bus": "yes",
    "highway": "bus_stop",
    "public_transport": "platform"
  }
},
{
  "type": "node",
  "id": 9297659008,
  "lat": 16.2995626,
  "lon": -61.4912778,
  "tags": {
    "bus": "yes",
    "highway": "bus_stop",
    "public_transport": "platform"
  }
},
{
  "type": "node",
  "id": 9297659009,
  "lat": 16.2995117,
  "lon": -61.4911672,
  "tags": {
    "bus": "yes",
    "highway": "bus_stop",
    "public_transport": "platform"
  }
},
{
  "type": "node",
  "id": 9319566189,
  "lat": 16.2573150,
  "lon": -61.5213214,
  "tags": {
    "bus": "yes",
    "highway": "bus_stop",
    "name": "Abri bus Raizet",
    "public_transport": "platform"
  }
},
{
  "type": "node",
  "id": 9319566190,
  "lat": 16.2592731,
  "lon": -61.5237242,
  "tags": {
    "bus": "yes",
    "highway": "bus_stop",
    "name": "Ancien Aéroport",
    "public_transport": "platform"
  }
},
{
  "type": "node",
  "id": 9319566191,
  "lat": 16.2595269,
  "lon": -61.5262502,
  "tags": {
    "bus": "yes",
    "highway": "bus_stop",
    "public_transport": "platform"
  }
},
{
  "type": "node",
  "id": 9319566193,
  "lat": 16.2597684,
  "lon": -61.5305667,
  "tags": {
    "bus": "yes",
    "highway": "bus_stop",
    "name": "Les Nénuphars",
    "public_transport": "platform"
  }
},
{
  "type": "node",
  "id": 9319566194,
  "lat": 16.2566438,
  "lon": -61.5334156,
  "tags": {
    "bus": "yes",
    "highway": "bus_stop",
    "name": "Papyrus",
    "public_transport": "platform"
  }
},
{
  "type": "node",
  "id": 9403810645,
  "lat": 16.2658482,
  "lon": -61.5160947,
  "tags": {
    "bus": "yes",
    "highway": "bus_stop",
    "public_transport": "platform"
  }
},
{
  "type": "node",
  "id": 9414040938,
  "lat": 16.2560814,
  "lon": -61.5212507,
  "tags": {
    "bus": "yes",
    "highway": "bus_stop",
    "operator": "Karu'lis",
    "public_transport": "platform"
  }
}

  ]
}
