{
  "version": 0.6,
  "generator": "Overpass API 0.7.57.1 74a55df1",
  "osm3s": {
    "timestamp_osm_base": "2022-02-13T13:28:39Z",
    "timestamp_areas_base": "2022-02-13T06:29:09Z",
    "copyright": "The data included in this document is from www.openstreetmap.org. The data is made available under ODbL."
  },
  "elements": [

{
  "type": "area",
  "id": 3600073283,
  "tags": {
    "admin_level": "8",
    "alt_name:el": "Αιάκειο;Αγιάτσο;Αγιάτσου",
    "boundary": "administrative",
    "label:FR:history": "VAH",
    "name": "Ajaccio",
    "name:ar": "أجاكسيو",
    "name:br": "Aiacciu",
    "name:co": "Aiacciu",
    "name:el": "Αζαξιό",
    "name:fa": "آژاکسیو",
    "name:ur": "اژاکسیو",
    "population": "71361",
    "population:date": "2019",
    "postal_code": "20000;20167;20090",
    "ref:INSEE": "2A004",
    "source:name:br": "proper translation",
    "source:population": "INSEE 2022",
    "source:postal_code": "La Poste - 12/2014",
    "type": "boundary",
    "website": "http://www.ajaccio.fr/",
    "wikidata": "Q40104",
    "wikipedia": "fr:Ajaccio"
  }
}

  ]
}
