{
  "version": 0.6,
  "generator": "Overpass API 0.7.57 93a4d346",
  "osm3s": {
    "timestamp_osm_base": "2022-02-13T13:29:38Z",
    "timestamp_areas_base": "2022-02-13T06:31:57Z",
    "copyright": "The data included in this document is from www.openstreetmap.org. The data is made available under ODbL."
  },
  "elements": [

{
  "type": "way",
  "id": 5072441,
  "nodes": [
    34302818,
    7325080023,
    7325080024
  ],
  "tags": {
    "cycleway:right": "lane",
    "highway": "secondary",
    "lanes": "2",
    "lit": "yes",
    "maxspeed": "50",
    "name": "Avenue Max Juvénal",
    "oneway": "yes",
    "ref": "D 65",
    "source:maxspeed": "FR:urban",
    "surface": "asphalt"
  }
},
{
  "type": "way",
  "id": 5072586,
  "nodes": [
    33707195,
    33707199,
    1799303008,
    1799303005,
    9122269188,
    259237906,
    33707201,
    1079787999,
    33707202,
    2506392892,
    33707203,
    2506392875,
    33707204,
    33707205,
    33707206,
    259237863,
    33707207,
    2506392842,
    6109988393,
    8986675453,
    6109988401,
    5672603772
  ],
  "tags": {
    "cycleway:right": "lane",
    "highway": "secondary",
    "lanes": "2",
    "lit": "yes",
    "maxspeed": "50",
    "name": "Rotonde du Bois de l'Aune",
    "oneway": "yes",
    "surface": "asphalt"
  }
},
{
  "type": "way",
  "id": 5072589,
  "nodes": [
    9426500685,
    34317551,
    2279016764
  ],
  "tags": {
    "cycleway:right": "lane",
    "highway": "secondary",
    "lanes": "2",
    "lit": "yes",
    "maxspeed": "50",
    "name": "Avenue Saint-John Perse",
    "oneway": "yes",
    "surface": "asphalt"
  }
},
{
  "type": "way",
  "id": 5072590,
  "nodes": [
    34317613,
    8988304145,
    8984074505,
    8988304183,
    7682635695,
    8988304142,
    9426500644,
    8988304140
  ],
  "tags": {
    "cycleway:right": "lane",
    "cycleway:right:lane": "advisory",
    "highway": "tertiary",
    "lanes": "3",
    "lanes:backward": "1",
    "lanes:bus:backward": "1",
    "lanes:forward": "1",
    "lit": "yes",
    "maxspeed": "50",
    "maxspeed:source": "FR:urban",
    "name": "Avenue Marcel Pagnol",
    "smoothness": "excellent",
    "surface": "asphalt"
  }
},
{
  "type": "way",
  "id": 5079334,
  "nodes": [
    34506235,
    34506236,
    1832652379,
    34506237,
    2506392944,
    34506238,
    34506239,
    7216287654
  ],
  "tags": {
    "cycleway:right": "lane",
    "cycleway:right:lane": "advisory",
    "highway": "secondary",
    "lanes": "1",
    "lit": "yes",
    "maxspeed": "50",
    "maxspeed:source": "FR:urban",
    "name": "Avenue Marcel Pagnol",
    "oneway": "yes",
    "sidewalk": "right",
    "surface": "asphalt"
  }
},
{
  "type": "way",
  "id": 5079335,
  "nodes": [
    33707162,
    8988304173,
    9426500676,
    4665065664,
    7682634767,
    34506252,
    6177003008,
    7682634769,
    34506253,
    9091739804,
    6414388124,
    6177003009,
    9097592828,
    34506232
  ],
  "tags": {
    "cycleway:right": "lane",
    "highway": "secondary",
    "lanes": "1",
    "lit": "yes",
    "maxspeed": "50",
    "maxspeed:source": "FR:urban",
    "name": "Avenue Marcel Pagnol",
    "oneway": "yes",
    "surface": "asphalt"
  }
},
{
  "type": "way",
  "id": 5079336,
  "nodes": [
    34506231,
    6177003007,
    354844823,
    34506250,
    7682634768,
    34506251,
    4665065665,
    9426500677,
    9097592830,
    33707165
  ],
  "tags": {
    "cycleway:right": "lane",
    "highway": "secondary",
    "lanes": "1",
    "lit": "yes",
    "maxspeed": "50",
    "maxspeed:source": "FR:urban",
    "name": "Avenue Marcel Pagnol",
    "oneway": "yes",
    "sidewalk": "right",
    "surface": "asphalt"
  }
},
{
  "type": "way",
  "id": 5081135,
  "nodes": [
    351117317,
    34506200,
    7746607973,
    1832648940,
    34506201,
    7304213648,
    5482322203
  ],
  "tags": {
    "cycleway:right": "lane",
    "cycleway:right:lane": "advisory",
    "highway": "primary",
    "lanes": "2",
    "lit": "yes",
    "maxspeed": "50",
    "name": "Route de Galice",
    "oneway": "yes",
    "ref": "D 64",
    "source:maxspeed": "FR:urban",
    "surface": "asphalt"
  }
},
{
  "type": "way",
  "id": 5085672,
  "nodes": [
    34631007,
    34631059,
    6067350539,
    9113501208,
    34631061,
    34631062,
    34631064,
    4683544351,
    34631045
  ],
  "tags": {
    "cycleway:right": "lane",
    "highway": "tertiary",
    "lanes": "1",
    "maxspeed": "50",
    "name": "Route d'Éguilles",
    "oneway": "yes",
    "surface": "asphalt"
  }
},
{
  "type": "way",
  "id": 5085673,
  "nodes": [
    34631044,
    4683544350,
    34631054,
    34631055,
    9113501209,
    34631056,
    34631058,
    34631008
  ],
  "tags": {
    "cycleway:right": "lane",
    "highway": "tertiary",
    "lanes": "1",
    "maxspeed": "50",
    "name": "Route d'Éguilles",
    "oneway": "yes",
    "surface": "asphalt"
  }
},
{
  "type": "way",
  "id": 5085674,
  "nodes": [
    34631050,
    4683534891,
    34631051
  ],
  "tags": {
    "cycleway:right": "lane",
    "highway": "tertiary",
    "maxspeed": "50",
    "name": "Route d'Éguilles",
    "oneway": "yes"
  }
},
{
  "type": "way",
  "id": 5085686,
  "nodes": [
    34631014,
    34631017,
    302861847,
    34630993,
    290941121
  ],
  "tags": {
    "cycleway:right": "lane",
    "highway": "tertiary",
    "lanes": "1",
    "maxspeed": "50",
    "maxspeed:source": "FR:urban",
    "name": "Avenue Jean Dalmas",
    "oneway": "yes",
    "surface": "asphalt"
  }
},
{
  "type": "way",
  "id": 7989654,
  "nodes": [
    34317458,
    6109988471,
    6109988467,
    6109988470,
    34317606,
    6109988469,
    7272788848
  ],
  "tags": {
    "cycleway:right": "lane",
    "cycleway:right:lane": "advisory",
    "highway": "tertiary",
    "lanes": "2",
    "lit": "yes",
    "maxspeed": "50",
    "name": "Boulevard du Coq d'Argent",
    "sidewalk": "left",
    "smoothness": "excellent",
    "surface": "asphalt"
  }
},
{
  "type": "way",
  "id": 7989673,
  "nodes": [
    33707192,
    34317536,
    34317538,
    34630935,
    354410664,
    6718347471,
    354410682,
    5682779252,
    6109436282,
    9122269185,
    1610327419
  ],
  "tags": {
    "cycleway:right": "lane",
    "highway": "secondary",
    "lanes": "2",
    "lit": "yes",
    "maxspeed": "50",
    "name": "Avenue du Four d'Eyglun",
    "oneway": "yes",
    "sidewalk": "right",
    "surface": "asphalt"
  }
},
{
  "type": "way",
  "id": 7989793,
  "nodes": [
    34550832,
    1716788855,
    2591362638,
    8238156319,
    6106586289,
    6106586290,
    8238156320,
    8238156318,
    34550813
  ],
  "tags": {
    "cycleway:right": "lane",
    "highway": "service",
    "lanes": "1",
    "lit": "yes",
    "name": "Rue Lapierre",
    "oneway": "yes",
    "surface": "asphalt"
  }
},
{
  "type": "way",
  "id": 23560456,
  "nodes": [
    33762484,
    255125541,
    5841998901,
    5841998903,
    1832633682,
    1832633680,
    8938581362,
    2435560486,
    8938581366,
    1854557409
  ],
  "tags": {
    "cycleway:right": "lane",
    "highway": "primary",
    "lanes": "2",
    "maxspeed": "50",
    "name": "Avenue Henri Malacrida",
    "oneway": "yes",
    "ref": "D 7N",
    "source": "cadastre-dgi-fr source : Direction Générale des Impôts - Cadastre. Mise à jour : 2009",
    "surface": "asphalt"
  }
},
{
  "type": "way",
  "id": 23697615,
  "nodes": [
    256596606,
    8861563888,
    256596744
  ],
  "tags": {
    "cycleway:right": "lane",
    "highway": "secondary",
    "maxspeed": "50",
    "name": "Rue Claude-Nicolas Ledoux",
    "oneway": "yes",
    "ref": "D 59"
  }
},
{
  "type": "way",
  "id": 23917298,
  "nodes": [
    259237814,
    6109436281,
    5682779253,
    6718347470,
    34630934,
    34317540,
    6537244656,
    34317542,
    9122269186,
    33707194
  ],
  "tags": {
    "cycleway:right": "lane",
    "highway": "secondary",
    "lanes": "2",
    "lit": "yes",
    "maxspeed": "50",
    "name": "Avenue du Four d'Eyglun",
    "oneway": "yes",
    "sidewalk": "right",
    "surface": "asphalt"
  }
},
{
  "type": "way",
  "id": 23976161,
  "nodes": [
    5323321826,
    6106586304,
    7232767838,
    5672603790,
    6106586306,
    310849150,
    7196111940,
    8760556975,
    8760556974,
    6106586315,
    1840329985,
    8809773535
  ],
  "tags": {
    "cycleway:left": "share_busway",
    "cycleway:right": "lane",
    "highway": "secondary",
    "lanes": "3",
    "lanes:backward": "1",
    "lanes:bus:backward": "1",
    "lanes:forward": "1",
    "maxspeed": "50",
    "maxspeed:source": "FR:urban",
    "name": "Avenue Gaston Berger",
    "oneway": "no"
  }
},
{
  "type": "way",
  "id": 23976224,
  "nodes": [
    255125549,
    259968398
  ],
  "tags": {
    "cycleway:right": "lane",
    "highway": "primary",
    "lanes": "1",
    "layer": "-1",
    "maxspeed": "50",
    "name": "Avenue Henri Malacrida",
    "oneway": "yes",
    "ref": "D 7N",
    "source:maxspeed": "FR:urban",
    "surface": "asphalt",
    "tunnel": "yes"
  }
},
{
  "type": "way",
  "id": 23976226,
  "nodes": [
    259968399,
    255125446
  ],
  "tags": {
    "cycleway:right": "lane",
    "highway": "primary",
    "layer": "-1",
    "maxspeed": "50",
    "name": "Avenue Henri Malacrida",
    "oneway": "yes",
    "ref": "D 7N",
    "source:maxspeed": "FR:urban",
    "tunnel": "yes"
  }
},
{
  "type": "way",
  "id": 23976227,
  "nodes": [
    255125446,
    2435560440,
    2435560442,
    255125447,
    2435560444,
    2435560449,
    255125448,
    2435560463,
    2435560464,
    7839951733,
    443069305
  ],
  "tags": {
    "cycleway:right": "lane",
    "highway": "primary",
    "maxspeed": "50",
    "name": "Avenue Henri Malacrida",
    "oneway": "yes",
    "ref": "D 7N",
    "source": "cadastre-dgi-fr source : Direction Générale des Impôts - Cadastre. Mise à jour : 2009"
  }
},
{
  "type": "way",
  "id": 24445156,
  "nodes": [
    265000360,
    265000361,
    265000362,
    265000363,
    265000364,
    265000365,
    265000366,
    265000367,
    265000368,
    265000369,
    265000370,
    8928611853,
    265000372,
    265000373,
    265000374,
    265000375,
    265000376,
    265000377,
    265000378,
    265000379,
    265000380,
    265000381,
    265000382,
    8928611854,
    265000383,
    265000385,
    265000386,
    265000387,
    265000388,
    265000389,
    8928611855,
    265000390,
    8928611856,
    265000391,
    265000392
  ],
  "tags": {
    "cycleway:right": "lane",
    "highway": "secondary",
    "maxspeed": "80",
    "name": "Route de Sisteron",
    "old_ref": "N 96",
    "source:maxspeed": "FR:rural"
  }
},
{
  "type": "way",
  "id": 24561749,
  "nodes": [
    267055404,
    1348002085,
    4705000974,
    976665852,
    976665631,
    976666278
  ],
  "tags": {
    "cycleway:right": "lane",
    "highway": "secondary",
    "lanes": "1",
    "lit": "yes",
    "maxspeed": "30",
    "name": "Avenue Jean et Marcel Fontenaille",
    "oneway": "yes",
    "ref": "D 10",
    "source:maxspeed": "FR:zone30",
    "surface": "asphalt"
  }
},
{
  "type": "way",
  "id": 24615859,
  "nodes": [
    270923088,
    1832653158,
    1832653157,
    2316314352,
    4068865956,
    9097592856,
    256586292
  ],
  "tags": {
    "cycleway:right": "lane",
    "cycleway:right:lane": "advisory",
    "highway": "secondary",
    "lane_markings": "no",
    "lit": "yes",
    "maxspeed": "50",
    "name": "Rue Guillaume du Vair",
    "oneway": "yes",
    "sidewalk": "right",
    "surface": "asphalt"
  }
},
{
  "type": "way",
  "id": 24642594,
  "nodes": [
    311537915,
    311537917,
    1028565734,
    4632540852
  ],
  "tags": {
    "cycleway:right": "lane",
    "highway": "secondary",
    "maxspeed": "50",
    "name": "Ancienne Route des Alpes"
  }
},
{
  "type": "way",
  "id": 24928817,
  "nodes": [
    270900923,
    5181531086,
    7900787913,
    5181531104
  ],
  "tags": {
    "cycleway:right": "lane",
    "highway": "unclassified",
    "name": "Route de l'Enfant",
    "oneway": "yes",
    "source": "GPS"
  }
},
{
  "type": "way",
  "id": 24931163,
  "nodes": [
    256586293,
    4068865955
  ],
  "tags": {
    "cycleway:right": "lane",
    "cycleway:right:lane": "advisory",
    "destination": "Aix-en-Provence;La Pioline",
    "highway": "secondary",
    "lane_markings": "no",
    "lit": "yes",
    "maxspeed": "50",
    "name": "Rue Guillaume du Vair",
    "oneway": "yes",
    "sidewalk": "right",
    "surface": "asphalt"
  }
},
{
  "type": "way",
  "id": 24931191,
  "nodes": [
    270923318,
    4068713989,
    267185705
  ],
  "tags": {
    "cycleway:right": "lane",
    "cycleway:right:lane": "advisory",
    "highway": "secondary",
    "lane_markings": "no",
    "lit": "yes",
    "maxspeed": "50",
    "name": "Chemin de la Pioline",
    "oneway": "yes",
    "sidewalk": "right",
    "surface": "asphalt"
  }
},
{
  "type": "way",
  "id": 24931192,
  "nodes": [
    267185705,
    4068713990,
    9097592838,
    270923319
  ],
  "tags": {
    "cycleway:right": "lane",
    "cycleway:right:lane": "advisory",
    "highway": "secondary",
    "lane_markings": "no",
    "lit": "yes",
    "maxspeed": "50",
    "name": "Chemin de la Pioline",
    "oneway": "yes",
    "sidewalk": "right",
    "source:maxspeed": "FR:urban",
    "surface": "asphalt"
  }
},
{
  "type": "way",
  "id": 25420011,
  "nodes": [
    277036615,
    277036622,
    3900723258,
    6049922693,
    277036604
  ],
  "tags": {
    "cycleway:left": "track",
    "cycleway:right": "lane",
    "highway": "unclassified",
    "name": "Avenue de San Peyres"
  }
},
{
  "type": "way",
  "id": 25420085,
  "nodes": [
    9231858288,
    9231858289,
    277037065
  ],
  "tags": {
    "cycleway:right": "lane",
    "highway": "living_street",
    "maxspeed": "20",
    "name": "Chemin du Castelas"
  }
},
{
  "type": "way",
  "id": 25582752,
  "nodes": [
    259760727,
    976666940,
    1716935285,
    278855896,
    2113932011,
    278855897,
    250202825
  ],
  "tags": {
    "cycleway:right": "lane",
    "highway": "secondary",
    "maxspeed": "80",
    "name": "Route d'Apt",
    "oneway": "yes",
    "ref": "D 543",
    "surface": "asphalt"
  }
},
{
  "type": "way",
  "id": 25582897,
  "nodes": [
    295247233,
    278857605,
    4068771348,
    767384166,
    278857606,
    278857607,
    4068744761,
    5641307500,
    295248791
  ],
  "tags": {
    "cycleway:right": "lane",
    "highway": "tertiary",
    "maxspeed": "50",
    "name": "Avenue Célestin Bressier",
    "oneway": "yes",
    "ref": "D 65"
  }
},
{
  "type": "way",
  "id": 26544473,
  "nodes": [
    290941121,
    290941122
  ],
  "tags": {
    "bridge": "yes",
    "cycleway:right": "lane",
    "highway": "tertiary",
    "lanes": "1",
    "layer": "1",
    "maxspeed": "50",
    "maxspeed:source": "FR:urban",
    "name": "Avenue Jean Dalmas",
    "oneway": "yes",
    "surface": "asphalt"
  }
},
{
  "type": "way",
  "id": 26544474,
  "nodes": [
    290941123,
    34630992,
    34631016,
    34631004
  ],
  "tags": {
    "cycleway:right": "lane",
    "highway": "tertiary",
    "maxspeed": "50",
    "maxspeed:source": "FR:urban",
    "name": "Avenue Jean Dalmas",
    "oneway": "yes",
    "surface": "asphalt"
  }
},
{
  "type": "way",
  "id": 26544475,
  "nodes": [
    290941124,
    290941123
  ],
  "tags": {
    "bridge": "yes",
    "cycleway:right": "lane",
    "highway": "tertiary",
    "layer": "1",
    "maxspeed": "50",
    "maxspeed:source": "FR:urban",
    "name": "Avenue Jean Dalmas",
    "oneway": "yes"
  }
},
{
  "type": "way",
  "id": 26945701,
  "nodes": [
    292738025,
    295247244,
    6069081498,
    4068739135
  ],
  "tags": {
    "cycleway:right": "lane",
    "destination": "Éguilles;Les Milles",
    "highway": "tertiary",
    "lane_markings": "no",
    "lit": "yes",
    "maxspeed": "50",
    "name": "Avenue Célestin Bressier",
    "oneway": "yes",
    "ref": "D 65",
    "sidewalk": "right",
    "surface": "asphalt"
  }
},
{
  "type": "way",
  "id": 26946312,
  "nodes": [
    295252612,
    301083678
  ],
  "tags": {
    "cycleway:right": "lane",
    "highway": "tertiary",
    "lanes": "2",
    "maxspeed": "30",
    "name": "Rue Frédéric Rosa",
    "surface": "asphalt"
  }
},
{
  "type": "way",
  "id": 27138722,
  "nodes": [
    256586291,
    4068880532
  ],
  "tags": {
    "cycleway:right": "lane",
    "destination": "A 51;Les Milles",
    "highway": "secondary",
    "lane_markings": "no",
    "lit": "yes",
    "maxspeed": "50",
    "name": "Rue Guillaume du Vair",
    "oneway": "yes",
    "sidewalk": "right",
    "surface": "asphalt"
  }
},
{
  "type": "way",
  "id": 27138728,
  "nodes": [
    297750369,
    297750399
  ],
  "tags": {
    "cycleway:right": "lane",
    "highway": "secondary",
    "maxspeed": "50",
    "name": "Rue Guillaume du Vair",
    "oneway": "yes",
    "ref": "D 9A",
    "surface": "asphalt"
  }
},
{
  "type": "way",
  "id": 27138739,
  "nodes": [
    297750389,
    1832653151,
    8843481040,
    297750358
  ],
  "tags": {
    "cycleway:right": "lane",
    "highway": "secondary",
    "maxspeed": "50",
    "name": "Rue Guillaume du Vair",
    "oneway": "yes",
    "ref": "D 9A",
    "surface": "asphalt"
  }
},
{
  "type": "way",
  "id": 27174356,
  "nodes": [
    267338620,
    1755114630,
    1716935360,
    1755114635,
    298163151,
    1755114636,
    1716935478,
    1755114641,
    1716935746,
    1755114647,
    298163152
  ],
  "tags": {
    "cycleway:right": "lane",
    "highway": "residential",
    "lanes": "1",
    "lit": "yes",
    "maxspeed": "50",
    "name": "Avenue Nicolas Copernic",
    "oneway": "yes",
    "surface": "asphalt"
  }
},
{
  "type": "way",
  "id": 27184267,
  "nodes": [
    297750358,
    8908400010,
    9097592859,
    297750363
  ],
  "tags": {
    "cycleway:right": "lane",
    "highway": "secondary",
    "maxspeed": "50",
    "name": "Rue Guillaume du Vair",
    "oneway": "yes",
    "ref": "D 9A",
    "surface": "asphalt"
  }
},
{
  "type": "way",
  "id": 27296107,
  "nodes": [
    299650507,
    6382969686,
    299650506
  ],
  "tags": {
    "cycleway:right": "lane",
    "highway": "tertiary",
    "lanes": "3",
    "lanes:forward": "1",
    "layer": "-1",
    "maxspeed": "30",
    "name": "Avenue Robert Schuman",
    "source:maxspeed": "FR:zone30",
    "surface": "asphalt",
    "tunnel": "yes"
  }
},
{
  "type": "way",
  "id": 27296108,
  "nodes": [
    299650506,
    267871470
  ],
  "tags": {
    "cycleway:right": "lane",
    "highway": "tertiary",
    "lanes": "3",
    "lit": "yes",
    "maxspeed": "30",
    "name": "Avenue Robert Schuman",
    "source:maxspeed": "FR:zone30",
    "surface": "asphalt"
  }
},
{
  "type": "way",
  "id": 27424589,
  "nodes": [
    301083678,
    295252616
  ],
  "tags": {
    "bridge": "yes",
    "cycleway:right": "lane",
    "highway": "tertiary",
    "lanes": "2",
    "layer": "1",
    "maxspeed": "30",
    "name": "Rue Frédéric Rosa",
    "surface": "asphalt"
  }
},
{
  "type": "way",
  "id": 27845693,
  "nodes": [
    259760759,
    259760760,
    259760761,
    8846916247,
    259760762,
    259760763,
    8846916257,
    302864833,
    6090131695,
    302864958,
    259760764,
    8846916244,
    6090131693,
    8846916233,
    259760765,
    259760766,
    259760767,
    412820427,
    412820431
  ],
  "tags": {
    "cycleway:right": "lane",
    "highway": "tertiary",
    "maxspeed": "30",
    "name": "Avenue du Pigonnet",
    "source:maxspeed": "FR:zone30"
  }
},
{
  "type": "way",
  "id": 28364765,
  "nodes": [
    311537979,
    2667916742,
    311537915
  ],
  "tags": {
    "cycleway:right": "lane",
    "highway": "secondary",
    "maxspeed": "50",
    "name": "Ancienne Route des Alpes",
    "oneway": "yes"
  }
},
{
  "type": "way",
  "id": 30059026,
  "nodes": [
    1610270713,
    9152201159,
    1610270719
  ],
  "tags": {
    "cycleway:right": "lane",
    "highway": "tertiary",
    "name": "Avenue Saint-Mitre des Champs",
    "oneway": "yes"
  }
},
{
  "type": "way",
  "id": 30313042,
  "nodes": [
    295247230,
    295247246,
    4068760129,
    8846916237,
    8846916258,
    1840643785,
    297951905,
    295247254,
    295247261,
    295247268,
    295247279,
    292738057
  ],
  "tags": {
    "cycleway:right": "lane",
    "highway": "tertiary",
    "maxspeed": "50",
    "name": "Avenue Célestin Bressier",
    "oneway": "yes",
    "ref": "D 65",
    "surface": "asphalt"
  }
},
{
  "type": "way",
  "id": 31451234,
  "nodes": [
    34506180,
    7746607970,
    1168491431,
    8145831353,
    8145831354,
    8145831355,
    8145831356,
    8145831359,
    8145831357,
    8145831358,
    6699980197,
    6699980199,
    5931029664
  ],
  "tags": {
    "cycleway:right": "lane",
    "cycleway:right:lane": "advisory",
    "highway": "primary",
    "lanes": "3",
    "lit": "yes",
    "maxspeed": "50",
    "name": "Route de Galice",
    "oneway": "yes",
    "ref": "D 64",
    "source:maxspeed": "FR:urban",
    "surface": "asphalt"
  }
},
{
  "type": "way",
  "id": 31451530,
  "nodes": [
    4324576627,
    4324576630
  ],
  "tags": {
    "bridge": "yes",
    "cycleway:right": "lane",
    "cycleway:right:lane": "advisory",
    "highway": "primary",
    "lanes": "3",
    "layer": "1",
    "lit": "yes",
    "maxspeed": "50",
    "name": "Route de Galice",
    "oneway": "yes",
    "ref": "D 64",
    "sidewalk": "right",
    "source:maxspeed": "FR:urban",
    "surface": "asphalt"
  }
},
{
  "type": "way",
  "id": 31451532,
  "nodes": [
    351117316,
    1168490911,
    351117317
  ],
  "tags": {
    "bridge": "yes",
    "cycleway:right": "lane",
    "cycleway:right:lane": "advisory",
    "highway": "primary",
    "lanes": "2",
    "lanes:bus": "1",
    "layer": "1",
    "lit": "yes",
    "maxspeed": "50",
    "name": "Route de Galice",
    "oneway": "yes",
    "ref": "D 64",
    "sidewalk": "right",
    "source:maxspeed": "FR:urban",
    "surface": "asphalt"
  }
},
{
  "type": "way",
  "id": 31775375,
  "nodes": [
    250042408,
    250042409,
    250042410,
    2112257932
  ],
  "tags": {
    "cycleway:right": "lane",
    "highway": "residential",
    "name": "Avenue Louis Philibert",
    "source": "cadastre-dgi-fr source : Direction Générale des Impôts - Cadastre. Mise à jour : 2009",
    "surface": "asphalt"
  }
},
{
  "type": "way",
  "id": 37911876,
  "nodes": [
    8361146152,
    330950306,
    673417072
  ],
  "tags": {
    "cycleway:right": "lane",
    "highway": "primary",
    "lanes": "3",
    "lanes:psv": "1",
    "maxspeed": "50",
    "name": "Rue de la Molle",
    "oneway": "yes",
    "sidewalk": "both",
    "source": "cadastre-dgi-fr source : Direction Générale des Impôts - Cadastre. Mise à jour : 2009",
    "source:maxspeed": "FR:urban",
    "surface": "asphalt"
  }
},
{
  "type": "way",
  "id": 52509121,
  "nodes": [
    667338202,
    298163160,
    6125212210,
    338796377,
    6125212209,
    6125212208,
    298163162,
    6125212207,
    6125212206,
    4860669899,
    6125212198,
    6125212205,
    6125212202,
    6125212204,
    6125212212,
    6125212213,
    596512293
  ],
  "tags": {
    "cycleway:right": "lane",
    "highway": "residential",
    "lanes": "2",
    "maxspeed": "50",
    "name": "Avenue Nicolas Copernic",
    "oneway": "no"
  }
},
{
  "type": "way",
  "id": 68294403,
  "nodes": [
    822258154,
    7705425574,
    7705425575,
    7705425576,
    822258147,
    822258144
  ],
  "tags": {
    "cycleway:right": "lane",
    "highway": "primary",
    "maxspeed": "30",
    "name": "Rue Pascal Fieschi",
    "oneway": "yes",
    "source": "cadastre-dgi-fr source : Direction Générale des Impôts - Cadastre. Mise à jour : 2010"
  }
},
{
  "type": "way",
  "id": 68294405,
  "nodes": [
    256595302,
    822258154
  ],
  "tags": {
    "cycleway:right": "lane",
    "highway": "primary",
    "maxspeed": "30",
    "name": "Rue Pascal Fieschi",
    "source": "cadastre-dgi-fr source : Direction Générale des Impôts - Cadastre. Mise à jour : 2010",
    "surface": "asphalt"
  }
},
{
  "type": "way",
  "id": 68303166,
  "nodes": [
    12161867,
    5300898303,
    8367618950,
    822325948,
    2267130489,
    6382854814
  ],
  "tags": {
    "cycleway:right": "lane",
    "highway": "primary",
    "lanes": "2",
    "lit": "yes",
    "maxspeed": "50",
    "maxspeed:source": "FR:urban",
    "name": "Cours Gambetta",
    "oneway": "no",
    "source": "cadastre-dgi-fr source : Direction Générale des Impôts - Cadastre. Mise à jour : 2010",
    "source:maxspeed": "FR:urban",
    "surface": "asphalt"
  }
},
{
  "type": "way",
  "id": 83912391,
  "nodes": [
    976665604,
    5827821459,
    34500767
  ],
  "tags": {
    "cycleway:right": "lane",
    "highway": "secondary",
    "maxspeed": "50",
    "name": "Avenue Jules Isaac",
    "source:maxspeed": "FR:urban"
  }
},
{
  "type": "way",
  "id": 83912411,
  "nodes": [
    33758288,
    976665934,
    976665766
  ],
  "tags": {
    "cycleway:right": "lane",
    "highway": "secondary",
    "maxspeed": "30",
    "name": "Avenue Jules Isaac",
    "oneway": "yes",
    "source": "cadastre-dgi-fr source : Direction Générale des Impôts - Cadastre. Mise à jour : 2009",
    "source:maxspeed": "FR:zone30"
  }
},
{
  "type": "way",
  "id": 83912461,
  "nodes": [
    976665766,
    33758278
  ],
  "tags": {
    "cycleway:right": "lane",
    "highway": "secondary",
    "maxspeed": "30",
    "name": "Avenue Jules Isaac",
    "oneway": "yes",
    "source": "cadastre-dgi-fr source : Direction Générale des Impôts - Cadastre. Mise à jour : 2009",
    "source:maxspeed": "FR:zone30"
  }
},
{
  "type": "way",
  "id": 89431046,
  "nodes": [
    8778518983,
    2996341806,
    2996341808
  ],
  "tags": {
    "cycleway:right": "lane",
    "highway": "secondary",
    "lanes": "2",
    "maxspeed": "30",
    "name": "Avenue de l'Arc de Meyran",
    "oneway": "no",
    "surface": "asphalt"
  }
},
{
  "type": "way",
  "id": 101714234,
  "nodes": [
    1174499993,
    8812468968,
    34567463,
    1877523562,
    1877523564,
    1877523567,
    1877523570,
    1877523574,
    1877523590,
    1877523593,
    34567467,
    1174500071,
    8812468971
  ],
  "tags": {
    "cycleway:right": "lane",
    "highway": "tertiary",
    "maxspeed": "50",
    "name": "Route d'Éguilles",
    "oneway": "yes",
    "ref": "D 17"
  }
},
{
  "type": "way",
  "id": 101714298,
  "nodes": [
    1174498884,
    9113015415,
    1174499461,
    1174499122,
    4683446977,
    1174498798,
    1174499437,
    1877523592,
    1877523578,
    1877523577,
    1877523573,
    1877523568,
    1877523566,
    1877523563,
    1877523561,
    1174498573,
    8812468966,
    8812468967,
    1174499993
  ],
  "tags": {
    "cycleway:right": "lane",
    "highway": "tertiary",
    "maxspeed": "50",
    "name": "Route d'Éguilles",
    "oneway": "yes",
    "ref": "D 17"
  }
},
{
  "type": "way",
  "id": 117013501,
  "nodes": [
    259760746,
    259760747,
    7125883720,
    298124025,
    259760748,
    251410489
  ],
  "tags": {
    "cycleway:right": "lane",
    "highway": "secondary",
    "maxspeed": "50",
    "name": "Rue Lieutenant Parayre",
    "oneway": "yes",
    "ref": "D 65",
    "surface": "asphalt"
  }
},
{
  "type": "way",
  "id": 120169387,
  "nodes": [
    976666278,
    9263803193,
    9263803192,
    6123407182,
    9127614563,
    2329430499
  ],
  "tags": {
    "cycleway:right": "lane",
    "highway": "secondary",
    "lanes": "2",
    "lit": "yes",
    "maxspeed": "30",
    "name": "Avenue Sainte-Victoire",
    "oneway": "yes",
    "ref": "D 10",
    "source:maxspeed": "FR:zone30",
    "surface": "asphalt"
  }
},
{
  "type": "way",
  "id": 147877358,
  "nodes": [
    1610270744,
    6090131700,
    3544230512
  ],
  "tags": {
    "cycleway:right": "lane",
    "highway": "tertiary",
    "maxspeed": "30",
    "name": "Avenue Saint-Mitre des Champs",
    "oneway": "yes"
  }
},
{
  "type": "way",
  "id": 159558429,
  "nodes": [
    1716788903,
    7304213676,
    1755114690,
    1030147243,
    1755114691,
    1030147292,
    1030147297,
    4731214759,
    34302957
  ],
  "tags": {
    "cycleway:right": "lane",
    "highway": "primary",
    "lanes": "2",
    "lit": "yes",
    "maxspeed": "50",
    "name": "Cours des Minimes",
    "oneway": "yes",
    "source": "cadastre-dgi-fr source : Direction Générale des Impôts - Cadastre. Mise à jour : 2009",
    "source:maxspeed": "FR:urban",
    "surface": "asphalt"
  }
},
{
  "type": "way",
  "id": 159581646,
  "nodes": [
    298163152,
    1716935253,
    298163153,
    1716935463,
    1716935423,
    298163154,
    1716935532,
    1716935315,
    298163155,
    298163157,
    1716935550,
    667338210
  ],
  "tags": {
    "cycleway:right": "lane",
    "highway": "residential",
    "lanes": "2",
    "maxspeed": "50",
    "name": "Avenue Nicolas Copernic",
    "oneway": "no",
    "surface": "asphalt"
  }
},
{
  "type": "way",
  "id": 159581654,
  "nodes": [
    596511268,
    6125212220,
    1716935302,
    267338645
  ],
  "tags": {
    "cycleway:left": "no",
    "cycleway:right": "lane",
    "cycleway:right:lane": "advisory",
    "highway": "residential",
    "lane_markings": "no",
    "lit": "yes",
    "maxspeed": "50",
    "name": "Rue Edmond Halley",
    "oneway": "yes",
    "surface": "asphalt"
  }
},
{
  "type": "way",
  "id": 159581663,
  "nodes": [
    1716935268,
    4860694362,
    6125212221,
    596511268
  ],
  "tags": {
    "cycleway:left": "no",
    "cycleway:right": "lane",
    "cycleway:right:lane": "advisory",
    "highway": "residential",
    "lane_markings": "no",
    "lit": "yes",
    "maxspeed": "50",
    "name": "Rue Edmond Halley",
    "oneway": "yes",
    "surface": "asphalt"
  }
},
{
  "type": "way",
  "id": 209819273,
  "nodes": [
    2199859562,
    2199878631
  ],
  "tags": {
    "cycleway:right": "lane",
    "highway": "secondary",
    "maxspeed": "50",
    "name": "Avenue de l'Arc de Meyran",
    "oneway": "yes"
  }
},
{
  "type": "way",
  "id": 209819276,
  "nodes": [
    2199859545,
    2199878630
  ],
  "tags": {
    "cycleway:right": "lane",
    "highway": "secondary",
    "maxspeed": "50",
    "name": "Avenue de l'Arc de Meyran",
    "oneway": "yes"
  }
},
{
  "type": "way",
  "id": 209972059,
  "nodes": [
    2199878630,
    2996341818,
    2199859564
  ],
  "tags": {
    "cycleway:right": "lane",
    "highway": "secondary",
    "maxspeed": "50",
    "name": "Avenue de l'Arc de Meyran",
    "oneway": "yes"
  }
},
{
  "type": "way",
  "id": 224098600,
  "nodes": [
    2329430499,
    9263803191,
    267055890,
    1348002058,
    9263803194,
    976666529,
    1348002063
  ],
  "tags": {
    "cycleway:right": "lane",
    "highway": "secondary",
    "lanes": "2",
    "lit": "yes",
    "maxspeed": "30",
    "name": "Avenue Sainte-Victoire",
    "oneway": "yes",
    "ref": "D 10",
    "source:maxspeed": "FR:zone30",
    "surface": "asphalt"
  }
},
{
  "type": "way",
  "id": 224098601,
  "nodes": [
    2329315155,
    3676050613
  ],
  "tags": {
    "cycleway:right": "lane",
    "highway": "secondary",
    "lanes": "1",
    "lit": "yes",
    "maxspeed": "30",
    "name": "Avenue Sainte-Victoire",
    "oneway": "yes",
    "ref": "D 10",
    "source:maxspeed": "FR:zone30",
    "surface": "asphalt"
  }
},
{
  "type": "way",
  "id": 226202811,
  "nodes": [
    2350625255,
    7795212140,
    2350625262
  ],
  "tags": {
    "bridge": "yes",
    "cycleway:right": "lane",
    "fixme": "yes",
    "highway": "primary",
    "layer": "1",
    "maxspeed": "50",
    "name": "Cours Gambetta",
    "oneway": "yes",
    "source:maxspeed": "FR:urban",
    "surface": "asphalt"
  }
},
{
  "type": "way",
  "id": 226202814,
  "nodes": [
    2350625262,
    1839873680,
    7606634868,
    12158711,
    7040373833
  ],
  "tags": {
    "cycleway:right": "lane",
    "highway": "primary",
    "maxspeed": "50",
    "name": "Cours Gambetta",
    "oneway": "yes",
    "source:maxspeed": "FR:urban",
    "surface": "asphalt"
  }
},
{
  "type": "way",
  "id": 247744603,
  "nodes": [
    2546069726,
    2546069731,
    1713318888
  ],
  "tags": {
    "cycleway:right": "lane",
    "highway": "secondary",
    "maxspeed": "30",
    "name": "Avenue de l'Arc de Meyran",
    "oneway": "yes"
  }
},
{
  "type": "way",
  "id": 280020763,
  "nodes": [
    8644260604,
    34302792,
    34302794,
    5044284595
  ],
  "tags": {
    "cycleway:right": "lane",
    "highway": "secondary",
    "lanes": "2",
    "lit": "yes",
    "maxspeed": "50",
    "name": "Avenue Max Juvénal",
    "oneway": "yes",
    "ref": "D 65",
    "sidewalk:right": "yes",
    "source:maxspeed": "FR:urban",
    "surface": "asphalt"
  }
},
{
  "type": "way",
  "id": 280842358,
  "nodes": [
    1348002014,
    1348002008,
    1348002004,
    1348001972,
    2848798568,
    1348001903,
    1348001894,
    1348001891,
    1348001886,
    1348001884,
    1348001880,
    1348001871,
    1348001859
  ],
  "tags": {
    "cycleway:right": "lane",
    "highway": "secondary",
    "maxspeed": "30",
    "name": "Rue Saint-Thomas de Villeneuve",
    "source:maxspeed": "sign",
    "surface": "asphalt"
  }
},
{
  "type": "way",
  "id": 284317407,
  "nodes": [
    4632581250,
    8367618946,
    265000342,
    1022116268,
    1022116241,
    1022116454,
    2368427664,
    1022116060,
    5876353593,
    8959928837
  ],
  "tags": {
    "cycleway:right": "lane",
    "highway": "secondary",
    "lit": "yes",
    "maxspeed": "50",
    "name": "Avenue Jean Moulin",
    "source:maxspeed": "FR:urban"
  }
},
{
  "type": "way",
  "id": 295873884,
  "nodes": [
    1713318888,
    2996341825,
    1713319019
  ],
  "tags": {
    "cycleway:right": "lane",
    "highway": "secondary",
    "maxspeed": "30",
    "name": "Avenue de l'Arc de Meyran",
    "oneway": "yes"
  }
},
{
  "type": "way",
  "id": 303554493,
  "nodes": [
    6348137446,
    9152201161,
    331090719
  ],
  "tags": {
    "cycleway:right": "lane",
    "highway": "tertiary",
    "name": "Avenue Saint-Mitre des Champs",
    "oneway": "yes"
  }
},
{
  "type": "way",
  "id": 313097954,
  "nodes": [
    3190144779,
    277037114,
    277037115,
    277037176
  ],
  "tags": {
    "cycleway:right": "lane",
    "highway": "residential",
    "maxspeed": "50",
    "name": "Boulevard de Carelle",
    "ref:FR:FANTOIR": "130010533M"
  }
},
{
  "type": "way",
  "id": 338757389,
  "nodes": [
    3458928849,
    6125212168,
    667338247
  ],
  "tags": {
    "cycleway:right": "lane",
    "cycleway:right:lane": "advisory",
    "highway": "unclassified",
    "lanes": "1",
    "maxspeed": "50",
    "name": "Rue Lagremeuse",
    "oneway": "yes",
    "surface": "asphalt"
  }
},
{
  "type": "way",
  "id": 338757390,
  "nodes": [
    267338638,
    6125212169,
    3458928849
  ],
  "tags": {
    "cycleway:right": "lane",
    "cycleway:right:lane": "advisory",
    "highway": "unclassified",
    "lanes": "1",
    "maxspeed": "50",
    "name": "Rue Lagremeuse",
    "oneway": "yes",
    "surface": "asphalt"
  }
},
{
  "type": "way",
  "id": 345254439,
  "nodes": [
    3519350635,
    3519350639,
    7746489664,
    7746489656,
    3519350640,
    7746489654,
    7746489655,
    3519362414,
    7746489658,
    6422594386
  ],
  "tags": {
    "cycleway:right": "lane",
    "highway": "primary",
    "maxspeed": "50",
    "name": "Route de Berre",
    "oneway": "yes",
    "ref": "D 10"
  }
},
{
  "type": "way",
  "id": 345255448,
  "nodes": [
    7746489660,
    3519350637,
    3519350636,
    3519350635
  ],
  "tags": {
    "cycleway:right": "lane",
    "highway": "primary",
    "maxspeed": "50",
    "name": "Route de Berre",
    "oneway": "yes",
    "ref": "D 10"
  }
},
{
  "type": "way",
  "id": 402186122,
  "nodes": [
    5685142370,
    5869021219,
    5685142360,
    5685142359,
    5685142358,
    5685142357,
    5685142356
  ],
  "tags": {
    "cycleway:left": "share_busway",
    "cycleway:right": "lane",
    "highway": "secondary",
    "lanes": "3",
    "lanes:backward": "2",
    "lanes:bus:backward": "1",
    "lanes:forward": "1",
    "maxspeed": "30",
    "name": "Avenue Fernand Benoit",
    "ref": "D 14",
    "source": "cadastre-dgi-fr source : Direction Générale des Impôts - Cadastre. Mise à jour : 2009",
    "surface": "asphalt"
  }
},
{
  "type": "way",
  "id": 404592803,
  "nodes": [
    4068739135,
    295247241,
    295247240,
    298280925,
    298280923,
    7965811575
  ],
  "tags": {
    "cycleway:right": "lane",
    "highway": "tertiary",
    "maxspeed": "50",
    "name": "Avenue Célestin Bressier",
    "oneway": "yes",
    "ref": "D 65",
    "surface": "asphalt"
  }
},
{
  "type": "way",
  "id": 404594953,
  "nodes": [
    4068744762,
    278857558,
    298280943,
    278857559,
    4068771349,
    278857560,
    278857561,
    295247234
  ],
  "tags": {
    "cycleway:right": "lane",
    "highway": "tertiary",
    "maxspeed": "50",
    "name": "Avenue Célestin Bressier",
    "oneway": "yes",
    "ref": "D 65",
    "source": "cadastre-dgi-fr source : Direction Générale des Impôts - Cadastre. Mise à jour : 2009"
  }
},
{
  "type": "way",
  "id": 404599941,
  "nodes": [
    4068865955,
    2316314341,
    1832653156,
    270923088
  ],
  "tags": {
    "cycleway:right": "lane",
    "cycleway:right:lane": "advisory",
    "highway": "secondary",
    "lane_markings": "no",
    "lit": "yes",
    "maxspeed": "50",
    "name": "Rue Guillaume du Vair",
    "oneway": "yes",
    "sidewalk": "right",
    "surface": "asphalt"
  }
},
{
  "type": "way",
  "id": 404600284,
  "nodes": [
    4068880532,
    2316314335,
    297750334
  ],
  "tags": {
    "cycleway:right": "lane",
    "highway": "secondary",
    "maxspeed": "50",
    "name": "Rue Guillaume du Vair",
    "oneway": "yes",
    "surface": "asphalt"
  }
},
{
  "type": "way",
  "id": 434279605,
  "nodes": [
    4324576628,
    4324576627
  ],
  "tags": {
    "bridge": "yes",
    "cycleway:right": "lane",
    "cycleway:right:lane": "advisory",
    "highway": "primary",
    "lanes": "2",
    "layer": "1",
    "lit": "yes",
    "maxspeed": "50",
    "name": "Route de Galice",
    "oneway": "yes",
    "ref": "D 64",
    "sidewalk": "right",
    "source:maxspeed": "FR:urban",
    "surface": "asphalt"
  }
},
{
  "type": "way",
  "id": 434279608,
  "nodes": [
    4324576630,
    34506179
  ],
  "tags": {
    "cycleway:right": "lane",
    "highway": "primary",
    "lanes": "3",
    "lit": "yes",
    "maxspeed": "50",
    "name": "Route de Galice",
    "oneway": "yes",
    "ref": "D 64",
    "sidewalk": "right",
    "source:maxspeed": "FR:urban",
    "surface": "asphalt"
  }
},
{
  "type": "way",
  "id": 444478721,
  "nodes": [
    4419585574,
    4419593921
  ],
  "tags": {
    "cycleway:right": "lane",
    "destination": "Les Milles-Centre",
    "highway": "unclassified",
    "maxspeed": "50",
    "name": "Rue Yves Granon",
    "oneway": "yes",
    "surface": "asphalt"
  }
},
{
  "type": "way",
  "id": 444481095,
  "nodes": [
    4419625170,
    7125883721,
    1317960666,
    1317960676,
    1317960682,
    259760746
  ],
  "tags": {
    "cycleway:right": "lane",
    "highway": "secondary",
    "maxspeed": "50",
    "name": "Rue Lieutenant Parayre",
    "oneway": "yes",
    "ref": "D 65",
    "surface": "asphalt"
  }
},
{
  "type": "way",
  "id": 445515978,
  "nodes": [
    4420949627,
    4420949623,
    4420949622,
    4420949621,
    4420949616,
    4420949615,
    8093288218,
    8093210490,
    4420949613,
    8849027717,
    4420949614,
    4419585571
  ],
  "tags": {
    "cycleway:right": "lane",
    "highway": "unclassified",
    "maxspeed": "50",
    "name": "Rue Yves Granon",
    "oneway": "yes",
    "surface": "asphalt"
  }
},
{
  "type": "way",
  "id": 446276992,
  "nodes": [
    4419593921,
    4420949609,
    4420949618,
    4420949617,
    5780351954,
    7965852385,
    4420949620,
    4419603183
  ],
  "tags": {
    "cycleway:right": "lane",
    "highway": "unclassified",
    "maxspeed": "50",
    "name": "Rue Yves Granon",
    "oneway": "yes",
    "surface": "asphalt"
  }
},
{
  "type": "way",
  "id": 446580197,
  "nodes": [
    1832648952,
    34506178,
    4324576628
  ],
  "tags": {
    "cycleway:right": "lane",
    "highway": "primary",
    "lanes": "2",
    "lit": "yes",
    "maxspeed": "50",
    "name": "Route de Galice",
    "oneway": "yes",
    "ref": "D 64",
    "sidewalk": "right",
    "source:maxspeed": "FR:urban",
    "surface": "asphalt"
  }
},
{
  "type": "way",
  "id": 453282477,
  "nodes": [
    1310777786,
    6109436273,
    8736088526,
    5418358242
  ],
  "tags": {
    "cycleway:right": "lane",
    "cycleway:right:lane": "advisory",
    "highway": "tertiary",
    "lane_markings": "no",
    "maxspeed": "50",
    "name": "Rue Maurice Aicardi Lejard",
    "oneway": "yes",
    "sidewalk": "right",
    "source:maxspeed": "FR:urban",
    "surface": "asphalt"
  }
},
{
  "type": "way",
  "id": 474383840,
  "nodes": [
    34631051,
    34631038,
    34631040
  ],
  "tags": {
    "cycleway:right": "lane",
    "highway": "tertiary",
    "maxspeed": "50",
    "name": "Route d'Éguilles",
    "oneway": "yes"
  }
},
{
  "type": "way",
  "id": 486743078,
  "nodes": [
    256596744,
    264263328,
    8843419310,
    5181531101
  ],
  "tags": {
    "cycleway:right": "lane",
    "highway": "secondary",
    "maxspeed": "50",
    "name": "Rue Claude-Nicolas Ledoux",
    "oneway": "yes",
    "ref": "D 59"
  }
},
{
  "type": "way",
  "id": 486743080,
  "nodes": [
    5181531085,
    1134163516,
    270900923
  ],
  "tags": {
    "cycleway:right": "lane",
    "highway": "unclassified",
    "name": "Route de l'Enfant",
    "oneway": "yes",
    "source": "GPS"
  }
},
{
  "type": "way",
  "id": 494279102,
  "nodes": [
    3455496628,
    8868146833,
    3455496634
  ],
  "tags": {
    "cycleway:right": "lane",
    "highway": "unclassified",
    "lanes": "1",
    "maxspeed": "50",
    "name": "Rue Lagremeuse",
    "oneway": "yes",
    "surface": "asphalt"
  }
},
{
  "type": "way",
  "id": 508771908,
  "nodes": [
    4427544817,
    1716849190,
    33756802,
    33756803,
    33756804
  ],
  "tags": {
    "cycleway:right": "lane",
    "cycleway:right:lane": "advisory",
    "highway": "primary",
    "junction": "roundabout",
    "lane_markings": "no",
    "lit": "yes",
    "maxspeed": "50",
    "name": "Rond-Point El Sadate",
    "sidewalk": "right",
    "smoothness": "excellent",
    "source:maxspeed": "FR:urban",
    "surface": "asphalt"
  }
},
{
  "type": "way",
  "id": 509173562,
  "nodes": [
    256595928,
    477015943,
    1610339643,
    9018030477
  ],
  "tags": {
    "cycleway:right": "lane",
    "highway": "primary",
    "junction": "roundabout",
    "lane_markings": "no",
    "name": "Route de Marseille",
    "surface": "asphalt"
  }
},
{
  "type": "way",
  "id": 516778385,
  "nodes": [
    5044284595,
    5044284597
  ],
  "tags": {
    "covered": "yes",
    "cycleway:right": "lane",
    "highway": "secondary",
    "lanes": "2",
    "lit": "yes",
    "maxspeed": "50",
    "name": "Avenue Max Juvénal",
    "oneway": "yes",
    "ref": "D 65",
    "sidewalk:right": "yes",
    "source:maxspeed": "FR:urban"
  }
},
{
  "type": "way",
  "id": 516778386,
  "nodes": [
    5044284596,
    309651266,
    34302823,
    2265046076,
    34302825,
    8904444287
  ],
  "tags": {
    "cycleway:right": "lane",
    "foot": "no",
    "highway": "secondary",
    "lanes": "2",
    "lit": "yes",
    "maxspeed": "50",
    "name": "Avenue Max Juvénal",
    "oneway": "yes",
    "ref": "D 65",
    "sidewalk": "no",
    "source:maxspeed": "FR:urban",
    "surface": "asphalt"
  }
},
{
  "type": "way",
  "id": 516778387,
  "nodes": [
    5044284597,
    8904444290,
    7325080025,
    8930875337,
    7325080026,
    8930875338,
    34302799
  ],
  "tags": {
    "cycleway:right": "lane",
    "highway": "secondary",
    "lanes": "2",
    "lit": "yes",
    "maxspeed": "50",
    "name": "Avenue Max Juvénal",
    "oneway": "yes",
    "ref": "D 65",
    "sidewalk:right": "yes",
    "source:maxspeed": "FR:urban",
    "surface": "asphalt"
  }
},
{
  "type": "way",
  "id": 516778388,
  "nodes": [
    5044284598,
    7209316441,
    5044284596
  ],
  "tags": {
    "covered": "yes",
    "cycleway:right": "lane",
    "foot": "no",
    "highway": "secondary",
    "lanes": "2",
    "lit": "yes",
    "maxspeed": "50",
    "name": "Avenue Max Juvénal",
    "oneway": "yes",
    "ref": "D 65",
    "source:maxspeed": "FR:urban"
  }
},
{
  "type": "way",
  "id": 534232556,
  "nodes": [
    5181531084,
    5181531089,
    256596605,
    8861563889,
    256596606
  ],
  "tags": {
    "cycleway:right": "lane",
    "highway": "secondary",
    "maxspeed": "50",
    "name": "Rue Claude-Nicolas Ledoux",
    "oneway": "yes",
    "ref": "D 59"
  }
},
{
  "type": "way",
  "id": 566342572,
  "nodes": [
    4860621730,
    8843481045,
    3455496628
  ],
  "tags": {
    "cycleway:right": "lane",
    "highway": "unclassified",
    "lanes": "1",
    "maxspeed": "50",
    "name": "Rue Lagremeuse",
    "oneway": "yes",
    "source": "cadastre-dgi-fr source : Direction Générale des Finances Publiques - Cadastre. Mise à jour : 2014",
    "surface": "asphalt"
  }
},
{
  "type": "way",
  "id": 566344834,
  "nodes": [
    976666194,
    2112257958,
    250042408
  ],
  "tags": {
    "cycleway:right": "lane",
    "highway": "unclassified",
    "lanes": "1",
    "name": "Avenue Louis Philibert",
    "oneway": "yes",
    "surface": "asphalt"
  }
},
{
  "type": "way",
  "id": 569939955,
  "nodes": [
    258828781,
    33707187,
    33707188,
    33707189,
    33707190,
    9122269184,
    33707191
  ],
  "tags": {
    "cycleway:right": "lane",
    "highway": "secondary",
    "lanes": "2",
    "lit": "yes",
    "maxspeed": "50",
    "name": "Rotonde du Bois de l'Aune",
    "oneway": "yes",
    "surface": "asphalt"
  }
},
{
  "type": "way",
  "id": 570226145,
  "nodes": [
    7304213644,
    8371041341,
    34506177,
    7304213643,
    1832648952
  ],
  "tags": {
    "cycleway:right": "lane",
    "highway": "primary",
    "lanes": "2",
    "lit": "yes",
    "maxspeed": "50",
    "name": "Route de Galice",
    "oneway": "yes",
    "ref": "D 64",
    "source:maxspeed": "FR:urban",
    "surface": "asphalt"
  }
},
{
  "type": "way",
  "id": 579502114,
  "nodes": [
    4705010145,
    1847564663,
    265000330
  ],
  "tags": {
    "cycleway:right": "lane",
    "highway": "secondary",
    "lit": "yes",
    "maxspeed": "50",
    "name": "Rue Pétrarque",
    "source:maxspeed": "FR:urban",
    "surface": "asphalt"
  }
},
{
  "type": "way",
  "id": 579502115,
  "nodes": [
    443069305,
    2435560481,
    255125449,
    1831736625,
    8849028417,
    2435560484,
    2435560487,
    8938581365,
    255125452,
    2534911728,
    8846916246,
    255125453,
    33762494
  ],
  "tags": {
    "cycleway:right": "lane",
    "highway": "primary",
    "lanes": "2",
    "maxspeed": "50",
    "name": "Avenue Henri Malacrida",
    "oneway": "yes",
    "ref": "D 7N",
    "source": "cadastre-dgi-fr source : Direction Générale des Impôts - Cadastre. Mise à jour : 2009"
  }
},
{
  "type": "way",
  "id": 579502117,
  "nodes": [
    443069302,
    2435560461,
    255125547,
    2435560447,
    2435560446,
    4726111787
  ],
  "tags": {
    "cycleway:right": "lane",
    "highway": "primary",
    "lanes": "2",
    "maxspeed": "50",
    "name": "Avenue Henri Malacrida",
    "oneway": "yes",
    "ref": "D 7N",
    "source": "cadastre-dgi-fr source : Direction Générale des Impôts - Cadastre. Mise à jour : 2009",
    "surface": "asphalt"
  }
},
{
  "type": "way",
  "id": 579502122,
  "nodes": [
    256594866,
    256594867,
    822262680,
    256594868,
    7394356641,
    256594869,
    7394356642,
    256594870,
    7394356657
  ],
  "tags": {
    "cycleway:right": "lane",
    "highway": "primary",
    "lanes": "1",
    "maxspeed": "30",
    "name": "Route des Milles",
    "oneway": "yes",
    "ref": "D 9",
    "source:maxspeed": "FR:zone30",
    "surface": "asphalt"
  }
},
{
  "type": "way",
  "id": 588332413,
  "nodes": [
    1348001859,
    5446712195,
    1348001832
  ],
  "tags": {
    "cycleway:right": "lane",
    "highway": "secondary",
    "maxspeed": "30",
    "name": "Rue Saint-Thomas de Villeneuve",
    "source:maxspeed": "sign",
    "surface": "asphalt"
  }
},
{
  "type": "way",
  "id": 596943725,
  "nodes": [
    5685142390,
    5869007233,
    5685142389,
    5685142388,
    8849360411,
    265010596,
    5685142386,
    5685142385,
    5685142384,
    5685142383,
    265010593,
    8019213771,
    5685142381,
    5685142380,
    5685142361,
    5685142362,
    5685142363,
    5685142364,
    5685142365,
    5685142366,
    5685142367,
    5685142368,
    5685142369,
    8858802535,
    5685142370
  ],
  "tags": {
    "cycleway:left": "share_busway",
    "cycleway:right": "lane",
    "highway": "secondary",
    "lanes": "3",
    "lanes:backward": "2",
    "lanes:bus:backward": "1",
    "lanes:forward": "1",
    "maxspeed": "50",
    "name": "Avenue Philippe Solari",
    "ref": "D 14",
    "source:maxspeed": "FR:urban",
    "surface": "asphalt"
  }
},
{
  "type": "way",
  "id": 605674012,
  "nodes": [
    303625345,
    5744023086,
    5744023085
  ],
  "tags": {
    "cycleway:right": "lane",
    "highway": "unclassified",
    "maxspeed": "30",
    "name": "Route du Val d'Arbois",
    "oneway": "yes",
    "surface": "asphalt"
  }
},
{
  "type": "way",
  "id": 618036495,
  "nodes": [
    12162879,
    33678715
  ],
  "tags": {
    "cycleway:right": "lane",
    "highway": "primary",
    "lanes": "2",
    "lanes:backward": "1",
    "lanes:forward": "1",
    "lit": "yes",
    "maxspeed": "50",
    "maxspeed:source": "FR:urban",
    "name": "Cours Gambetta",
    "oneway": "no",
    "source": "cadastre-dgi-fr source : Direction Générale des Impôts - Cadastre. Mise à jour : 2010",
    "source:maxspeed": "FR:urban",
    "surface": "asphalt"
  }
},
{
  "type": "way",
  "id": 618044739,
  "nodes": [
    255125545,
    5842056990,
    2435560477,
    7839951730,
    2435560475,
    443069302
  ],
  "tags": {
    "cycleway:right": "lane",
    "highway": "primary",
    "lanes": "3",
    "maxspeed": "50",
    "name": "Avenue Henri Malacrida",
    "oneway": "yes",
    "ref": "D 7N",
    "source": "cadastre-dgi-fr source : Direction Générale des Impôts - Cadastre. Mise à jour : 2009",
    "surface": "asphalt",
    "turn:lanes": "left|through|through"
  }
},
{
  "type": "way",
  "id": 618044740,
  "nodes": [
    5842056992,
    255125549
  ],
  "tags": {
    "cycleway:right": "lane",
    "highway": "primary",
    "lanes": "1",
    "maxspeed": "50",
    "name": "Avenue Henri Malacrida",
    "oneway": "yes",
    "ref": "D 7N",
    "source": "cadastre-dgi-fr source : Direction Générale des Impôts - Cadastre. Mise à jour : 2009",
    "surface": "asphalt"
  }
},
{
  "type": "way",
  "id": 618044741,
  "nodes": [
    5842056991,
    255125545
  ],
  "tags": {
    "cycleway:right": "lane",
    "highway": "primary",
    "lanes": "2",
    "maxspeed": "50",
    "name": "Avenue Henri Malacrida",
    "oneway": "yes",
    "ref": "D 7N",
    "source": "cadastre-dgi-fr source : Direction Générale des Impôts - Cadastre. Mise à jour : 2009",
    "surface": "asphalt"
  }
},
{
  "type": "way",
  "id": 618044743,
  "nodes": [
    5842056993,
    8846916223,
    255125544,
    5842056991
  ],
  "tags": {
    "cycleway:right": "lane",
    "highway": "primary",
    "lanes": "3",
    "maxspeed": "50",
    "name": "Avenue Henri Malacrida",
    "oneway": "yes",
    "ref": "D 7N",
    "source": "cadastre-dgi-fr source : Direction Générale des Impôts - Cadastre. Mise à jour : 2009",
    "surface": "asphalt",
    "turn:lanes": "left|through|through"
  }
},
{
  "type": "way",
  "id": 618044745,
  "nodes": [
    4726111787,
    2435560443,
    255125548,
    7839922283,
    2435560438,
    5842056992
  ],
  "tags": {
    "cycleway:right": "lane",
    "highway": "primary",
    "lanes": "2",
    "maxspeed": "50",
    "name": "Avenue Henri Malacrida",
    "oneway": "yes",
    "ref": "D 7N",
    "source": "cadastre-dgi-fr source : Direction Générale des Impôts - Cadastre. Mise à jour : 2009",
    "surface": "asphalt",
    "turn:lanes": "merge_to_right|none"
  }
},
{
  "type": "way",
  "id": 618044746,
  "nodes": [
    1854557409,
    5842056993
  ],
  "tags": {
    "cycleway:right": "lane",
    "highway": "primary",
    "lanes": "2",
    "maxspeed": "50",
    "name": "Avenue Henri Malacrida",
    "oneway": "yes",
    "ref": "D 7N",
    "source": "cadastre-dgi-fr source : Direction Générale des Impôts - Cadastre. Mise à jour : 2009",
    "surface": "asphalt"
  }
},
{
  "type": "way",
  "id": 620668632,
  "nodes": [
    3676050613,
    9263803177,
    9263803178,
    5863870088,
    2349048066,
    9263803179,
    267185194,
    9263803180,
    9263803187,
    9263803182,
    9263803181,
    5863864680,
    9263803183,
    267185195,
    9263803184
  ],
  "tags": {
    "cycleway:right": "lane",
    "highway": "secondary",
    "lanes": "1",
    "lit": "yes",
    "maxspeed": "30",
    "name": "Avenue Sainte-Victoire",
    "oneway": "yes",
    "ref": "D 10",
    "source:maxspeed": "sign",
    "surface": "asphalt"
  }
},
{
  "type": "way",
  "id": 622016120,
  "nodes": [
    5876290598,
    2267130590,
    5841988012,
    6424754680,
    6446434367,
    12162879
  ],
  "tags": {
    "cycleway:right": "lane",
    "highway": "primary",
    "lanes": "2",
    "lit": "yes",
    "maxspeed": "50",
    "maxspeed:source": "FR:urban",
    "name": "Cours Gambetta",
    "oneway": "no",
    "source": "cadastre-dgi-fr source : Direction Générale des Impôts - Cadastre. Mise à jour : 2010",
    "source:maxspeed": "FR:urban",
    "surface": "asphalt"
  }
},
{
  "type": "way",
  "id": 640885480,
  "nodes": [
    2112258029,
    277589749,
    277589750,
    1716935677
  ],
  "tags": {
    "cycleway:right": "lane",
    "highway": "unclassified",
    "lanes": "2",
    "maxspeed": "50",
    "name": "Avenue Louis Philibert",
    "oneway": "yes",
    "surface": "asphalt"
  }
},
{
  "type": "way",
  "id": 640885483,
  "nodes": [
    3455496632,
    6036747174,
    6036747175,
    6036747176
  ],
  "tags": {
    "cycleway:right": "lane",
    "highway": "residential",
    "maxspeed": "50",
    "name": "Avenue Galilée",
    "oneway": "yes",
    "source": "cadastre-dgi-fr source : Direction Générale des Finances Publiques - Cadastre. Mise à jour : 2014",
    "surface": "asphalt"
  }
},
{
  "type": "way",
  "id": 640885484,
  "nodes": [
    3455496629,
    3455496635,
    3455496632
  ],
  "tags": {
    "cycleway:right": "lane",
    "highway": "residential",
    "maxspeed": "50",
    "name": "Avenue Galilée",
    "oneway": "yes",
    "source": "cadastre-dgi-fr source : Direction Générale des Finances Publiques - Cadastre. Mise à jour : 2014",
    "surface": "asphalt"
  }
},
{
  "type": "way",
  "id": 640885491,
  "nodes": [
    822258144,
    822202429
  ],
  "tags": {
    "cycleway:right": "lane",
    "highway": "primary",
    "maxspeed": "30",
    "name": "Avenue Fortuné Ferrini",
    "ref": "D 8N",
    "source:maxspeed": "FR:zone30"
  }
},
{
  "type": "way",
  "id": 641316372,
  "nodes": [
    6039904773,
    7272788845,
    8986675499,
    8987393785,
    8986675498,
    8987393784,
    33707186,
    8987393786,
    258828781
  ],
  "tags": {
    "cycleway:right": "lane",
    "foot": "yes",
    "highway": "secondary",
    "lanes": "2",
    "lit": "yes",
    "maxspeed": "50",
    "name": "Rotonde du Bois de l'Aune",
    "oneway": "yes",
    "sidewalk": "none",
    "surface": "asphalt"
  }
},
{
  "type": "way",
  "id": 642668201,
  "nodes": [
    2312078985,
    7769711703,
    7769711702,
    34506226,
    1832652377,
    6414388123,
    9097592829,
    34506228
  ],
  "tags": {
    "cycleway:right": "lane",
    "cycleway:right:lane": "advisory",
    "highway": "secondary",
    "lanes": "1",
    "lit": "yes",
    "maxspeed": "50",
    "maxspeed:source": "FR:urban",
    "name": "Avenue Marcel Pagnol",
    "oneway": "yes",
    "sidewalk": "right",
    "surface": "asphalt"
  }
},
{
  "type": "way",
  "id": 642668207,
  "nodes": [
    12157798,
    3410317498,
    12162997,
    6013127109,
    6013127110,
    302863109,
    2940226505,
    7319238813
  ],
  "tags": {
    "cycleway:right": "lane",
    "highway": "primary",
    "lanes": "3",
    "lanes:psv": "1",
    "lit": "yes",
    "maxspeed": "50",
    "name": "Rue de la Molle",
    "oneway": "yes",
    "sidewalk": "both",
    "source:maxspeed": "FR:urban",
    "surface": "asphalt"
  }
},
{
  "type": "way",
  "id": 642708351,
  "nodes": [
    5745651294,
    4371155508,
    256595164,
    256595165,
    5745651319,
    4371155509,
    822258142,
    5745676743
  ],
  "tags": {
    "cycleway:right": "lane",
    "highway": "primary",
    "maxspeed": "30",
    "name": "Route des Milles",
    "oneway": "yes",
    "ref": "D 9",
    "source": "cadastre-dgi-fr source : Direction Générale des Impôts - Cadastre. Mise à jour : 2009",
    "source:maxspeed": "sign",
    "surface": "asphalt"
  }
},
{
  "type": "way",
  "id": 642714633,
  "nodes": [
    6049907781,
    277036606,
    277036698,
    8147580081,
    277036709,
    277036607,
    6049907782
  ],
  "tags": {
    "cycleway:left": "track",
    "cycleway:right": "lane",
    "highway": "unclassified",
    "name": "Avenue de San Peyres"
  }
},
{
  "type": "way",
  "id": 642714634,
  "nodes": [
    6049907782,
    8147580067,
    277036608,
    277036609,
    8147580080,
    277036610,
    8147580076,
    8147580048,
    277036611
  ],
  "tags": {
    "cycleway:right": "lane",
    "highway": "unclassified",
    "name": "Avenue de San Peyres"
  }
},
{
  "type": "way",
  "id": 642714638,
  "nodes": [
    277036604,
    277036605,
    6049907784
  ],
  "tags": {
    "cycleway:left": "track",
    "cycleway:right": "lane",
    "highway": "unclassified",
    "name": "Avenue de San Peyres",
    "surface": "asphalt"
  }
},
{
  "type": "way",
  "id": 642714642,
  "nodes": [
    6049922704,
    8147580041,
    277037148,
    277037149
  ],
  "tags": {
    "cycleway:right": "lane",
    "highway": "residential",
    "maxspeed": "30",
    "name": "Avenue Jacques de Regis"
  }
},
{
  "type": "way",
  "id": 646052131,
  "nodes": [
    6071374926,
    309451720,
    2940297725,
    1755114688,
    1716788864,
    1755114689,
    1716788903
  ],
  "tags": {
    "cycleway:right": "lane",
    "highway": "tertiary",
    "lanes": "2",
    "maxspeed": "50",
    "maxspeed:source": "FR:urban",
    "name": "Rue des Boeufs",
    "oneway": "yes"
  }
},
{
  "type": "way",
  "id": 648758718,
  "nodes": [
    1610270719,
    361466262,
    3079355036,
    6348137445,
    361466266,
    3079355037,
    361466267,
    3079355038,
    361466269,
    6348137444
  ],
  "tags": {
    "cycleway:right": "lane",
    "highway": "tertiary",
    "maxspeed": "30",
    "name": "Avenue Saint-Mitre des Champs",
    "oneway": "yes"
  }
},
{
  "type": "way",
  "id": 651079248,
  "nodes": [
    267871470,
    6248945230,
    9137573406,
    6402614054,
    6106184137
  ],
  "tags": {
    "cycleway:right": "lane",
    "highway": "tertiary",
    "lanes": "3",
    "maxspeed": "30",
    "name": "Place Lucien Paye",
    "oneway": "yes",
    "source:maxspeed": "FR:zone30",
    "surface": "asphalt"
  }
},
{
  "type": "way",
  "id": 651606826,
  "nodes": [
    34317558,
    6039905045
  ],
  "tags": {
    "cycleway:right": "lane",
    "highway": "secondary",
    "lanes": "1",
    "lit": "yes",
    "maxspeed": "50",
    "name": "Avenue Saint-John Perse",
    "oneway": "yes",
    "surface": "asphalt"
  }
},
{
  "type": "way",
  "id": 651606827,
  "nodes": [
    2506392894,
    34317546,
    8986675468,
    2506392883,
    34317547,
    8988304172,
    8988304171,
    1832652369,
    34317550,
    9091739805,
    9426500697,
    4665065667
  ],
  "tags": {
    "cycleway:right": "lane",
    "highway": "secondary",
    "lanes": "2",
    "lit": "yes",
    "maxspeed": "50",
    "name": "Avenue Saint-John Perse",
    "oneway": "yes",
    "surface": "asphalt"
  }
},
{
  "type": "way",
  "id": 651606832,
  "nodes": [
    6039905044,
    2506392894
  ],
  "tags": {
    "cycleway:right": "lane",
    "highway": "secondary",
    "lanes": "1",
    "lit": "yes",
    "maxspeed": "50",
    "name": "Avenue Saint-John Perse",
    "oneway": "yes",
    "surface": "asphalt"
  }
},
{
  "type": "way",
  "id": 653598928,
  "nodes": [
    4708888554,
    6125212128,
    6125212126
  ],
  "tags": {
    "cycleway:right": "lane",
    "highway": "unclassified",
    "lanes": "1",
    "maxspeed": "50",
    "name": "Rue Pierre Ambrogiani",
    "oneway": "yes",
    "surface": "asphalt"
  }
},
{
  "type": "way",
  "id": 653598933,
  "nodes": [
    6125212138,
    6125212139,
    6125212147,
    6125212140,
    6125212141,
    4860621711,
    6125212142,
    6125212143,
    6125212144,
    6125212145,
    6125212146
  ],
  "tags": {
    "cycleway:right": "lane",
    "highway": "residential",
    "lanes": "1",
    "lit": "yes",
    "maxspeed": "50",
    "name": "Rue Soeur Emmanuelle",
    "oneway": "yes",
    "surface": "asphalt"
  }
},
{
  "type": "way",
  "id": 660036967,
  "nodes": [
    1832633719,
    1832633742,
    33762280,
    7606634843
  ],
  "tags": {
    "cycleway:right": "lane",
    "highway": "primary",
    "maxspeed": "50",
    "name": "Avenue Henri Malacrida",
    "oneway": "yes",
    "source:maxspeed": "FR:urban",
    "surface": "asphalt"
  }
},
{
  "type": "way",
  "id": 677981861,
  "nodes": [
    3544230512,
    6348137443,
    6348137442,
    6348137441,
    6348137440,
    6348137439,
    361466265,
    6348137438,
    6348137437,
    6348137446
  ],
  "tags": {
    "cycleway:right": "lane",
    "highway": "tertiary",
    "maxspeed": "30",
    "name": "Avenue Saint-Mitre des Champs",
    "oneway": "yes"
  }
},
{
  "type": "way",
  "id": 677981866,
  "nodes": [
    6348137444,
    6090131701,
    361466298
  ],
  "tags": {
    "cycleway:right": "lane",
    "highway": "tertiary",
    "maxspeed": "30",
    "name": "Avenue Saint-Mitre des Champs",
    "oneway": "yes"
  }
},
{
  "type": "way",
  "id": 681581953,
  "nodes": [
    267871464,
    1853984111
  ],
  "tags": {
    "cycleway:left": "share_busway",
    "cycleway:right": "lane",
    "highway": "tertiary",
    "lane_markings": "no",
    "name": "Avenue Robert Schuman",
    "surface": "concrete"
  }
},
{
  "type": "way",
  "id": 681581955,
  "nodes": [
    1853984111,
    6382969479,
    9489482736,
    6382969475,
    9137573404,
    6382969483
  ],
  "tags": {
    "cycleway:left": "share_busway",
    "cycleway:right": "lane",
    "highway": "tertiary",
    "lanes": "3",
    "lanes:forward": "1",
    "lanes:psv:backward": "1",
    "lanes:psv:forward": "1",
    "lit": "yes",
    "maxspeed": "30",
    "name": "Avenue Robert Schuman",
    "oneway": "yes",
    "oneway:bicycle": "no",
    "oneway:psv": "no",
    "source:maxspeed": "FR:zone30",
    "surface": "asphalt"
  }
},
{
  "type": "way",
  "id": 681581965,
  "nodes": [
    6106184137,
    6248945233,
    7093410489,
    7086406736,
    6248945229,
    6106184127,
    6248945228,
    33782815
  ],
  "tags": {
    "cycleway:right": "lane",
    "highway": "tertiary",
    "lanes": "1",
    "lit": "yes",
    "maxspeed": "50",
    "name": "Place Lucien Paye",
    "oneway": "yes",
    "source:maxspeed": "FR:urban",
    "surface": "asphalt"
  }
},
{
  "type": "way",
  "id": 684960089,
  "nodes": [
    1044051977,
    1022673841,
    2445536599
  ],
  "tags": {
    "cycleway:right": "lane",
    "highway": "secondary",
    "maxspeed": "50",
    "name": "Ancienne Route des Alpes",
    "ref:FR:FANTOIR": "130010052P"
  }
},
{
  "type": "way",
  "id": 720969458,
  "nodes": [
    4665088250,
    8988304143,
    8333570692,
    8984074503,
    8984074502,
    34317615,
    8984074500,
    34317617,
    8984074498,
    8984074499,
    9426500636,
    9433406325,
    34317620
  ],
  "tags": {
    "cycleway:right": "lane",
    "cycleway:right:lane": "advisory",
    "highway": "tertiary",
    "lanes": "2",
    "lit": "yes",
    "maxspeed": "50",
    "maxspeed:source": "FR:urban",
    "name": "Avenue Marcel Pagnol",
    "smoothness": "excellent",
    "surface": "asphalt"
  }
},
{
  "type": "way",
  "id": 759396264,
  "nodes": [
    2279016765,
    2279016767,
    2279016770,
    34317552,
    258828750,
    8238425131,
    258828765,
    2284741260,
    34317556,
    34317558
  ],
  "tags": {
    "cycleway:right": "lane",
    "highway": "secondary",
    "lanes": "2",
    "lit": "yes",
    "maxspeed": "50",
    "name": "Avenue Saint-John Perse",
    "oneway": "yes",
    "surface": "asphalt"
  }
},
{
  "type": "way",
  "id": 771126347,
  "nodes": [
    6382969483,
    267871466,
    305698176,
    6382969476,
    299650503,
    6382969477,
    6382969484,
    305698194,
    2591361734,
    9137573401
  ],
  "tags": {
    "cycleway:left": "share_busway",
    "cycleway:right": "lane",
    "highway": "tertiary",
    "lanes": "3",
    "lanes:forward": "1",
    "lanes:psv:backward": "1",
    "lanes:psv:forward": "1",
    "lit": "yes",
    "maxspeed": "30",
    "name": "Avenue Robert Schuman",
    "oneway": "yes",
    "oneway:bicycle": "no",
    "oneway:psv": "no",
    "source:maxspeed": "FR:zone30",
    "surface": "asphalt"
  }
},
{
  "type": "way",
  "id": 778949197,
  "nodes": [
    7272788848,
    8984074511,
    9426500630,
    8984074464,
    249808142,
    6109988466,
    8984074512,
    8984074467,
    8984074468,
    8984074515,
    9426500627,
    6109988463,
    250040902,
    8984074470,
    8984074516,
    8984074471,
    8984074472,
    9426500624
  ],
  "tags": {
    "cycleway:right": "lane",
    "cycleway:right:lane": "advisory",
    "highway": "tertiary",
    "lanes": "2",
    "lit": "yes",
    "maxspeed": "30",
    "name": "Boulevard du Coq d'Argent",
    "sidewalk": "left",
    "smoothness": "excellent",
    "source:maxspeed": "sign",
    "surface": "asphalt"
  }
},
{
  "type": "way",
  "id": 778949198,
  "nodes": [
    9426500624,
    8984074473,
    8984082620,
    250216640
  ],
  "tags": {
    "cycleway:left": "shared_lane",
    "cycleway:left:lane": "pictogram",
    "cycleway:right": "lane",
    "cycleway:right:lane": "advisory",
    "highway": "tertiary",
    "lanes": "2",
    "lit": "yes",
    "maxspeed": "50",
    "name": "Boulevard du Coq d'Argent",
    "sidewalk": "left",
    "smoothness": "excellent",
    "surface": "asphalt"
  }
},
{
  "type": "way",
  "id": 795657930,
  "nodes": [
    822202429,
    6574098074,
    302789761,
    6574098081
  ],
  "tags": {
    "cycleway:left": "track",
    "cycleway:right": "lane",
    "highway": "primary",
    "maxspeed": "30",
    "name": "Avenue Fortuné Ferrini",
    "ref": "D 8N",
    "source:maxspeed": "FR:zone30"
  }
},
{
  "type": "way",
  "id": 814305810,
  "nodes": [
    7606634850,
    7606634849,
    7795212141,
    2350625255
  ],
  "tags": {
    "cycleway:right": "lane",
    "fixme": "yes",
    "highway": "primary",
    "maxspeed": "50",
    "name": "Avenue Henri Malacrida",
    "oneway": "yes",
    "source:maxspeed": "FR:urban",
    "surface": "asphalt"
  }
},
{
  "type": "way",
  "id": 814305811,
  "nodes": [
    7606634841,
    7606634848,
    1832633759,
    7606634850
  ],
  "tags": {
    "cycleway:right": "lane",
    "fixme": "yes",
    "highway": "primary",
    "maxspeed": "50",
    "name": "Avenue Henri Malacrida",
    "oneway": "yes",
    "source:maxspeed": "FR:urban",
    "surface": "asphalt"
  }
},
{
  "type": "way",
  "id": 822839252,
  "nodes": [
    7682635697,
    9433406327,
    34317613
  ],
  "tags": {
    "cycleway:right": "lane",
    "cycleway:right:lane": "advisory",
    "highway": "tertiary",
    "lanes": "1",
    "lit": "yes",
    "maxspeed": "50",
    "name": "Avenue Marcel Pagnol",
    "oneway": "yes",
    "sidewalk": "separate",
    "surface": "asphalt"
  }
},
{
  "type": "way",
  "id": 860445635,
  "nodes": [
    5863870087,
    5685142477,
    5685142328,
    5685142476,
    5685142475,
    5685142474,
    5685142473,
    5685142471,
    5685142470,
    5685142469,
    9226805027,
    5685142468,
    5685142467,
    5685142466,
    5685142331,
    5685142465,
    5685142464,
    5685142463,
    5685142462,
    5685142461,
    5685142460,
    5863870091,
    5685142459,
    5685142458,
    5863864684,
    5685142457,
    5685142337,
    5685142456,
    5685142455,
    8849360412,
    1770701046,
    2355528403
  ],
  "tags": {
    "cycleway:left": "share_busway",
    "cycleway:right": "lane",
    "highway": "secondary",
    "lanes": "3",
    "lanes:backward": "2",
    "lanes:bus:backward": "1",
    "lanes:forward": "1",
    "lit": "yes",
    "maxspeed": "50",
    "name": "Avenue Philippe Solari",
    "ref": "D 14",
    "source:maxspeed": "FR:urban",
    "surface": "asphalt"
  }
},
{
  "type": "way",
  "id": 860466145,
  "nodes": [
    2355528403,
    8858802534,
    8019426934,
    8019426933
  ],
  "tags": {
    "cycleway:left": "share_busway",
    "cycleway:right": "lane",
    "highway": "secondary",
    "lanes": "3",
    "lanes:backward": "2",
    "lanes:bus:backward": "1",
    "lanes:forward": "1",
    "lit": "yes",
    "maxspeed": "30",
    "name": "Avenue Philippe Solari",
    "ref": "D 14",
    "surface": "asphalt"
  }
},
{
  "type": "way",
  "id": 860466146,
  "nodes": [
    8019426933,
    5685142401,
    5685142394,
    5685142393,
    5685142392,
    5869007228,
    5685142391,
    5685142390
  ],
  "tags": {
    "cycleway:left": "share_busway",
    "cycleway:right": "lane",
    "highway": "secondary",
    "lanes": "3",
    "lanes:backward": "2",
    "lanes:bus:backward": "1",
    "lanes:forward": "1",
    "lit": "yes",
    "maxspeed": "50",
    "name": "Avenue Philippe Solari",
    "ref": "D 14",
    "source:maxspeed": "FR:urban",
    "surface": "asphalt"
  }
},
{
  "type": "way",
  "id": 865724364,
  "nodes": [
    4419603183,
    4420949625,
    4420949627
  ],
  "tags": {
    "cycleway:right": "lane",
    "highway": "unclassified",
    "maxspeed": "50",
    "name": "Rue Yves Granon",
    "oneway": "yes",
    "surface": "asphalt"
  }
},
{
  "type": "way",
  "id": 881234786,
  "nodes": [
    8196071243,
    8367618945,
    976665807
  ],
  "tags": {
    "cycleway:right": "lane",
    "highway": "secondary",
    "maxspeed": "50",
    "name": "Route de Sisteron",
    "source": "cadastre-dgi-fr source : Direction Générale des Impôts - Cadastre. Mise à jour : 2009",
    "source:maxspeed": "FR:urban"
  }
},
{
  "type": "way",
  "id": 901120783,
  "nodes": [
    7319238813,
    8361146152
  ],
  "tags": {
    "cycleway:right": "lane",
    "highway": "primary",
    "lanes": "3",
    "lanes:psv": "1",
    "maxspeed": "50",
    "name": "Rue de la Molle",
    "oneway": "yes",
    "sidewalk": "both",
    "source": "cadastre-dgi-fr source : Direction Générale des Impôts - Cadastre. Mise à jour : 2009",
    "source:maxspeed": "FR:urban",
    "surface": "asphalt"
  }
},
{
  "type": "way",
  "id": 958449772,
  "nodes": [
    1716935677,
    299697950,
    2928148979,
    277589752,
    976665859,
    277589753,
    299710741,
    8868145280,
    976666194
  ],
  "tags": {
    "cycleway:right": "lane",
    "highway": "unclassified",
    "lanes": "2",
    "maxspeed": "50",
    "name": "Avenue Louis Philibert",
    "oneway": "yes",
    "surface": "asphalt"
  }
},
{
  "type": "way",
  "id": 965202000,
  "nodes": [
    6382854812,
    2267130555,
    5876290598
  ],
  "tags": {
    "cycleway:right": "lane",
    "highway": "primary",
    "lanes": "2",
    "lit": "yes",
    "maxspeed": "50",
    "maxspeed:source": "FR:urban",
    "name": "Cours Gambetta",
    "oneway": "no",
    "source": "cadastre-dgi-fr source : Direction Générale des Impôts - Cadastre. Mise à jour : 2010",
    "source:maxspeed": "FR:urban",
    "surface": "asphalt"
  }
},
{
  "type": "way",
  "id": 965399646,
  "nodes": [
    7325080024,
    1029009680,
    5044284598
  ],
  "tags": {
    "cycleway:right": "lane",
    "foot": "no",
    "highway": "secondary",
    "lanes": "2",
    "lit": "yes",
    "maxspeed": "50",
    "name": "Avenue Max Juvénal",
    "oneway": "yes",
    "ref": "D 65",
    "source:maxspeed": "FR:urban",
    "surface": "asphalt"
  }
},
{
  "type": "way",
  "id": 967650198,
  "nodes": [
    7606634843,
    7606634852,
    7606634841
  ],
  "tags": {
    "cycleway:right": "lane",
    "highway": "primary",
    "maxspeed": "50",
    "name": "Avenue Henri Malacrida",
    "oneway": "yes",
    "source:maxspeed": "FR:urban",
    "surface": "asphalt"
  }
},
{
  "type": "way",
  "id": 967650199,
  "nodes": [
    1832633715,
    1832633719
  ],
  "tags": {
    "cycleway:right": "lane",
    "highway": "primary",
    "maxspeed": "50",
    "name": "Avenue Henri Malacrida",
    "oneway": "yes",
    "source:maxspeed": "FR:urban",
    "surface": "asphalt"
  }
},
{
  "type": "way",
  "id": 968470437,
  "nodes": [
    2366241302,
    265000336,
    2366241296,
    265000337,
    265000338,
    2368427648,
    8367593395,
    265000339,
    976666131,
    976666477,
    265000340,
    2368427636,
    8367593398,
    4632581251
  ],
  "tags": {
    "cycleway:right": "lane",
    "highway": "secondary",
    "lit": "yes",
    "maxspeed": "50",
    "name": "Avenue Jean Moulin",
    "source:maxspeed": "FR:urban"
  }
},
{
  "type": "way",
  "id": 974447027,
  "nodes": [
    1132644196,
    1132643569
  ],
  "tags": {
    "cycleway:right": "lane",
    "highway": "primary",
    "junction": "roundabout",
    "lane_markings": "no",
    "name": "Route de Marseille",
    "surface": "asphalt"
  }
},
{
  "type": "way",
  "id": 974447028,
  "nodes": [
    9018030477,
    8843419302,
    1132644196
  ],
  "tags": {
    "bus_bay": "right",
    "cycleway:right": "lane",
    "highway": "primary",
    "junction": "roundabout",
    "lane_markings": "no",
    "name": "Route de Marseille",
    "surface": "asphalt"
  }
},
{
  "type": "way",
  "id": 978675697,
  "nodes": [
    33678715,
    2511802614
  ],
  "tags": {
    "cycleway:right": "lane",
    "highway": "primary",
    "lanes": "2",
    "lit": "yes",
    "maxspeed": "50",
    "maxspeed:source": "FR:urban",
    "name": "Cours Gambetta",
    "oneway": "no",
    "source": "cadastre-dgi-fr source : Direction Générale des Impôts - Cadastre. Mise à jour : 2009",
    "source:maxspeed": "FR:urban",
    "surface": "asphalt"
  }
},
{
  "type": "way",
  "id": 983877118,
  "nodes": [
    5672603772,
    9097540607,
    6109988398
  ],
  "tags": {
    "cycleway:right": "lane",
    "highway": "tertiary",
    "lanes": "1",
    "lit": "yes",
    "maxspeed": "50",
    "name": "Avenue du Deffens",
    "oneway": "yes",
    "surface": "asphalt"
  }
},
{
  "type": "way",
  "id": 985765632,
  "nodes": [
    6125212127,
    6125212130,
    4708888554
  ],
  "tags": {
    "cycleway:right": "lane",
    "highway": "unclassified",
    "lanes": "1",
    "maxspeed": "50",
    "name": "Rue Pierre Ambrogiani",
    "oneway": "yes",
    "surface": "asphalt"
  }
},
{
  "type": "way",
  "id": 985814185,
  "nodes": [
    2279016764,
    1832652373,
    2279016765
  ],
  "tags": {
    "cycleway:right": "lane",
    "highway": "secondary",
    "lanes": "2",
    "lit": "yes",
    "maxspeed": "50",
    "name": "Avenue Saint-John Perse",
    "oneway": "yes",
    "surface": "asphalt"
  }
},
{
  "type": "way",
  "id": 988602508,
  "nodes": [
    9137573401,
    299650507
  ],
  "tags": {
    "cycleway:left": "share_busway",
    "cycleway:right": "lane",
    "highway": "tertiary",
    "lanes": "3",
    "lanes:forward": "1",
    "lanes:psv:backward": "1",
    "lanes:psv:forward": "1",
    "lit": "yes",
    "maxspeed": "30",
    "name": "Avenue Robert Schuman",
    "oneway:bicycle": "no",
    "oneway:psv": "no",
    "source:maxspeed": "FR:zone30",
    "surface": "asphalt"
  }
},
{
  "type": "way",
  "id": 992179979,
  "nodes": [
    6382854814,
    5175920333,
    33678765
  ],
  "tags": {
    "cycleway:right": "lane",
    "highway": "primary",
    "lanes": "2",
    "lit": "yes",
    "maxspeed": "50",
    "maxspeed:source": "FR:urban",
    "name": "Cours Gambetta",
    "oneway": "no",
    "source": "cadastre-dgi-fr source : Direction Générale des Impôts - Cadastre. Mise à jour : 2010",
    "source:maxspeed": "FR:urban",
    "surface": "asphalt"
  }
},
{
  "type": "way",
  "id": 1011518585,
  "nodes": [
    250612987,
    4145159888,
    250612988,
    250612989
  ],
  "tags": {
    "cycleway:right": "lane",
    "highway": "tertiary",
    "lit": "yes",
    "maxspeed": "50",
    "name": "Avenue François Arago",
    "oneway": "yes",
    "surface": "asphalt"
  }
},
{
  "type": "way",
  "id": 1011518589,
  "nodes": [
    4187695429,
    9332732657,
    303625238,
    250612905,
    250612909,
    9332732658
  ],
  "tags": {
    "cycleway:right": "lane",
    "highway": "tertiary",
    "lit": "yes",
    "maxspeed": "50",
    "name": "Avenue François Arago",
    "oneway": "yes",
    "surface": "asphalt"
  }
},
{
  "type": "way",
  "id": 1022503920,
  "nodes": [
    33707167,
    9426500685
  ],
  "tags": {
    "cycleway:right": "lane",
    "highway": "secondary",
    "lanes": "2",
    "lit": "yes",
    "maxspeed": "50",
    "name": "Avenue Saint-John Perse",
    "oneway": "yes",
    "surface": "asphalt"
  }
},
{
  "type": "way",
  "id": 1022503922,
  "nodes": [
    4665065667,
    9097592831,
    33707168
  ],
  "tags": {
    "cycleway:right": "lane",
    "highway": "secondary",
    "lanes": "2",
    "lit": "yes",
    "maxspeed": "50",
    "name": "Avenue Saint-John Perse",
    "oneway": "yes",
    "surface": "asphalt"
  }
},
{
  "type": "area",
  "id": 3600070279,
  "tags": {
    "admin_level": "8",
    "boundary": "administrative",
    "name": "Aix-en-Provence",
    "name:an": "Ais de Provença",
    "name:ar": "آكس أون بروفانس",
    "name:bg": "Екс ан Прованс",
    "name:ca": "Ais de Provença",
    "name:eo": "Aikso Provenca",
    "name:he": "אקס-אן-פרובאנס",
    "name:ja": "エクス＝アン＝プロヴァンス",
    "name:ko": "엑상프로방스",
    "name:la": "Aquae Sextiae",
    "name:lt": "Provanso Eksas",
    "name:oc": "Ais de Provença",
    "name:ru": "Экс-ан-Прованс",
    "name:sr": "Екс ан Прованс",
    "name:uk": "Єкс-ан-Прованс",
    "name:zh": "普罗旺斯地区艾克斯",
    "population": "145133",
    "population:date": "2019",
    "postal_code": "13090;13100;13080;13290;13540",
    "ref:FR:SIREN": "211300017",
    "ref:INSEE": "13001",
    "source:name:oc": "ieo-bdtopoc",
    "source:population": "INSEE 2022",
    "type": "boundary",
    "website": "https://www.aixenprovence.fr/",
    "wikidata": "Q47465",
    "wikipedia": "fr:Aix-en-Provence"
  }
},
{
  "type": "node",
  "id": 267338638,
  "lat": 43.4858148,
  "lon": 5.3447793
},
{
  "type": "node",
  "id": 267338645,
  "lat": 43.4862105,
  "lon": 5.3446655
},
{
  "type": "node",
  "id": 596511268,
  "lat": 43.4863685,
  "lon": 5.3447079
},
{
  "type": "node",
  "id": 667338247,
  "lat": 43.4858679,
  "lon": 5.3449345
},
{
  "type": "node",
  "id": 1716935268,
  "lat": 43.4862069,
  "lon": 5.3448369
},
{
  "type": "node",
  "id": 1716935302,
  "lat": 43.4862841,
  "lon": 5.3446914
},
{
  "type": "node",
  "id": 3455496628,
  "lat": 43.4833690,
  "lon": 5.3452872
},
{
  "type": "node",
  "id": 3455496629,
  "lat": 43.4830642,
  "lon": 5.3450804
},
{
  "type": "node",
  "id": 3455496632,
  "lat": 43.4831208,
  "lon": 5.3447022
},
{
  "type": "node",
  "id": 3455496634,
  "lat": 43.4831538,
  "lon": 5.3452282
},
{
  "type": "node",
  "id": 3455496635,
  "lat": 43.4830751,
  "lon": 5.3449337
},
{
  "type": "node",
  "id": 3458928849,
  "lat": 43.4857019,
  "lon": 5.3449755
},
{
  "type": "node",
  "id": 4708888554,
  "lat": 43.4831570,
  "lon": 5.3459123
},
{
  "type": "node",
  "id": 4860621730,
  "lat": 43.4831613,
  "lon": 5.3453724
},
{
  "type": "node",
  "id": 4860694362,
  "lat": 43.4862912,
  "lon": 5.3447531
},
{
  "type": "node",
  "id": 6036747174,
  "lat": 43.4830359,
  "lon": 5.3447961
},
{
  "type": "node",
  "id": 6036747175,
  "lat": 43.4829805,
  "lon": 5.3449101
},
{
  "type": "node",
  "id": 6036747176,
  "lat": 43.4829302,
  "lon": 5.3450491
},
{
  "type": "node",
  "id": 6125212126,
  "lat": 43.4831290,
  "lon": 5.3454765
},
{
  "type": "node",
  "id": 6125212127,
  "lat": 43.4829892,
  "lon": 5.3455915
},
{
  "type": "node",
  "id": 6125212128,
  "lat": 43.4831312,
  "lon": 5.3456397
},
{
  "type": "node",
  "id": 6125212130,
  "lat": 43.4830495,
  "lon": 5.3457029
},
{
  "type": "node",
  "id": 6125212168,
  "lat": 43.4857782,
  "lon": 5.3449566
},
{
  "type": "node",
  "id": 6125212169,
  "lat": 43.4857532,
  "lon": 5.3448863
},
{
  "type": "node",
  "id": 6125212220,
  "lat": 43.4863077,
  "lon": 5.3446960
},
{
  "type": "node",
  "id": 6125212221,
  "lat": 43.4863131,
  "lon": 5.3447403
},
{
  "type": "node",
  "id": 8843481045,
  "lat": 43.4833175,
  "lon": 5.3453059
},
{
  "type": "node",
  "id": 8868146833,
  "lat": 43.4833136,
  "lon": 5.3452684
},
{
  "type": "node",
  "id": 250042410,
  "lat": 43.4927986,
  "lon": 5.3410514
},
{
  "type": "node",
  "id": 2112257932,
  "lat": 43.4927512,
  "lon": 5.3409862
},
{
  "type": "node",
  "id": 250042408,
  "lat": 43.4929674,
  "lon": 5.3412542
},
{
  "type": "node",
  "id": 250042409,
  "lat": 43.4929352,
  "lon": 5.3412180
},
{
  "type": "node",
  "id": 267338620,
  "lat": 43.4882895,
  "lon": 5.3426458
},
{
  "type": "node",
  "id": 298163151,
  "lat": 43.4883423,
  "lon": 5.3428926
},
{
  "type": "node",
  "id": 298163152,
  "lat": 43.4885608,
  "lon": 5.3428685
},
{
  "type": "node",
  "id": 298163153,
  "lat": 43.4889865,
  "lon": 5.3427385
},
{
  "type": "node",
  "id": 298163154,
  "lat": 43.4894399,
  "lon": 5.3427586
},
{
  "type": "node",
  "id": 298163155,
  "lat": 43.4896247,
  "lon": 5.3429729
},
{
  "type": "node",
  "id": 298163157,
  "lat": 43.4896581,
  "lon": 5.3430991
},
{
  "type": "node",
  "id": 298163160,
  "lat": 43.4897247,
  "lon": 5.3449663
},
{
  "type": "node",
  "id": 298163162,
  "lat": 43.4890578,
  "lon": 5.3455888
},
{
  "type": "node",
  "id": 338796377,
  "lat": 43.4896646,
  "lon": 5.3451507
},
{
  "type": "node",
  "id": 596512293,
  "lat": 43.4878493,
  "lon": 5.3457765
},
{
  "type": "node",
  "id": 667338202,
  "lat": 43.4896951,
  "lon": 5.3442368
},
{
  "type": "node",
  "id": 667338210,
  "lat": 43.4896794,
  "lon": 5.3438742
},
{
  "type": "node",
  "id": 1716935253,
  "lat": 43.4887786,
  "lon": 5.3427766
},
{
  "type": "node",
  "id": 1716935315,
  "lat": 43.4895758,
  "lon": 5.3428795
},
{
  "type": "node",
  "id": 1716935360,
  "lat": 43.4883151,
  "lon": 5.3428355
},
{
  "type": "node",
  "id": 1716935423,
  "lat": 43.4893432,
  "lon": 5.3427280
},
{
  "type": "node",
  "id": 1716935463,
  "lat": 43.4892293,
  "lon": 5.3427180
},
{
  "type": "node",
  "id": 1716935478,
  "lat": 43.4883788,
  "lon": 5.3429230
},
{
  "type": "node",
  "id": 1716935532,
  "lat": 43.4895205,
  "lon": 5.3428032
},
{
  "type": "node",
  "id": 1716935550,
  "lat": 43.4896754,
  "lon": 5.3435821
},
{
  "type": "node",
  "id": 1716935746,
  "lat": 43.4884242,
  "lon": 5.3429314
},
{
  "type": "node",
  "id": 1755114630,
  "lat": 43.4882967,
  "lon": 5.3427330
},
{
  "type": "node",
  "id": 1755114635,
  "lat": 43.4883290,
  "lon": 5.3428687
},
{
  "type": "node",
  "id": 1755114636,
  "lat": 43.4883574,
  "lon": 5.3429100
},
{
  "type": "node",
  "id": 1755114641,
  "lat": 43.4883996,
  "lon": 5.3429317
},
{
  "type": "node",
  "id": 1755114647,
  "lat": 43.4884556,
  "lon": 5.3429211
},
{
  "type": "node",
  "id": 4860669899,
  "lat": 43.4884516,
  "lon": 5.3457136
},
{
  "type": "node",
  "id": 6125212198,
  "lat": 43.4879778,
  "lon": 5.3457959
},
{
  "type": "node",
  "id": 6125212202,
  "lat": 43.4879313,
  "lon": 5.3457991
},
{
  "type": "node",
  "id": 6125212204,
  "lat": 43.4879089,
  "lon": 5.3457991
},
{
  "type": "node",
  "id": 6125212205,
  "lat": 43.4879546,
  "lon": 5.3457987
},
{
  "type": "node",
  "id": 6125212206,
  "lat": 43.4886964,
  "lon": 5.3456633
},
{
  "type": "node",
  "id": 6125212207,
  "lat": 43.4889072,
  "lon": 5.3456218
},
{
  "type": "node",
  "id": 6125212208,
  "lat": 43.4893592,
  "lon": 5.3454096
},
{
  "type": "node",
  "id": 6125212209,
  "lat": 43.4895490,
  "lon": 5.3452954
},
{
  "type": "node",
  "id": 6125212210,
  "lat": 43.4897064,
  "lon": 5.3450661
},
{
  "type": "node",
  "id": 6125212212,
  "lat": 43.4878833,
  "lon": 5.3458002
},
{
  "type": "node",
  "id": 6125212213,
  "lat": 43.4878635,
  "lon": 5.3457912
},
{
  "type": "node",
  "id": 277589749,
  "lat": 43.4945289,
  "lon": 5.3424136
},
{
  "type": "node",
  "id": 277589750,
  "lat": 43.4943356,
  "lon": 5.3421681
},
{
  "type": "node",
  "id": 277589752,
  "lat": 43.4938359,
  "lon": 5.3420600
},
{
  "type": "node",
  "id": 277589753,
  "lat": 43.4936392,
  "lon": 5.3419007
},
{
  "type": "node",
  "id": 299697950,
  "lat": 43.4941790,
  "lon": 5.3420867
},
{
  "type": "node",
  "id": 299710741,
  "lat": 43.4933591,
  "lon": 5.3414989
},
{
  "type": "node",
  "id": 976665859,
  "lat": 43.4937265,
  "lon": 5.3419888
},
{
  "type": "node",
  "id": 976666194,
  "lat": 43.4931905,
  "lon": 5.3413661
},
{
  "type": "node",
  "id": 1716935677,
  "lat": 43.4942802,
  "lon": 5.3421147
},
{
  "type": "node",
  "id": 2112257958,
  "lat": 43.4931038,
  "lon": 5.3413376
},
{
  "type": "node",
  "id": 2112258029,
  "lat": 43.4946026,
  "lon": 5.3425140
},
{
  "type": "node",
  "id": 2928148979,
  "lat": 43.4939068,
  "lon": 5.3420655
},
{
  "type": "node",
  "id": 8868145280,
  "lat": 43.4932946,
  "lon": 5.3414154
},
{
  "type": "node",
  "id": 256596605,
  "lat": 43.4797591,
  "lon": 5.3923526
},
{
  "type": "node",
  "id": 256596744,
  "lat": 43.4796631,
  "lon": 5.3924130
},
{
  "type": "node",
  "id": 264263328,
  "lat": 43.4793807,
  "lon": 5.3932812
},
{
  "type": "node",
  "id": 5181531089,
  "lat": 43.4794035,
  "lon": 5.3934769
},
{
  "type": "node",
  "id": 5181531101,
  "lat": 43.4792784,
  "lon": 5.3935724
},
{
  "type": "node",
  "id": 8843419310,
  "lat": 43.4793258,
  "lon": 5.3934355
},
{
  "type": "node",
  "id": 8861563888,
  "lat": 43.4798688,
  "lon": 5.3918141
},
{
  "type": "node",
  "id": 270900923,
  "lat": 43.4796474,
  "lon": 5.3940477
},
{
  "type": "node",
  "id": 1134163516,
  "lat": 43.4794668,
  "lon": 5.3939861
},
{
  "type": "node",
  "id": 5181531084,
  "lat": 43.4793626,
  "lon": 5.3936266
},
{
  "type": "node",
  "id": 5181531085,
  "lat": 43.4793470,
  "lon": 5.3939672
},
{
  "type": "node",
  "id": 5181531086,
  "lat": 43.4795175,
  "lon": 5.3939076
},
{
  "type": "node",
  "id": 5181531104,
  "lat": 43.4794147,
  "lon": 5.3937907
},
{
  "type": "node",
  "id": 7900787913,
  "lat": 43.4794971,
  "lon": 5.3938837
},
{
  "type": "node",
  "id": 4860621711,
  "lat": 43.4834159,
  "lon": 5.3501497
},
{
  "type": "node",
  "id": 6125212138,
  "lat": 43.4831560,
  "lon": 5.3501737
},
{
  "type": "node",
  "id": 6125212139,
  "lat": 43.4832127,
  "lon": 5.3501869
},
{
  "type": "node",
  "id": 6125212140,
  "lat": 43.4832990,
  "lon": 5.3502007
},
{
  "type": "node",
  "id": 6125212141,
  "lat": 43.4833591,
  "lon": 5.3501856
},
{
  "type": "node",
  "id": 6125212142,
  "lat": 43.4833773,
  "lon": 5.3501343
},
{
  "type": "node",
  "id": 6125212143,
  "lat": 43.4833236,
  "lon": 5.3501129
},
{
  "type": "node",
  "id": 6125212144,
  "lat": 43.4832836,
  "lon": 5.3500904
},
{
  "type": "node",
  "id": 6125212145,
  "lat": 43.4832472,
  "lon": 5.3500540
},
{
  "type": "node",
  "id": 6125212146,
  "lat": 43.4832115,
  "lon": 5.3499969
},
{
  "type": "node",
  "id": 6125212147,
  "lat": 43.4832558,
  "lon": 5.3501938
},
{
  "type": "node",
  "id": 303625345,
  "lat": 43.4921218,
  "lon": 5.3510041
},
{
  "type": "node",
  "id": 5744023085,
  "lat": 43.4920870,
  "lon": 5.3508054
},
{
  "type": "node",
  "id": 5744023086,
  "lat": 43.4921034,
  "lon": 5.3509285
},
{
  "type": "node",
  "id": 250612905,
  "lat": 43.4895909,
  "lon": 5.3572195
},
{
  "type": "node",
  "id": 250612909,
  "lat": 43.4894012,
  "lon": 5.3574566
},
{
  "type": "node",
  "id": 250612987,
  "lat": 43.4895710,
  "lon": 5.3575686
},
{
  "type": "node",
  "id": 250612988,
  "lat": 43.4897120,
  "lon": 5.3574038
},
{
  "type": "node",
  "id": 250612989,
  "lat": 43.4897928,
  "lon": 5.3573110
},
{
  "type": "node",
  "id": 303625238,
  "lat": 43.4896777,
  "lon": 5.3571238
},
{
  "type": "node",
  "id": 4145159888,
  "lat": 43.4896621,
  "lon": 5.3574621
},
{
  "type": "node",
  "id": 4187695429,
  "lat": 43.4897309,
  "lon": 5.3570375
},
{
  "type": "node",
  "id": 9332732657,
  "lat": 43.4897077,
  "lon": 5.3570751
},
{
  "type": "node",
  "id": 9332732658,
  "lat": 43.4893262,
  "lon": 5.3575574
},
{
  "type": "node",
  "id": 250202825,
  "lat": 43.4956383,
  "lon": 5.3498663
},
{
  "type": "node",
  "id": 259760727,
  "lat": 43.4968517,
  "lon": 5.3496930
},
{
  "type": "node",
  "id": 278855896,
  "lat": 43.4959384,
  "lon": 5.3498794
},
{
  "type": "node",
  "id": 278855897,
  "lat": 43.4957416,
  "lon": 5.3498858
},
{
  "type": "node",
  "id": 976666940,
  "lat": 43.4963126,
  "lon": 5.3498082
},
{
  "type": "node",
  "id": 1716935285,
  "lat": 43.4962634,
  "lon": 5.3498176
},
{
  "type": "node",
  "id": 2113932011,
  "lat": 43.4957620,
  "lon": 5.3498851
},
{
  "type": "node",
  "id": 4419585571,
  "lat": 43.4963469,
  "lon": 5.3671422
},
{
  "type": "node",
  "id": 4419585574,
  "lat": 43.4961954,
  "lon": 5.3672017
},
{
  "type": "node",
  "id": 4419593921,
  "lat": 43.4962056,
  "lon": 5.3673828
},
{
  "type": "node",
  "id": 4420949614,
  "lat": 43.4963627,
  "lon": 5.3672916
},
{
  "type": "node",
  "id": 8849027717,
  "lat": 43.4963592,
  "lon": 5.3673644
},
{
  "type": "node",
  "id": 251410489,
  "lat": 43.4940750,
  "lon": 5.3685068
},
{
  "type": "node",
  "id": 259760746,
  "lat": 43.4948919,
  "lon": 5.3679856
},
{
  "type": "node",
  "id": 259760747,
  "lat": 43.4945288,
  "lon": 5.3682171
},
{
  "type": "node",
  "id": 259760748,
  "lat": 43.4942080,
  "lon": 5.3683810
},
{
  "type": "node",
  "id": 298124025,
  "lat": 43.4942474,
  "lon": 5.3683529
},
{
  "type": "node",
  "id": 1317960666,
  "lat": 43.4943555,
  "lon": 5.3683815
},
{
  "type": "node",
  "id": 1317960676,
  "lat": 43.4946023,
  "lon": 5.3682504
},
{
  "type": "node",
  "id": 1317960682,
  "lat": 43.4947554,
  "lon": 5.3681381
},
{
  "type": "node",
  "id": 4419603183,
  "lat": 43.4966425,
  "lon": 5.3695795
},
{
  "type": "node",
  "id": 4419625170,
  "lat": 43.4942594,
  "lon": 5.3684611
},
{
  "type": "node",
  "id": 4420949609,
  "lat": 43.4962631,
  "lon": 5.3678670
},
{
  "type": "node",
  "id": 4420949613,
  "lat": 43.4963551,
  "lon": 5.3675224
},
{
  "type": "node",
  "id": 4420949615,
  "lat": 43.4963745,
  "lon": 5.3678161
},
{
  "type": "node",
  "id": 4420949616,
  "lat": 43.4964241,
  "lon": 5.3681098
},
{
  "type": "node",
  "id": 4420949617,
  "lat": 43.4965405,
  "lon": 5.3695152
},
{
  "type": "node",
  "id": 4420949618,
  "lat": 43.4965449,
  "lon": 5.3693711
},
{
  "type": "node",
  "id": 4420949620,
  "lat": 43.4965856,
  "lon": 5.3695893
},
{
  "type": "node",
  "id": 4420949621,
  "lat": 43.4966348,
  "lon": 5.3692604
},
{
  "type": "node",
  "id": 4420949622,
  "lat": 43.4966844,
  "lon": 5.3694321
},
{
  "type": "node",
  "id": 4420949623,
  "lat": 43.4967155,
  "lon": 5.3694670
},
{
  "type": "node",
  "id": 4420949625,
  "lat": 43.4967311,
  "lon": 5.3695461
},
{
  "type": "node",
  "id": 4420949627,
  "lat": 43.4967697,
  "lon": 5.3694976
},
{
  "type": "node",
  "id": 5780351954,
  "lat": 43.4965580,
  "lon": 5.3695641
},
{
  "type": "node",
  "id": 7125883720,
  "lat": 43.4943057,
  "lon": 5.3683115
},
{
  "type": "node",
  "id": 7125883721,
  "lat": 43.4943053,
  "lon": 5.3684142
},
{
  "type": "node",
  "id": 7965852385,
  "lat": 43.4965745,
  "lon": 5.3695791
},
{
  "type": "node",
  "id": 8093210490,
  "lat": 43.4963606,
  "lon": 5.3676058
},
{
  "type": "node",
  "id": 8093288218,
  "lat": 43.4963673,
  "lon": 5.3677066
},
{
  "type": "node",
  "id": 256596606,
  "lat": 43.4800345,
  "lon": 5.3913664
},
{
  "type": "node",
  "id": 8861563889,
  "lat": 43.4799136,
  "lon": 5.3918315
},
{
  "type": "node",
  "id": 278857558,
  "lat": 43.5078184,
  "lon": 5.3866721
},
{
  "type": "node",
  "id": 278857607,
  "lat": 43.5079652,
  "lon": 5.3869716
},
{
  "type": "node",
  "id": 295248791,
  "lat": 43.5077405,
  "lon": 5.3863945
},
{
  "type": "node",
  "id": 298280943,
  "lat": 43.5079144,
  "lon": 5.3870260
},
{
  "type": "node",
  "id": 4068744761,
  "lat": 43.5078344,
  "lon": 5.3865403
},
{
  "type": "node",
  "id": 4068744762,
  "lat": 43.5077789,
  "lon": 5.3865740
},
{
  "type": "node",
  "id": 5641307500,
  "lat": 43.5077977,
  "lon": 5.3864540
},
{
  "type": "node",
  "id": 278857559,
  "lat": 43.5079553,
  "lon": 5.3871707
},
{
  "type": "node",
  "id": 278857560,
  "lat": 43.5082973,
  "lon": 5.3881575
},
{
  "type": "node",
  "id": 278857561,
  "lat": 43.5084303,
  "lon": 5.3885598
},
{
  "type": "node",
  "id": 278857605,
  "lat": 43.5084514,
  "lon": 5.3884428
},
{
  "type": "node",
  "id": 278857606,
  "lat": 43.5082474,
  "lon": 5.3878492
},
{
  "type": "node",
  "id": 292738025,
  "lat": 43.5094017,
  "lon": 5.3920985
},
{
  "type": "node",
  "id": 292738057,
  "lat": 43.5091713,
  "lon": 5.3921932
},
{
  "type": "node",
  "id": 295247230,
  "lat": 43.5085480,
  "lon": 5.3889362
},
{
  "type": "node",
  "id": 295247233,
  "lat": 43.5085319,
  "lon": 5.3886821
},
{
  "type": "node",
  "id": 295247234,
  "lat": 43.5084515,
  "lon": 5.3887686
},
{
  "type": "node",
  "id": 295247240,
  "lat": 43.5092058,
  "lon": 5.3915907
},
{
  "type": "node",
  "id": 295247241,
  "lat": 43.5092813,
  "lon": 5.3918588
},
{
  "type": "node",
  "id": 295247244,
  "lat": 43.5093509,
  "lon": 5.3920384
},
{
  "type": "node",
  "id": 295247246,
  "lat": 43.5086154,
  "lon": 5.3891729
},
{
  "type": "node",
  "id": 295247254,
  "lat": 43.5091637,
  "lon": 5.3917733
},
{
  "type": "node",
  "id": 295247261,
  "lat": 43.5091966,
  "lon": 5.3919556
},
{
  "type": "node",
  "id": 295247268,
  "lat": 43.5091904,
  "lon": 5.3920600
},
{
  "type": "node",
  "id": 295247279,
  "lat": 43.5091846,
  "lon": 5.3921179
},
{
  "type": "node",
  "id": 297951905,
  "lat": 43.5090174,
  "lon": 5.3910905
},
{
  "type": "node",
  "id": 298280923,
  "lat": 43.5087929,
  "lon": 5.3896694
},
{
  "type": "node",
  "id": 298280925,
  "lat": 43.5090399,
  "lon": 5.3908202
},
{
  "type": "node",
  "id": 767384166,
  "lat": 43.5082924,
  "lon": 5.3879970
},
{
  "type": "node",
  "id": 1840643785,
  "lat": 43.5088305,
  "lon": 5.3902103
},
{
  "type": "node",
  "id": 4068739135,
  "lat": 43.5093019,
  "lon": 5.3919225
},
{
  "type": "node",
  "id": 4068760129,
  "lat": 43.5086532,
  "lon": 5.3893582
},
{
  "type": "node",
  "id": 4068771348,
  "lat": 43.5083216,
  "lon": 5.3880788
},
{
  "type": "node",
  "id": 4068771349,
  "lat": 43.5082797,
  "lon": 5.3881066
},
{
  "type": "node",
  "id": 6069081498,
  "lat": 43.5093089,
  "lon": 5.3919390
},
{
  "type": "node",
  "id": 7965811575,
  "lat": 43.5087237,
  "lon": 5.3893698
},
{
  "type": "node",
  "id": 8846916237,
  "lat": 43.5086889,
  "lon": 5.3895329
},
{
  "type": "node",
  "id": 8846916258,
  "lat": 43.5087979,
  "lon": 5.3900465
},
{
  "type": "node",
  "id": 256586291,
  "lat": 43.5071168,
  "lon": 5.3994040
},
{
  "type": "node",
  "id": 256586292,
  "lat": 43.5071447,
  "lon": 5.3995979
},
{
  "type": "node",
  "id": 256586293,
  "lat": 43.5070479,
  "lon": 5.3997227
},
{
  "type": "node",
  "id": 270923088,
  "lat": 43.5072361,
  "lon": 5.4001417
},
{
  "type": "node",
  "id": 297750334,
  "lat": 43.5070403,
  "lon": 5.3988581
},
{
  "type": "node",
  "id": 297750358,
  "lat": 43.5070028,
  "lon": 5.3983104
},
{
  "type": "node",
  "id": 297750363,
  "lat": 43.5070628,
  "lon": 5.3977952
},
{
  "type": "node",
  "id": 297750369,
  "lat": 43.5070509,
  "lon": 5.3976469
},
{
  "type": "node",
  "id": 297750389,
  "lat": 43.5068311,
  "lon": 5.3979182
},
{
  "type": "node",
  "id": 297750399,
  "lat": 43.5068866,
  "lon": 5.3971645
},
{
  "type": "node",
  "id": 1832653151,
  "lat": 43.5069150,
  "lon": 5.3980653
},
{
  "type": "node",
  "id": 1832653156,
  "lat": 43.5071987,
  "lon": 5.3999764
},
{
  "type": "node",
  "id": 1832653157,
  "lat": 43.5072071,
  "lon": 5.3998254
},
{
  "type": "node",
  "id": 1832653158,
  "lat": 43.5072306,
  "lon": 5.3999699
},
{
  "type": "node",
  "id": 2316314335,
  "lat": 43.5070855,
  "lon": 5.3991803
},
{
  "type": "node",
  "id": 2316314341,
  "lat": 43.5071372,
  "lon": 5.3998311
},
{
  "type": "node",
  "id": 2316314352,
  "lat": 43.5072025,
  "lon": 5.3998088
},
{
  "type": "node",
  "id": 4068865955,
  "lat": 43.5071251,
  "lon": 5.3998054
},
{
  "type": "node",
  "id": 4068865956,
  "lat": 43.5071907,
  "lon": 5.3997687
},
{
  "type": "node",
  "id": 4068880532,
  "lat": 43.5070895,
  "lon": 5.3992088
},
{
  "type": "node",
  "id": 8843481040,
  "lat": 43.5069430,
  "lon": 5.3981441
},
{
  "type": "node",
  "id": 8908400010,
  "lat": 43.5070244,
  "lon": 5.3981252
},
{
  "type": "node",
  "id": 9097592856,
  "lat": 43.5071677,
  "lon": 5.3996833
},
{
  "type": "node",
  "id": 9097592859,
  "lat": 43.5070456,
  "lon": 5.3979430
},
{
  "type": "node",
  "id": 256595928,
  "lat": 43.4799148,
  "lon": 5.4148976
},
{
  "type": "node",
  "id": 477015943,
  "lat": 43.4799864,
  "lon": 5.4149605
},
{
  "type": "node",
  "id": 1132643569,
  "lat": 43.4804896,
  "lon": 5.4151119
},
{
  "type": "node",
  "id": 1132644196,
  "lat": 43.4804474,
  "lon": 5.4150992
},
{
  "type": "node",
  "id": 1610339643,
  "lat": 43.4801252,
  "lon": 5.4150023
},
{
  "type": "node",
  "id": 8843419302,
  "lat": 43.4803117,
  "lon": 5.4150584
},
{
  "type": "node",
  "id": 9018030477,
  "lat": 43.4801703,
  "lon": 5.4150159
},
{
  "type": "node",
  "id": 267185705,
  "lat": 43.5106792,
  "lon": 5.4097983
},
{
  "type": "node",
  "id": 270923318,
  "lat": 43.5108702,
  "lon": 5.4097922
},
{
  "type": "node",
  "id": 270923319,
  "lat": 43.5108514,
  "lon": 5.4099674
},
{
  "type": "node",
  "id": 4068713989,
  "lat": 43.5107820,
  "lon": 5.4097950
},
{
  "type": "node",
  "id": 4068713990,
  "lat": 43.5107585,
  "lon": 5.4098761
},
{
  "type": "node",
  "id": 9097592838,
  "lat": 43.5107995,
  "lon": 5.4099164
},
{
  "type": "node",
  "id": 1310777786,
  "lat": 43.5170658,
  "lon": 5.4244952
},
{
  "type": "node",
  "id": 5418358242,
  "lat": 43.5172776,
  "lon": 5.4244713
},
{
  "type": "node",
  "id": 6109436273,
  "lat": 43.5171603,
  "lon": 5.4244845
},
{
  "type": "node",
  "id": 8736088526,
  "lat": 43.5172264,
  "lon": 5.4244771
},
{
  "type": "node",
  "id": 34317538,
  "lat": 43.5269655,
  "lon": 5.4127934
},
{
  "type": "node",
  "id": 34317540,
  "lat": 43.5268761,
  "lon": 5.4127359
},
{
  "type": "node",
  "id": 34630934,
  "lat": 43.5270671,
  "lon": 5.4123380
},
{
  "type": "node",
  "id": 34630935,
  "lat": 43.5271548,
  "lon": 5.4124097
},
{
  "type": "node",
  "id": 259237814,
  "lat": 43.5278103,
  "lon": 5.4112980
},
{
  "type": "node",
  "id": 354410664,
  "lat": 43.5272522,
  "lon": 5.4122596
},
{
  "type": "node",
  "id": 354410682,
  "lat": 43.5275451,
  "lon": 5.4118503
},
{
  "type": "node",
  "id": 1610327419,
  "lat": 43.5279156,
  "lon": 5.4113924
},
{
  "type": "node",
  "id": 5682779252,
  "lat": 43.5275569,
  "lon": 5.4118357
},
{
  "type": "node",
  "id": 5682779253,
  "lat": 43.5274911,
  "lon": 5.4117313
},
{
  "type": "node",
  "id": 6109436281,
  "lat": 43.5277390,
  "lon": 5.4113947
},
{
  "type": "node",
  "id": 6109436282,
  "lat": 43.5278170,
  "lon": 5.4115082
},
{
  "type": "node",
  "id": 6537244656,
  "lat": 43.5267208,
  "lon": 5.4130359
},
{
  "type": "node",
  "id": 6718347470,
  "lat": 43.5273550,
  "lon": 5.4119162
},
{
  "type": "node",
  "id": 6718347471,
  "lat": 43.5274305,
  "lon": 5.4120051
},
{
  "type": "node",
  "id": 9122269185,
  "lat": 43.5278564,
  "lon": 5.4114416
},
{
  "type": "node",
  "id": 33707201,
  "lat": 43.5257391,
  "lon": 5.4134683
},
{
  "type": "node",
  "id": 33707202,
  "lat": 43.5255403,
  "lon": 5.4135257
},
{
  "type": "node",
  "id": 33707203,
  "lat": 43.5251284,
  "lon": 5.4137614
},
{
  "type": "node",
  "id": 33707204,
  "lat": 43.5248338,
  "lon": 5.4140734
},
{
  "type": "node",
  "id": 33707205,
  "lat": 43.5246603,
  "lon": 5.4143878
},
{
  "type": "node",
  "id": 33707206,
  "lat": 43.5245202,
  "lon": 5.4148085
},
{
  "type": "node",
  "id": 33707207,
  "lat": 43.5244556,
  "lon": 5.4153443
},
{
  "type": "node",
  "id": 34317546,
  "lat": 43.5252895,
  "lon": 5.4178594
},
{
  "type": "node",
  "id": 34317556,
  "lat": 43.5254019,
  "lon": 5.4178872
},
{
  "type": "node",
  "id": 34317558,
  "lat": 43.5254247,
  "lon": 5.4176973
},
{
  "type": "node",
  "id": 250216640,
  "lat": 43.5217427,
  "lon": 5.4186238
},
{
  "type": "node",
  "id": 258828750,
  "lat": 43.5252061,
  "lon": 5.4195830
},
{
  "type": "node",
  "id": 258828765,
  "lat": 43.5252226,
  "lon": 5.4193971
},
{
  "type": "node",
  "id": 259237863,
  "lat": 43.5244727,
  "lon": 5.4151075
},
{
  "type": "node",
  "id": 1079787999,
  "lat": 43.5255714,
  "lon": 5.4135174
},
{
  "type": "node",
  "id": 2284741260,
  "lat": 43.5252355,
  "lon": 5.4192746
},
{
  "type": "node",
  "id": 2506392842,
  "lat": 43.5244702,
  "lon": 5.4155510
},
{
  "type": "node",
  "id": 2506392875,
  "lat": 43.5249867,
  "lon": 5.4138839
},
{
  "type": "node",
  "id": 2506392883,
  "lat": 43.5251604,
  "lon": 5.4188720
},
{
  "type": "node",
  "id": 2506392892,
  "lat": 43.5253126,
  "lon": 5.4136291
},
{
  "type": "node",
  "id": 2506392894,
  "lat": 43.5253541,
  "lon": 5.4174897
},
{
  "type": "node",
  "id": 5672603772,
  "lat": 43.5245376,
  "lon": 5.4160018
},
{
  "type": "node",
  "id": 6039905044,
  "lat": 43.5253738,
  "lon": 5.4173474
},
{
  "type": "node",
  "id": 6039905045,
  "lat": 43.5254696,
  "lon": 5.4173821
},
{
  "type": "node",
  "id": 6109988393,
  "lat": 43.5245040,
  "lon": 5.4158059
},
{
  "type": "node",
  "id": 6109988398,
  "lat": 43.5244410,
  "lon": 5.4161347
},
{
  "type": "node",
  "id": 6109988401,
  "lat": 43.5245209,
  "lon": 5.4159096
},
{
  "type": "node",
  "id": 8238425131,
  "lat": 43.5252125,
  "lon": 5.4195110
},
{
  "type": "node",
  "id": 8984074472,
  "lat": 43.5215586,
  "lon": 5.4196411
},
{
  "type": "node",
  "id": 8984074473,
  "lat": 43.5216630,
  "lon": 5.4190690
},
{
  "type": "node",
  "id": 8984082620,
  "lat": 43.5217323,
  "lon": 5.4186817
},
{
  "type": "node",
  "id": 8986675453,
  "lat": 43.5245135,
  "lon": 5.4158641
},
{
  "type": "node",
  "id": 8986675468,
  "lat": 43.5252338,
  "lon": 5.4182730
},
{
  "type": "node",
  "id": 9097540607,
  "lat": 43.5244961,
  "lon": 5.4160836
},
{
  "type": "node",
  "id": 9426500624,
  "lat": 43.5216387,
  "lon": 5.4192110
},
{
  "type": "node",
  "id": 33707162,
  "lat": 43.5251515,
  "lon": 5.4236728
},
{
  "type": "node",
  "id": 33707165,
  "lat": 43.5251566,
  "lon": 5.4235956
},
{
  "type": "node",
  "id": 33707167,
  "lat": 43.5250668,
  "lon": 5.4234255
},
{
  "type": "node",
  "id": 33707168,
  "lat": 43.5249546,
  "lon": 5.4234223
},
{
  "type": "node",
  "id": 34317458,
  "lat": 43.5212386,
  "lon": 5.4233107
},
{
  "type": "node",
  "id": 34317547,
  "lat": 43.5250367,
  "lon": 5.4200963
},
{
  "type": "node",
  "id": 34317550,
  "lat": 43.5249608,
  "lon": 5.4229580
},
{
  "type": "node",
  "id": 34317551,
  "lat": 43.5250675,
  "lon": 5.4232118
},
{
  "type": "node",
  "id": 34317552,
  "lat": 43.5251738,
  "lon": 5.4199705
},
{
  "type": "node",
  "id": 34317606,
  "lat": 43.5211648,
  "lon": 5.4229474
},
{
  "type": "node",
  "id": 34317613,
  "lat": 43.5246312,
  "lon": 5.4235711
},
{
  "type": "node",
  "id": 34317615,
  "lat": 43.5233142,
  "lon": 5.4235148
},
{
  "type": "node",
  "id": 34317617,
  "lat": 43.5229715,
  "lon": 5.4236132
},
{
  "type": "node",
  "id": 34317620,
  "lat": 43.5223167,
  "lon": 5.4238974
},
{
  "type": "node",
  "id": 34506251,
  "lat": 43.5253802,
  "lon": 5.4236377
},
{
  "type": "node",
  "id": 34506252,
  "lat": 43.5253804,
  "lon": 5.4236960
},
{
  "type": "node",
  "id": 249808142,
  "lat": 43.5212902,
  "lon": 5.4216347
},
{
  "type": "node",
  "id": 250040902,
  "lat": 43.5214471,
  "lon": 5.4203821
},
{
  "type": "node",
  "id": 1832652369,
  "lat": 43.5249665,
  "lon": 5.4220906
},
{
  "type": "node",
  "id": 1832652373,
  "lat": 43.5250783,
  "lon": 5.4220852
},
{
  "type": "node",
  "id": 2279016764,
  "lat": 43.5250695,
  "lon": 5.4229487
},
{
  "type": "node",
  "id": 2279016765,
  "lat": 43.5250842,
  "lon": 5.4217766
},
{
  "type": "node",
  "id": 2279016767,
  "lat": 43.5251021,
  "lon": 5.4211123
},
{
  "type": "node",
  "id": 2279016770,
  "lat": 43.5251437,
  "lon": 5.4203996
},
{
  "type": "node",
  "id": 4665065664,
  "lat": 43.5252610,
  "lon": 5.4236787
},
{
  "type": "node",
  "id": 4665065665,
  "lat": 43.5252654,
  "lon": 5.4236159
},
{
  "type": "node",
  "id": 4665065667,
  "lat": 43.5249564,
  "lon": 5.4233147
},
{
  "type": "node",
  "id": 4665088250,
  "lat": 43.5240638,
  "lon": 5.4235700
},
{
  "type": "node",
  "id": 6109988463,
  "lat": 43.5214294,
  "lon": 5.4204973
},
{
  "type": "node",
  "id": 6109988466,
  "lat": 43.5213004,
  "lon": 5.4215423
},
{
  "type": "node",
  "id": 6109988467,
  "lat": 43.5211924,
  "lon": 5.4231441
},
{
  "type": "node",
  "id": 6109988469,
  "lat": 43.5211657,
  "lon": 5.4228255
},
{
  "type": "node",
  "id": 6109988470,
  "lat": 43.5211723,
  "lon": 5.4230432
},
{
  "type": "node",
  "id": 6109988471,
  "lat": 43.5212046,
  "lon": 5.4231955
},
{
  "type": "node",
  "id": 6177003008,
  "lat": 43.5255431,
  "lon": 5.4237278
},
{
  "type": "node",
  "id": 7272788848,
  "lat": 43.5211834,
  "lon": 5.4226215
},
{
  "type": "node",
  "id": 7682634767,
  "lat": 43.5253169,
  "lon": 5.4236854
},
{
  "type": "node",
  "id": 7682634768,
  "lat": 43.5255355,
  "lon": 5.4236663
},
{
  "type": "node",
  "id": 7682634769,
  "lat": 43.5257199,
  "lon": 5.4237646
},
{
  "type": "node",
  "id": 7682635695,
  "lat": 43.5243390,
  "lon": 5.4235574
},
{
  "type": "node",
  "id": 7682635697,
  "lat": 43.5248002,
  "lon": 5.4235429
},
{
  "type": "node",
  "id": 8333570692,
  "lat": 43.5237026,
  "lon": 5.4235172
},
{
  "type": "node",
  "id": 8984074464,
  "lat": 43.5212803,
  "lon": 5.4217268
},
{
  "type": "node",
  "id": 8984074467,
  "lat": 43.5213342,
  "lon": 5.4212120
},
{
  "type": "node",
  "id": 8984074468,
  "lat": 43.5213847,
  "lon": 5.4208095
},
{
  "type": "node",
  "id": 8984074470,
  "lat": 43.5214633,
  "lon": 5.4202668
},
{
  "type": "node",
  "id": 8984074471,
  "lat": 43.5214930,
  "lon": 5.4200543
},
{
  "type": "node",
  "id": 8984074498,
  "lat": 43.5228240,
  "lon": 5.4236761
},
{
  "type": "node",
  "id": 8984074499,
  "lat": 43.5226189,
  "lon": 5.4237612
},
{
  "type": "node",
  "id": 8984074500,
  "lat": 43.5231731,
  "lon": 5.4235507
},
{
  "type": "node",
  "id": 8984074502,
  "lat": 43.5234801,
  "lon": 5.4235012
},
{
  "type": "node",
  "id": 8984074503,
  "lat": 43.5236000,
  "lon": 5.4235056
},
{
  "type": "node",
  "id": 8984074505,
  "lat": 43.5244481,
  "lon": 5.4235589
},
{
  "type": "node",
  "id": 8984074511,
  "lat": 43.5212742,
  "lon": 5.4217824
},
{
  "type": "node",
  "id": 8984074512,
  "lat": 43.5213072,
  "lon": 5.4214752
},
{
  "type": "node",
  "id": 8984074515,
  "lat": 43.5214195,
  "lon": 5.4205624
},
{
  "type": "node",
  "id": 8984074516,
  "lat": 43.5214721,
  "lon": 5.4202038
},
{
  "type": "node",
  "id": 8988304140,
  "lat": 43.5241477,
  "lon": 5.4235779
},
{
  "type": "node",
  "id": 8988304142,
  "lat": 43.5242692,
  "lon": 5.4235668
},
{
  "type": "node",
  "id": 8988304143,
  "lat": 43.5240291,
  "lon": 5.4235649
},
{
  "type": "node",
  "id": 8988304145,
  "lat": 43.5245559,
  "lon": 5.4235658
},
{
  "type": "node",
  "id": 8988304171,
  "lat": 43.5249878,
  "lon": 5.4213311
},
{
  "type": "node",
  "id": 8988304172,
  "lat": 43.5249998,
  "lon": 5.4208888
},
{
  "type": "node",
  "id": 8988304173,
  "lat": 43.5252190,
  "lon": 5.4236740
},
{
  "type": "node",
  "id": 8988304183,
  "lat": 43.5243972,
  "lon": 5.4235546
},
{
  "type": "node",
  "id": 9091739805,
  "lat": 43.5249584,
  "lon": 5.4231545
},
{
  "type": "node",
  "id": 9097592830,
  "lat": 43.5252025,
  "lon": 5.4236042
},
{
  "type": "node",
  "id": 9097592831,
  "lat": 43.5249556,
  "lon": 5.4233639
},
{
  "type": "node",
  "id": 9426500627,
  "lat": 43.5214216,
  "lon": 5.4205484
},
{
  "type": "node",
  "id": 9426500630,
  "lat": 43.5212758,
  "lon": 5.4217680
},
{
  "type": "node",
  "id": 9426500636,
  "lat": 43.5223803,
  "lon": 5.4238687
},
{
  "type": "node",
  "id": 9426500644,
  "lat": 43.5241951,
  "lon": 5.4235736
},
{
  "type": "node",
  "id": 9426500676,
  "lat": 43.5252540,
  "lon": 5.4236779
},
{
  "type": "node",
  "id": 9426500677,
  "lat": 43.5252587,
  "lon": 5.4236146
},
{
  "type": "node",
  "id": 9426500685,
  "lat": 43.5250675,
  "lon": 5.4232247
},
{
  "type": "node",
  "id": 9426500697,
  "lat": 43.5249565,
  "lon": 5.4233074
},
{
  "type": "node",
  "id": 9433406325,
  "lat": 43.5223611,
  "lon": 5.4238773
},
{
  "type": "node",
  "id": 9433406327,
  "lat": 43.5246887,
  "lon": 5.4235615
},
{
  "type": "node",
  "id": 33707186,
  "lat": 43.5272465,
  "lon": 5.4152282
},
{
  "type": "node",
  "id": 33707187,
  "lat": 43.5271949,
  "lon": 5.4148141
},
{
  "type": "node",
  "id": 33707188,
  "lat": 43.5271120,
  "lon": 5.4145973
},
{
  "type": "node",
  "id": 33707189,
  "lat": 43.5269127,
  "lon": 5.4141294
},
{
  "type": "node",
  "id": 33707190,
  "lat": 43.5267498,
  "lon": 5.4138722
},
{
  "type": "node",
  "id": 33707191,
  "lat": 43.5266615,
  "lon": 5.4136211
},
{
  "type": "node",
  "id": 33707192,
  "lat": 43.5266559,
  "lon": 5.4134892
},
{
  "type": "node",
  "id": 33707194,
  "lat": 43.5265206,
  "lon": 5.4134096
},
{
  "type": "node",
  "id": 33707195,
  "lat": 43.5264649,
  "lon": 5.4134587
},
{
  "type": "node",
  "id": 33707199,
  "lat": 43.5263577,
  "lon": 5.4134890
},
{
  "type": "node",
  "id": 34317536,
  "lat": 43.5267041,
  "lon": 5.4133615
},
{
  "type": "node",
  "id": 34317542,
  "lat": 43.5265890,
  "lon": 5.4132904
},
{
  "type": "node",
  "id": 258828781,
  "lat": 43.5272347,
  "lon": 5.4151092
},
{
  "type": "node",
  "id": 259237906,
  "lat": 43.5260833,
  "lon": 5.4135043
},
{
  "type": "node",
  "id": 1799303005,
  "lat": 43.5261873,
  "lon": 5.4135083
},
{
  "type": "node",
  "id": 1799303008,
  "lat": 43.5262875,
  "lon": 5.4135121
},
{
  "type": "node",
  "id": 6039904773,
  "lat": 43.5272094,
  "lon": 5.4157739
},
{
  "type": "node",
  "id": 7272788845,
  "lat": 43.5272256,
  "lon": 5.4156625
},
{
  "type": "node",
  "id": 8986675498,
  "lat": 43.5272476,
  "lon": 5.4153636
},
{
  "type": "node",
  "id": 8986675499,
  "lat": 43.5272416,
  "lon": 5.4154963
},
{
  "type": "node",
  "id": 8987393784,
  "lat": 43.5272482,
  "lon": 5.4152959
},
{
  "type": "node",
  "id": 8987393785,
  "lat": 43.5272449,
  "lon": 5.4154322
},
{
  "type": "node",
  "id": 8987393786,
  "lat": 43.5272390,
  "lon": 5.4151530
},
{
  "type": "node",
  "id": 9122269184,
  "lat": 43.5266881,
  "lon": 5.4136968
},
{
  "type": "node",
  "id": 9122269186,
  "lat": 43.5265546,
  "lon": 5.4133503
},
{
  "type": "node",
  "id": 9122269188,
  "lat": 43.5261024,
  "lon": 5.4135050
},
{
  "type": "node",
  "id": 34506226,
  "lat": 43.5271776,
  "lon": 5.4239692
},
{
  "type": "node",
  "id": 34506228,
  "lat": 43.5265433,
  "lon": 5.4238751
},
{
  "type": "node",
  "id": 34506231,
  "lat": 43.5263076,
  "lon": 5.4238320
},
{
  "type": "node",
  "id": 34506232,
  "lat": 43.5262868,
  "lon": 5.4239414
},
{
  "type": "node",
  "id": 34506235,
  "lat": 43.5265372,
  "lon": 5.4240071
},
{
  "type": "node",
  "id": 34506236,
  "lat": 43.5267043,
  "lon": 5.4240366
},
{
  "type": "node",
  "id": 34506237,
  "lat": 43.5271856,
  "lon": 5.4240640
},
{
  "type": "node",
  "id": 34506238,
  "lat": 43.5276600,
  "lon": 5.4239665
},
{
  "type": "node",
  "id": 34506239,
  "lat": 43.5282128,
  "lon": 5.4237378
},
{
  "type": "node",
  "id": 34506250,
  "lat": 43.5258333,
  "lon": 5.4237228
},
{
  "type": "node",
  "id": 34506253,
  "lat": 43.5258254,
  "lon": 5.4238009
},
{
  "type": "node",
  "id": 354844823,
  "lat": 43.5260363,
  "lon": 5.4237809
},
{
  "type": "node",
  "id": 1168491431,
  "lat": 43.5284582,
  "lon": 5.4255993
},
{
  "type": "node",
  "id": 1832652377,
  "lat": 43.5269956,
  "lon": 5.4239621
},
{
  "type": "node",
  "id": 1832652379,
  "lat": 43.5270482,
  "lon": 5.4240722
},
{
  "type": "node",
  "id": 2312078985,
  "lat": 43.5278854,
  "lon": 5.4237853
},
{
  "type": "node",
  "id": 2506392944,
  "lat": 43.5274896,
  "lon": 5.4240111
},
{
  "type": "node",
  "id": 5931029664,
  "lat": 43.5289386,
  "lon": 5.4238954
},
{
  "type": "node",
  "id": 6177003007,
  "lat": 43.5262344,
  "lon": 5.4238305
},
{
  "type": "node",
  "id": 6177003009,
  "lat": 43.5262088,
  "lon": 5.4239264
},
{
  "type": "node",
  "id": 6414388123,
  "lat": 43.5267062,
  "lon": 5.4239172
},
{
  "type": "node",
  "id": 6414388124,
  "lat": 43.5260235,
  "lon": 5.4238740
},
{
  "type": "node",
  "id": 6699980197,
  "lat": 43.5288801,
  "lon": 5.4240362
},
{
  "type": "node",
  "id": 6699980199,
  "lat": 43.5289074,
  "lon": 5.4239794
},
{
  "type": "node",
  "id": 7216287654,
  "lat": 43.5282835,
  "lon": 5.4237101
},
{
  "type": "node",
  "id": 7746607970,
  "lat": 43.5284315,
  "lon": 5.4260263
},
{
  "type": "node",
  "id": 7769711702,
  "lat": 43.5273728,
  "lon": 5.4239449
},
{
  "type": "node",
  "id": 7769711703,
  "lat": 43.5276512,
  "lon": 5.4238783
},
{
  "type": "node",
  "id": 8145831353,
  "lat": 43.5284804,
  "lon": 5.4252388
},
{
  "type": "node",
  "id": 8145831354,
  "lat": 43.5285003,
  "lon": 5.4250275
},
{
  "type": "node",
  "id": 8145831355,
  "lat": 43.5285500,
  "lon": 5.4247142
},
{
  "type": "node",
  "id": 8145831356,
  "lat": 43.5285958,
  "lon": 5.4245086
},
{
  "type": "node",
  "id": 8145831357,
  "lat": 43.5287110,
  "lon": 5.4242714
},
{
  "type": "node",
  "id": 8145831358,
  "lat": 43.5288401,
  "lon": 5.4241014
},
{
  "type": "node",
  "id": 8145831359,
  "lat": 43.5286561,
  "lon": 5.4243711
},
{
  "type": "node",
  "id": 9091739804,
  "lat": 43.5259558,
  "lon": 5.4238490
},
{
  "type": "node",
  "id": 9097592828,
  "lat": 43.5262478,
  "lon": 5.4239339
},
{
  "type": "node",
  "id": 9097592829,
  "lat": 43.5265964,
  "lon": 5.4238888
},
{
  "type": "node",
  "id": 256594866,
  "lat": 43.5099170,
  "lon": 5.4353217
},
{
  "type": "node",
  "id": 256594867,
  "lat": 43.5099182,
  "lon": 5.4351825
},
{
  "type": "node",
  "id": 256594868,
  "lat": 43.5099274,
  "lon": 5.4343135
},
{
  "type": "node",
  "id": 256594869,
  "lat": 43.5098916,
  "lon": 5.4336878
},
{
  "type": "node",
  "id": 256594870,
  "lat": 43.5097999,
  "lon": 5.4330870
},
{
  "type": "node",
  "id": 256595164,
  "lat": 43.5096814,
  "lon": 5.4390062
},
{
  "type": "node",
  "id": 256595165,
  "lat": 43.5096316,
  "lon": 5.4384912
},
{
  "type": "node",
  "id": 295252612,
  "lat": 43.5102481,
  "lon": 5.4360785
},
{
  "type": "node",
  "id": 295252616,
  "lat": 43.5110635,
  "lon": 5.4360976
},
{
  "type": "node",
  "id": 301083678,
  "lat": 43.5103067,
  "lon": 5.4360860
},
{
  "type": "node",
  "id": 302789761,
  "lat": 43.5084954,
  "lon": 5.4393138
},
{
  "type": "node",
  "id": 822258142,
  "lat": 43.5096261,
  "lon": 5.4383350
},
{
  "type": "node",
  "id": 822262680,
  "lat": 43.5099228,
  "lon": 5.4348686
},
{
  "type": "node",
  "id": 4371155508,
  "lat": 43.5097093,
  "lon": 5.4391644
},
{
  "type": "node",
  "id": 4371155509,
  "lat": 43.5096267,
  "lon": 5.4383929
},
{
  "type": "node",
  "id": 5745651294,
  "lat": 43.5097244,
  "lon": 5.4392499
},
{
  "type": "node",
  "id": 5745651319,
  "lat": 43.5096282,
  "lon": 5.4384234
},
{
  "type": "node",
  "id": 5745676743,
  "lat": 43.5096231,
  "lon": 5.4382411
},
{
  "type": "node",
  "id": 6574098081,
  "lat": 43.5082510,
  "lon": 5.4389164
},
{
  "type": "node",
  "id": 7394356641,
  "lat": 43.5099157,
  "lon": 5.4339809
},
{
  "type": "node",
  "id": 7394356642,
  "lat": 43.5098553,
  "lon": 5.4333801
},
{
  "type": "node",
  "id": 7394356657,
  "lat": 43.5097823,
  "lon": 5.4329867
},
{
  "type": "node",
  "id": 259760759,
  "lat": 43.5170295,
  "lon": 5.4367210
},
{
  "type": "node",
  "id": 259760760,
  "lat": 43.5171112,
  "lon": 5.4370956
},
{
  "type": "node",
  "id": 259760761,
  "lat": 43.5171759,
  "lon": 5.4373738
},
{
  "type": "node",
  "id": 259760762,
  "lat": 43.5174690,
  "lon": 5.4383472
},
{
  "type": "node",
  "id": 259760763,
  "lat": 43.5176243,
  "lon": 5.4387910
},
{
  "type": "node",
  "id": 302864833,
  "lat": 43.5177954,
  "lon": 5.4392061
},
{
  "type": "node",
  "id": 6090131695,
  "lat": 43.5178788,
  "lon": 5.4393563
},
{
  "type": "node",
  "id": 8846916247,
  "lat": 43.5174228,
  "lon": 5.4382110
},
{
  "type": "node",
  "id": 8846916257,
  "lat": 43.5177100,
  "lon": 5.4390245
},
{
  "type": "node",
  "id": 256595302,
  "lat": 43.5096483,
  "lon": 5.4399517
},
{
  "type": "node",
  "id": 822202429,
  "lat": 43.5089523,
  "lon": 5.4400429
},
{
  "type": "node",
  "id": 822258144,
  "lat": 43.5090649,
  "lon": 5.4402134
},
{
  "type": "node",
  "id": 822258147,
  "lat": 43.5091445,
  "lon": 5.4402328
},
{
  "type": "node",
  "id": 822258154,
  "lat": 43.5094655,
  "lon": 5.4401463
},
{
  "type": "node",
  "id": 6574098074,
  "lat": 43.5087140,
  "lon": 5.4396586
},
{
  "type": "node",
  "id": 7705425574,
  "lat": 43.5093231,
  "lon": 5.4402241
},
{
  "type": "node",
  "id": 7705425575,
  "lat": 43.5092814,
  "lon": 5.4402323
},
{
  "type": "node",
  "id": 7705425576,
  "lat": 43.5092170,
  "lon": 5.4402415
},
{
  "type": "node",
  "id": 2996341806,
  "lat": 43.5115029,
  "lon": 5.4483840
},
{
  "type": "node",
  "id": 2996341808,
  "lat": 43.5115331,
  "lon": 5.4485502
},
{
  "type": "node",
  "id": 8778518983,
  "lat": 43.5114050,
  "lon": 5.4479707
},
{
  "type": "node",
  "id": 259760764,
  "lat": 43.5182245,
  "lon": 5.4401711
},
{
  "type": "node",
  "id": 259760765,
  "lat": 43.5190166,
  "lon": 5.4417344
},
{
  "type": "node",
  "id": 302864958,
  "lat": 43.5181120,
  "lon": 5.4399063
},
{
  "type": "node",
  "id": 6090131693,
  "lat": 43.5188016,
  "lon": 5.4412933
},
{
  "type": "node",
  "id": 8846916233,
  "lat": 43.5189051,
  "lon": 5.4415035
},
{
  "type": "node",
  "id": 8846916244,
  "lat": 43.5187600,
  "lon": 5.4412056
},
{
  "type": "node",
  "id": 310849150,
  "lat": 43.5135519,
  "lon": 5.4479535
},
{
  "type": "node",
  "id": 1840329985,
  "lat": 43.5135065,
  "lon": 5.4490223
},
{
  "type": "node",
  "id": 5323321826,
  "lat": 43.5136316,
  "lon": 5.4460791
},
{
  "type": "node",
  "id": 5672603790,
  "lat": 43.5136062,
  "lon": 5.4466754
},
{
  "type": "node",
  "id": 6106586304,
  "lat": 43.5136237,
  "lon": 5.4462654
},
{
  "type": "node",
  "id": 6106586306,
  "lat": 43.5135731,
  "lon": 5.4474548
},
{
  "type": "node",
  "id": 6106586315,
  "lat": 43.5135232,
  "lon": 5.4486286
},
{
  "type": "node",
  "id": 7196111940,
  "lat": 43.5135484,
  "lon": 5.4480366
},
{
  "type": "node",
  "id": 7232767838,
  "lat": 43.5136197,
  "lon": 5.4463589
},
{
  "type": "node",
  "id": 8760556974,
  "lat": 43.5135335,
  "lon": 5.4483868
},
{
  "type": "node",
  "id": 8760556975,
  "lat": 43.5135399,
  "lon": 5.4482358
},
{
  "type": "node",
  "id": 8809773535,
  "lat": 43.5134989,
  "lon": 5.4491999
},
{
  "type": "node",
  "id": 34302792,
  "lat": 43.5243597,
  "lon": 5.4375621
},
{
  "type": "node",
  "id": 34302794,
  "lat": 43.5247041,
  "lon": 5.4378394
},
{
  "type": "node",
  "id": 34302823,
  "lat": 43.5246503,
  "lon": 5.4376395
},
{
  "type": "node",
  "id": 34302825,
  "lat": 43.5243176,
  "lon": 5.4373988
},
{
  "type": "node",
  "id": 2265046076,
  "lat": 43.5244238,
  "lon": 5.4374670
},
{
  "type": "node",
  "id": 8644260604,
  "lat": 43.5242465,
  "lon": 5.4375139
},
{
  "type": "node",
  "id": 8904444287,
  "lat": 43.5242336,
  "lon": 5.4373655
},
{
  "type": "node",
  "id": 34506177,
  "lat": 43.5283825,
  "lon": 5.4284900
},
{
  "type": "node",
  "id": 34506178,
  "lat": 43.5284099,
  "lon": 5.4280995
},
{
  "type": "node",
  "id": 34506179,
  "lat": 43.5284321,
  "lon": 5.4270310
},
{
  "type": "node",
  "id": 34506180,
  "lat": 43.5284320,
  "lon": 5.4265539
},
{
  "type": "node",
  "id": 34506200,
  "lat": 43.5282935,
  "lon": 5.4279377
},
{
  "type": "node",
  "id": 34506201,
  "lat": 43.5282844,
  "lon": 5.4283269
},
{
  "type": "node",
  "id": 290941121,
  "lat": 43.5322023,
  "lon": 5.4293063
},
{
  "type": "node",
  "id": 290941122,
  "lat": 43.5320232,
  "lon": 5.4298446
},
{
  "type": "node",
  "id": 290941123,
  "lat": 43.5322368,
  "lon": 5.4293232
},
{
  "type": "node",
  "id": 290941124,
  "lat": 43.5320668,
  "lon": 5.4298579
},
{
  "type": "node",
  "id": 351117316,
  "lat": 43.5283126,
  "lon": 5.4272377
},
{
  "type": "node",
  "id": 351117317,
  "lat": 43.5282942,
  "lon": 5.4279154
},
{
  "type": "node",
  "id": 1168490911,
  "lat": 43.5282980,
  "lon": 5.4277022
},
{
  "type": "node",
  "id": 1832648940,
  "lat": 43.5282842,
  "lon": 5.4282478
},
{
  "type": "node",
  "id": 1832648952,
  "lat": 43.5283981,
  "lon": 5.4282762
},
{
  "type": "node",
  "id": 4324576627,
  "lat": 43.5284198,
  "lon": 5.4276857
},
{
  "type": "node",
  "id": 4324576628,
  "lat": 43.5284149,
  "lon": 5.4279339
},
{
  "type": "node",
  "id": 4324576630,
  "lat": 43.5284288,
  "lon": 5.4272798
},
{
  "type": "node",
  "id": 5482322203,
  "lat": 43.5282418,
  "lon": 5.4292861
},
{
  "type": "node",
  "id": 7304213643,
  "lat": 43.5283870,
  "lon": 5.4284281
},
{
  "type": "node",
  "id": 7304213644,
  "lat": 43.5283284,
  "lon": 5.4292907
},
{
  "type": "node",
  "id": 7304213648,
  "lat": 43.5282483,
  "lon": 5.4291535
},
{
  "type": "node",
  "id": 7746607973,
  "lat": 43.5282911,
  "lon": 5.4280183
},
{
  "type": "node",
  "id": 8371041341,
  "lat": 43.5283431,
  "lon": 5.4290403
},
{
  "type": "node",
  "id": 34302799,
  "lat": 43.5263057,
  "lon": 5.4391940
},
{
  "type": "node",
  "id": 34302818,
  "lat": 43.5264023,
  "lon": 5.4390167
},
{
  "type": "node",
  "id": 34302957,
  "lat": 43.5290122,
  "lon": 5.4388803
},
{
  "type": "node",
  "id": 309451720,
  "lat": 43.5281218,
  "lon": 5.4366617
},
{
  "type": "node",
  "id": 309651266,
  "lat": 43.5258100,
  "lon": 5.4386014
},
{
  "type": "node",
  "id": 673417072,
  "lat": 43.5306453,
  "lon": 5.4393055
},
{
  "type": "node",
  "id": 1029009680,
  "lat": 43.5262474,
  "lon": 5.4389885
},
{
  "type": "node",
  "id": 1030147243,
  "lat": 43.5286840,
  "lon": 5.4367706
},
{
  "type": "node",
  "id": 1030147292,
  "lat": 43.5290063,
  "lon": 5.4387095
},
{
  "type": "node",
  "id": 1030147297,
  "lat": 43.5290106,
  "lon": 5.4388364
},
{
  "type": "node",
  "id": 1716788864,
  "lat": 43.5285280,
  "lon": 5.4364224
},
{
  "type": "node",
  "id": 1716788903,
  "lat": 43.5286561,
  "lon": 5.4364113
},
{
  "type": "node",
  "id": 1755114688,
  "lat": 43.5284788,
  "lon": 5.4364456
},
{
  "type": "node",
  "id": 1755114689,
  "lat": 43.5285890,
  "lon": 5.4364126
},
{
  "type": "node",
  "id": 1755114690,
  "lat": 43.5286782,
  "lon": 5.4367011
},
{
  "type": "node",
  "id": 1755114691,
  "lat": 43.5286930,
  "lon": 5.4368402
},
{
  "type": "node",
  "id": 2940297725,
  "lat": 43.5281859,
  "lon": 5.4366229
},
{
  "type": "node",
  "id": 4731214759,
  "lat": 43.5290112,
  "lon": 5.4388535
},
{
  "type": "node",
  "id": 5044284595,
  "lat": 43.5259134,
  "lon": 5.4388305
},
{
  "type": "node",
  "id": 5044284596,
  "lat": 43.5259565,
  "lon": 5.4387376
},
{
  "type": "node",
  "id": 5044284597,
  "lat": 43.5261624,
  "lon": 5.4390406
},
{
  "type": "node",
  "id": 5044284598,
  "lat": 43.5262070,
  "lon": 5.4389672
},
{
  "type": "node",
  "id": 6071374926,
  "lat": 43.5279447,
  "lon": 5.4367620
},
{
  "type": "node",
  "id": 7209316441,
  "lat": 43.5260717,
  "lon": 5.4388432
},
{
  "type": "node",
  "id": 7304213676,
  "lat": 43.5286732,
  "lon": 5.4366361
},
{
  "type": "node",
  "id": 7325080023,
  "lat": 43.5263140,
  "lon": 5.4390051
},
{
  "type": "node",
  "id": 7325080024,
  "lat": 43.5262791,
  "lon": 5.4390004
},
{
  "type": "node",
  "id": 7325080025,
  "lat": 43.5262152,
  "lon": 5.4390855
},
{
  "type": "node",
  "id": 7325080026,
  "lat": 43.5262405,
  "lon": 5.4391116
},
{
  "type": "node",
  "id": 8904444290,
  "lat": 43.5261965,
  "lon": 5.4390696
},
{
  "type": "node",
  "id": 8930875337,
  "lat": 43.5262349,
  "lon": 5.4391058
},
{
  "type": "node",
  "id": 8930875338,
  "lat": 43.5262627,
  "lon": 5.4391406
},
{
  "type": "node",
  "id": 33756802,
  "lat": 43.5232132,
  "lon": 5.4422412
},
{
  "type": "node",
  "id": 33756803,
  "lat": 43.5232038,
  "lon": 5.4423046
},
{
  "type": "node",
  "id": 33756804,
  "lat": 43.5232095,
  "lon": 5.4423688
},
{
  "type": "node",
  "id": 34550813,
  "lat": 43.5254741,
  "lon": 5.4436090
},
{
  "type": "node",
  "id": 34550832,
  "lat": 43.5254242,
  "lon": 5.4431493
},
{
  "type": "node",
  "id": 259760766,
  "lat": 43.5192128,
  "lon": 5.4421682
},
{
  "type": "node",
  "id": 259760767,
  "lat": 43.5193184,
  "lon": 5.4425996
},
{
  "type": "node",
  "id": 412820427,
  "lat": 43.5193175,
  "lon": 5.4426987
},
{
  "type": "node",
  "id": 412820431,
  "lat": 43.5193019,
  "lon": 5.4427723
},
{
  "type": "node",
  "id": 1716788855,
  "lat": 43.5254505,
  "lon": 5.4432188
},
{
  "type": "node",
  "id": 1716849190,
  "lat": 43.5232369,
  "lon": 5.4421854
},
{
  "type": "node",
  "id": 2591362638,
  "lat": 43.5254661,
  "lon": 5.4432504
},
{
  "type": "node",
  "id": 4427544817,
  "lat": 43.5232722,
  "lon": 5.4421429
},
{
  "type": "node",
  "id": 6106586289,
  "lat": 43.5254846,
  "lon": 5.4433424
},
{
  "type": "node",
  "id": 6106586290,
  "lat": 43.5254850,
  "lon": 5.4434133
},
{
  "type": "node",
  "id": 8238156318,
  "lat": 43.5254828,
  "lon": 5.4434924
},
{
  "type": "node",
  "id": 8238156319,
  "lat": 43.5254767,
  "lon": 5.4432892
},
{
  "type": "node",
  "id": 8238156320,
  "lat": 43.5254841,
  "lon": 5.4434449
},
{
  "type": "node",
  "id": 33782815,
  "lat": 43.5224414,
  "lon": 5.4476385
},
{
  "type": "node",
  "id": 267871464,
  "lat": 43.5192263,
  "lon": 5.4466846
},
{
  "type": "node",
  "id": 267871466,
  "lat": 43.5201686,
  "lon": 5.4468797
},
{
  "type": "node",
  "id": 267871470,
  "lat": 43.5214141,
  "lon": 5.4473631
},
{
  "type": "node",
  "id": 299650503,
  "lat": 43.5206065,
  "lon": 5.4468502
},
{
  "type": "node",
  "id": 299650506,
  "lat": 43.5213468,
  "lon": 5.4473122
},
{
  "type": "node",
  "id": 299650507,
  "lat": 43.5211140,
  "lon": 5.4470853
},
{
  "type": "node",
  "id": 305698176,
  "lat": 43.5202666,
  "lon": 5.4468778
},
{
  "type": "node",
  "id": 305698194,
  "lat": 43.5209312,
  "lon": 5.4469627
},
{
  "type": "node",
  "id": 1853984111,
  "lat": 43.5193401,
  "lon": 5.4466883
},
{
  "type": "node",
  "id": 2591361734,
  "lat": 43.5210214,
  "lon": 5.4470157
},
{
  "type": "node",
  "id": 6106184127,
  "lat": 43.5222607,
  "lon": 5.4476966
},
{
  "type": "node",
  "id": 6106184137,
  "lat": 43.5218613,
  "lon": 5.4476317
},
{
  "type": "node",
  "id": 6248945228,
  "lat": 43.5223552,
  "lon": 5.4476829
},
{
  "type": "node",
  "id": 6248945229,
  "lat": 43.5221564,
  "lon": 5.4477058
},
{
  "type": "node",
  "id": 6248945230,
  "lat": 43.5215709,
  "lon": 5.4475089
},
{
  "type": "node",
  "id": 6248945233,
  "lat": 43.5219019,
  "lon": 5.4476419
},
{
  "type": "node",
  "id": 6382969475,
  "lat": 43.5198216,
  "lon": 5.4468462
},
{
  "type": "node",
  "id": 6382969476,
  "lat": 43.5204768,
  "lon": 5.4468429
},
{
  "type": "node",
  "id": 6382969477,
  "lat": 43.5206533,
  "lon": 5.4468528
},
{
  "type": "node",
  "id": 6382969479,
  "lat": 43.5194039,
  "lon": 5.4467092
},
{
  "type": "node",
  "id": 6382969483,
  "lat": 43.5201020,
  "lon": 5.4468806
},
{
  "type": "node",
  "id": 6382969484,
  "lat": 43.5207620,
  "lon": 5.4468724
},
{
  "type": "node",
  "id": 6382969686,
  "lat": 43.5211444,
  "lon": 5.4471124
},
{
  "type": "node",
  "id": 6402614054,
  "lat": 43.5217307,
  "lon": 5.4475951
},
{
  "type": "node",
  "id": 7086406736,
  "lat": 43.5219995,
  "lon": 5.4476681
},
{
  "type": "node",
  "id": 7093410489,
  "lat": 43.5219738,
  "lon": 5.4476614
},
{
  "type": "node",
  "id": 9137573401,
  "lat": 43.5210891,
  "lon": 5.4470665
},
{
  "type": "node",
  "id": 9137573404,
  "lat": 43.5199618,
  "lon": 5.4468684
},
{
  "type": "node",
  "id": 9137573406,
  "lat": 43.5216470,
  "lon": 5.4475593
},
{
  "type": "node",
  "id": 9489482736,
  "lat": 43.5194374,
  "lon": 5.4467202
},
{
  "type": "node",
  "id": 12157798,
  "lat": 43.5313116,
  "lon": 5.4425862
},
{
  "type": "node",
  "id": 12162997,
  "lat": 43.5312925,
  "lon": 5.4420762
},
{
  "type": "node",
  "id": 302863109,
  "lat": 43.5309420,
  "lon": 5.4405220
},
{
  "type": "node",
  "id": 330950306,
  "lat": 43.5307291,
  "lon": 5.4396416
},
{
  "type": "node",
  "id": 2940226505,
  "lat": 43.5309244,
  "lon": 5.4404483
},
{
  "type": "node",
  "id": 3410317498,
  "lat": 43.5312961,
  "lon": 5.4422481
},
{
  "type": "node",
  "id": 6013127109,
  "lat": 43.5312609,
  "lon": 5.4418702
},
{
  "type": "node",
  "id": 6013127110,
  "lat": 43.5312261,
  "lon": 5.4417147
},
{
  "type": "node",
  "id": 7319238813,
  "lat": 43.5308815,
  "lon": 5.4402747
},
{
  "type": "node",
  "id": 8361146152,
  "lat": 43.5307631,
  "lon": 5.4397805
},
{
  "type": "node",
  "id": 267185195,
  "lat": 43.5318772,
  "lon": 5.4523672
},
{
  "type": "node",
  "id": 5863864680,
  "lat": 43.5318863,
  "lon": 5.4525489
},
{
  "type": "node",
  "id": 9263803183,
  "lat": 43.5318796,
  "lon": 5.4524558
},
{
  "type": "node",
  "id": 9263803184,
  "lat": 43.5318887,
  "lon": 5.4515291
},
{
  "type": "node",
  "id": 6422594386,
  "lat": 43.5351420,
  "lon": 5.3935905
},
{
  "type": "node",
  "id": 3519350635,
  "lat": 43.5352791,
  "lon": 5.3957374
},
{
  "type": "node",
  "id": 3519350636,
  "lat": 43.5352126,
  "lon": 5.3954602
},
{
  "type": "node",
  "id": 3519350637,
  "lat": 43.5351586,
  "lon": 5.3951745
},
{
  "type": "node",
  "id": 3519350639,
  "lat": 43.5352561,
  "lon": 5.3954554
},
{
  "type": "node",
  "id": 3519350640,
  "lat": 43.5351064,
  "lon": 5.3942551
},
{
  "type": "node",
  "id": 3519362414,
  "lat": 43.5350901,
  "lon": 5.3937680
},
{
  "type": "node",
  "id": 7746489654,
  "lat": 43.5350803,
  "lon": 5.3940046
},
{
  "type": "node",
  "id": 7746489655,
  "lat": 43.5350813,
  "lon": 5.3938855
},
{
  "type": "node",
  "id": 7746489656,
  "lat": 43.5351577,
  "lon": 5.3946844
},
{
  "type": "node",
  "id": 7746489658,
  "lat": 43.5351144,
  "lon": 5.3936769
},
{
  "type": "node",
  "id": 7746489660,
  "lat": 43.5350626,
  "lon": 5.3943981
},
{
  "type": "node",
  "id": 7746489664,
  "lat": 43.5351998,
  "lon": 5.3950147
},
{
  "type": "node",
  "id": 34567467,
  "lat": 43.5454999,
  "lon": 5.3999822
},
{
  "type": "node",
  "id": 1174498798,
  "lat": 43.5454970,
  "lon": 5.3989557
},
{
  "type": "node",
  "id": 1174498884,
  "lat": 43.5455936,
  "lon": 5.3979466
},
{
  "type": "node",
  "id": 1174499122,
  "lat": 43.5455177,
  "lon": 5.3983136
},
{
  "type": "node",
  "id": 1174499437,
  "lat": 43.5454755,
  "lon": 5.3997358
},
{
  "type": "node",
  "id": 1174499461,
  "lat": 43.5455355,
  "lon": 5.3981863
},
{
  "type": "node",
  "id": 1174500071,
  "lat": 43.5455325,
  "lon": 5.3997163
},
{
  "type": "node",
  "id": 1877523578,
  "lat": 43.5454123,
  "lon": 5.4001441
},
{
  "type": "node",
  "id": 1877523592,
  "lat": 43.5454475,
  "lon": 5.3999751
},
{
  "type": "node",
  "id": 1877523593,
  "lat": 43.5454556,
  "lon": 5.4001427
},
{
  "type": "node",
  "id": 4683446977,
  "lat": 43.5455148,
  "lon": 5.3984021
},
{
  "type": "node",
  "id": 8812468971,
  "lat": 43.5455795,
  "lon": 5.3991074
},
{
  "type": "node",
  "id": 9113015415,
  "lat": 43.5455619,
  "lon": 5.3980773
},
{
  "type": "node",
  "id": 34567463,
  "lat": 43.5447811,
  "lon": 5.4012563
},
{
  "type": "node",
  "id": 1174498573,
  "lat": 43.5447535,
  "lon": 5.4012016
},
{
  "type": "node",
  "id": 1174499993,
  "lat": 43.5442530,
  "lon": 5.4018477
},
{
  "type": "node",
  "id": 1877523561,
  "lat": 43.5449489,
  "lon": 5.4009998
},
{
  "type": "node",
  "id": 1877523562,
  "lat": 43.5449770,
  "lon": 5.4010459
},
{
  "type": "node",
  "id": 1877523563,
  "lat": 43.5450121,
  "lon": 5.4009310
},
{
  "type": "node",
  "id": 1877523564,
  "lat": 43.5450405,
  "lon": 5.4009716
},
{
  "type": "node",
  "id": 1877523566,
  "lat": 43.5451230,
  "lon": 5.4007836
},
{
  "type": "node",
  "id": 1877523567,
  "lat": 43.5451352,
  "lon": 5.4008512
},
{
  "type": "node",
  "id": 1877523568,
  "lat": 43.5452244,
  "lon": 5.4006092
},
{
  "type": "node",
  "id": 1877523570,
  "lat": 43.5452325,
  "lon": 5.4007039
},
{
  "type": "node",
  "id": 1877523573,
  "lat": 43.5453028,
  "lon": 5.4004443
},
{
  "type": "node",
  "id": 1877523574,
  "lat": 43.5453393,
  "lon": 5.4004848
},
{
  "type": "node",
  "id": 1877523577,
  "lat": 43.5453610,
  "lon": 5.4002915
},
{
  "type": "node",
  "id": 1877523590,
  "lat": 43.5454042,
  "lon": 5.4003158
},
{
  "type": "node",
  "id": 8812468966,
  "lat": 43.5445014,
  "lon": 5.4014732
},
{
  "type": "node",
  "id": 8812468967,
  "lat": 43.5443776,
  "lon": 5.4016242
},
{
  "type": "node",
  "id": 8812468968,
  "lat": 43.5444450,
  "lon": 5.4016273
},
{
  "type": "node",
  "id": 331090719,
  "lat": 43.5348842,
  "lon": 5.4167784
},
{
  "type": "node",
  "id": 361466262,
  "lat": 43.5355297,
  "lon": 5.4169510
},
{
  "type": "node",
  "id": 361466265,
  "lat": 43.5357581,
  "lon": 5.4169519
},
{
  "type": "node",
  "id": 361466266,
  "lat": 43.5358774,
  "lon": 5.4171155
},
{
  "type": "node",
  "id": 361466267,
  "lat": 43.5360387,
  "lon": 5.4172825
},
{
  "type": "node",
  "id": 361466269,
  "lat": 43.5361711,
  "lon": 5.4175178
},
{
  "type": "node",
  "id": 361466298,
  "lat": 43.5362807,
  "lon": 5.4180132
},
{
  "type": "node",
  "id": 1610270713,
  "lat": 43.5348754,
  "lon": 5.4169566
},
{
  "type": "node",
  "id": 1610270719,
  "lat": 43.5349675,
  "lon": 5.4169132
},
{
  "type": "node",
  "id": 1610270744,
  "lat": 43.5364267,
  "lon": 5.4178800
},
{
  "type": "node",
  "id": 3079355036,
  "lat": 43.5356471,
  "lon": 5.4169734
},
{
  "type": "node",
  "id": 3079355037,
  "lat": 43.5359577,
  "lon": 5.4171814
},
{
  "type": "node",
  "id": 3079355038,
  "lat": 43.5361170,
  "lon": 5.4174170
},
{
  "type": "node",
  "id": 3544230512,
  "lat": 43.5362590,
  "lon": 5.4175899
},
{
  "type": "node",
  "id": 6090131700,
  "lat": 43.5363456,
  "lon": 5.4177656
},
{
  "type": "node",
  "id": 6090131701,
  "lat": 43.5362686,
  "lon": 5.4178202
},
{
  "type": "node",
  "id": 6348137437,
  "lat": 43.5355375,
  "lon": 5.4168657
},
{
  "type": "node",
  "id": 6348137438,
  "lat": 43.5356684,
  "lon": 5.4169053
},
{
  "type": "node",
  "id": 6348137439,
  "lat": 43.5359017,
  "lon": 5.4170441
},
{
  "type": "node",
  "id": 6348137440,
  "lat": 43.5359789,
  "lon": 5.4171142
},
{
  "type": "node",
  "id": 6348137441,
  "lat": 43.5360620,
  "lon": 5.4172055
},
{
  "type": "node",
  "id": 6348137442,
  "lat": 43.5361413,
  "lon": 5.4173189
},
{
  "type": "node",
  "id": 6348137443,
  "lat": 43.5362045,
  "lon": 5.4174296
},
{
  "type": "node",
  "id": 6348137444,
  "lat": 43.5362214,
  "lon": 5.4176347
},
{
  "type": "node",
  "id": 6348137445,
  "lat": 43.5357552,
  "lon": 5.4170329
},
{
  "type": "node",
  "id": 6348137446,
  "lat": 43.5349694,
  "lon": 5.4168278
},
{
  "type": "node",
  "id": 9152201159,
  "lat": 43.5349266,
  "lon": 5.4169250
},
{
  "type": "node",
  "id": 9152201161,
  "lat": 43.5349295,
  "lon": 5.4168096
},
{
  "type": "node",
  "id": 34631038,
  "lat": 43.5345642,
  "lon": 5.4237545
},
{
  "type": "node",
  "id": 34631040,
  "lat": 43.5344585,
  "lon": 5.4238317
},
{
  "type": "node",
  "id": 34631044,
  "lat": 43.5343379,
  "lon": 5.4239833
},
{
  "type": "node",
  "id": 34631045,
  "lat": 43.5344285,
  "lon": 5.4241271
},
{
  "type": "node",
  "id": 34631050,
  "lat": 43.5345533,
  "lon": 5.4239615
},
{
  "type": "node",
  "id": 34631051,
  "lat": 43.5347122,
  "lon": 5.4236266
},
{
  "type": "node",
  "id": 34631054,
  "lat": 43.5342139,
  "lon": 5.4242851
},
{
  "type": "node",
  "id": 34631055,
  "lat": 43.5333675,
  "lon": 5.4262201
},
{
  "type": "node",
  "id": 34631061,
  "lat": 43.5334292,
  "lon": 5.4262811
},
{
  "type": "node",
  "id": 34631062,
  "lat": 43.5342387,
  "lon": 5.4243783
},
{
  "type": "node",
  "id": 34631064,
  "lat": 43.5343306,
  "lon": 5.4242334
},
{
  "type": "node",
  "id": 4683534891,
  "lat": 43.5346103,
  "lon": 5.4238062
},
{
  "type": "node",
  "id": 4683544350,
  "lat": 43.5342934,
  "lon": 5.4241322
},
{
  "type": "node",
  "id": 4683544351,
  "lat": 43.5343705,
  "lon": 5.4241901
},
{
  "type": "node",
  "id": 34630992,
  "lat": 43.5325586,
  "lon": 5.4284013
},
{
  "type": "node",
  "id": 34630993,
  "lat": 43.5325036,
  "lon": 5.4283971
},
{
  "type": "node",
  "id": 34631004,
  "lat": 43.5327666,
  "lon": 5.4276066
},
{
  "type": "node",
  "id": 34631007,
  "lat": 43.5328732,
  "lon": 5.4274460
},
{
  "type": "node",
  "id": 34631008,
  "lat": 43.5328096,
  "lon": 5.4273290
},
{
  "type": "node",
  "id": 34631014,
  "lat": 43.5326928,
  "lon": 5.4275610
},
{
  "type": "node",
  "id": 34631016,
  "lat": 43.5327055,
  "lon": 5.4279577
},
{
  "type": "node",
  "id": 34631017,
  "lat": 43.5326324,
  "lon": 5.4279415
},
{
  "type": "node",
  "id": 34631056,
  "lat": 43.5329385,
  "lon": 5.4272286
},
{
  "type": "node",
  "id": 34631058,
  "lat": 43.5329170,
  "lon": 5.4272632
},
{
  "type": "node",
  "id": 34631059,
  "lat": 43.5329481,
  "lon": 5.4273687
},
{
  "type": "node",
  "id": 302861847,
  "lat": 43.5325718,
  "lon": 5.4281805
},
{
  "type": "node",
  "id": 6067350539,
  "lat": 43.5330646,
  "lon": 5.4271054
},
{
  "type": "node",
  "id": 9113501208,
  "lat": 43.5331293,
  "lon": 5.4269592
},
{
  "type": "node",
  "id": 9113501209,
  "lat": 43.5330568,
  "lon": 5.4269505
},
{
  "type": "node",
  "id": 5685142328,
  "lat": 43.5381658,
  "lon": 5.4439966
},
{
  "type": "node",
  "id": 5685142470,
  "lat": 43.5387894,
  "lon": 5.4435999
},
{
  "type": "node",
  "id": 5685142471,
  "lat": 43.5386771,
  "lon": 5.4436757
},
{
  "type": "node",
  "id": 5685142473,
  "lat": 43.5385177,
  "lon": 5.4437378
},
{
  "type": "node",
  "id": 5685142474,
  "lat": 43.5383689,
  "lon": 5.4438206
},
{
  "type": "node",
  "id": 5685142475,
  "lat": 43.5382979,
  "lon": 5.4438726
},
{
  "type": "node",
  "id": 5685142476,
  "lat": 43.5382398,
  "lon": 5.4439221
},
{
  "type": "node",
  "id": 5685142477,
  "lat": 43.5380793,
  "lon": 5.4441061
},
{
  "type": "node",
  "id": 5863870087,
  "lat": 43.5379195,
  "lon": 5.4443044
},
{
  "type": "node",
  "id": 265010593,
  "lat": 43.5433169,
  "lon": 5.4408027
},
{
  "type": "node",
  "id": 265010596,
  "lat": 43.5427568,
  "lon": 5.4409652
},
{
  "type": "node",
  "id": 1770701046,
  "lat": 43.5413558,
  "lon": 5.4417700
},
{
  "type": "node",
  "id": 2355528403,
  "lat": 43.5414220,
  "lon": 5.4417389
},
{
  "type": "node",
  "id": 5685142331,
  "lat": 43.5391106,
  "lon": 5.4432548
},
{
  "type": "node",
  "id": 5685142337,
  "lat": 43.5406788,
  "lon": 5.4421093
},
{
  "type": "node",
  "id": 5685142361,
  "lat": 43.5438629,
  "lon": 5.4408775
},
{
  "type": "node",
  "id": 5685142362,
  "lat": 43.5440210,
  "lon": 5.4409081
},
{
  "type": "node",
  "id": 5685142363,
  "lat": 43.5441839,
  "lon": 5.4409420
},
{
  "type": "node",
  "id": 5685142364,
  "lat": 43.5442952,
  "lon": 5.4409551
},
{
  "type": "node",
  "id": 5685142365,
  "lat": 43.5443712,
  "lon": 5.4409498
},
{
  "type": "node",
  "id": 5685142366,
  "lat": 43.5444460,
  "lon": 5.4409455
},
{
  "type": "node",
  "id": 5685142367,
  "lat": 43.5445957,
  "lon": 5.4409277
},
{
  "type": "node",
  "id": 5685142368,
  "lat": 43.5448469,
  "lon": 5.4409017
},
{
  "type": "node",
  "id": 5685142369,
  "lat": 43.5451051,
  "lon": 5.4408651
},
{
  "type": "node",
  "id": 5685142380,
  "lat": 43.5436515,
  "lon": 5.4408453
},
{
  "type": "node",
  "id": 5685142381,
  "lat": 43.5434423,
  "lon": 5.4408157
},
{
  "type": "node",
  "id": 5685142383,
  "lat": 43.5432110,
  "lon": 5.4408073
},
{
  "type": "node",
  "id": 5685142384,
  "lat": 43.5431317,
  "lon": 5.4408207
},
{
  "type": "node",
  "id": 5685142385,
  "lat": 43.5430675,
  "lon": 5.4408445
},
{
  "type": "node",
  "id": 5685142386,
  "lat": 43.5428969,
  "lon": 5.4409098
},
{
  "type": "node",
  "id": 5685142388,
  "lat": 43.5426276,
  "lon": 5.4410396
},
{
  "type": "node",
  "id": 5685142389,
  "lat": 43.5425177,
  "lon": 5.4411107
},
{
  "type": "node",
  "id": 5685142390,
  "lat": 43.5422956,
  "lon": 5.4412701
},
{
  "type": "node",
  "id": 5685142391,
  "lat": 43.5422265,
  "lon": 5.4413174
},
{
  "type": "node",
  "id": 5685142392,
  "lat": 43.5420940,
  "lon": 5.4414022
},
{
  "type": "node",
  "id": 5685142393,
  "lat": 43.5420297,
  "lon": 5.4414401
},
{
  "type": "node",
  "id": 5685142394,
  "lat": 43.5418937,
  "lon": 5.4415162
},
{
  "type": "node",
  "id": 5685142401,
  "lat": 43.5417436,
  "lon": 5.4415839
},
{
  "type": "node",
  "id": 5685142455,
  "lat": 43.5409408,
  "lon": 5.4419883
},
{
  "type": "node",
  "id": 5685142456,
  "lat": 43.5407156,
  "lon": 5.4420944
},
{
  "type": "node",
  "id": 5685142457,
  "lat": 43.5403946,
  "lon": 5.4422455
},
{
  "type": "node",
  "id": 5685142458,
  "lat": 43.5400219,
  "lon": 5.4424333
},
{
  "type": "node",
  "id": 5685142459,
  "lat": 43.5398354,
  "lon": 5.4425287
},
{
  "type": "node",
  "id": 5685142460,
  "lat": 43.5395765,
  "lon": 5.4426636
},
{
  "type": "node",
  "id": 5685142461,
  "lat": 43.5394707,
  "lon": 5.4427268
},
{
  "type": "node",
  "id": 5685142462,
  "lat": 43.5393978,
  "lon": 5.4427921
},
{
  "type": "node",
  "id": 5685142463,
  "lat": 43.5393433,
  "lon": 5.4428527
},
{
  "type": "node",
  "id": 5685142464,
  "lat": 43.5392657,
  "lon": 5.4429694
},
{
  "type": "node",
  "id": 5685142465,
  "lat": 43.5391434,
  "lon": 5.4431923
},
{
  "type": "node",
  "id": 5685142466,
  "lat": 43.5390581,
  "lon": 5.4433339
},
{
  "type": "node",
  "id": 5685142467,
  "lat": 43.5390024,
  "lon": 5.4434049
},
{
  "type": "node",
  "id": 5685142468,
  "lat": 43.5389334,
  "lon": 5.4434860
},
{
  "type": "node",
  "id": 5685142469,
  "lat": 43.5388650,
  "lon": 5.4435450
},
{
  "type": "node",
  "id": 5863864684,
  "lat": 43.5400676,
  "lon": 5.4424085
},
{
  "type": "node",
  "id": 5863870091,
  "lat": 43.5396224,
  "lon": 5.4426376
},
{
  "type": "node",
  "id": 5869007228,
  "lat": 43.5421651,
  "lon": 5.4413565
},
{
  "type": "node",
  "id": 5869007233,
  "lat": 43.5423966,
  "lon": 5.4411955
},
{
  "type": "node",
  "id": 8019213771,
  "lat": 43.5433798,
  "lon": 5.4408058
},
{
  "type": "node",
  "id": 8019426933,
  "lat": 43.5416513,
  "lon": 5.4416293
},
{
  "type": "node",
  "id": 8019426934,
  "lat": 43.5415091,
  "lon": 5.4416961
},
{
  "type": "node",
  "id": 8849360411,
  "lat": 43.5426953,
  "lon": 5.4409964
},
{
  "type": "node",
  "id": 8849360412,
  "lat": 43.5412497,
  "lon": 5.4418252
},
{
  "type": "node",
  "id": 8858802534,
  "lat": 43.5414704,
  "lon": 5.4417166
},
{
  "type": "node",
  "id": 9226805027,
  "lat": 43.5389296,
  "lon": 5.4434893
},
{
  "type": "node",
  "id": 5685142356,
  "lat": 43.5461001,
  "lon": 5.4406823
},
{
  "type": "node",
  "id": 5685142357,
  "lat": 43.5460167,
  "lon": 5.4407187
},
{
  "type": "node",
  "id": 5685142358,
  "lat": 43.5459275,
  "lon": 5.4407538
},
{
  "type": "node",
  "id": 5685142359,
  "lat": 43.5458500,
  "lon": 5.4407786
},
{
  "type": "node",
  "id": 5685142360,
  "lat": 43.5457182,
  "lon": 5.4407985
},
{
  "type": "node",
  "id": 5685142370,
  "lat": 43.5455459,
  "lon": 5.4408180
},
{
  "type": "node",
  "id": 5869021219,
  "lat": 43.5456098,
  "lon": 5.4408107
},
{
  "type": "node",
  "id": 8858802535,
  "lat": 43.5454949,
  "lon": 5.4408221
},
{
  "type": "node",
  "id": 277036610,
  "lat": 43.5779808,
  "lon": 5.4225993
},
{
  "type": "node",
  "id": 277036611,
  "lat": 43.5779100,
  "lon": 5.4224761
},
{
  "type": "node",
  "id": 8147580048,
  "lat": 43.5779585,
  "lon": 5.4225604
},
{
  "type": "node",
  "id": 8147580076,
  "lat": 43.5779631,
  "lon": 5.4225685
},
{
  "type": "node",
  "id": 8147580080,
  "lat": 43.5780767,
  "lon": 5.4226783
},
{
  "type": "node",
  "id": 277037065,
  "lat": 43.5839250,
  "lon": 5.4191094
},
{
  "type": "node",
  "id": 277037114,
  "lat": 43.5836047,
  "lon": 5.4152704
},
{
  "type": "node",
  "id": 277037115,
  "lat": 43.5827342,
  "lon": 5.4156051
},
{
  "type": "node",
  "id": 277037148,
  "lat": 43.5790748,
  "lon": 5.4186167
},
{
  "type": "node",
  "id": 277037149,
  "lat": 43.5788731,
  "lon": 5.4187809
},
{
  "type": "node",
  "id": 277037176,
  "lat": 43.5824908,
  "lon": 5.4158127
},
{
  "type": "node",
  "id": 3190144779,
  "lat": 43.5841416,
  "lon": 5.4151353
},
{
  "type": "node",
  "id": 6049922704,
  "lat": 43.5797397,
  "lon": 5.4182089
},
{
  "type": "node",
  "id": 8147580041,
  "lat": 43.5794601,
  "lon": 5.4183804
},
{
  "type": "node",
  "id": 9231858288,
  "lat": 43.5841729,
  "lon": 5.4186804
},
{
  "type": "node",
  "id": 9231858289,
  "lat": 43.5840530,
  "lon": 5.4188986
},
{
  "type": "node",
  "id": 277036604,
  "lat": 43.5810650,
  "lon": 5.4242584
},
{
  "type": "node",
  "id": 277036605,
  "lat": 43.5806650,
  "lon": 5.4238943
},
{
  "type": "node",
  "id": 277036606,
  "lat": 43.5799488,
  "lon": 5.4233814
},
{
  "type": "node",
  "id": 277036607,
  "lat": 43.5789788,
  "lon": 5.4229179
},
{
  "type": "node",
  "id": 277036608,
  "lat": 43.5786555,
  "lon": 5.4228492
},
{
  "type": "node",
  "id": 277036609,
  "lat": 43.5782805,
  "lon": 5.4227897
},
{
  "type": "node",
  "id": 277036615,
  "lat": 43.5822849,
  "lon": 5.4249092
},
{
  "type": "node",
  "id": 277036622,
  "lat": 43.5817413,
  "lon": 5.4246468
},
{
  "type": "node",
  "id": 277036698,
  "lat": 43.5796555,
  "lon": 5.4232187
},
{
  "type": "node",
  "id": 277036709,
  "lat": 43.5793265,
  "lon": 5.4230545
},
{
  "type": "node",
  "id": 3900723258,
  "lat": 43.5811973,
  "lon": 5.4243760
},
{
  "type": "node",
  "id": 6049907781,
  "lat": 43.5801268,
  "lon": 5.4234876
},
{
  "type": "node",
  "id": 6049907782,
  "lat": 43.5787128,
  "lon": 5.4228614
},
{
  "type": "node",
  "id": 6049907784,
  "lat": 43.5804964,
  "lon": 5.4237441
},
{
  "type": "node",
  "id": 6049922693,
  "lat": 43.5811548,
  "lon": 5.4243395
},
{
  "type": "node",
  "id": 8147580067,
  "lat": 43.5786831,
  "lon": 5.4228551
},
{
  "type": "node",
  "id": 8147580081,
  "lat": 43.5794563,
  "lon": 5.4231128
},
{
  "type": "node",
  "id": 2199859545,
  "lat": 43.5117491,
  "lon": 5.4535946
},
{
  "type": "node",
  "id": 2199859562,
  "lat": 43.5116694,
  "lon": 5.4537997
},
{
  "type": "node",
  "id": 2199859564,
  "lat": 43.5116665,
  "lon": 5.4535635
},
{
  "type": "node",
  "id": 2199878630,
  "lat": 43.5117580,
  "lon": 5.4534230
},
{
  "type": "node",
  "id": 2199878631,
  "lat": 43.5117747,
  "lon": 5.4541199
},
{
  "type": "node",
  "id": 2996341818,
  "lat": 43.5117043,
  "lon": 5.4535168
},
{
  "type": "node",
  "id": 1713318888,
  "lat": 43.5120543,
  "lon": 5.4618976
},
{
  "type": "node",
  "id": 1713319019,
  "lat": 43.5120341,
  "lon": 5.4615973
},
{
  "type": "node",
  "id": 2546069726,
  "lat": 43.5119551,
  "lon": 5.4616838
},
{
  "type": "node",
  "id": 2546069731,
  "lat": 43.5120134,
  "lon": 5.4617746
},
{
  "type": "node",
  "id": 2996341825,
  "lat": 43.5120413,
  "lon": 5.4617083
},
{
  "type": "node",
  "id": 12158711,
  "lat": 43.5185113,
  "lon": 5.4633813
},
{
  "type": "node",
  "id": 33762280,
  "lat": 43.5179746,
  "lon": 5.4643362
},
{
  "type": "node",
  "id": 1832633715,
  "lat": 43.5174903,
  "lon": 5.4650527
},
{
  "type": "node",
  "id": 1832633719,
  "lat": 43.5176335,
  "lon": 5.4648710
},
{
  "type": "node",
  "id": 1832633742,
  "lat": 43.5177726,
  "lon": 5.4646911
},
{
  "type": "node",
  "id": 1832633759,
  "lat": 43.5181853,
  "lon": 5.4639138
},
{
  "type": "node",
  "id": 1839873680,
  "lat": 43.5184580,
  "lon": 5.4634676
},
{
  "type": "node",
  "id": 2350625255,
  "lat": 43.5183682,
  "lon": 5.4636150
},
{
  "type": "node",
  "id": 2350625262,
  "lat": 43.5184144,
  "lon": 5.4635392
},
{
  "type": "node",
  "id": 7040373833,
  "lat": 43.5185875,
  "lon": 5.4632663
},
{
  "type": "node",
  "id": 7606634841,
  "lat": 43.5181017,
  "lon": 5.4640941
},
{
  "type": "node",
  "id": 7606634843,
  "lat": 43.5180380,
  "lon": 5.4642154
},
{
  "type": "node",
  "id": 7606634848,
  "lat": 43.5181302,
  "lon": 5.4640326
},
{
  "type": "node",
  "id": 7606634849,
  "lat": 43.5182505,
  "lon": 5.4638073
},
{
  "type": "node",
  "id": 7606634850,
  "lat": 43.5182248,
  "lon": 5.4638492
},
{
  "type": "node",
  "id": 7606634852,
  "lat": 43.5180750,
  "lon": 5.4641451
},
{
  "type": "node",
  "id": 7606634868,
  "lat": 43.5184877,
  "lon": 5.4634195
},
{
  "type": "node",
  "id": 7795212140,
  "lat": 43.5183884,
  "lon": 5.4635819
},
{
  "type": "node",
  "id": 7795212141,
  "lat": 43.5183147,
  "lon": 5.4637024
},
{
  "type": "node",
  "id": 33762484,
  "lat": 43.5162815,
  "lon": 5.4670025
},
{
  "type": "node",
  "id": 33762494,
  "lat": 43.5164329,
  "lon": 5.4670847
},
{
  "type": "node",
  "id": 255125446,
  "lat": 43.5133172,
  "lon": 5.4711467
},
{
  "type": "node",
  "id": 255125447,
  "lat": 43.5136498,
  "lon": 5.4706493
},
{
  "type": "node",
  "id": 255125448,
  "lat": 43.5140679,
  "lon": 5.4701963
},
{
  "type": "node",
  "id": 255125449,
  "lat": 43.5149436,
  "lon": 5.4693486
},
{
  "type": "node",
  "id": 255125452,
  "lat": 43.5160826,
  "lon": 5.4677693
},
{
  "type": "node",
  "id": 255125453,
  "lat": 43.5163892,
  "lon": 5.4672098
},
{
  "type": "node",
  "id": 255125541,
  "lat": 43.5162826,
  "lon": 5.4671013
},
{
  "type": "node",
  "id": 255125544,
  "lat": 43.5152973,
  "lon": 5.4687411
},
{
  "type": "node",
  "id": 255125545,
  "lat": 43.5149109,
  "lon": 5.4691983
},
{
  "type": "node",
  "id": 255125547,
  "lat": 43.5139598,
  "lon": 5.4701353
},
{
  "type": "node",
  "id": 255125548,
  "lat": 43.5136015,
  "lon": 5.4705417
},
{
  "type": "node",
  "id": 255125549,
  "lat": 43.5132995,
  "lon": 5.4709910
},
{
  "type": "node",
  "id": 259968398,
  "lat": 43.5129611,
  "lon": 5.4715450
},
{
  "type": "node",
  "id": 259968399,
  "lat": 43.5129604,
  "lon": 5.4716770
},
{
  "type": "node",
  "id": 443069302,
  "lat": 43.5143500,
  "lon": 5.4697627
},
{
  "type": "node",
  "id": 443069305,
  "lat": 43.5144133,
  "lon": 5.4698825
},
{
  "type": "node",
  "id": 1831736625,
  "lat": 43.5151849,
  "lon": 5.4690593
},
{
  "type": "node",
  "id": 1832633680,
  "lat": 43.5160949,
  "lon": 5.4675337
},
{
  "type": "node",
  "id": 1832633682,
  "lat": 43.5162083,
  "lon": 5.4673353
},
{
  "type": "node",
  "id": 1854557409,
  "lat": 43.5156775,
  "lon": 5.4682304
},
{
  "type": "node",
  "id": 2435560438,
  "lat": 43.5135283,
  "lon": 5.4706427
},
{
  "type": "node",
  "id": 2435560440,
  "lat": 43.5135717,
  "lon": 5.4707520
},
{
  "type": "node",
  "id": 2435560442,
  "lat": 43.5135854,
  "lon": 5.4707344
},
{
  "type": "node",
  "id": 2435560443,
  "lat": 43.5136437,
  "lon": 5.4704855
},
{
  "type": "node",
  "id": 2435560444,
  "lat": 43.5137316,
  "lon": 5.4705509
},
{
  "type": "node",
  "id": 2435560446,
  "lat": 43.5137630,
  "lon": 5.4703440
},
{
  "type": "node",
  "id": 2435560447,
  "lat": 43.5137751,
  "lon": 5.4703295
},
{
  "type": "node",
  "id": 2435560449,
  "lat": 43.5138125,
  "lon": 5.4704629
},
{
  "type": "node",
  "id": 2435560461,
  "lat": 43.5142591,
  "lon": 5.4698480
},
{
  "type": "node",
  "id": 2435560463,
  "lat": 43.5142862,
  "lon": 5.4699947
},
{
  "type": "node",
  "id": 2435560464,
  "lat": 43.5142995,
  "lon": 5.4699825
},
{
  "type": "node",
  "id": 2435560475,
  "lat": 43.5144409,
  "lon": 5.4696669
},
{
  "type": "node",
  "id": 2435560477,
  "lat": 43.5144797,
  "lon": 5.4696307
},
{
  "type": "node",
  "id": 2435560481,
  "lat": 43.5145170,
  "lon": 5.4697722
},
{
  "type": "node",
  "id": 2435560484,
  "lat": 43.5156887,
  "lon": 5.4684150
},
{
  "type": "node",
  "id": 2435560486,
  "lat": 43.5157448,
  "lon": 5.4681257
},
{
  "type": "node",
  "id": 2435560487,
  "lat": 43.5157498,
  "lon": 5.4683254
},
{
  "type": "node",
  "id": 2534911728,
  "lat": 43.5161887,
  "lon": 5.4675756
},
{
  "type": "node",
  "id": 4726111787,
  "lat": 43.5136816,
  "lon": 5.4704422
},
{
  "type": "node",
  "id": 5841998901,
  "lat": 43.5162719,
  "lon": 5.4671791
},
{
  "type": "node",
  "id": 5841998903,
  "lat": 43.5162549,
  "lon": 5.4672454
},
{
  "type": "node",
  "id": 5842056990,
  "lat": 43.5146782,
  "lon": 5.4694363
},
{
  "type": "node",
  "id": 5842056991,
  "lat": 43.5151571,
  "lon": 5.4689179
},
{
  "type": "node",
  "id": 5842056992,
  "lat": 43.5134826,
  "lon": 5.4707122
},
{
  "type": "node",
  "id": 5842056993,
  "lat": 43.5155463,
  "lon": 5.4684109
},
{
  "type": "node",
  "id": 7839922283,
  "lat": 43.5135359,
  "lon": 5.4706322
},
{
  "type": "node",
  "id": 7839951730,
  "lat": 43.5144540,
  "lon": 5.4696547
},
{
  "type": "node",
  "id": 7839951733,
  "lat": 43.5143140,
  "lon": 5.4699691
},
{
  "type": "node",
  "id": 8846916223,
  "lat": 43.5154274,
  "lon": 5.4685720
},
{
  "type": "node",
  "id": 8846916246,
  "lat": 43.5163370,
  "lon": 5.4673056
},
{
  "type": "node",
  "id": 8849028417,
  "lat": 43.5153493,
  "lon": 5.4688632
},
{
  "type": "node",
  "id": 8938581362,
  "lat": 43.5159326,
  "lon": 5.4678174
},
{
  "type": "node",
  "id": 8938581365,
  "lat": 43.5157890,
  "lon": 5.4682603
},
{
  "type": "node",
  "id": 8938581366,
  "lat": 43.5157198,
  "lon": 5.4681651
},
{
  "type": "node",
  "id": 12162879,
  "lat": 43.5225043,
  "lon": 5.4565657
},
{
  "type": "node",
  "id": 33678715,
  "lat": 43.5225821,
  "lon": 5.4564406
},
{
  "type": "node",
  "id": 2267130590,
  "lat": 43.5213411,
  "lon": 5.4585578
},
{
  "type": "node",
  "id": 2511802614,
  "lat": 43.5226820,
  "lon": 5.4563114
},
{
  "type": "node",
  "id": 5841988012,
  "lat": 43.5214686,
  "lon": 5.4583365
},
{
  "type": "node",
  "id": 5876290598,
  "lat": 43.5211013,
  "lon": 5.4589527
},
{
  "type": "node",
  "id": 6424754680,
  "lat": 43.5217912,
  "lon": 5.4577833
},
{
  "type": "node",
  "id": 6446434367,
  "lat": 43.5220041,
  "lon": 5.4574202
},
{
  "type": "node",
  "id": 12161867,
  "lat": 43.5194629,
  "lon": 5.4616937
},
{
  "type": "node",
  "id": 33678765,
  "lat": 43.5204252,
  "lon": 5.4600760
},
{
  "type": "node",
  "id": 822325948,
  "lat": 43.5201211,
  "lon": 5.4605943
},
{
  "type": "node",
  "id": 2267130489,
  "lat": 43.5202880,
  "lon": 5.4603084
},
{
  "type": "node",
  "id": 2267130555,
  "lat": 43.5208772,
  "lon": 5.4593337
},
{
  "type": "node",
  "id": 5175920333,
  "lat": 43.5203236,
  "lon": 5.4602488
},
{
  "type": "node",
  "id": 5300898303,
  "lat": 43.5196148,
  "lon": 5.4614468
},
{
  "type": "node",
  "id": 6382854812,
  "lat": 43.5205415,
  "lon": 5.4598789
},
{
  "type": "node",
  "id": 6382854814,
  "lat": 43.5203049,
  "lon": 5.4602806
},
{
  "type": "node",
  "id": 8367618950,
  "lat": 43.5196542,
  "lon": 5.4613846
},
{
  "type": "node",
  "id": 267055890,
  "lat": 43.5320122,
  "lon": 5.4564933
},
{
  "type": "node",
  "id": 267185194,
  "lat": 43.5319802,
  "lon": 5.4536690
},
{
  "type": "node",
  "id": 976665631,
  "lat": 43.5322518,
  "lon": 5.4579671
},
{
  "type": "node",
  "id": 976665852,
  "lat": 43.5322743,
  "lon": 5.4580185
},
{
  "type": "node",
  "id": 976666278,
  "lat": 43.5322315,
  "lon": 5.4579090
},
{
  "type": "node",
  "id": 976666529,
  "lat": 43.5320154,
  "lon": 5.4562780
},
{
  "type": "node",
  "id": 1348001832,
  "lat": 43.5306050,
  "lon": 5.4589810
},
{
  "type": "node",
  "id": 1348001859,
  "lat": 43.5307562,
  "lon": 5.4591290
},
{
  "type": "node",
  "id": 1348002058,
  "lat": 43.5320124,
  "lon": 5.4563833
},
{
  "type": "node",
  "id": 1348002063,
  "lat": 43.5320309,
  "lon": 5.4559007
},
{
  "type": "node",
  "id": 2329315155,
  "lat": 43.5321084,
  "lon": 5.4553373
},
{
  "type": "node",
  "id": 2329430499,
  "lat": 43.5320350,
  "lon": 5.4567048
},
{
  "type": "node",
  "id": 2349048066,
  "lat": 43.5320382,
  "lon": 5.4544432
},
{
  "type": "node",
  "id": 3676050613,
  "lat": 43.5320957,
  "lon": 5.4551041
},
{
  "type": "node",
  "id": 5446712195,
  "lat": 43.5306518,
  "lon": 5.4590268
},
{
  "type": "node",
  "id": 5863870088,
  "lat": 43.5320501,
  "lon": 5.4545027
},
{
  "type": "node",
  "id": 6123407182,
  "lat": 43.5320959,
  "lon": 5.4570372
},
{
  "type": "node",
  "id": 9127614563,
  "lat": 43.5320684,
  "lon": 5.4568978
},
{
  "type": "node",
  "id": 9263803177,
  "lat": 43.5320724,
  "lon": 5.4547289
},
{
  "type": "node",
  "id": 9263803178,
  "lat": 43.5320624,
  "lon": 5.4546156
},
{
  "type": "node",
  "id": 9263803179,
  "lat": 43.5320271,
  "lon": 5.4543243
},
{
  "type": "node",
  "id": 9263803180,
  "lat": 43.5319219,
  "lon": 5.4531121
},
{
  "type": "node",
  "id": 9263803181,
  "lat": 43.5319243,
  "lon": 5.4529829
},
{
  "type": "node",
  "id": 9263803182,
  "lat": 43.5319242,
  "lon": 5.4530273
},
{
  "type": "node",
  "id": 9263803187,
  "lat": 43.5319217,
  "lon": 5.4530660
},
{
  "type": "node",
  "id": 9263803191,
  "lat": 43.5320163,
  "lon": 5.4565836
},
{
  "type": "node",
  "id": 9263803192,
  "lat": 43.5321325,
  "lon": 5.4572516
},
{
  "type": "node",
  "id": 9263803193,
  "lat": 43.5321839,
  "lon": 5.4575821
},
{
  "type": "node",
  "id": 9263803194,
  "lat": 43.5320134,
  "lon": 5.4563489
},
{
  "type": "node",
  "id": 1348001871,
  "lat": 43.5308164,
  "lon": 5.4592164
},
{
  "type": "node",
  "id": 1348001880,
  "lat": 43.5308606,
  "lon": 5.4592925
},
{
  "type": "node",
  "id": 1348001884,
  "lat": 43.5308911,
  "lon": 5.4594173
},
{
  "type": "node",
  "id": 1348001886,
  "lat": 43.5309106,
  "lon": 5.4594924
},
{
  "type": "node",
  "id": 1348001891,
  "lat": 43.5309300,
  "lon": 5.4595889
},
{
  "type": "node",
  "id": 1348001894,
  "lat": 43.5309796,
  "lon": 5.4597070
},
{
  "type": "node",
  "id": 1348001903,
  "lat": 43.5310311,
  "lon": 5.4597821
},
{
  "type": "node",
  "id": 1348001972,
  "lat": 43.5311935,
  "lon": 5.4600047
},
{
  "type": "node",
  "id": 1348002004,
  "lat": 43.5313170,
  "lon": 5.4601348
},
{
  "type": "node",
  "id": 1348002008,
  "lat": 43.5313841,
  "lon": 5.4601777
},
{
  "type": "node",
  "id": 1348002014,
  "lat": 43.5314366,
  "lon": 5.4601924
},
{
  "type": "node",
  "id": 2848798568,
  "lat": 43.5311157,
  "lon": 5.4598934
},
{
  "type": "node",
  "id": 34500767,
  "lat": 43.5377951,
  "lon": 5.4530491
},
{
  "type": "node",
  "id": 265000330,
  "lat": 43.5329954,
  "lon": 5.4554755
},
{
  "type": "node",
  "id": 265000336,
  "lat": 43.5340169,
  "lon": 5.4573727
},
{
  "type": "node",
  "id": 265000337,
  "lat": 43.5343047,
  "lon": 5.4576120
},
{
  "type": "node",
  "id": 265000338,
  "lat": 43.5344741,
  "lon": 5.4577150
},
{
  "type": "node",
  "id": 265000339,
  "lat": 43.5348146,
  "lon": 5.4578372
},
{
  "type": "node",
  "id": 265000340,
  "lat": 43.5353340,
  "lon": 5.4578348
},
{
  "type": "node",
  "id": 265000342,
  "lat": 43.5366415,
  "lon": 5.4575037
},
{
  "type": "node",
  "id": 267055404,
  "lat": 43.5323835,
  "lon": 5.4581981
},
{
  "type": "node",
  "id": 976665604,
  "lat": 43.5385356,
  "lon": 5.4532494
},
{
  "type": "node",
  "id": 976666131,
  "lat": 43.5349895,
  "lon": 5.4578606
},
{
  "type": "node",
  "id": 976666477,
  "lat": 43.5351714,
  "lon": 5.4578556
},
{
  "type": "node",
  "id": 1022116060,
  "lat": 43.5378799,
  "lon": 5.4571735
},
{
  "type": "node",
  "id": 1022116241,
  "lat": 43.5370387,
  "lon": 5.4573944
},
{
  "type": "node",
  "id": 1022116268,
  "lat": 43.5368564,
  "lon": 5.4574447
},
{
  "type": "node",
  "id": 1022116454,
  "lat": 43.5374759,
  "lon": 5.4572750
},
{
  "type": "node",
  "id": 1348002085,
  "lat": 43.5323400,
  "lon": 5.4581333
},
{
  "type": "node",
  "id": 1847564663,
  "lat": 43.5329057,
  "lon": 5.4554650
},
{
  "type": "node",
  "id": 2366241296,
  "lat": 43.5341550,
  "lon": 5.4574930
},
{
  "type": "node",
  "id": 2366241302,
  "lat": 43.5338131,
  "lon": 5.4571712
},
{
  "type": "node",
  "id": 2368427636,
  "lat": 43.5354766,
  "lon": 5.4578015
},
{
  "type": "node",
  "id": 2368427648,
  "lat": 43.5346091,
  "lon": 5.4577789
},
{
  "type": "node",
  "id": 2368427664,
  "lat": 43.5377320,
  "lon": 5.4572109
},
{
  "type": "node",
  "id": 4632581250,
  "lat": 43.5362308,
  "lon": 5.4576133
},
{
  "type": "node",
  "id": 4632581251,
  "lat": 43.5359895,
  "lon": 5.4576757
},
{
  "type": "node",
  "id": 4705000974,
  "lat": 43.5323010,
  "lon": 5.4580694
},
{
  "type": "node",
  "id": 4705010145,
  "lat": 43.5326768,
  "lon": 5.4554546
},
{
  "type": "node",
  "id": 5827821459,
  "lat": 43.5379500,
  "lon": 5.4530892
},
{
  "type": "node",
  "id": 5876353593,
  "lat": 43.5382698,
  "lon": 5.4570812
},
{
  "type": "node",
  "id": 8367593395,
  "lat": 43.5347259,
  "lon": 5.4578159
},
{
  "type": "node",
  "id": 8367593398,
  "lat": 43.5358493,
  "lon": 5.4577066
},
{
  "type": "node",
  "id": 8367618946,
  "lat": 43.5364404,
  "lon": 5.4575591
},
{
  "type": "node",
  "id": 8959928837,
  "lat": 43.5385380,
  "lon": 5.4570307
},
{
  "type": "node",
  "id": 33758278,
  "lat": 43.5389850,
  "lon": 5.4533885
},
{
  "type": "node",
  "id": 33758288,
  "lat": 43.5390070,
  "lon": 5.4534895
},
{
  "type": "node",
  "id": 311537915,
  "lat": 43.5430027,
  "lon": 5.4551624
},
{
  "type": "node",
  "id": 311537917,
  "lat": 43.5434299,
  "lon": 5.4552270
},
{
  "type": "node",
  "id": 311537979,
  "lat": 43.5427725,
  "lon": 5.4551751
},
{
  "type": "node",
  "id": 976665766,
  "lat": 43.5391853,
  "lon": 5.4534615
},
{
  "type": "node",
  "id": 976665807,
  "lat": 43.5405715,
  "lon": 5.4572770
},
{
  "type": "node",
  "id": 976665934,
  "lat": 43.5391196,
  "lon": 5.4534726
},
{
  "type": "node",
  "id": 1028565734,
  "lat": 43.5439273,
  "lon": 5.4553315
},
{
  "type": "node",
  "id": 2667916742,
  "lat": 43.5428927,
  "lon": 5.4551692
},
{
  "type": "node",
  "id": 4632540852,
  "lat": 43.5440009,
  "lon": 5.4553464
},
{
  "type": "node",
  "id": 8196071243,
  "lat": 43.5404056,
  "lon": 5.4572184
},
{
  "type": "node",
  "id": 8367618945,
  "lat": 43.5404822,
  "lon": 5.4572439
},
{
  "type": "node",
  "id": 265000360,
  "lat": 43.5433856,
  "lon": 5.4599693
},
{
  "type": "node",
  "id": 265000361,
  "lat": 43.5435237,
  "lon": 5.4602324
},
{
  "type": "node",
  "id": 265000362,
  "lat": 43.5437163,
  "lon": 5.4606019
},
{
  "type": "node",
  "id": 265000363,
  "lat": 43.5438227,
  "lon": 5.4608458
},
{
  "type": "node",
  "id": 265000364,
  "lat": 43.5439370,
  "lon": 5.4609800
},
{
  "type": "node",
  "id": 265000365,
  "lat": 43.5440752,
  "lon": 5.4610801
},
{
  "type": "node",
  "id": 265000366,
  "lat": 43.5442296,
  "lon": 5.4610965
},
{
  "type": "node",
  "id": 265000367,
  "lat": 43.5445713,
  "lon": 5.4610243
},
{
  "type": "node",
  "id": 1022673841,
  "lat": 43.5494893,
  "lon": 5.4561928
},
{
  "type": "node",
  "id": 1044051977,
  "lat": 43.5494212,
  "lon": 5.4561520
},
{
  "type": "node",
  "id": 2445536599,
  "lat": 43.5500128,
  "lon": 5.4565139
},
{
  "type": "node",
  "id": 265000368,
  "lat": 43.5459564,
  "lon": 5.4606935
},
{
  "type": "node",
  "id": 265000369,
  "lat": 43.5465065,
  "lon": 5.4605641
},
{
  "type": "node",
  "id": 265000370,
  "lat": 43.5466861,
  "lon": 5.4605366
},
{
  "type": "node",
  "id": 265000372,
  "lat": 43.5471276,
  "lon": 5.4605532
},
{
  "type": "node",
  "id": 265000373,
  "lat": 43.5478524,
  "lon": 5.4607120
},
{
  "type": "node",
  "id": 265000374,
  "lat": 43.5480120,
  "lon": 5.4607733
},
{
  "type": "node",
  "id": 265000375,
  "lat": 43.5481196,
  "lon": 5.4608593
},
{
  "type": "node",
  "id": 265000376,
  "lat": 43.5482107,
  "lon": 5.4609892
},
{
  "type": "node",
  "id": 265000377,
  "lat": 43.5482852,
  "lon": 5.4611213
},
{
  "type": "node",
  "id": 265000378,
  "lat": 43.5483475,
  "lon": 5.4613477
},
{
  "type": "node",
  "id": 265000379,
  "lat": 43.5484356,
  "lon": 5.4615405
},
{
  "type": "node",
  "id": 265000380,
  "lat": 43.5485358,
  "lon": 5.4616139
},
{
  "type": "node",
  "id": 265000381,
  "lat": 43.5487014,
  "lon": 5.4616726
},
{
  "type": "node",
  "id": 265000382,
  "lat": 43.5489855,
  "lon": 5.4617124
},
{
  "type": "node",
  "id": 265000383,
  "lat": 43.5492010,
  "lon": 5.4618171
},
{
  "type": "node",
  "id": 265000385,
  "lat": 43.5494344,
  "lon": 5.4619928
},
{
  "type": "node",
  "id": 265000386,
  "lat": 43.5496181,
  "lon": 5.4620793
},
{
  "type": "node",
  "id": 265000387,
  "lat": 43.5504826,
  "lon": 5.4623705
},
{
  "type": "node",
  "id": 265000388,
  "lat": 43.5511877,
  "lon": 5.4626097
},
{
  "type": "node",
  "id": 265000389,
  "lat": 43.5512732,
  "lon": 5.4626379
},
{
  "type": "node",
  "id": 265000390,
  "lat": 43.5514469,
  "lon": 5.4626084
},
{
  "type": "node",
  "id": 265000391,
  "lat": 43.5516105,
  "lon": 5.4624894
},
{
  "type": "node",
  "id": 265000392,
  "lat": 43.5519411,
  "lon": 5.4621107
},
{
  "type": "node",
  "id": 8928611853,
  "lat": 43.5469030,
  "lon": 5.4605281
},
{
  "type": "node",
  "id": 8928611854,
  "lat": 43.5490865,
  "lon": 5.4617370
},
{
  "type": "node",
  "id": 8928611855,
  "lat": 43.5513610,
  "lon": 5.4626360
},
{
  "type": "node",
  "id": 8928611856,
  "lat": 43.5515387,
  "lon": 5.4625558
}

  ]
}
