{
  "version": 0.6,
  "generator": "Overpass API 0.7.57.1 74a55df1",
  "osm3s": {
    "timestamp_osm_base": "2022-02-13T13:18:30Z",
    "timestamp_areas_base": "2022-02-13T02:36:10Z",
    "copyright": "The data included in this document is from www.openstreetmap.org. The data is made available under ODbL."
  },
  "elements": [

{
  "type": "way",
  "id": 22929186,
  "nodes": [
    5708606421,
    5708606318,
    246971183,
    5708606317,
    8595534239,
    246972925
  ],
  "tags": {
    "cycleway:right": "lane",
    "highway": "residential",
    "maxspeed": "30",
    "name": "Rue du Jard",
    "surface": "paved"
  }
},
{
  "type": "way",
  "id": 22929189,
  "nodes": [
    5708606310,
    246971897,
    247685459,
    5708606311
  ],
  "tags": {
    "cycleway:right": "lane",
    "highway": "residential",
    "maxspeed": "30",
    "name": "Rue du Jard",
    "surface": "asphalt"
  }
},
{
  "type": "way",
  "id": 25659821,
  "nodes": [
    279725147,
    279725146,
    279725145,
    7193001375
  ],
  "tags": {
    "cycleway:right": "lane",
    "highway": "secondary",
    "lanes": "1",
    "maxspeed": "50",
    "name": "Avenue de la Marne",
    "oneway": "yes",
    "surface": "asphalt"
  }
},
{
  "type": "way",
  "id": 25761274,
  "nodes": [
    280933767,
    2896747487,
    281301857
  ],
  "tags": {
    "cycleway:right": "lane",
    "highway": "secondary",
    "name": "Avenue François Mitterrand",
    "oneway": "yes"
  }
},
{
  "type": "way",
  "id": 25836107,
  "nodes": [
    5711486664,
    281806049,
    8857498297,
    281805835,
    5324520795,
    5718394643,
    1204200116,
    1204200128,
    7276491363,
    289107858,
    7276488386,
    5964503187,
    5711486659
  ],
  "tags": {
    "cycleway:right": "lane",
    "highway": "residential",
    "maxspeed": "30",
    "name": "Avenue Aristide Briand",
    "zone:maxspeed": "FR:30"
  }
},
{
  "type": "way",
  "id": 35541842,
  "nodes": [
    366293886,
    7192995072,
    534181295,
    288941138,
    4708906100,
    4708906099
  ],
  "tags": {
    "cycleway:right": "lane",
    "highway": "tertiary",
    "name": "Avenue de Foncastel",
    "oneway": "yes",
    "surface": "asphalt"
  }
},
{
  "type": "way",
  "id": 42323959,
  "nodes": [
    2490274654,
    4316941581,
    8975234100,
    4316941582,
    280845632,
    2490274655
  ],
  "tags": {
    "cycleway:right": "lane",
    "cycleway:right:lane": "advisory",
    "highway": "secondary",
    "lanes": "1",
    "maxspeed": "50",
    "name": "Avenue de l'Yser",
    "oneway": "yes",
    "source:maxspeed": "sign",
    "surface": "asphalt"
  }
},
{
  "type": "way",
  "id": 42715259,
  "nodes": [
    1938252181,
    528216975,
    7188198906,
    528216943,
    2670513447,
    8567493785,
    2639497142,
    2670513437,
    528216946,
    533636878,
    7187963138
  ],
  "tags": {
    "cycleway:right": "lane",
    "highway": "secondary",
    "lanes": "1",
    "lit": "yes",
    "maxspeed": "50",
    "name": "Avenue de la Marne",
    "oneway": "yes",
    "surface": "asphalt"
  }
},
{
  "type": "way",
  "id": 47431003,
  "nodes": [
    3522104604,
    6070634808,
    288947837,
    9128905774,
    1591515874,
    2885291774
  ],
  "tags": {
    "cycleway:right": "lane",
    "highway": "secondary",
    "maxspeed": "50",
    "name": "Avenue Pierre Mendès-France",
    "oneway": "yes",
    "surface": "asphalt"
  }
},
{
  "type": "way",
  "id": 62379064,
  "nodes": [
    247685501,
    779147689,
    266992911,
    5708606287,
    8595535535,
    8595535534,
    8595535533,
    266994312,
    8595547435,
    266992913,
    7887320800,
    266992914,
    7887320801,
    266992915,
    260427877,
    7887320803,
    7887320802,
    5708606320
  ],
  "tags": {
    "cycleway:right": "lane",
    "highway": "tertiary",
    "name": "Rue du Liveau",
    "surface": "asphalt"
  }
},
{
  "type": "way",
  "id": 135310160,
  "nodes": [
    4055811640,
    1486123559,
    4735044973,
    9196173191,
    280844977,
    9288297956,
    2485982096,
    280844979,
    2485982082,
    280844980,
    271309271
  ],
  "tags": {
    "cycleway:right": "lane",
    "highway": "secondary",
    "lanes": "1",
    "maxspeed": "50",
    "name": "Avenue des Martyrs de la Libération",
    "oneway": "yes",
    "surface": "asphalt"
  }
},
{
  "type": "way",
  "id": 145815763,
  "nodes": [
    7028316021,
    8880610330,
    9466132120,
    289099492
  ],
  "tags": {
    "cycleway:left": "opposite_lane",
    "cycleway:right": "lane",
    "highway": "residential",
    "maxspeed": "30",
    "name": "Rue Gustave Flaubert",
    "oneway": "yes",
    "oneway:bicycle": "no",
    "surface": "paved"
  }
},
{
  "type": "way",
  "id": 183455915,
  "nodes": [
    1938252182,
    4764934074,
    7208643152,
    4764934064,
    4764934069,
    1938252177,
    1938252176,
    1938252174,
    9190005325,
    1938252171,
    1938252167,
    1938252166,
    1938252165,
    7208636456,
    1938252161,
    1938252160
  ],
  "tags": {
    "cycleway:right": "lane",
    "highway": "secondary",
    "lanes": "1",
    "maxspeed": "50",
    "name": "Avenue d'Arès",
    "oneway": "yes",
    "surface": "asphalt"
  }
},
{
  "type": "way",
  "id": 241377481,
  "nodes": [
    2148257169,
    280845635,
    289090785,
    289095543,
    289090695,
    4696311601,
    289090672,
    4696311604,
    6419576314,
    281997812
  ],
  "tags": {
    "cycleway:right": "lane",
    "cycleway:right:lane": "advisory",
    "highway": "secondary",
    "lanes": "1",
    "maxspeed": "50",
    "name": "Avenue de l'Yser",
    "oneway": "yes",
    "source:maxspeed": "sign",
    "surface": "asphalt"
  }
},
{
  "type": "way",
  "id": 241377482,
  "nodes": [
    2490274653,
    2490274651,
    4316941577,
    2490274652,
    2490274654
  ],
  "tags": {
    "cycleway:right": "lane",
    "cycleway:right:lane": "advisory",
    "highway": "secondary",
    "lanes": "1",
    "maxspeed": "50",
    "name": "Avenue de l'Yser",
    "oneway": "yes",
    "source:maxspeed": "sign",
    "surface": "asphalt"
  }
},
{
  "type": "way",
  "id": 283440694,
  "nodes": [
    2874084856,
    2873072871,
    2873072870,
    3522102214,
    2873072868
  ],
  "tags": {
    "cycleway:right": "lane",
    "highway": "secondary",
    "name": "Avenue François Mitterrand",
    "oneway": "yes",
    "surface": "asphalt"
  }
},
{
  "type": "way",
  "id": 284824734,
  "nodes": [
    3522104601,
    7193370657,
    2525400134,
    1917096637,
    1917096638,
    2525400147
  ],
  "tags": {
    "cycleway:right": "lane",
    "highway": "secondary",
    "maxspeed": "50",
    "name": "Avenue Pierre Mendès-France",
    "oneway": "yes",
    "surface": "asphalt"
  }
},
{
  "type": "way",
  "id": 410076900,
  "nodes": [
    29563465,
    4221798491,
    4892145640,
    4689589823,
    29563464,
    29563450
  ],
  "tags": {
    "cycleway:right": "lane",
    "highway": "primary",
    "maxspeed": "50",
    "maxspeed:type": "sign",
    "name": "Avenue de Magudas",
    "oneway": "yes",
    "surface": "asphalt"
  }
},
{
  "type": "way",
  "id": 432741328,
  "nodes": [
    629418055,
    268482692,
    268487798,
    268482691,
    268480409,
    9054023531,
    268480408,
    268480407,
    268479750,
    4805815876,
    8656590109,
    268480406,
    4805815868,
    268480404,
    4805815873,
    5718394756,
    9026291175,
    268484609,
    9026291178,
    268479524,
    7370465240,
    4316883963,
    268479395,
    4316883964,
    4316883965,
    7191384897,
    7191384896,
    4437890542,
    1915399294,
    8809294928,
    268480403,
    268480402,
    4316883970,
    268480422,
    8920136120,
    4561997247,
    268328932,
    268328931,
    5708606300,
    4316883986,
    654120344,
    260429324
  ],
  "tags": {
    "cycleway": "lane",
    "cycleway:right": "lane",
    "highway": "secondary",
    "name": "Avenue de Verdun",
    "surface": "asphalt"
  }
},
{
  "type": "way",
  "id": 463342777,
  "nodes": [
    250557393,
    2687550946,
    1938252181
  ],
  "tags": {
    "cycleway:right": "lane",
    "highway": "secondary",
    "lanes": "2",
    "maxspeed": "50",
    "name": "Avenue de la Marne",
    "oneway": "yes",
    "surface": "asphalt"
  }
},
{
  "type": "way",
  "id": 475166376,
  "nodes": [
    29563450,
    29563448,
    29563447
  ],
  "tags": {
    "cycleway:right": "lane",
    "highway": "primary",
    "name": "Avenue de Magudas",
    "oneway": "yes",
    "surface": "asphalt"
  }
},
{
  "type": "way",
  "id": 477563197,
  "nodes": [
    4708906099,
    4708906098,
    4708906097,
    4708906095,
    366293886
  ],
  "tags": {
    "cycleway:right": "lane",
    "highway": "tertiary",
    "name": "Avenue de Foncastel",
    "oneway": "yes",
    "surface": "asphalt"
  }
},
{
  "type": "way",
  "id": 589281064,
  "nodes": [
    282017615,
    3662135015,
    4323165928,
    5627109648
  ],
  "tags": {
    "cycleway:right": "lane",
    "highway": "tertiary",
    "lanes": "2",
    "maxspeed": "50",
    "name": "Avenue du Truc",
    "surface": "asphalt"
  }
},
{
  "type": "way",
  "id": 599902378,
  "nodes": [
    5705876903,
    266993304,
    5705877562
  ],
  "tags": {
    "cycleway:left": "opposite_lane",
    "cycleway:right": "lane",
    "highway": "residential",
    "maxspeed": "30",
    "name": "Avenue de la Forêt",
    "oneway": "yes"
  }
},
{
  "type": "way",
  "id": 599902381,
  "nodes": [
    266993257,
    5705876904
  ],
  "tags": {
    "cycleway:left": "opposite_lane",
    "cycleway:right": "lane",
    "highway": "tertiary",
    "maxspeed": "30",
    "name": "Avenue de la Forêt",
    "oneway": "yes"
  }
},
{
  "type": "way",
  "id": 599902579,
  "nodes": [
    271309268,
    4323182699
  ],
  "tags": {
    "cycleway:right": "lane",
    "cycleway:right:lane": "advisory",
    "highway": "secondary",
    "lanes": "2",
    "maxspeed": "50",
    "name": "Rue Jacques Prévert",
    "oneway": "yes",
    "surface": "asphalt"
  }
},
{
  "type": "way",
  "id": 600306232,
  "nodes": [
    5708606271,
    5708606272
  ],
  "tags": {
    "cycleway:right": "lane",
    "highway": "tertiary",
    "maxspeed": "30",
    "name": "Avenue Jean Macé"
  }
},
{
  "type": "way",
  "id": 600306242,
  "nodes": [
    266993118,
    779147645,
    5708606288
  ],
  "tags": {
    "cycleway:right": "lane",
    "highway": "secondary",
    "name": "Avenue de la Libération",
    "surface": "asphalt"
  }
},
{
  "type": "way",
  "id": 600768968,
  "nodes": [
    4414475399,
    7193370627,
    279723046,
    7193370669,
    1917096642
  ],
  "tags": {
    "cycleway:right": "lane",
    "highway": "secondary",
    "lanes": "2",
    "maxspeed": "50",
    "name": "Avenue de la Marne",
    "oneway": "yes",
    "surface": "asphalt"
  }
},
{
  "type": "way",
  "id": 600768980,
  "nodes": [
    5711486961,
    5711486962
  ],
  "tags": {
    "cycleway:right": "lane",
    "highway": "secondary",
    "name": "Avenue Bon Air",
    "surface": "asphalt"
  }
},
{
  "type": "way",
  "id": 600768989,
  "nodes": [
    5711486998,
    2639531082,
    2639545745,
    7195511223,
    2639545734
  ],
  "tags": {
    "cycleway:right": "lane",
    "highway": "secondary",
    "maxspeed": "50",
    "name": "Avenue de la Somme",
    "oneway": "yes",
    "source:maxspeed": "FR:urban",
    "surface": "asphalt"
  }
},
{
  "type": "way",
  "id": 600768993,
  "nodes": [
    2639531059,
    4325164003,
    7195295956
  ],
  "tags": {
    "cycleway:right": "lane",
    "highway": "secondary",
    "lanes": "2",
    "maxspeed": "50",
    "name": "Avenue de la Somme",
    "oneway": "yes",
    "surface": "asphalt"
  }
},
{
  "type": "way",
  "id": 600768995,
  "nodes": [
    669865028,
    9079200092,
    4710554386
  ],
  "tags": {
    "cycleway:right": "lane",
    "highway": "tertiary",
    "lit": "yes",
    "maxspeed": "30",
    "name": "Avenue de Foncastel",
    "surface": "asphalt",
    "zone:maxspeed": "FR:30"
  }
},
{
  "type": "way",
  "id": 625233220,
  "nodes": [
    280950846,
    5903427070,
    5903427065,
    2896779627
  ],
  "tags": {
    "cycleway:right": "lane",
    "highway": "secondary",
    "maxspeed": "50",
    "name": "Avenue François Mitterrand",
    "oneway": "yes"
  }
},
{
  "type": "way",
  "id": 769965090,
  "nodes": [
    7187963138,
    2639497138,
    2639497139,
    534387140,
    8567528637,
    534387141,
    269394024,
    7188198907,
    5708606307
  ],
  "tags": {
    "cycleway:right": "lane",
    "highway": "secondary",
    "lanes": "1",
    "lit": "yes",
    "maxspeed": "50",
    "name": "Avenue de la Marne",
    "oneway": "yes",
    "surface": "asphalt"
  }
},
{
  "type": "way",
  "id": 770625973,
  "nodes": [
    7193001375,
    279725143,
    7193370629,
    2639516233
  ],
  "tags": {
    "cycleway:right": "lane",
    "highway": "secondary",
    "lanes": "2",
    "maxspeed": "50",
    "name": "Avenue de la Marne",
    "oneway": "yes",
    "surface": "asphalt"
  }
},
{
  "type": "way",
  "id": 770625974,
  "nodes": [
    1917096642,
    7193370628,
    279725172,
    279723049,
    279725147
  ],
  "tags": {
    "cycleway:right": "lane",
    "highway": "secondary",
    "lanes": "1",
    "maxspeed": "50",
    "name": "Avenue de la Marne",
    "oneway": "yes",
    "surface": "asphalt"
  }
},
{
  "type": "area",
  "id": 3600105275,
  "tags": {
    "admin_level": "8",
    "boundary": "administrative",
    "name": "Mérignac",
    "name:bg": "Мериньяк",
    "name:ca": "Merinhac",
    "name:fa": "مرینیک",
    "name:fr": "Mérignac",
    "name:ja": "メリニャック",
    "name:kk": "Мериньяк",
    "name:mk": "Мериньяк",
    "name:mzn": "مرینیک",
    "name:oc": "Merinhac",
    "name:ru": "Мериньяк",
    "name:sr": "Мерињак",
    "name:uk": "Мериньяк",
    "name:zh": "梅里尼亚克",
    "population": "72197",
    "population:date": "2019",
    "postal_code": "33700",
    "ref:INSEE": "33281",
    "source:name:oc": "ieo-bdtopoc",
    "source:population": "INSEE 2022",
    "source:postal_code": "La Poste - 12/2014",
    "type": "boundary",
    "wikidata": "Q205551",
    "wikipedia": "fr:Mérignac (Gironde)"
  }
},
{
  "type": "area",
  "id": 3600111366,
  "tags": {
    "admin_level": "8",
    "boundary": "administrative",
    "name": "Mérignac",
    "population": "843",
    "population:date": "2019",
    "postal_code": "16200",
    "ref:INSEE": "16216",
    "source:population": "INSEE 2022",
    "source:postal_code": "source of postcode is from galichon.com/INSEE",
    "type": "boundary",
    "wikidata": "Q1614406",
    "wikipedia": "fr:Mérignac (Charente)"
  }
},
{
  "type": "area",
  "id": 3600124631,
  "tags": {
    "admin_level": "8",
    "boundary": "administrative",
    "name": "Mérignac",
    "name:oc": "Merinhac",
    "population": "219",
    "population:date": "2019",
    "postal_code": "17210",
    "ref:INSEE": "17229",
    "source:name:oc": "https://opinion.jornalet.com/laurenc-revest/blog/evocacions-de-la-reculada-dau-nord-occitan-en-peitau-quauques-toponimes-en-las-charantas",
    "source:population": "INSEE 2022",
    "source:postal_code": "La Poste - 12/2014",
    "type": "boundary",
    "wikidata": "Q1349851",
    "wikipedia": "fr:Mérignac (Charente-Maritime)"
  }
},
{
  "type": "node",
  "id": 280844977,
  "lat": 44.8414291,
  "lon": -0.6687165
},
{
  "type": "node",
  "id": 1486123559,
  "lat": 44.8414184,
  "lon": -0.6699879
},
{
  "type": "node",
  "id": 4055811640,
  "lat": 44.8414162,
  "lon": -0.6700042
},
{
  "type": "node",
  "id": 4735044973,
  "lat": 44.8414232,
  "lon": -0.6694141
},
{
  "type": "node",
  "id": 9196173191,
  "lat": 44.8414268,
  "lon": -0.6689895
},
{
  "type": "node",
  "id": 5708606271,
  "lat": 44.8328996,
  "lon": -0.6575003
},
{
  "type": "node",
  "id": 5708606272,
  "lat": 44.8327559,
  "lon": -0.6574041
},
{
  "type": "node",
  "id": 271309268,
  "lat": 44.8418336,
  "lon": -0.6675335
},
{
  "type": "node",
  "id": 271309271,
  "lat": 44.8415716,
  "lon": -0.6674790
},
{
  "type": "node",
  "id": 280844979,
  "lat": 44.8414517,
  "lon": -0.6677255
},
{
  "type": "node",
  "id": 280844980,
  "lat": 44.8414882,
  "lon": -0.6675762
},
{
  "type": "node",
  "id": 280845632,
  "lat": 44.8416506,
  "lon": -0.6667422
},
{
  "type": "node",
  "id": 281997812,
  "lat": 44.8419011,
  "lon": -0.6638630
},
{
  "type": "node",
  "id": 289090672,
  "lat": 44.8419572,
  "lon": -0.6633205
},
{
  "type": "node",
  "id": 289090695,
  "lat": 44.8420282,
  "lon": -0.6626567
},
{
  "type": "node",
  "id": 289090785,
  "lat": 44.8420641,
  "lon": -0.6622610
},
{
  "type": "node",
  "id": 289095543,
  "lat": 44.8420387,
  "lon": -0.6625404
},
{
  "type": "node",
  "id": 2485982082,
  "lat": 44.8414665,
  "lon": -0.6676472
},
{
  "type": "node",
  "id": 2485982096,
  "lat": 44.8414241,
  "lon": -0.6681635
},
{
  "type": "node",
  "id": 2490274651,
  "lat": 44.8416000,
  "lon": -0.6667814
},
{
  "type": "node",
  "id": 2490274652,
  "lat": 44.8416014,
  "lon": -0.6665632
},
{
  "type": "node",
  "id": 2490274653,
  "lat": 44.8416262,
  "lon": -0.6669742
},
{
  "type": "node",
  "id": 2490274654,
  "lat": 44.8416257,
  "lon": -0.6664617
},
{
  "type": "node",
  "id": 2490274655,
  "lat": 44.8416906,
  "lon": -0.6669564
},
{
  "type": "node",
  "id": 4316941577,
  "lat": 44.8415953,
  "lon": -0.6666833
},
{
  "type": "node",
  "id": 4316941581,
  "lat": 44.8416387,
  "lon": -0.6665584
},
{
  "type": "node",
  "id": 4316941582,
  "lat": 44.8416405,
  "lon": -0.6666425
},
{
  "type": "node",
  "id": 4323182699,
  "lat": 44.8419093,
  "lon": -0.6677079
},
{
  "type": "node",
  "id": 4696311601,
  "lat": 44.8419711,
  "lon": -0.6631903
},
{
  "type": "node",
  "id": 4696311604,
  "lat": 44.8419402,
  "lon": -0.6634847
},
{
  "type": "node",
  "id": 6419576314,
  "lat": 44.8419156,
  "lon": -0.6637229
},
{
  "type": "node",
  "id": 8975234100,
  "lat": 44.8416394,
  "lon": -0.6665931
},
{
  "type": "node",
  "id": 9288297956,
  "lat": 44.8414251,
  "lon": -0.6682749
},
{
  "type": "node",
  "id": 280845635,
  "lat": 44.8421329,
  "lon": -0.6614479
},
{
  "type": "node",
  "id": 2148257169,
  "lat": 44.8421062,
  "lon": -0.6613046
},
{
  "type": "node",
  "id": 281805835,
  "lat": 44.8241565,
  "lon": -0.6492306
},
{
  "type": "node",
  "id": 281806049,
  "lat": 44.8240735,
  "lon": -0.6495181
},
{
  "type": "node",
  "id": 5324520795,
  "lat": 44.8241924,
  "lon": -0.6490587
},
{
  "type": "node",
  "id": 5711486664,
  "lat": 44.8239068,
  "lon": -0.6499001
},
{
  "type": "node",
  "id": 5711486961,
  "lat": 44.8275293,
  "lon": -0.6489355
},
{
  "type": "node",
  "id": 8857498297,
  "lat": 44.8240979,
  "lon": -0.6494336
},
{
  "type": "node",
  "id": 289107858,
  "lat": 44.8246614,
  "lon": -0.6469428
},
{
  "type": "node",
  "id": 1204200116,
  "lat": 44.8243157,
  "lon": -0.6484360
},
{
  "type": "node",
  "id": 1204200128,
  "lat": 44.8245154,
  "lon": -0.6476248
},
{
  "type": "node",
  "id": 5711486659,
  "lat": 44.8248570,
  "lon": -0.6457803
},
{
  "type": "node",
  "id": 5711486962,
  "lat": 44.8278799,
  "lon": -0.6487691
},
{
  "type": "node",
  "id": 5718394643,
  "lat": 44.8243126,
  "lon": -0.6484517
},
{
  "type": "node",
  "id": 5964503187,
  "lat": 44.8246938,
  "lon": -0.6467503
},
{
  "type": "node",
  "id": 7276488386,
  "lat": 44.8246715,
  "lon": -0.6468828
},
{
  "type": "node",
  "id": 7276491363,
  "lat": 44.8245327,
  "lon": -0.6475440
},
{
  "type": "node",
  "id": 289099492,
  "lat": 44.8352825,
  "lon": -0.6506798
},
{
  "type": "node",
  "id": 2639531082,
  "lat": 44.8325951,
  "lon": -0.6536996
},
{
  "type": "node",
  "id": 2639545734,
  "lat": 44.8321422,
  "lon": -0.6546078
},
{
  "type": "node",
  "id": 2639545745,
  "lat": 44.8322327,
  "lon": -0.6544215
},
{
  "type": "node",
  "id": 4325164003,
  "lat": 44.8332338,
  "lon": -0.6494714
},
{
  "type": "node",
  "id": 5711486998,
  "lat": 44.8327020,
  "lon": -0.6534865
},
{
  "type": "node",
  "id": 7028316021,
  "lat": 44.8339467,
  "lon": -0.6511357
},
{
  "type": "node",
  "id": 7195295956,
  "lat": 44.8332604,
  "lon": -0.6496779
},
{
  "type": "node",
  "id": 7195511223,
  "lat": 44.8321582,
  "lon": -0.6545764
},
{
  "type": "node",
  "id": 8880610330,
  "lat": 44.8340054,
  "lon": -0.6511157
},
{
  "type": "node",
  "id": 9466132120,
  "lat": 44.8350459,
  "lon": -0.6507606
},
{
  "type": "node",
  "id": 2639531059,
  "lat": 44.8330178,
  "lon": -0.6482570
},
{
  "type": "node",
  "id": 4708906098,
  "lat": 44.8363555,
  "lon": -0.6422561
},
{
  "type": "node",
  "id": 4708906099,
  "lat": 44.8364458,
  "lon": -0.6423717
},
{
  "type": "node",
  "id": 279723046,
  "lat": 44.8327756,
  "lon": -0.6399723
},
{
  "type": "node",
  "id": 279723049,
  "lat": 44.8331181,
  "lon": -0.6390240
},
{
  "type": "node",
  "id": 279725143,
  "lat": 44.8329190,
  "lon": -0.6398056
},
{
  "type": "node",
  "id": 279725145,
  "lat": 44.8330937,
  "lon": -0.6392251
},
{
  "type": "node",
  "id": 279725146,
  "lat": 44.8331537,
  "lon": -0.6390562
},
{
  "type": "node",
  "id": 279725147,
  "lat": 44.8332308,
  "lon": -0.6388723
},
{
  "type": "node",
  "id": 279725172,
  "lat": 44.8330378,
  "lon": -0.6391861
},
{
  "type": "node",
  "id": 288941138,
  "lat": 44.8363460,
  "lon": -0.6420940
},
{
  "type": "node",
  "id": 288947837,
  "lat": 44.8314099,
  "lon": -0.6402888
},
{
  "type": "node",
  "id": 366293886,
  "lat": 44.8361011,
  "lon": -0.6416222
},
{
  "type": "node",
  "id": 534181295,
  "lat": 44.8362261,
  "lon": -0.6418474
},
{
  "type": "node",
  "id": 669865028,
  "lat": 44.8348209,
  "lon": -0.6372891
},
{
  "type": "node",
  "id": 1591515874,
  "lat": 44.8306254,
  "lon": -0.6400673
},
{
  "type": "node",
  "id": 1917096637,
  "lat": 44.8319449,
  "lon": -0.6402682
},
{
  "type": "node",
  "id": 1917096638,
  "lat": 44.8321712,
  "lon": -0.6403093
},
{
  "type": "node",
  "id": 1917096642,
  "lat": 44.8328839,
  "lon": -0.6395832
},
{
  "type": "node",
  "id": 2525400134,
  "lat": 44.8315922,
  "lon": -0.6401656
},
{
  "type": "node",
  "id": 2525400147,
  "lat": 44.8322749,
  "lon": -0.6403488
},
{
  "type": "node",
  "id": 2639516233,
  "lat": 44.8328521,
  "lon": -0.6401683
},
{
  "type": "node",
  "id": 2885291774,
  "lat": 44.8304835,
  "lon": -0.6400462
},
{
  "type": "node",
  "id": 3522104601,
  "lat": 44.8306482,
  "lon": -0.6398876
},
{
  "type": "node",
  "id": 3522104604,
  "lat": 44.8324664,
  "lon": -0.6406072
},
{
  "type": "node",
  "id": 4414475399,
  "lat": 44.8326964,
  "lon": -0.6403470
},
{
  "type": "node",
  "id": 4708906095,
  "lat": 44.8361076,
  "lon": -0.6417355
},
{
  "type": "node",
  "id": 4708906097,
  "lat": 44.8361909,
  "lon": -0.6419248
},
{
  "type": "node",
  "id": 4708906100,
  "lat": 44.8364033,
  "lon": -0.6422078
},
{
  "type": "node",
  "id": 4710554386,
  "lat": 44.8346530,
  "lon": -0.6373104
},
{
  "type": "node",
  "id": 6070634808,
  "lat": 44.8321001,
  "lon": -0.6404994
},
{
  "type": "node",
  "id": 7192995072,
  "lat": 44.8361534,
  "lon": -0.6416884
},
{
  "type": "node",
  "id": 7193001375,
  "lat": 44.8329650,
  "lon": -0.6396259
},
{
  "type": "node",
  "id": 7193370627,
  "lat": 44.8327414,
  "lon": -0.6401155
},
{
  "type": "node",
  "id": 7193370628,
  "lat": 44.8329569,
  "lon": -0.6393828
},
{
  "type": "node",
  "id": 7193370629,
  "lat": 44.8328776,
  "lon": -0.6400134
},
{
  "type": "node",
  "id": 7193370657,
  "lat": 44.8314304,
  "lon": -0.6401195
},
{
  "type": "node",
  "id": 7193370669,
  "lat": 44.8328256,
  "lon": -0.6397718
},
{
  "type": "node",
  "id": 9079200092,
  "lat": 44.8347864,
  "lon": -0.6372935
},
{
  "type": "node",
  "id": 9128905774,
  "lat": 44.8311880,
  "lon": -0.6402262
},
{
  "type": "node",
  "id": 260429324,
  "lat": 44.8402937,
  "lon": -0.6398285
},
{
  "type": "node",
  "id": 268328931,
  "lat": 44.8400268,
  "lon": -0.6392122
},
{
  "type": "node",
  "id": 268328932,
  "lat": 44.8398856,
  "lon": -0.6387763
},
{
  "type": "node",
  "id": 268480402,
  "lat": 44.8395688,
  "lon": -0.6375632
},
{
  "type": "node",
  "id": 268480403,
  "lat": 44.8394730,
  "lon": -0.6370429
},
{
  "type": "node",
  "id": 268480422,
  "lat": 44.8396766,
  "lon": -0.6380033
},
{
  "type": "node",
  "id": 654120344,
  "lat": 44.8402536,
  "lon": -0.6397491
},
{
  "type": "node",
  "id": 1915399294,
  "lat": 44.8393711,
  "lon": -0.6364278
},
{
  "type": "node",
  "id": 4316883970,
  "lat": 44.8396417,
  "lon": -0.6378612
},
{
  "type": "node",
  "id": 4316883986,
  "lat": 44.8402241,
  "lon": -0.6396908
},
{
  "type": "node",
  "id": 4437890542,
  "lat": 44.8393600,
  "lon": -0.6363121
},
{
  "type": "node",
  "id": 4561997247,
  "lat": 44.8397899,
  "lon": -0.6384397
},
{
  "type": "node",
  "id": 5708606300,
  "lat": 44.8402001,
  "lon": -0.6396325
},
{
  "type": "node",
  "id": 7191384896,
  "lat": 44.8393586,
  "lon": -0.6360392
},
{
  "type": "node",
  "id": 7191384897,
  "lat": 44.8393571,
  "lon": -0.6358356
},
{
  "type": "node",
  "id": 8809294928,
  "lat": 44.8394667,
  "lon": -0.6370046
},
{
  "type": "node",
  "id": 8920136120,
  "lat": 44.8397462,
  "lon": -0.6382713
},
{
  "type": "node",
  "id": 268479395,
  "lat": 44.8393581,
  "lon": -0.6352154
},
{
  "type": "node",
  "id": 268479524,
  "lat": 44.8393136,
  "lon": -0.6335480
},
{
  "type": "node",
  "id": 268479750,
  "lat": 44.8393687,
  "lon": -0.6294031
},
{
  "type": "node",
  "id": 268480404,
  "lat": 44.8393142,
  "lon": -0.6312008
},
{
  "type": "node",
  "id": 268480406,
  "lat": 44.8393471,
  "lon": -0.6301871
},
{
  "type": "node",
  "id": 268484609,
  "lat": 44.8393063,
  "lon": -0.6332220
},
{
  "type": "node",
  "id": 4316883963,
  "lat": 44.8393576,
  "lon": -0.6350089
},
{
  "type": "node",
  "id": 4316883964,
  "lat": 44.8393594,
  "lon": -0.6354605
},
{
  "type": "node",
  "id": 4316883965,
  "lat": 44.8393598,
  "lon": -0.6355644
},
{
  "type": "node",
  "id": 4805815868,
  "lat": 44.8393344,
  "lon": -0.6305772
},
{
  "type": "node",
  "id": 4805815873,
  "lat": 44.8393122,
  "lon": -0.6313523
},
{
  "type": "node",
  "id": 4805815876,
  "lat": 44.8393645,
  "lon": -0.6295554
},
{
  "type": "node",
  "id": 5718394756,
  "lat": 44.8393046,
  "lon": -0.6319138
},
{
  "type": "node",
  "id": 7370465240,
  "lat": 44.8393178,
  "lon": -0.6336880
},
{
  "type": "node",
  "id": 8656590109,
  "lat": 44.8393514,
  "lon": -0.6300313
},
{
  "type": "node",
  "id": 9026291175,
  "lat": 44.8393044,
  "lon": -0.6329136
},
{
  "type": "node",
  "id": 9026291178,
  "lat": 44.8393123,
  "lon": -0.6334907
},
{
  "type": "node",
  "id": 282017615,
  "lat": 44.8493493,
  "lon": -0.6553733
},
{
  "type": "node",
  "id": 3662135015,
  "lat": 44.8493927,
  "lon": -0.6555601
},
{
  "type": "node",
  "id": 4323165928,
  "lat": 44.8494292,
  "lon": -0.6556831
},
{
  "type": "node",
  "id": 5627109648,
  "lat": 44.8494985,
  "lon": -0.6558634
},
{
  "type": "node",
  "id": 29563447,
  "lat": 44.8584918,
  "lon": -0.6769325
},
{
  "type": "node",
  "id": 29563448,
  "lat": 44.8585646,
  "lon": -0.6766676
},
{
  "type": "node",
  "id": 29563450,
  "lat": 44.8586064,
  "lon": -0.6763950
},
{
  "type": "node",
  "id": 29563464,
  "lat": 44.8584790,
  "lon": -0.6766298
},
{
  "type": "node",
  "id": 29563465,
  "lat": 44.8582607,
  "lon": -0.6770270
},
{
  "type": "node",
  "id": 4221798491,
  "lat": 44.8583618,
  "lon": -0.6769047
},
{
  "type": "node",
  "id": 4689589823,
  "lat": 44.8584260,
  "lon": -0.6767660
},
{
  "type": "node",
  "id": 4892145640,
  "lat": 44.8583814,
  "lon": -0.6768623
},
{
  "type": "node",
  "id": 247685501,
  "lat": 44.8509986,
  "lon": -0.6428005
},
{
  "type": "node",
  "id": 266993118,
  "lat": 44.8506525,
  "lon": -0.6444595
},
{
  "type": "node",
  "id": 266993257,
  "lat": 44.8530158,
  "lon": -0.6453333
},
{
  "type": "node",
  "id": 266993304,
  "lat": 44.8558192,
  "lon": -0.6461509
},
{
  "type": "node",
  "id": 779147645,
  "lat": 44.8509284,
  "lon": -0.6445937
},
{
  "type": "node",
  "id": 779147689,
  "lat": 44.8508794,
  "lon": -0.6427321
},
{
  "type": "node",
  "id": 5705876903,
  "lat": 44.8557330,
  "lon": -0.6461177
},
{
  "type": "node",
  "id": 5705876904,
  "lat": 44.8539066,
  "lon": -0.6455307
},
{
  "type": "node",
  "id": 5705877562,
  "lat": 44.8559667,
  "lon": -0.6461967
},
{
  "type": "node",
  "id": 5708606288,
  "lat": 44.8509660,
  "lon": -0.6446099
},
{
  "type": "node",
  "id": 246971183,
  "lat": 44.8492912,
  "lon": -0.6380909
},
{
  "type": "node",
  "id": 260427877,
  "lat": 44.8479498,
  "lon": -0.6401271
},
{
  "type": "node",
  "id": 266992913,
  "lat": 44.8483366,
  "lon": -0.6406655
},
{
  "type": "node",
  "id": 266992914,
  "lat": 44.8481591,
  "lon": -0.6404906
},
{
  "type": "node",
  "id": 266992915,
  "lat": 44.8480101,
  "lon": -0.6402503
},
{
  "type": "node",
  "id": 266994312,
  "lat": 44.8486349,
  "lon": -0.6409304
},
{
  "type": "node",
  "id": 5708606318,
  "lat": 44.8480467,
  "lon": -0.6386937
},
{
  "type": "node",
  "id": 5708606320,
  "lat": 44.8476488,
  "lon": -0.6394199
},
{
  "type": "node",
  "id": 5708606421,
  "lat": 44.8476175,
  "lon": -0.6389595
},
{
  "type": "node",
  "id": 7887320800,
  "lat": 44.8482436,
  "lon": -0.6405827
},
{
  "type": "node",
  "id": 7887320801,
  "lat": 44.8480746,
  "lon": -0.6403725
},
{
  "type": "node",
  "id": 7887320802,
  "lat": 44.8478221,
  "lon": -0.6398312
},
{
  "type": "node",
  "id": 7887320803,
  "lat": 44.8478841,
  "lon": -0.6399872
},
{
  "type": "node",
  "id": 8595535533,
  "lat": 44.8493351,
  "lon": -0.6415490
},
{
  "type": "node",
  "id": 8595535534,
  "lat": 44.8494603,
  "lon": -0.6416906
},
{
  "type": "node",
  "id": 8595547435,
  "lat": 44.8485684,
  "lon": -0.6408713
},
{
  "type": "node",
  "id": 246971897,
  "lat": 44.8503742,
  "lon": -0.6376235
},
{
  "type": "node",
  "id": 246972925,
  "lat": 44.8499002,
  "lon": -0.6379121
},
{
  "type": "node",
  "id": 247685459,
  "lat": 44.8508374,
  "lon": -0.6374631
},
{
  "type": "node",
  "id": 266992911,
  "lat": 44.8500158,
  "lon": -0.6421209
},
{
  "type": "node",
  "id": 5708606287,
  "lat": 44.8499058,
  "lon": -0.6420635
},
{
  "type": "node",
  "id": 5708606310,
  "lat": 44.8501059,
  "lon": -0.6378148
},
{
  "type": "node",
  "id": 5708606311,
  "lat": 44.8517183,
  "lon": -0.6371633
},
{
  "type": "node",
  "id": 5708606317,
  "lat": 44.8496473,
  "lon": -0.6379208
},
{
  "type": "node",
  "id": 8595534239,
  "lat": 44.8498482,
  "lon": -0.6379139
},
{
  "type": "node",
  "id": 8595535535,
  "lat": 44.8497936,
  "lon": -0.6419814
},
{
  "type": "node",
  "id": 2873072868,
  "lat": 44.8260918,
  "lon": -0.6260481
},
{
  "type": "node",
  "id": 2873072870,
  "lat": 44.8258820,
  "lon": -0.6274493
},
{
  "type": "node",
  "id": 2873072871,
  "lat": 44.8257974,
  "lon": -0.6278671
},
{
  "type": "node",
  "id": 2874084856,
  "lat": 44.8257388,
  "lon": -0.6281137
},
{
  "type": "node",
  "id": 3522102214,
  "lat": 44.8260020,
  "lon": -0.6266983
},
{
  "type": "node",
  "id": 280933767,
  "lat": 44.8273247,
  "lon": -0.6137169
},
{
  "type": "node",
  "id": 280950846,
  "lat": 44.8266444,
  "lon": -0.6151948
},
{
  "type": "node",
  "id": 281301857,
  "lat": 44.8277404,
  "lon": -0.6128921
},
{
  "type": "node",
  "id": 2896747487,
  "lat": 44.8274642,
  "lon": -0.6134528
},
{
  "type": "node",
  "id": 2896779627,
  "lat": 44.8267270,
  "lon": -0.6149776
},
{
  "type": "node",
  "id": 5903427065,
  "lat": 44.8267089,
  "lon": -0.6150253
},
{
  "type": "node",
  "id": 5903427070,
  "lat": 44.8266812,
  "lon": -0.6150980
},
{
  "type": "node",
  "id": 268480407,
  "lat": 44.8393467,
  "lon": -0.6290452
},
{
  "type": "node",
  "id": 268480408,
  "lat": 44.8393030,
  "lon": -0.6286732
},
{
  "type": "node",
  "id": 268480409,
  "lat": 44.8392474,
  "lon": -0.6283532
},
{
  "type": "node",
  "id": 268482691,
  "lat": 44.8391627,
  "lon": -0.6279440
},
{
  "type": "node",
  "id": 268482692,
  "lat": 44.8390325,
  "lon": -0.6273929
},
{
  "type": "node",
  "id": 268487798,
  "lat": 44.8391247,
  "lon": -0.6277832
},
{
  "type": "node",
  "id": 629418055,
  "lat": 44.8389340,
  "lon": -0.6269672
},
{
  "type": "node",
  "id": 9054023531,
  "lat": 44.8392762,
  "lon": -0.6285125
},
{
  "type": "node",
  "id": 250557393,
  "lat": 44.8383285,
  "lon": -0.6166638
},
{
  "type": "node",
  "id": 269394024,
  "lat": 44.8379141,
  "lon": -0.6174004
},
{
  "type": "node",
  "id": 528216943,
  "lat": 44.8379652,
  "lon": -0.6174304
},
{
  "type": "node",
  "id": 528216946,
  "lat": 44.8373523,
  "lon": -0.6195434
},
{
  "type": "node",
  "id": 528216975,
  "lat": 44.8380462,
  "lon": -0.6171735
},
{
  "type": "node",
  "id": 533636878,
  "lat": 44.8371600,
  "lon": -0.6202141
},
{
  "type": "node",
  "id": 534387140,
  "lat": 44.8374642,
  "lon": -0.6189544
},
{
  "type": "node",
  "id": 534387141,
  "lat": 44.8376596,
  "lon": -0.6182792
},
{
  "type": "node",
  "id": 1938252181,
  "lat": 44.8381257,
  "lon": -0.6170154
},
{
  "type": "node",
  "id": 2639497138,
  "lat": 44.8371086,
  "lon": -0.6201763
},
{
  "type": "node",
  "id": 2639497139,
  "lat": 44.8373032,
  "lon": -0.6195138
},
{
  "type": "node",
  "id": 2639497142,
  "lat": 44.8376305,
  "lon": -0.6185782
},
{
  "type": "node",
  "id": 2670513437,
  "lat": 44.8376014,
  "lon": -0.6186807
},
{
  "type": "node",
  "id": 2670513447,
  "lat": 44.8378766,
  "lon": -0.6177334
},
{
  "type": "node",
  "id": 2687550946,
  "lat": 44.8382287,
  "lon": -0.6168262
},
{
  "type": "node",
  "id": 5708606307,
  "lat": 44.8379969,
  "lon": -0.6170805
},
{
  "type": "node",
  "id": 7187963138,
  "lat": 44.8370775,
  "lon": -0.6203790
},
{
  "type": "node",
  "id": 7188198906,
  "lat": 44.8380170,
  "lon": -0.6172542
},
{
  "type": "node",
  "id": 7188198907,
  "lat": 44.8379633,
  "lon": -0.6172313
},
{
  "type": "node",
  "id": 8567493785,
  "lat": 44.8376551,
  "lon": -0.6184938
},
{
  "type": "node",
  "id": 8567528637,
  "lat": 44.8376060,
  "lon": -0.6184644
},
{
  "type": "node",
  "id": 1938252176,
  "lat": 44.8380482,
  "lon": -0.6094968
},
{
  "type": "node",
  "id": 1938252177,
  "lat": 44.8381176,
  "lon": -0.6097202
},
{
  "type": "node",
  "id": 1938252182,
  "lat": 44.8381763,
  "lon": -0.6100453
},
{
  "type": "node",
  "id": 4764934064,
  "lat": 44.8381375,
  "lon": -0.6098048
},
{
  "type": "node",
  "id": 4764934069,
  "lat": 44.8381319,
  "lon": -0.6097750
},
{
  "type": "node",
  "id": 4764934074,
  "lat": 44.8381507,
  "lon": -0.6099313
},
{
  "type": "node",
  "id": 7208643152,
  "lat": 44.8381415,
  "lon": -0.6098375
},
{
  "type": "node",
  "id": 1938252160,
  "lat": 44.8373539,
  "lon": -0.6077429
},
{
  "type": "node",
  "id": 1938252161,
  "lat": 44.8374433,
  "lon": -0.6080059
},
{
  "type": "node",
  "id": 1938252165,
  "lat": 44.8375293,
  "lon": -0.6082106
},
{
  "type": "node",
  "id": 1938252166,
  "lat": 44.8377704,
  "lon": -0.6086931
},
{
  "type": "node",
  "id": 1938252167,
  "lat": 44.8378655,
  "lon": -0.6088974
},
{
  "type": "node",
  "id": 1938252171,
  "lat": 44.8379127,
  "lon": -0.6090298
},
{
  "type": "node",
  "id": 1938252174,
  "lat": 44.8379959,
  "lon": -0.6093214
},
{
  "type": "node",
  "id": 7208636456,
  "lat": 44.8374669,
  "lon": -0.6080797
},
{
  "type": "node",
  "id": 9190005325,
  "lat": 44.8379524,
  "lon": -0.6091688
}

  ]
}
