{
  "version": 0.6,
  "generator": "Overpass API 0.7.57.1 74a55df1",
  "osm3s": {
    "timestamp_osm_base": "2022-02-13T13:18:30Z",
    "timestamp_areas_base": "2022-02-13T02:36:10Z",
    "copyright": "The data included in this document is from www.openstreetmap.org. The data is made available under ODbL."
  },
  "elements": [

{
  "type": "way",
  "id": 5008626,
  "nodes": [
    33294283,
    8158888715,
    33294282,
    33294639,
    33294281
  ],
  "tags": {
    "bicycle": "designated",
    "cycleway:right": "lane",
    "highway": "residential",
    "lane_markings": "no",
    "lit": "yes",
    "maxspeed": "30",
    "name": "Rue Ernest Renan",
    "oneway": "yes",
    "sidewalk": "both",
    "surface": "asphalt"
  }
},
{
  "type": "way",
  "id": 5008632,
  "nodes": [
    33178170,
    853875493,
    33178177,
    2720709893,
    853875520,
    33294188,
    2022097494,
    853875490,
    3986498609,
    33294034,
    2022095544
  ],
  "tags": {
    "bicycle": "designated",
    "cycleway:right": "lane",
    "highway": "residential",
    "lit": "yes",
    "maxspeed": "30",
    "name": "Rue de Neustrie",
    "oneway": "yes",
    "sidewalk": "both",
    "surface": "asphalt"
  }
},
{
  "type": "way",
  "id": 17366365,
  "nodes": [
    179835658,
    443342711,
    443342713,
    179835670,
    443342715,
    443342716,
    443342717,
    443342718,
    2062718122,
    179835649,
    443342720,
    443342722,
    443342723,
    179835677,
    443342725,
    443342726,
    443342727,
    8167321911,
    179835687,
    443342729,
    443342730,
    886212432,
    179835658
  ],
  "tags": {
    "bicycle": "designated",
    "cycleway:right": "lane",
    "highway": "primary",
    "junction": "roundabout",
    "lane_markings": "no",
    "name": "Rond-Point du Souvenir Français",
    "surface": "asphalt"
  }
},
{
  "type": "way",
  "id": 22056966,
  "nodes": [
    113381162,
    8895710073,
    6268347599,
    6268347603,
    1294655934,
    1293928544,
    8188368840,
    237446269,
    950376785,
    8188368841,
    940062549,
    237446259,
    8188368842,
    940062545,
    237446041,
    8188368845,
    237446317,
    237446051,
    940062547,
    8198839567,
    4552919551,
    1294613342,
    237446113
  ],
  "tags": {
    "bicycle": "designated",
    "cycleway:right": "lane",
    "highway": "residential",
    "lit": "yes",
    "maxspeed": "30",
    "name": "Rue Florimond Laurent",
    "sidewalk": "both",
    "surface": "asphalt"
  }
},
{
  "type": "way",
  "id": 24586922,
  "nodes": [
    267283968,
    8170628906,
    599728979,
    534088283,
    599728974,
    599728975,
    534088282,
    599728976,
    267283969,
    599728977,
    267283970,
    599728978,
    534088287,
    599728982,
    267283971,
    599728983,
    534088286,
    599728984,
    6112827491,
    267283972,
    599728985,
    534088285,
    267283973,
    599728987,
    534088284,
    8170628907,
    599728980,
    267283968
  ],
  "tags": {
    "bicycle": "yes",
    "cycleway:right": "lane",
    "highway": "secondary",
    "junction": "roundabout",
    "lane_markings": "no",
    "surface": "asphalt"
  }
},
{
  "type": "way",
  "id": 25441290,
  "nodes": [
    168410954,
    8187551584,
    606975956,
    844178157,
    844178145,
    277268992
  ],
  "tags": {
    "bicycle": "designated",
    "cycleway:left": "shared_lane",
    "cycleway:right": "lane",
    "highway": "residential",
    "lit": "yes",
    "maxspeed": "30",
    "name": "Rue Lestorey de Boulongne",
    "sidewalk": "both",
    "surface": "asphalt"
  }
},
{
  "type": "way",
  "id": 37769078,
  "nodes": [
    443048523,
    897984015,
    113390447,
    6918908909,
    897984025,
    631465972,
    631465973,
    113390452
  ],
  "tags": {
    "bicycle": "yes",
    "cycleway:right": "lane",
    "foot": "yes",
    "highway": "tertiary_link",
    "lanes": "2",
    "lit": "yes",
    "maxspeed": "50",
    "name": "Avenue du Général Ferrié",
    "oneway": "yes",
    "sidewalk": "none",
    "surface": "asphalt"
  }
},
{
  "type": "way",
  "id": 37769079,
  "nodes": [
    113390446,
    1854841378,
    443048523
  ],
  "tags": {
    "bicycle": "yes",
    "bridge": "yes",
    "cycleway:right": "lane",
    "highway": "tertiary_link",
    "lanes": "2",
    "layer": "1",
    "maxspeed": "50",
    "name": "Avenue du Général Ferrié",
    "oneway": "yes",
    "surface": "asphalt"
  }
},
{
  "type": "way",
  "id": 41502125,
  "nodes": [
    415650975,
    415650976,
    1186341123,
    2584774516,
    1023844066,
    415650977,
    5241924117,
    415650978,
    5241922147,
    415650979,
    1474077175,
    415650981,
    510821175
  ],
  "tags": {
    "cycleway:right": "lane",
    "cycleway:right:lane": "advisory",
    "highway": "tertiary",
    "lanes": "1",
    "name": "Rue Clément Marical",
    "oneway": "yes",
    "source": "cadastre-dgi-fr source : Direction Générale des Impôts - Cadastre;mise à jour : 2008",
    "surface": "asphalt"
  }
},
{
  "type": "way",
  "id": 41601207,
  "nodes": [
    508053632,
    8176257447,
    508053631,
    845056705,
    881300871,
    2584774515,
    508053630,
    2583906051,
    508053629
  ],
  "tags": {
    "cycleway:right": "lane",
    "highway": "tertiary",
    "lanes": "2",
    "name": "Rue Cochet",
    "ref": "D 32",
    "source": "cadastre-dgi-fr source : Direction Générale des Impôts - Cadastre ; mise à jour : 2008",
    "surface": "asphalt"
  }
},
{
  "type": "way",
  "id": 49697614,
  "nodes": [
    616900778,
    7883946537,
    6177170251,
    7883946536,
    7883946535,
    6177170241,
    7883972142,
    616900779,
    8194991753,
    616901012
  ],
  "tags": {
    "bicycle": "yes",
    "cycleway:left": "track",
    "cycleway:right": "lane",
    "highway": "tertiary",
    "maxspeed": "50",
    "name": "Rue Denis Papin",
    "surface": "asphalt"
  }
},
{
  "type": "way",
  "id": 60644115,
  "nodes": [
    2504918342,
    8184709246,
    6184391750,
    758904869,
    6184391747,
    758904853,
    6184395091,
    877883916,
    6187678144,
    885055273,
    758904825
  ],
  "tags": {
    "bicycle": "yes",
    "cycleway:right": "lane",
    "highway": "residential",
    "lanes": "2",
    "lit": "yes",
    "maxspeed": "50",
    "name": "Rue Denfert Rochereau",
    "surface": "asphalt"
  }
},
{
  "type": "way",
  "id": 74313950,
  "nodes": [
    415650975,
    1023844071,
    4572059393,
    845377086,
    415650996,
    1186345459,
    1186345465,
    415650994
  ],
  "tags": {
    "bicycle": "yes",
    "cycleway:left": "shared_lane",
    "cycleway:right": "lane",
    "highway": "tertiary",
    "lanes": "2",
    "name": "Rue de la Cavée Verte",
    "ref": "D 32",
    "surface": "asphalt"
  }
},
{
  "type": "way",
  "id": 74505099,
  "nodes": [
    179835338,
    1038746006,
    1038745941,
    880601274,
    880601213,
    952085305,
    880601214,
    952085406,
    880601237,
    8167576428
  ],
  "tags": {
    "bicycle": "designated",
    "cycleway:left": "opposite",
    "cycleway:right": "lane",
    "highway": "residential",
    "lit": "yes",
    "name": "Rue Théophile Gautier",
    "oneway": "yes",
    "source": "cadastre-dgi-fr source : Direction Générale des Impôts - Cadastre. Mise à jour : 2010",
    "surface": "asphalt"
  }
},
{
  "type": "way",
  "id": 74506712,
  "nodes": [
    880615422,
    8194875887,
    179835265
  ],
  "tags": {
    "bicycle": "designated",
    "cycleway:right": "lane",
    "highway": "primary",
    "lanes": "2",
    "lit": "yes",
    "maxspeed": "50",
    "name": "Route d'Octeville",
    "ref": "D 940",
    "sidewalk": "left",
    "source": "cadastre-dgi-fr source : Direction Générale des Impôts - Cadastre. Mise à jour : 2010",
    "source:maxspeed": "FR:urban",
    "surface": "asphalt"
  }
},
{
  "type": "way",
  "id": 75088509,
  "nodes": [
    886212434,
    443342720
  ],
  "tags": {
    "bicycle": "designated",
    "cycleway:right": "lane",
    "highway": "primary",
    "lanes": "1",
    "name": "Route d'Octeville",
    "oneway": "yes",
    "ref": "D 940",
    "source": "cadastre-dgi-fr source : Direction Générale des Impôts - Cadastre. Mise à jour : 2010",
    "surface": "asphalt"
  }
},
{
  "type": "way",
  "id": 75297243,
  "nodes": [
    253043897,
    5992636940,
    1631210379,
    895386205,
    895386382,
    2641101666,
    359997348
  ],
  "tags": {
    "cycleway:right": "lane",
    "highway": "tertiary",
    "name": "Rue de la Vallée",
    "segregated": "left",
    "source": "cadastre-dgi-fr source : Direction Générale des Impôts - Cadastre. Mise à jour : 2010",
    "surface": "asphalt"
  }
},
{
  "type": "way",
  "id": 75383379,
  "nodes": [
    890163021,
    890163024
  ],
  "tags": {
    "bicycle": "yes",
    "cycleway:right": "lane",
    "highway": "tertiary",
    "lanes": "1",
    "name": "Pont Auguste Blanqui",
    "oneway": "yes",
    "source": "cadastre-dgi-fr source : Direction Générale des Impôts - Cadastre. Mise à jour : 2010",
    "surface": "asphalt"
  }
},
{
  "type": "way",
  "id": 75383789,
  "nodes": [
    359997370,
    6177069557,
    6177069599,
    890163017
  ],
  "tags": {
    "bicycle": "yes",
    "cycleway:right": "lane",
    "highway": "tertiary",
    "lanes": "2",
    "name": "Rue des Chantiers",
    "oneway": "yes",
    "source": "cadastre-dgi-fr source : Direction Générale des Impôts - Cadastre. Mise à jour : 2010",
    "surface": "asphalt"
  }
},
{
  "type": "way",
  "id": 75383794,
  "nodes": [
    890163017,
    6177069583,
    890163021
  ],
  "tags": {
    "bicycle": "yes",
    "cycleway:right": "lane",
    "highway": "tertiary",
    "lanes": "1",
    "name": "Pont Auguste Blanqui",
    "oneway": "yes",
    "source": "cadastre-dgi-fr source : Direction Générale des Impôts - Cadastre. Mise à jour : 2010",
    "surface": "asphalt"
  }
},
{
  "type": "way",
  "id": 75383798,
  "nodes": [
    4346077106,
    890163013,
    8173956263,
    359997368
  ],
  "tags": {
    "bicycle": "yes",
    "cycleway:right": "lane",
    "highway": "tertiary_link",
    "lane_markings": "no",
    "name": "Rue de la Vallée",
    "oneway": "yes",
    "source": "cadastre-dgi-fr source : Direction Générale des Impôts - Cadastre. Mise à jour : 2010",
    "surface": "asphalt"
  }
},
{
  "type": "way",
  "id": 75383799,
  "nodes": [
    890163024,
    890162980,
    890163026,
    4346077106
  ],
  "tags": {
    "bicycle": "yes",
    "cycleway:right": "lane",
    "highway": "tertiary_link",
    "lane_markings": "no",
    "name": "Rue de la Vallée",
    "oneway": "yes",
    "source": "cadastre-dgi-fr source : Direction Générale des Impôts - Cadastre. Mise à jour : 2010",
    "surface": "asphalt"
  }
},
{
  "type": "way",
  "id": 75870535,
  "nodes": [
    895581897,
    895581888,
    895581894,
    2151765378
  ],
  "tags": {
    "cycleway:right": "lane",
    "highway": "tertiary_link",
    "lanes": "1",
    "lit": "yes",
    "maxspeed:type": "FR:urban",
    "name": "Avenue Jean Jaurès",
    "oneway": "yes",
    "source": "cadastre-dgi-fr source : Direction Générale des Impôts - Cadastre. Mise à jour : 2010",
    "surface": "asphalt"
  }
},
{
  "type": "way",
  "id": 75870536,
  "nodes": [
    895581891,
    1473061430,
    1917107638,
    1031536914,
    1917107689,
    895581897
  ],
  "tags": {
    "bridge": "yes",
    "cycleway:right": "lane",
    "highway": "tertiary_link",
    "lanes": "1",
    "layer": "1",
    "lit": "yes",
    "maxspeed:type": "FR:urban",
    "name": "Pont Auguste Blanqui",
    "oneway": "yes",
    "sidewalk": "both",
    "source": "cadastre-dgi-fr source : Direction Générale des Impôts - Cadastre. Mise à jour : 2010",
    "surface": "asphalt"
  }
},
{
  "type": "way",
  "id": 75888679,
  "nodes": [
    895727198,
    8018673445,
    1770556267
  ],
  "tags": {
    "bicycle": "yes",
    "cycleway:right": "lane",
    "highway": "tertiary",
    "lanes": "2",
    "name": "Rue Auguste Blanqui",
    "oneway": "no",
    "source": "cadastre-dgi-fr source : Direction Générale des Impôts - Cadastre. Mise à jour : 2010",
    "surface": "asphalt"
  }
},
{
  "type": "way",
  "id": 76129140,
  "nodes": [
    897983926,
    897984029,
    6521598499
  ],
  "tags": {
    "cycleway:right": "lane",
    "highway": "tertiary_link",
    "lane_markings": "no",
    "name": "Avenue du Général Ferrié",
    "oneway": "yes",
    "surface": "asphalt"
  }
},
{
  "type": "way",
  "id": 76129151,
  "nodes": [
    113391917,
    113391622,
    1854841379,
    113391621,
    1854841380,
    113391618,
    1854841381,
    113391617,
    897984036,
    4184060829,
    897983960
  ],
  "tags": {
    "cycleway:right": "lane",
    "foot": "yes",
    "highway": "tertiary_link",
    "lanes": "2",
    "lit": "yes",
    "maxspeed": "50",
    "name": "Avenue du Général Ferrié",
    "oneway": "yes",
    "sidewalk": "none",
    "surface": "asphalt"
  }
},
{
  "type": "way",
  "id": 81637719,
  "nodes": [
    8926174147,
    6268347596,
    8895710067,
    1294678630,
    8598872169,
    8744896607,
    8926174146
  ],
  "tags": {
    "bicycle": "yes",
    "cycleway:right": "lane",
    "cycleway:right:lane": "advisory",
    "highway": "secondary",
    "lanes": "2",
    "lit": "yes",
    "maxspeed": "30",
    "name": "Avenue du Bois au Coq",
    "oneway": "yes",
    "sidewalk": "right",
    "source": "cadastre-dgi-fr source : Direction Générale des Impôts - Cadastre. Mise à jour : 2010;cadastre-dgi-fr source : Direction Générale des Impôts - Cadastre. Mise à jour : 2011",
    "surface": "asphalt"
  }
},
{
  "type": "way",
  "id": 81707841,
  "nodes": [
    179835338,
    1038745961,
    179834969
  ],
  "tags": {
    "bicycle": "designated",
    "cycleway:right": "lane",
    "highway": "tertiary",
    "lanes": "2",
    "lit": "yes",
    "name": "Rue Théophile Gautier",
    "sidewalk": "both",
    "source": "cadastre-dgi-fr source : Direction Générale des Impôts - Cadastre. Mise à jour : 2010",
    "surface": "asphalt"
  }
},
{
  "type": "way",
  "id": 87415532,
  "nodes": [
    113381167,
    6074297515,
    1271056451,
    8598799324,
    8895690577,
    1016463330
  ],
  "tags": {
    "bicycle": "yes",
    "cycleway:right": "lane",
    "highway": "secondary",
    "lanes": "1",
    "lit": "yes",
    "maxspeed": "50",
    "name": "Rue du Bois au Coq",
    "oneway": "yes",
    "sidewalk": "right",
    "surface": "asphalt"
  }
},
{
  "type": "way",
  "id": 87802058,
  "nodes": [
    5768404214,
    1020666880
  ],
  "tags": {
    "cycleway:right": "lane",
    "cycleway:right:lane": "advisory",
    "highway": "tertiary",
    "lanes": "1",
    "name": "Avenue du 8 Mai 1945",
    "oneway": "yes",
    "source": "cadastre-dgi-fr source : Direction Générale des Impôts - Cadastre. Mise à jour : 2010",
    "surface": "asphalt"
  }
},
{
  "type": "way",
  "id": 87802594,
  "nodes": [
    5218797873,
    5768309746,
    5300910993,
    5300891963,
    1020780505,
    1020767435,
    1020780502,
    1020767431
  ],
  "tags": {
    "cycleway:right": "lane",
    "cycleway:right:lane": "advisory",
    "highway": "tertiary",
    "lanes": "1",
    "name": "Avenue du 8 Mai 1945",
    "oneway": "yes",
    "source": "cadastre-dgi-fr source : Direction Générale des Impôts - Cadastre. Mise à jour : 2010",
    "surface": "asphalt"
  }
},
{
  "type": "way",
  "id": 114254234,
  "nodes": [
    5218914710,
    8895710081,
    1016786652,
    8895710077,
    951470560
  ],
  "tags": {
    "bicycle": "yes",
    "cycleway:right": "lane",
    "highway": "secondary",
    "lanes": "2",
    "lit": "yes",
    "maxspeed": "50",
    "name": "Avenue du Bois au Coq",
    "oneway": "yes",
    "sidewalk": "right",
    "source": "cadastre-dgi-fr source : Direction Générale des Impôts - Cadastre. Mise à jour : 2011",
    "surface": "asphalt"
  }
},
{
  "type": "way",
  "id": 114254501,
  "nodes": [
    1294691812,
    8895710082,
    1293850876,
    8598843624,
    8895710086,
    113381164,
    8895710090,
    8598832265,
    8895710094,
    166221269,
    8895710097,
    1292138462,
    8598815519,
    8895690569,
    221346938,
    8303759767
  ],
  "tags": {
    "cycleway:right": "lane",
    "highway": "secondary",
    "lanes": "2",
    "name": "Avenue du Bois au Coq",
    "oneway": "yes",
    "source": "cadastre-dgi-fr source : Direction Générale des Impôts - Cadastre. Mise à jour : 2011",
    "surface": "asphalt"
  }
},
{
  "type": "way",
  "id": 148425842,
  "nodes": [
    252934705,
    5520287203,
    3753411918,
    7815587292,
    5520287207,
    928530471
  ],
  "tags": {
    "cycleway:right": "lane",
    "highway": "tertiary",
    "lanes": "1",
    "lit": "yes",
    "maxspeed": "30",
    "name": "Quai Frissard",
    "oneway": "yes",
    "sidewalk": "right",
    "surface": "asphalt"
  }
},
{
  "type": "way",
  "id": 183173275,
  "nodes": [
    1016463330,
    8895690573,
    951470542,
    8598815518,
    8895690566,
    8598815521
  ],
  "tags": {
    "bicycle": "yes",
    "cycleway:right": "lane",
    "highway": "secondary",
    "lanes": "2",
    "lit": "yes",
    "maxspeed": "50",
    "name": "Avenue du Bois au Coq",
    "oneway": "yes",
    "sidewalk": "right",
    "surface": "asphalt"
  }
},
{
  "type": "way",
  "id": 191629392,
  "nodes": [
    5178445924,
    5520603591,
    5520603590,
    33233794
  ],
  "tags": {
    "bicycle": "yes",
    "cycleway:left": "no",
    "cycleway:right": "lane",
    "cycleway:right:lane": "advisory",
    "highway": "tertiary",
    "lanes": "2",
    "lanes:forward": "1",
    "lit": "yes",
    "maxspeed": "50",
    "name": "Rue Demidoff",
    "oneway": "no",
    "sidewalk": "both",
    "surface": "asphalt",
    "turn:lanes:forward": "left;through|right"
  }
},
{
  "type": "way",
  "id": 192456440,
  "nodes": [
    179835447,
    179835564,
    1304238448,
    179834720
  ],
  "tags": {
    "bicycle": "designated",
    "cycleway:right": "lane",
    "highway": "tertiary",
    "lanes": "2",
    "lit": "yes",
    "maxspeed": "50",
    "name": "Rue Irène Joliot-Curie",
    "oneway": "no",
    "ref": "D 147",
    "sidewalk": "both",
    "surface": "asphalt"
  }
},
{
  "type": "way",
  "id": 193223319,
  "nodes": [
    240303932,
    3082883708,
    8412236829,
    240303965,
    6076105490,
    8412236830,
    840274174
  ],
  "tags": {
    "bicycle": "designated",
    "cycleway:right": "lane",
    "highway": "secondary",
    "lanes": "2",
    "lit": "yes",
    "maxspeed": "30",
    "name": "Place de l'Hôtel de Ville",
    "old_ref": "N 15",
    "oneway": "yes",
    "ref": "D 6015",
    "sidewalk": "both",
    "surface": "asphalt"
  }
},
{
  "type": "way",
  "id": 197335670,
  "nodes": [
    26285158,
    6076080697,
    7657213841,
    6521704941,
    6127996464
  ],
  "tags": {
    "bicycle": "yes",
    "cycleway:right": "lane",
    "cycleway:right:lane": "advisory",
    "highway": "secondary",
    "lanes": "2",
    "name": "Place de l'Hôtel de Ville",
    "old_ref": "N 15",
    "oneway": "yes",
    "ref": "D 6015",
    "surface": "asphalt"
  }
},
{
  "type": "way",
  "id": 199292203,
  "nodes": [
    33233794,
    8228986196,
    8366628636,
    5520699614
  ],
  "tags": {
    "bicycle": "designated",
    "cycleway:right": "lane",
    "highway": "secondary",
    "lanes": "2",
    "lit": "yes",
    "maxspeed": "50",
    "name": "Cours de la République",
    "note": "Aucune piste cyclable à droite, uniquement une bande cyclable.",
    "oneway": "yes",
    "surface": "asphalt"
  }
},
{
  "type": "way",
  "id": 199293883,
  "nodes": [
    632346748,
    6177170250
  ],
  "tags": {
    "bicycle": "yes",
    "cycleway:left": "track",
    "cycleway:right": "lane",
    "highway": "tertiary",
    "lanes": "2",
    "maxspeed": "50",
    "name": "Rue Denis Papin",
    "surface": "asphalt"
  }
},
{
  "type": "way",
  "id": 205229386,
  "nodes": [
    33233864,
    33294244
  ],
  "tags": {
    "bicycle": "yes",
    "cycleway:right": "lane",
    "cycleway:right:lane": "advisory",
    "highway": "secondary",
    "lanes": "2",
    "lit": "yes",
    "maxspeed": "50",
    "name": "Cours de la République",
    "oneway": "yes",
    "sidewalk": "right",
    "surface": "asphalt"
  }
},
{
  "type": "way",
  "id": 207789296,
  "nodes": [
    359997368,
    1398130763,
    359997370
  ],
  "tags": {
    "bicycle": "yes",
    "cycleway:right": "lane",
    "highway": "tertiary",
    "lane_markings": "no",
    "name": "Rue des Chantiers",
    "oneway": "yes",
    "source": "cadastre-dgi-fr source : Direction Générale des Impôts - Cadastre. Mise à jour : 2010",
    "surface": "asphalt"
  }
},
{
  "type": "way",
  "id": 209977258,
  "nodes": [
    33294611,
    7657213854,
    2121468856,
    5242468240,
    6918532432,
    33294610,
    6918532431,
    240284143,
    6918532430,
    6918552486,
    33294609,
    6918552489,
    8168622285,
    8168622288,
    33166157
  ],
  "tags": {
    "bicycle": "yes",
    "cycleway:right": "lane",
    "highway": "residential",
    "lit": "yes",
    "name": "Rue Jules Lecesne",
    "oneway": "no",
    "sidewalk": "both",
    "surface": "asphalt"
  }
},
{
  "type": "way",
  "id": 218234607,
  "nodes": [
    877656863,
    873859819,
    508053624,
    873859815,
    873859812,
    508053623,
    508053622,
    508053621,
    5241955810,
    508053620,
    508053619,
    5241955793,
    415650975
  ],
  "tags": {
    "cycleway:right": "lane",
    "highway": "tertiary",
    "lanes": "1",
    "name": "Rue Clément Marical",
    "oneway": "yes",
    "surface": "asphalt"
  }
},
{
  "type": "way",
  "id": 219453108,
  "nodes": [
    113381174,
    941460607,
    510789984,
    168410897,
    8895690580,
    6074248771,
    168410788,
    2715229874,
    847654107,
    2293353778,
    6074241980,
    113381173,
    6074241979,
    8598788085,
    7507271729,
    2293353782
  ],
  "tags": {
    "bicycle": "yes",
    "cycleway:right": "lane",
    "highway": "secondary",
    "lanes": "1",
    "lit": "yes",
    "maxspeed": "50",
    "name": "Rue du Bois au Coq",
    "oneway": "yes",
    "sidewalk": "right",
    "surface": "asphalt"
  }
},
{
  "type": "way",
  "id": 228602524,
  "nodes": [
    151008693,
    5768250515
  ],
  "tags": {
    "bicycle": "yes",
    "cycleway:right": "lane",
    "cycleway:right:lane": "advisory",
    "highway": "tertiary",
    "lanes": "1",
    "name": "Avenue Paul Verlaine",
    "oneway": "yes",
    "surface": "asphalt"
  }
},
{
  "type": "way",
  "id": 228602601,
  "nodes": [
    5768244594,
    2372609864,
    5768244593,
    2372609871,
    5993583785,
    2372609878,
    5768244589,
    2372609884
  ],
  "tags": {
    "cycleway:right": "lane",
    "cycleway:right:lane": "advisory",
    "highway": "tertiary",
    "lanes": "1",
    "name": "Avenue Paul Verlaine",
    "oneway": "yes",
    "surface": "asphalt"
  }
},
{
  "type": "way",
  "id": 230161693,
  "nodes": [
    897966977,
    5768250519,
    5768258236,
    113348308
  ],
  "tags": {
    "cycleway:right": "lane",
    "cycleway:right:lane": "advisory",
    "highway": "tertiary",
    "lanes": "1",
    "lit": "yes",
    "maxspeed": "30",
    "name": "Avenue Paul Verlaine",
    "oneway": "yes",
    "sidewalk": "right",
    "surface": "asphalt",
    "zone:maxspeed": "FR:30"
  }
},
{
  "type": "way",
  "id": 230161695,
  "nodes": [
    2386898016,
    5768250516,
    5985675495,
    5768244594
  ],
  "tags": {
    "cycleway:right": "lane",
    "cycleway:right:lane": "advisory",
    "highway": "tertiary",
    "lanes": "1",
    "name": "Avenue Paul Verlaine",
    "oneway": "yes",
    "surface": "asphalt"
  }
},
{
  "type": "way",
  "id": 302611451,
  "nodes": [
    113364238,
    5213102613,
    5768204107,
    5220045731,
    8279000161,
    166220580
  ],
  "tags": {
    "cycleway:right": "lane",
    "highway": "secondary",
    "lanes": "2",
    "lit": "yes",
    "maxspeed": "50",
    "name": "Rue Pierre Mendès-France",
    "oneway": "no",
    "sidewalk": "right",
    "source": "cadastre-dgi-fr source : Direction Générale des Impôts - Cadastre. Mise à jour : 2010",
    "surface": "asphalt"
  }
},
{
  "type": "way",
  "id": 302869877,
  "nodes": [
    1016786415,
    113364238
  ],
  "tags": {
    "cycleway:right": "lane",
    "highway": "secondary",
    "lanes": "2",
    "lit": "yes",
    "maxspeed": "50",
    "name": "Rue Pierre Mendès-France",
    "oneway": "no",
    "sidewalk": "right",
    "source": "cadastre-dgi-fr source : Direction Générale des Impôts - Cadastre. Mise à jour : 2010",
    "surface": "asphalt",
    "turn:lanes:forward": "left;through"
  }
},
{
  "type": "way",
  "id": 302870925,
  "nodes": [
    166220580,
    3071543043
  ],
  "tags": {
    "cycleway:right": "lane",
    "highway": "secondary",
    "lanes": "2",
    "lit": "yes",
    "maxspeed": "50",
    "name": "Rue Pierre Mendès-France",
    "sidewalk": "both",
    "surface": "asphalt",
    "turn:lanes:forward": "slight_left;right"
  }
},
{
  "type": "way",
  "id": 392501901,
  "nodes": [
    2022095544,
    853875491,
    33294189,
    853875494,
    846183838,
    853875480,
    8163922993
  ],
  "tags": {
    "bicycle": "designated",
    "cycleway:right": "lane",
    "highway": "residential",
    "lit": "yes",
    "maxspeed": "30",
    "name": "Rue de Neustrie",
    "oneway": "yes",
    "sidewalk": "both",
    "surface": "asphalt"
  }
},
{
  "type": "way",
  "id": 402180079,
  "nodes": [
    443343214,
    1020314606,
    252934711,
    5520287204,
    252934712,
    252934705
  ],
  "tags": {
    "cycleway:right": "lane",
    "highway": "tertiary",
    "lanes": "1",
    "lit": "yes",
    "maxspeed": "30",
    "name": "Quai Frissard",
    "oneway": "yes",
    "sidewalk": "right",
    "surface": "asphalt"
  }
},
{
  "type": "way",
  "id": 533829702,
  "nodes": [
    5520690358,
    8193715076,
    8193715077,
    33233864
  ],
  "tags": {
    "cycleway:right": "lane",
    "cycleway:right:lane": "advisory",
    "highway": "secondary",
    "lanes": "2",
    "lit": "yes",
    "maxspeed": "50",
    "name": "Cours de la République",
    "oneway": "yes",
    "surface": "asphalt"
  }
},
{
  "type": "way",
  "id": 533829704,
  "nodes": [
    33294195,
    5520618074
  ],
  "tags": {
    "bicycle": "yes",
    "cycleway:right": "lane",
    "highway": "secondary",
    "lanes": "2",
    "lit": "yes",
    "maxspeed": "50",
    "name": "Cours de la République",
    "oneway": "yes",
    "surface": "asphalt"
  }
},
{
  "type": "way",
  "id": 533952894,
  "nodes": [
    5179478809,
    6076080700,
    6521704936,
    2282949436
  ],
  "tags": {
    "bicycle": "designated",
    "cycleway:right": "lane",
    "highway": "tertiary",
    "lanes": "1",
    "lit": "yes",
    "maxspeed:type": "FR:urban",
    "name": "Boulevard de Strasbourg",
    "old_ref": "N 15",
    "oneway": "yes",
    "ref": "D 6015",
    "sidewalk": "right",
    "surface": "asphalt"
  }
},
{
  "type": "way",
  "id": 533964948,
  "nodes": [
    237446056,
    8198895717,
    886313694,
    1294232980,
    1293916207,
    8728162478,
    8728162477
  ],
  "tags": {
    "cycleway:right": "lane",
    "highway": "residential",
    "lit": "yes",
    "name": "Rue Florimond Laurent",
    "sidewalk": "both",
    "surface": "asphalt"
  }
},
{
  "type": "way",
  "id": 533994933,
  "nodes": [
    5179810680,
    941647640,
    5988677619,
    5985528958,
    8279000159
  ],
  "tags": {
    "cycleway:right": "lane",
    "highway": "secondary",
    "lanes": "1",
    "lit": "yes",
    "maxspeed": "50",
    "name": "Rue Pierre Mendès-France",
    "oneway": "yes",
    "source": "cadastre-dgi-fr source : Direction Générale des Impôts - Cadastre. Mise à jour : 2010",
    "surface": "asphalt"
  }
},
{
  "type": "way",
  "id": 537772770,
  "nodes": [
    854589697,
    7657213850,
    8247998471
  ],
  "tags": {
    "bicycle": "yes",
    "cycleway:right": "lane",
    "cycleway:right:lane": "exclusive",
    "highway": "secondary",
    "lanes": "2",
    "lit": "yes",
    "maxspeed": "50",
    "name": "Place de l'Hôtel de Ville",
    "old_ref": "N 15",
    "oneway": "yes",
    "ref": "D 6015",
    "sidewalk": "both",
    "surface": "asphalt"
  }
},
{
  "type": "way",
  "id": 538346406,
  "nodes": [
    7985705357,
    1909595941,
    6006717479
  ],
  "tags": {
    "bicycle": "designated",
    "cycleway:left": "opposite_lane",
    "cycleway:right": "lane",
    "highway": "service",
    "lit": "yes",
    "maxspeed": "10",
    "name": "Quai Colbert",
    "oneway": "no",
    "service": "parking_aisle",
    "surface": "asphalt"
  }
},
{
  "type": "way",
  "id": 538744100,
  "nodes": [
    33294281,
    854463294,
    33294279,
    33294278,
    854463293,
    33294277,
    33294276,
    2017711297,
    33294275,
    2017712518,
    6809801082,
    853875512,
    2014604251,
    33294274,
    2014604213,
    853875483,
    2014603843,
    33294273,
    854494797,
    2933731849,
    33294272,
    3070725431,
    2702383472,
    2014603205,
    846190233,
    33178170
  ],
  "tags": {
    "bicycle": "designated",
    "cycleway:right": "lane",
    "highway": "residential",
    "maxspeed": "30",
    "name": "Rue Ernest Renan",
    "oneway": "yes",
    "surface": "asphalt"
  }
},
{
  "type": "way",
  "id": 539295617,
  "nodes": [
    113348308,
    5768258241,
    5768264875,
    5218708329,
    5768264878,
    8915800652,
    1575975102,
    5768264885,
    5218692968
  ],
  "tags": {
    "cycleway:right": "lane",
    "cycleway:right:lane": "advisory",
    "highway": "tertiary",
    "lanes": "1",
    "name": "Avenue Paul Verlaine",
    "oneway": "yes",
    "surface": "asphalt"
  }
},
{
  "type": "way",
  "id": 539299172,
  "nodes": [
    2372609884,
    5768244584,
    5993583786,
    2372609879,
    5994914876,
    5768234185,
    5218729002
  ],
  "tags": {
    "cycleway:right": "lane",
    "cycleway:right:lane": "advisory",
    "highway": "tertiary",
    "lanes": "1",
    "lit": "yes",
    "name": "Avenue Paul Verlaine",
    "oneway": "yes",
    "sidewalk": "right",
    "surface": "asphalt"
  }
},
{
  "type": "way",
  "id": 539300520,
  "nodes": [
    144477069,
    5768234186,
    144477089,
    5994914875,
    5768244581,
    144477042,
    5994914879,
    144477102,
    5994914880,
    1843862235,
    5768244592,
    113348306,
    5768244595,
    151008693
  ],
  "tags": {
    "cycleway:right": "lane",
    "cycleway:right:lane": "advisory",
    "highway": "tertiary",
    "lanes": "1",
    "lit": "yes",
    "name": "Avenue Paul Verlaine",
    "oneway": "yes",
    "sidewalk": "right",
    "surface": "asphalt"
  }
},
{
  "type": "way",
  "id": 539301822,
  "nodes": [
    5218692969,
    5768264886,
    5768264882,
    151008744,
    5768264881,
    5768258240,
    1843825595
  ],
  "tags": {
    "cycleway:right": "lane",
    "cycleway:right:lane": "advisory",
    "highway": "tertiary",
    "lanes": "1",
    "name": "Avenue Paul Verlaine",
    "oneway": "yes",
    "surface": "asphalt"
  }
},
{
  "type": "way",
  "id": 539304702,
  "nodes": [
    4551194689,
    4551194691,
    5768296693,
    4551194695
  ],
  "tags": {
    "cycleway:right": "lane",
    "cycleway:right:lane": "advisory",
    "highway": "tertiary",
    "lanes": "2",
    "lit": "yes",
    "maxspeed": "30",
    "name": "Rue de Rouelles",
    "oneway": "yes",
    "surface": "asphalt"
  }
},
{
  "type": "way",
  "id": 539306726,
  "nodes": [
    5218792450,
    5768312598,
    1020780759,
    5768312599,
    1020780492,
    1020767415,
    1020767418,
    5768316659,
    5768309747,
    5768316656,
    5218797875
  ],
  "tags": {
    "cycleway:right": "lane",
    "cycleway:right:lane": "advisory",
    "highway": "tertiary",
    "lanes": "1",
    "name": "Avenue du 8 Mai 1945",
    "oneway": "yes",
    "source": "cadastre-dgi-fr source : Direction Générale des Impôts - Cadastre. Mise à jour : 2010",
    "surface": "asphalt"
  }
},
{
  "type": "way",
  "id": 539321584,
  "nodes": [
    166221598,
    8895710074,
    9483587042,
    8598855622,
    8895710078,
    1294691812
  ],
  "tags": {
    "bicycle": "yes",
    "cycleway:right": "lane",
    "highway": "secondary",
    "lanes": "2",
    "name": "Avenue du Bois au Coq",
    "oneway": "yes",
    "surface": "asphalt",
    "turn:lanes": "through|through;right"
  }
},
{
  "type": "way",
  "id": 541078895,
  "nodes": [
    1020763957,
    5768380896,
    1020763710,
    1020763797,
    5768380898,
    1020724593
  ],
  "tags": {
    "cycleway:right": "lane",
    "cycleway:right:lane": "advisory",
    "highway": "tertiary",
    "lanes": "1",
    "name": "Avenue du 8 Mai 1945",
    "oneway": "yes",
    "source": "cadastre-dgi-fr source : Direction Générale des Impôts - Cadastre. Mise à jour : 2010",
    "surface": "asphalt"
  }
},
{
  "type": "way",
  "id": 541081723,
  "nodes": [
    1020724593,
    5768380900,
    5232970356,
    5994984485,
    5232970365,
    5232970364,
    5768404212,
    5232970363,
    5768404214
  ],
  "tags": {
    "cycleway:right": "lane",
    "cycleway:right:lane": "advisory",
    "highway": "tertiary",
    "lanes": "1",
    "name": "Avenue du 8 Mai 1945",
    "oneway": "yes",
    "source": "cadastre-dgi-fr source : Direction Générale des Impôts - Cadastre. Mise à jour : 2010",
    "surface": "asphalt"
  }
},
{
  "type": "way",
  "id": 541083863,
  "nodes": [
    8184843844,
    897983983,
    898004952,
    2004600679,
    113390445,
    897983953,
    113390446
  ],
  "tags": {
    "bicycle": "yes",
    "cycleway:right": "lane",
    "foot": "yes",
    "highway": "tertiary_link",
    "lanes": "2",
    "lit": "yes",
    "maxspeed": "50",
    "name": "Avenue du Général Ferrié",
    "oneway": "yes",
    "sidewalk": "none",
    "surface": "asphalt"
  }
},
{
  "type": "way",
  "id": 541155617,
  "nodes": [
    33294613,
    5242473379,
    33317726,
    6918532433,
    33294610,
    6918532434,
    853637747,
    1721785552
  ],
  "tags": {
    "cycleway:right": "lane",
    "highway": "tertiary",
    "lanes": "2",
    "name": "Rue Casimir Périer",
    "oneway": "yes",
    "surface": "sett"
  }
},
{
  "type": "way",
  "id": 541166229,
  "nodes": [
    508053618,
    873822618,
    508053617,
    508053616,
    8176257443,
    508053615
  ],
  "tags": {
    "cycleway:right": "lane",
    "highway": "tertiary",
    "lanes": "2",
    "name": "Rue Cochet",
    "ref": "D 32",
    "source": "cadastre-dgi-fr source : Direction Générale des Impôts - Cadastre ; mise à jour : 2008",
    "surface": "asphalt"
  }
},
{
  "type": "way",
  "id": 541174271,
  "nodes": [
    5233636102,
    845377087,
    845377112,
    267984773,
    8187550500,
    168410948,
    606971832,
    8187536471,
    845377084
  ],
  "tags": {
    "cycleway:left": "shared_lane",
    "cycleway:right": "lane",
    "highway": "tertiary",
    "lanes": "2",
    "name": "Rue de la Cavée Verte",
    "ref": "D 32",
    "surface": "asphalt"
  }
},
{
  "type": "way",
  "id": 575288085,
  "nodes": [
    33233795,
    8366628641,
    8228986197
  ],
  "tags": {
    "bicycle": "designated",
    "cycleway:right": "lane",
    "highway": "secondary",
    "lanes": "2",
    "lit": "yes",
    "maxspeed": "50",
    "name": "Cours de la République",
    "note": "Aucune piste cyclable à droite, mais une bande cyclable.",
    "oneway": "yes",
    "sidewalk": "right",
    "surface": "asphalt"
  }
},
{
  "type": "way",
  "id": 599235688,
  "nodes": [
    33233870,
    8193739918,
    5520556675,
    2014639183
  ],
  "tags": {
    "bicycle": "designated",
    "cycleway:right": "lane",
    "highway": "secondary",
    "lanes": "2",
    "lit": "yes",
    "maxspeed": "50",
    "name": "Cours de la République",
    "note": "Pas de piste cyclable à droite mais une bande cyclable.",
    "oneway": "yes",
    "surface": "asphalt"
  }
},
{
  "type": "way",
  "id": 628222786,
  "nodes": [
    245408162,
    8180408797,
    2122642383
  ],
  "tags": {
    "cycleway:left": "track",
    "cycleway:right": "lane",
    "highway": "tertiary",
    "name": "Avenue du Général Archinard",
    "surface": "sett"
  }
},
{
  "type": "way",
  "id": 629605186,
  "nodes": [
    5520699614,
    8366628637,
    5520699618,
    8366628638,
    5520618081,
    33233795
  ],
  "tags": {
    "bicycle": "designated",
    "cycleway:right": "lane",
    "highway": "secondary",
    "lanes": "2",
    "lit": "yes",
    "maxspeed": "50",
    "name": "Cours de la République",
    "oneway": "yes",
    "sidewalk": "right",
    "surface": "asphalt"
  }
},
{
  "type": "way",
  "id": 631628742,
  "nodes": [
    113359183,
    7681133712,
    5964622091
  ],
  "tags": {
    "cycleway:right": "lane",
    "highway": "secondary_link",
    "lane_markings": "no",
    "lit": "yes",
    "maxspeed": "50",
    "name": "Rue Pierre Mendès-France",
    "oneway": "yes",
    "ref": "D 32",
    "sidewalk": "right",
    "source": "cadastre-dgi-fr source : Direction Générale des Impôts - Cadastre. Mise à jour : 2010",
    "surface": "asphalt"
  }
},
{
  "type": "way",
  "id": 631628746,
  "nodes": [
    5964622091,
    7681133711,
    838680487
  ],
  "tags": {
    "cycleway:right": "lane",
    "highway": "secondary_link",
    "lane_markings": "no",
    "name": "Rue Pierre Mendès-France",
    "oneway": "yes",
    "surface": "asphalt"
  }
},
{
  "type": "way",
  "id": 646493151,
  "nodes": [
    166220771,
    8186920116,
    6074259426,
    8191610888,
    6074297513,
    113381167
  ],
  "tags": {
    "bicycle": "yes",
    "cycleway:right": "lane",
    "highway": "secondary",
    "lanes": "1",
    "lit": "yes",
    "maxspeed": "50",
    "name": "Rue du Bois au Coq",
    "oneway": "yes",
    "sidewalk": "right",
    "surface": "asphalt"
  }
},
{
  "type": "way",
  "id": 646501737,
  "nodes": [
    113381168,
    166220771
  ],
  "tags": {
    "bicycle": "yes",
    "cycleway:right": "lane",
    "highway": "secondary",
    "lanes": "1",
    "lit": "yes",
    "maxspeed": "50",
    "name": "Rue du Bois au Coq",
    "oneway": "yes",
    "sidewalk": "right",
    "surface": "asphalt"
  }
},
{
  "type": "way",
  "id": 659767942,
  "nodes": [
    6177069583,
    9482198509,
    6177069489,
    8173956261,
    890163026
  ],
  "tags": {
    "bicycle": "yes",
    "cycleway:right": "lane",
    "highway": "tertiary_link",
    "lane_markings": "no",
    "name": "Rue de la Vallée",
    "oneway": "yes",
    "source": "cadastre-dgi-fr source : Direction Générale des Impôts - Cadastre. Mise à jour : 2010",
    "surface": "asphalt"
  }
},
{
  "type": "way",
  "id": 659778854,
  "nodes": [
    6177170250,
    616900778
  ],
  "tags": {
    "bicycle": "yes",
    "bridge": "viaduct",
    "cycleway:left": "track",
    "cycleway:right": "lane",
    "highway": "tertiary",
    "lanes": "2",
    "layer": "1",
    "maxspeed": "50",
    "name": "Pont Denis Papin",
    "oneway": "no",
    "surface": "asphalt"
  }
},
{
  "type": "way",
  "id": 673891842,
  "nodes": [
    8167576425,
    8167576426,
    179835225,
    6486619955,
    179835338
  ],
  "tags": {
    "bicycle": "designated",
    "cycleway:right": "lane",
    "highway": "tertiary",
    "lanes": "2",
    "lit": "yes",
    "name": "Rue Théophile Gautier",
    "sidewalk": "both",
    "source": "cadastre-dgi-fr source : Direction Générale des Impôts - Cadastre. Mise à jour : 2010",
    "surface": "asphalt"
  }
},
{
  "type": "way",
  "id": 694506739,
  "nodes": [
    4345648809,
    4345648811,
    4345648812,
    6025237030
  ],
  "tags": {
    "cycleway:right": "lane",
    "highway": "tertiary_link",
    "lanes": "1",
    "lit": "yes",
    "maxspeed": "50",
    "oneway": "yes",
    "sidewalk": "right",
    "surface": "asphalt"
  }
},
{
  "type": "way",
  "id": 694536273,
  "nodes": [
    5995029224,
    5233309403,
    897984061
  ],
  "tags": {
    "cycleway:right": "lane",
    "highway": "tertiary_link",
    "lanes": "3",
    "name": "Avenue du Général Ferrié",
    "oneway": "yes",
    "surface": "asphalt",
    "turn:lanes": "left;through|through|right"
  }
},
{
  "type": "way",
  "id": 696708570,
  "nodes": [
    941394294,
    8598751161,
    8598751163,
    8598751162,
    8598751160,
    8598751159,
    8598751158,
    8598751157,
    8598781320
  ],
  "tags": {
    "bicycle": "yes",
    "cycleway:right": "lane",
    "highway": "secondary",
    "lanes": "2",
    "lit": "yes",
    "maxspeed": "50",
    "name": "Rue du Bois au Coq",
    "oneway": "yes",
    "sidewalk": "separate",
    "source": "cadastre-dgi-fr source : Direction Générale des Impôts - Cadastre;mise à jour : 2008",
    "surface": "concrete",
    "turn:lanes": "left|through"
  }
},
{
  "type": "way",
  "id": 696708572,
  "nodes": [
    941394284,
    5768136984,
    6542794977,
    510789945,
    113381174
  ],
  "tags": {
    "bicycle": "yes",
    "cycleway:right": "lane",
    "highway": "secondary",
    "lanes": "2",
    "lit": "yes",
    "maxspeed": "50",
    "name": "Rue du Bois au Coq",
    "oneway": "yes",
    "sidewalk": "right",
    "source": "cadastre-dgi-fr source : Direction Générale des Impôts - Cadastre;mise à jour : 2008",
    "surface": "asphalt"
  }
},
{
  "type": "way",
  "id": 764569759,
  "nodes": [
    2151765378,
    443344568
  ],
  "tags": {
    "cycleway:right": "lane",
    "highway": "tertiary_link",
    "lanes": "1",
    "lit": "yes",
    "maxspeed:type": "FR:urban",
    "name": "Avenue Jean Jaurès",
    "oneway": "yes",
    "source": "cadastre-dgi-fr source : Direction Générale des Impôts - Cadastre. Mise à jour : 2010",
    "surface": "asphalt"
  }
},
{
  "type": "way",
  "id": 872915479,
  "nodes": [
    6521598499,
    5995029224
  ],
  "tags": {
    "cycleway:right": "lane",
    "highway": "tertiary_link",
    "lane_markings": "no",
    "name": "Avenue du Général Ferrié",
    "oneway": "yes",
    "surface": "asphalt"
  }
},
{
  "type": "way",
  "id": 878643128,
  "nodes": [
    8173876008,
    8173876010,
    8173876009,
    8173876007,
    612261054,
    612546214,
    8173876008
  ],
  "tags": {
    "cycleway:right": "lane",
    "highway": "tertiary",
    "name": "Rue Gustave Nicolle",
    "oneway": "yes",
    "surface": "asphalt"
  }
},
{
  "type": "way",
  "id": 880657820,
  "nodes": [
    113349350,
    8184843844
  ],
  "tags": {
    "bicycle": "yes",
    "cycleway:right": "lane",
    "foot": "yes",
    "highway": "tertiary_link",
    "lane_markings": "no",
    "lit": "yes",
    "maxspeed": "50",
    "name": "Avenue du Général Ferrié",
    "oneway": "yes",
    "sidewalk": "none",
    "surface": "asphalt"
  }
},
{
  "type": "way",
  "id": 881087933,
  "nodes": [
    2480423658,
    6486616862,
    886212434
  ],
  "tags": {
    "bicycle": "designated",
    "cycleway:right": "lane",
    "highway": "primary",
    "lanes": "2",
    "lit": "yes",
    "maxspeed": "50",
    "name": "Route d'Octeville",
    "ref": "D 940",
    "sidewalk": "both",
    "source": "cadastre-dgi-fr source : Direction Générale des Impôts - Cadastre. Mise à jour : 2010",
    "source:maxspeed": "FR:urban",
    "surface": "asphalt"
  }
},
{
  "type": "way",
  "id": 881087935,
  "nodes": [
    179835265,
    2480423658
  ],
  "tags": {
    "bicycle": "designated",
    "cycleway:right": "lane",
    "highway": "primary",
    "lanes": "2",
    "lit": "yes",
    "maxspeed": "50",
    "name": "Route d'Octeville",
    "ref": "D 940",
    "sidewalk": "both",
    "source": "cadastre-dgi-fr source : Direction Générale des Impôts - Cadastre. Mise à jour : 2010",
    "source:maxspeed": "FR:urban",
    "surface": "asphalt"
  }
},
{
  "type": "way",
  "id": 884907937,
  "nodes": [
    8228986197,
    8366628640,
    5520679027,
    8163988841,
    33233796
  ],
  "tags": {
    "bicycle": "designated",
    "cycleway:right": "lane",
    "highway": "secondary",
    "lanes": "2",
    "lit": "yes",
    "maxspeed": "50",
    "name": "Cours de la République",
    "note": "Aucune piste cyclable à droite, mais une bande cyclable.",
    "oneway": "yes",
    "sidewalk": "right",
    "surface": "asphalt",
    "turn:lanes": "left|through;right"
  }
},
{
  "type": "way",
  "id": 890776356,
  "nodes": [
    8279000159,
    1016786415
  ],
  "tags": {
    "cycleway:right": "lane",
    "highway": "secondary",
    "lanes": "1",
    "lit": "yes",
    "maxspeed": "50",
    "name": "Rue Pierre Mendès-France",
    "oneway": "yes",
    "sidewalk": "right",
    "source": "cadastre-dgi-fr source : Direction Générale des Impôts - Cadastre. Mise à jour : 2010",
    "surface": "asphalt",
    "turn:lanes": "through;right"
  }
},
{
  "type": "way",
  "id": 892576533,
  "nodes": [
    897984061,
    897984058
  ],
  "tags": {
    "cycleway:right": "lane",
    "highway": "tertiary_link",
    "lanes": "3",
    "name": "Avenue du Général Ferrié",
    "oneway": "yes",
    "surface": "asphalt",
    "turn:lanes": "left;through|through|right"
  }
},
{
  "type": "way",
  "id": 892576534,
  "nodes": [
    897984058,
    113349350
  ],
  "tags": {
    "cycleway:right": "lane",
    "highway": "tertiary_link",
    "lanes": "3",
    "name": "Avenue du Général Ferrié",
    "oneway": "yes",
    "surface": "asphalt",
    "turn:lanes": "left;through|through|right"
  }
},
{
  "type": "way",
  "id": 893429243,
  "nodes": [
    8303759767,
    8303759766,
    8895690570,
    113381165
  ],
  "tags": {
    "cycleway:right": "lane",
    "highway": "secondary",
    "lanes": "2",
    "name": "Avenue du Bois au Coq",
    "oneway": "yes",
    "source": "cadastre-dgi-fr source : Direction Générale des Impôts - Cadastre. Mise à jour : 2011",
    "surface": "asphalt",
    "turn:lanes": "left|through;right"
  }
},
{
  "type": "way",
  "id": 905852809,
  "nodes": [
    5176093211,
    5176096224,
    240303932
  ],
  "tags": {
    "bicycle": "designated",
    "cycleway:right": "lane",
    "highway": "secondary",
    "lanes": "2",
    "lit": "yes",
    "maxspeed": "50",
    "name": "Place de l'Hôtel de Ville",
    "old_ref": "N 15",
    "oneway": "yes",
    "ref": "D 6015",
    "sidewalk": "both",
    "surface": "asphalt"
  }
},
{
  "type": "way",
  "id": 905852810,
  "nodes": [
    840274174,
    855465705,
    2068674855,
    1575694401,
    855465681,
    6076100854,
    854589697
  ],
  "tags": {
    "bicycle": "yes",
    "cycleway:right": "lane",
    "cycleway:right:lane": "advisory",
    "highway": "secondary",
    "lanes": "2",
    "lit": "yes",
    "maxspeed": "30",
    "name": "Place de l'Hôtel de Ville",
    "old_ref": "N 15",
    "oneway": "yes",
    "ref": "D 6015",
    "sidewalk": "both",
    "surface": "asphalt"
  }
},
{
  "type": "way",
  "id": 926658910,
  "nodes": [
    8598781320,
    5497796780,
    8598766614,
    941394284
  ],
  "tags": {
    "bicycle": "yes",
    "cycleway:right": "lane",
    "highway": "secondary",
    "lanes": "2",
    "lit": "yes",
    "maxspeed": "50",
    "name": "Rue du Bois au Coq",
    "oneway": "yes",
    "sidewalk": "separate",
    "source": "cadastre-dgi-fr source : Direction Générale des Impôts - Cadastre;mise à jour : 2008",
    "surface": "concrete"
  }
},
{
  "type": "way",
  "id": 926660674,
  "nodes": [
    2293353782,
    8598788088,
    113381171
  ],
  "tags": {
    "bicycle": "yes",
    "cycleway:right": "lane",
    "highway": "secondary",
    "lanes": "1",
    "lit": "yes",
    "maxspeed": "50",
    "name": "Rue du Bois au Coq",
    "oneway": "yes",
    "sidewalk": "right",
    "surface": "asphalt"
  }
},
{
  "type": "way",
  "id": 926660681,
  "nodes": [
    113381171,
    7507271713,
    6074241977,
    6074241975,
    1016786536,
    8598734038,
    8186920112,
    113381168
  ],
  "tags": {
    "bicycle": "yes",
    "cycleway:right": "lane",
    "highway": "secondary",
    "lanes": "1",
    "lit": "yes",
    "maxspeed": "50",
    "name": "Rue du Bois au Coq",
    "oneway": "yes",
    "sidewalk": "right",
    "surface": "asphalt"
  }
},
{
  "type": "way",
  "id": 926664562,
  "nodes": [
    5218912387,
    8598855621,
    8895710085,
    5218914710
  ],
  "tags": {
    "bicycle": "yes",
    "cycleway:right": "lane",
    "highway": "secondary",
    "lanes": "2",
    "lit": "yes",
    "maxspeed": "50",
    "name": "Avenue du Bois au Coq",
    "oneway": "yes",
    "sidewalk": "right",
    "surface": "asphalt",
    "turn:lanes": "left;through|through"
  }
},
{
  "type": "way",
  "id": 926664563,
  "nodes": [
    8598815521,
    8598815520,
    8895710100,
    5218911572
  ],
  "tags": {
    "bicycle": "yes",
    "cycleway:right": "lane",
    "highway": "secondary",
    "lanes": "2",
    "lit": "yes",
    "maxspeed": "50",
    "name": "Avenue du Bois au Coq",
    "oneway": "yes",
    "sidewalk": "right",
    "surface": "asphalt",
    "turn:lanes": "through|through;right"
  }
},
{
  "type": "way",
  "id": 926668983,
  "nodes": [
    5218911572,
    8895710096,
    8598843621,
    8895710093,
    166221460
  ],
  "tags": {
    "bicycle": "yes",
    "cycleway:right": "lane",
    "highway": "secondary",
    "lanes": "2",
    "lit": "yes",
    "maxspeed": "50",
    "name": "Avenue du Bois au Coq",
    "oneway": "yes",
    "sidewalk": "right",
    "surface": "asphalt",
    "turn:lanes": "left;through|through;right"
  }
},
{
  "type": "way",
  "id": 926668984,
  "nodes": [
    166221460,
    8895710089,
    5218912387
  ],
  "tags": {
    "bicycle": "yes",
    "cycleway:right": "lane",
    "highway": "secondary",
    "lanes": "2",
    "lit": "yes",
    "maxspeed": "50",
    "name": "Avenue du Bois au Coq",
    "oneway": "yes",
    "sidewalk": "right",
    "surface": "asphalt"
  }
},
{
  "type": "way",
  "id": 926668985,
  "nodes": [
    113381162,
    6268347598,
    166221598
  ],
  "tags": {
    "bicycle": "yes",
    "cycleway:right": "lane",
    "highway": "secondary",
    "lanes": "2",
    "name": "Avenue du Bois au Coq",
    "oneway": "yes",
    "surface": "asphalt"
  }
},
{
  "type": "way",
  "id": 926669493,
  "nodes": [
    951470560,
    6268347602,
    6268347597,
    951470556
  ],
  "tags": {
    "bicycle": "yes",
    "cycleway:right": "lane",
    "highway": "secondary",
    "lanes": "2",
    "lit": "yes",
    "maxspeed": "50",
    "name": "Avenue du Bois au Coq",
    "oneway": "yes",
    "sidewalk": "right",
    "source": "cadastre-dgi-fr source : Direction Générale des Impôts - Cadastre. Mise à jour : 2011",
    "surface": "asphalt",
    "turn:lanes": "left;through|through;right"
  }
},
{
  "type": "way",
  "id": 929290505,
  "nodes": [
    8973301044,
    8973301045,
    8973301046,
    928530471,
    443343220,
    928530474,
    443343222,
    885147287,
    206248719,
    928530476,
    443343226,
    206248720,
    8973301037,
    8973301038,
    928530478,
    8973301039,
    206248721,
    8973301040,
    8973301041,
    206248722,
    8973301042,
    443343252,
    8973301043,
    443343214,
    8973301044
  ],
  "tags": {
    "cycleway:right": "lane",
    "highway": "secondary",
    "int_ref": "E 05",
    "junction": "roundabout",
    "lane_markings": "no",
    "surface": "asphalt"
  }
},
{
  "type": "way",
  "id": 929290506,
  "nodes": [
    4052508669,
    8618206490,
    928530478
  ],
  "tags": {
    "cycleway:right": "lane",
    "highway": "tertiary",
    "lanes": "1",
    "lit": "yes",
    "maxspeed": "30",
    "name": "Chaussée Lamandé",
    "oneway": "yes",
    "sidewalk": "right",
    "source": "cadastre-dgi-fr source : Direction Générale des Impôts - Cadastre. Mise à jour : 2010",
    "surface": "asphalt"
  }
},
{
  "type": "way",
  "id": 929290507,
  "nodes": [
    206248720,
    6543173506,
    8878665095,
    4052508669
  ],
  "tags": {
    "cycleway:right": "lane",
    "highway": "tertiary",
    "lanes": "1",
    "lit": "yes",
    "maxspeed": "30",
    "name": "Chaussée Lamandé",
    "oneway": "yes",
    "sidewalk": "right",
    "source": "cadastre-dgi-fr source : Direction Générale des Impôts - Cadastre. Mise à jour : 2010",
    "surface": "asphalt"
  }
},
{
  "type": "way",
  "id": 960749939,
  "nodes": [
    1020666880,
    5232970361,
    5768380901
  ],
  "tags": {
    "cycleway:right": "lane",
    "cycleway:right:lane": "advisory",
    "highway": "tertiary",
    "lanes": "1",
    "name": "Avenue du 8 Mai 1945",
    "oneway": "yes",
    "source": "cadastre-dgi-fr source : Direction Générale des Impôts - Cadastre. Mise à jour : 2010",
    "surface": "asphalt"
  }
},
{
  "type": "way",
  "id": 964906084,
  "nodes": [
    8926174146,
    9483538304,
    951470572,
    951470551,
    5188567022
  ],
  "tags": {
    "bicycle": "yes",
    "cycleway:right": "lane",
    "cycleway:right:lane": "advisory",
    "highway": "secondary",
    "lanes": "2",
    "lit": "yes",
    "maxspeed": "50",
    "name": "Avenue du Bois au Coq",
    "oneway": "yes",
    "sidewalk": "right",
    "source": "cadastre-dgi-fr source : Direction Générale des Impôts - Cadastre. Mise à jour : 2010;cadastre-dgi-fr source : Direction Générale des Impôts - Cadastre. Mise à jour : 2011",
    "surface": "asphalt"
  }
},
{
  "type": "way",
  "id": 964906085,
  "nodes": [
    951470556,
    8926174147
  ],
  "tags": {
    "bicycle": "yes",
    "cycleway:right": "lane",
    "cycleway:right:lane": "advisory",
    "highway": "secondary",
    "lanes": "2",
    "lit": "yes",
    "maxspeed": "50",
    "name": "Avenue du Bois au Coq",
    "oneway": "yes",
    "sidewalk": "right",
    "source": "cadastre-dgi-fr source : Direction Générale des Impôts - Cadastre. Mise à jour : 2010;cadastre-dgi-fr source : Direction Générale des Impôts - Cadastre. Mise à jour : 2011",
    "surface": "asphalt"
  }
},
{
  "type": "way",
  "id": 965009748,
  "nodes": [
    415650994,
    8927143423,
    168411004
  ],
  "tags": {
    "bicycle": "yes",
    "cycleway:left": "shared_lane",
    "cycleway:right": "lane",
    "highway": "tertiary",
    "lanes": "2",
    "lanes:forward": "1",
    "name": "Rue de la Cavée Verte",
    "ref": "D 32",
    "surface": "asphalt",
    "turn:lanes:forward": "left|through;right"
  }
},
{
  "type": "way",
  "id": 987936181,
  "nodes": [
    8191445897,
    2093055618,
    8503957044,
    632346748
  ],
  "tags": {
    "bicycle": "yes",
    "cycleway:left": "track",
    "cycleway:right": "lane",
    "cycleway:right:lane": "exclusive",
    "highway": "tertiary",
    "lane_markings": "no",
    "lanes:forward": "2",
    "maxspeed": "50",
    "name": "Rue Denis Papin",
    "oneway": "no",
    "oneway:bicycle": "yes",
    "surface": "asphalt",
    "turn:lanes:forward": "left|merge_to_left"
  }
},
{
  "type": "way",
  "id": 1000251818,
  "nodes": [
    8167576428,
    952085248
  ],
  "tags": {
    "bicycle": "designated",
    "cycleway:left": "opposite",
    "cycleway:right": "lane",
    "highway": "residential",
    "lit": "yes",
    "name": "Rue Théophile Gautier",
    "oneway": "yes",
    "source": "cadastre-dgi-fr source : Direction Générale des Impôts - Cadastre. Mise à jour : 2010",
    "surface": "asphalt"
  }
},
{
  "type": "way",
  "id": 1028601782,
  "nodes": [
    6006717479,
    7985705356
  ],
  "tags": {
    "bicycle": "designated",
    "cycleway:left": "opposite_lane",
    "cycleway:right": "lane",
    "highway": "service",
    "lit": "yes",
    "maxspeed": "10",
    "name": "Quai Colbert",
    "oneway": "no",
    "service": "parking_aisle",
    "surface": "asphalt"
  }
},
{
  "type": "area",
  "id": 3600104492,
  "tags": {
    "admin_level": "8",
    "boundary": "administrative",
    "capital": "7",
    "name": "Le Havre",
    "name:ar": "لو هافر",
    "name:az": "Havr",
    "name:be": "Гаўр",
    "name:bg": "Хавър",
    "name:br": "An Havr-Nevez",
    "name:el": "Χάβρη",
    "name:eo": "Havro",
    "name:es": "El Havre",
    "name:fa": "لو آور",
    "name:fr": "Le Havre",
    "name:gl": "O Havre",
    "name:he": "לה הבר",
    "name:hy": "Հավր",
    "name:ja": "ル・アーヴル",
    "name:ka": "ჰავრი",
    "name:kk": "Гавр",
    "name:ko": "르아브르",
    "name:la": "Portus-Gratiae",
    "name:lt": "Havras",
    "name:lv": "Havra",
    "name:mk": "Авр",
    "name:mr": "ला आव्र",
    "name:mzn": "لو اور",
    "name:pl": "Hawr",
    "name:pnb": "لی ہاور",
    "name:ru": "Гавр",
    "name:sr": "Авр",
    "name:ta": "லே ஆவர்",
    "name:th": "เลออาฟวร์",
    "name:uk": "Гавр",
    "name:ur": "لو آور",
    "name:yue": "夏華",
    "name:zh": "勒阿弗尔",
    "old_name": "Havre-de-Grâce",
    "old_name:fr": "Havre-de-Grâce",
    "old_name:la": "Franciscopolis",
    "population": "168290",
    "population:date": "2019",
    "postal_code": "76600;76610;76620",
    "ref:INSEE": "76351",
    "ref:LOCODE": "FRLEH",
    "ref:SIREN": "217603513",
    "source:population": "INSEE 2022",
    "type": "boundary",
    "wikidata": "Q42810",
    "wikipedia": "fr:Le Havre"
  }
},
{
  "type": "node",
  "id": 508053630,
  "lat": 49.5011520,
  "lon": 0.0915620
},
{
  "type": "node",
  "id": 508053631,
  "lat": 49.5010997,
  "lon": 0.0912613
},
{
  "type": "node",
  "id": 508053632,
  "lat": 49.5009343,
  "lon": 0.0910090
},
{
  "type": "node",
  "id": 845056705,
  "lat": 49.5011580,
  "lon": 0.0913892
},
{
  "type": "node",
  "id": 881300871,
  "lat": 49.5011666,
  "lon": 0.0914397
},
{
  "type": "node",
  "id": 2584774515,
  "lat": 49.5011653,
  "lon": 0.0915088
},
{
  "type": "node",
  "id": 8176257447,
  "lat": 49.5009993,
  "lon": 0.0911082
},
{
  "type": "node",
  "id": 508053615,
  "lat": 49.5011715,
  "lon": 0.0950200
},
{
  "type": "node",
  "id": 508053616,
  "lat": 49.5009494,
  "lon": 0.0945969
},
{
  "type": "node",
  "id": 508053617,
  "lat": 49.5006822,
  "lon": 0.0939305
},
{
  "type": "node",
  "id": 508053618,
  "lat": 49.5006435,
  "lon": 0.0935104
},
{
  "type": "node",
  "id": 508053619,
  "lat": 49.5018453,
  "lon": 0.0973972
},
{
  "type": "node",
  "id": 508053620,
  "lat": 49.5016851,
  "lon": 0.0970311
},
{
  "type": "node",
  "id": 508053621,
  "lat": 49.5010282,
  "lon": 0.0960978
},
{
  "type": "node",
  "id": 508053622,
  "lat": 49.5006196,
  "lon": 0.0954559
},
{
  "type": "node",
  "id": 508053623,
  "lat": 49.5005249,
  "lon": 0.0953446
},
{
  "type": "node",
  "id": 508053624,
  "lat": 49.4998183,
  "lon": 0.0949075
},
{
  "type": "node",
  "id": 508053629,
  "lat": 49.5009989,
  "lon": 0.0920338
},
{
  "type": "node",
  "id": 873822618,
  "lat": 49.5006455,
  "lon": 0.0937288
},
{
  "type": "node",
  "id": 873859812,
  "lat": 49.5002767,
  "lon": 0.0951647
},
{
  "type": "node",
  "id": 873859815,
  "lat": 49.5000504,
  "lon": 0.0950279
},
{
  "type": "node",
  "id": 873859819,
  "lat": 49.4996412,
  "lon": 0.0948262
},
{
  "type": "node",
  "id": 877656863,
  "lat": 49.4991841,
  "lon": 0.0946302
},
{
  "type": "node",
  "id": 2583906051,
  "lat": 49.5010489,
  "lon": 0.0918609
},
{
  "type": "node",
  "id": 5241955810,
  "lat": 49.5010831,
  "lon": 0.0961758
},
{
  "type": "node",
  "id": 8176257443,
  "lat": 49.5010486,
  "lon": 0.0948051
},
{
  "type": "node",
  "id": 168411004,
  "lat": 49.5021350,
  "lon": 0.1034751
},
{
  "type": "node",
  "id": 415650975,
  "lat": 49.5021214,
  "lon": 0.0984977
},
{
  "type": "node",
  "id": 415650976,
  "lat": 49.5022161,
  "lon": 0.0987616
},
{
  "type": "node",
  "id": 415650994,
  "lat": 49.5019099,
  "lon": 0.1025779
},
{
  "type": "node",
  "id": 415650996,
  "lat": 49.5018350,
  "lon": 0.1017408
},
{
  "type": "node",
  "id": 845377086,
  "lat": 49.5018795,
  "lon": 0.1011783
},
{
  "type": "node",
  "id": 1023844066,
  "lat": 49.5024897,
  "lon": 0.0991986
},
{
  "type": "node",
  "id": 1023844071,
  "lat": 49.5020651,
  "lon": 0.0987614
},
{
  "type": "node",
  "id": 1186341123,
  "lat": 49.5023389,
  "lon": 0.0989913
},
{
  "type": "node",
  "id": 1186345459,
  "lat": 49.5018287,
  "lon": 0.1019992
},
{
  "type": "node",
  "id": 1186345465,
  "lat": 49.5018561,
  "lon": 0.1022914
},
{
  "type": "node",
  "id": 2584774516,
  "lat": 49.5024141,
  "lon": 0.0990991
},
{
  "type": "node",
  "id": 4572059393,
  "lat": 49.5019577,
  "lon": 0.1001599
},
{
  "type": "node",
  "id": 5241955793,
  "lat": 49.5020791,
  "lon": 0.0983292
},
{
  "type": "node",
  "id": 8927143423,
  "lat": 49.5020910,
  "lon": 0.1032996
},
{
  "type": "node",
  "id": 415650977,
  "lat": 49.5027457,
  "lon": 0.0994742
},
{
  "type": "node",
  "id": 415650978,
  "lat": 49.5033563,
  "lon": 0.0998216
},
{
  "type": "node",
  "id": 415650979,
  "lat": 49.5036485,
  "lon": 0.0998881
},
{
  "type": "node",
  "id": 415650981,
  "lat": 49.5042988,
  "lon": 0.0999854
},
{
  "type": "node",
  "id": 510821175,
  "lat": 49.5047465,
  "lon": 0.1002528
},
{
  "type": "node",
  "id": 1474077175,
  "lat": 49.5040044,
  "lon": 0.0999034
},
{
  "type": "node",
  "id": 5241922147,
  "lat": 49.5034421,
  "lon": 0.0998466
},
{
  "type": "node",
  "id": 5241924117,
  "lat": 49.5031145,
  "lon": 0.0997315
},
{
  "type": "node",
  "id": 26285158,
  "lat": 49.4923098,
  "lon": 0.1091917
},
{
  "type": "node",
  "id": 33294611,
  "lat": 49.4940913,
  "lon": 0.1093645
},
{
  "type": "node",
  "id": 33294613,
  "lat": 49.4948715,
  "lon": 0.1112652
},
{
  "type": "node",
  "id": 240303932,
  "lat": 49.4942298,
  "lon": 0.1064341
},
{
  "type": "node",
  "id": 240303965,
  "lat": 49.4936095,
  "lon": 0.1063881
},
{
  "type": "node",
  "id": 840274174,
  "lat": 49.4934986,
  "lon": 0.1063799
},
{
  "type": "node",
  "id": 854589697,
  "lat": 49.4930070,
  "lon": 0.1063442
},
{
  "type": "node",
  "id": 855465681,
  "lat": 49.4932453,
  "lon": 0.1063613
},
{
  "type": "node",
  "id": 855465705,
  "lat": 49.4933898,
  "lon": 0.1063724
},
{
  "type": "node",
  "id": 1575694401,
  "lat": 49.4933193,
  "lon": 0.1063669
},
{
  "type": "node",
  "id": 2068674855,
  "lat": 49.4933460,
  "lon": 0.1063688
},
{
  "type": "node",
  "id": 2121468856,
  "lat": 49.4940802,
  "lon": 0.1098528
},
{
  "type": "node",
  "id": 2282949436,
  "lat": 49.4933878,
  "lon": 0.1093177
},
{
  "type": "node",
  "id": 3082883708,
  "lat": 49.4940345,
  "lon": 0.1064196
},
{
  "type": "node",
  "id": 5176093211,
  "lat": 49.4947203,
  "lon": 0.1064705
},
{
  "type": "node",
  "id": 5176096224,
  "lat": 49.4946192,
  "lon": 0.1064630
},
{
  "type": "node",
  "id": 5179478809,
  "lat": 49.4933516,
  "lon": 0.1100602
},
{
  "type": "node",
  "id": 5242468240,
  "lat": 49.4940271,
  "lon": 0.1104745
},
{
  "type": "node",
  "id": 5242473379,
  "lat": 49.4946509,
  "lon": 0.1113809
},
{
  "type": "node",
  "id": 6076080697,
  "lat": 49.4923699,
  "lon": 0.1092214
},
{
  "type": "node",
  "id": 6076080700,
  "lat": 49.4933691,
  "lon": 0.1098289
},
{
  "type": "node",
  "id": 6076100854,
  "lat": 49.4931208,
  "lon": 0.1063512
},
{
  "type": "node",
  "id": 6076105490,
  "lat": 49.4935708,
  "lon": 0.1063852
},
{
  "type": "node",
  "id": 6127996464,
  "lat": 49.4932073,
  "lon": 0.1092925
},
{
  "type": "node",
  "id": 6521704936,
  "lat": 49.4933833,
  "lon": 0.1094693
},
{
  "type": "node",
  "id": 6521704941,
  "lat": 49.4931805,
  "lon": 0.1092903
},
{
  "type": "node",
  "id": 7657213841,
  "lat": 49.4924811,
  "lon": 0.1092347
},
{
  "type": "node",
  "id": 7657213850,
  "lat": 49.4925160,
  "lon": 0.1063085
},
{
  "type": "node",
  "id": 7657213854,
  "lat": 49.4940892,
  "lon": 0.1095387
},
{
  "type": "node",
  "id": 8247998471,
  "lat": 49.4923986,
  "lon": 0.1063000
},
{
  "type": "node",
  "id": 8412236829,
  "lat": 49.4936692,
  "lon": 0.1063925
},
{
  "type": "node",
  "id": 8412236830,
  "lat": 49.4935426,
  "lon": 0.1063831
},
{
  "type": "node",
  "id": 33166157,
  "lat": 49.4934509,
  "lon": 0.1166766
},
{
  "type": "node",
  "id": 33294609,
  "lat": 49.4936519,
  "lon": 0.1144471
},
{
  "type": "node",
  "id": 33294610,
  "lat": 49.4939010,
  "lon": 0.1117624
},
{
  "type": "node",
  "id": 33317726,
  "lat": 49.4942474,
  "lon": 0.1115927
},
{
  "type": "node",
  "id": 240284143,
  "lat": 49.4937986,
  "lon": 0.1129020
},
{
  "type": "node",
  "id": 245408162,
  "lat": 49.4914157,
  "lon": 0.1167047
},
{
  "type": "node",
  "id": 853637747,
  "lat": 49.4933245,
  "lon": 0.1120649
},
{
  "type": "node",
  "id": 1721785552,
  "lat": 49.4932498,
  "lon": 0.1120978
},
{
  "type": "node",
  "id": 2122642383,
  "lat": 49.4908396,
  "lon": 0.1166738
},
{
  "type": "node",
  "id": 6918532430,
  "lat": 49.4937932,
  "lon": 0.1129555
},
{
  "type": "node",
  "id": 6918532431,
  "lat": 49.4939002,
  "lon": 0.1118550
},
{
  "type": "node",
  "id": 6918532432,
  "lat": 49.4939082,
  "lon": 0.1116469
},
{
  "type": "node",
  "id": 6918532433,
  "lat": 49.4939720,
  "lon": 0.1117264
},
{
  "type": "node",
  "id": 6918532434,
  "lat": 49.4938342,
  "lon": 0.1117923
},
{
  "type": "node",
  "id": 6918552486,
  "lat": 49.4936609,
  "lon": 0.1143597
},
{
  "type": "node",
  "id": 6918552489,
  "lat": 49.4936407,
  "lon": 0.1145700
},
{
  "type": "node",
  "id": 8168622285,
  "lat": 49.4934903,
  "lon": 0.1162315
},
{
  "type": "node",
  "id": 8168622288,
  "lat": 49.4934591,
  "lon": 0.1165762
},
{
  "type": "node",
  "id": 8180408797,
  "lat": 49.4909132,
  "lon": 0.1166793
},
{
  "type": "node",
  "id": 206248719,
  "lat": 49.4889447,
  "lon": 0.1199309
},
{
  "type": "node",
  "id": 206248720,
  "lat": 49.4888575,
  "lon": 0.1198187
},
{
  "type": "node",
  "id": 206248721,
  "lat": 49.4886586,
  "lon": 0.1199442
},
{
  "type": "node",
  "id": 206248722,
  "lat": 49.4886614,
  "lon": 0.1201718
},
{
  "type": "node",
  "id": 252934705,
  "lat": 49.4890117,
  "lon": 0.1220954
},
{
  "type": "node",
  "id": 252934711,
  "lat": 49.4888783,
  "lon": 0.1213347
},
{
  "type": "node",
  "id": 252934712,
  "lat": 49.4889237,
  "lon": 0.1217962
},
{
  "type": "node",
  "id": 443343214,
  "lat": 49.4887867,
  "lon": 0.1203015
},
{
  "type": "node",
  "id": 443343220,
  "lat": 49.4889582,
  "lon": 0.1201293
},
{
  "type": "node",
  "id": 443343222,
  "lat": 49.4889652,
  "lon": 0.1200334
},
{
  "type": "node",
  "id": 443343226,
  "lat": 49.4888922,
  "lon": 0.1198449
},
{
  "type": "node",
  "id": 443343252,
  "lat": 49.4887185,
  "lon": 0.1202654
},
{
  "type": "node",
  "id": 885147287,
  "lat": 49.4889596,
  "lon": 0.1199857
},
{
  "type": "node",
  "id": 928530471,
  "lat": 49.4889458,
  "lon": 0.1201738
},
{
  "type": "node",
  "id": 928530474,
  "lat": 49.4889648,
  "lon": 0.1200819
},
{
  "type": "node",
  "id": 928530476,
  "lat": 49.4889218,
  "lon": 0.1198830
},
{
  "type": "node",
  "id": 928530478,
  "lat": 49.4887297,
  "lon": 0.1198324
},
{
  "type": "node",
  "id": 1020314606,
  "lat": 49.4888209,
  "lon": 0.1204742
},
{
  "type": "node",
  "id": 3753411918,
  "lat": 49.4889509,
  "lon": 0.1212016
},
{
  "type": "node",
  "id": 4052508669,
  "lat": 49.4886879,
  "lon": 0.1193173
},
{
  "type": "node",
  "id": 5520287203,
  "lat": 49.4889706,
  "lon": 0.1215942
},
{
  "type": "node",
  "id": 5520287204,
  "lat": 49.4888967,
  "lon": 0.1215982
},
{
  "type": "node",
  "id": 5520287207,
  "lat": 49.4889371,
  "lon": 0.1204013
},
{
  "type": "node",
  "id": 6543173506,
  "lat": 49.4888129,
  "lon": 0.1196754
},
{
  "type": "node",
  "id": 7815587292,
  "lat": 49.4889458,
  "lon": 0.1209074
},
{
  "type": "node",
  "id": 8618206490,
  "lat": 49.4887050,
  "lon": 0.1194995
},
{
  "type": "node",
  "id": 8878665095,
  "lat": 49.4887568,
  "lon": 0.1194962
},
{
  "type": "node",
  "id": 8973301037,
  "lat": 49.4888146,
  "lon": 0.1198052
},
{
  "type": "node",
  "id": 8973301038,
  "lat": 49.4887710,
  "lon": 0.1198099
},
{
  "type": "node",
  "id": 8973301039,
  "lat": 49.4886883,
  "lon": 0.1198795
},
{
  "type": "node",
  "id": 8973301040,
  "lat": 49.4886437,
  "lon": 0.1200193
},
{
  "type": "node",
  "id": 8973301041,
  "lat": 49.4886447,
  "lon": 0.1200977
},
{
  "type": "node",
  "id": 8973301042,
  "lat": 49.4886860,
  "lon": 0.1202244
},
{
  "type": "node",
  "id": 8973301043,
  "lat": 49.4887513,
  "lon": 0.1202894
},
{
  "type": "node",
  "id": 8973301044,
  "lat": 49.4888340,
  "lon": 0.1202986
},
{
  "type": "node",
  "id": 8973301045,
  "lat": 49.4888788,
  "lon": 0.1202747
},
{
  "type": "node",
  "id": 8973301046,
  "lat": 49.4889171,
  "lon": 0.1202319
},
{
  "type": "node",
  "id": 33233870,
  "lat": 49.4927281,
  "lon": 0.1240852
},
{
  "type": "node",
  "id": 2014639183,
  "lat": 49.4922988,
  "lon": 0.1237475
},
{
  "type": "node",
  "id": 5520556675,
  "lat": 49.4923188,
  "lon": 0.1237630
},
{
  "type": "node",
  "id": 8193739918,
  "lat": 49.4923584,
  "lon": 0.1237942
},
{
  "type": "node",
  "id": 1909595941,
  "lat": 49.4912554,
  "lon": 0.1259410
},
{
  "type": "node",
  "id": 6006717479,
  "lat": 49.4912622,
  "lon": 0.1259685
},
{
  "type": "node",
  "id": 7985705356,
  "lat": 49.4912894,
  "lon": 0.1260798
},
{
  "type": "node",
  "id": 7985705357,
  "lat": 49.4912082,
  "lon": 0.1257482
},
{
  "type": "node",
  "id": 33294276,
  "lat": 49.4976932,
  "lon": 0.1170844
},
{
  "type": "node",
  "id": 33294277,
  "lat": 49.4976191,
  "lon": 0.1163064
},
{
  "type": "node",
  "id": 33294278,
  "lat": 49.4975219,
  "lon": 0.1155484
},
{
  "type": "node",
  "id": 33294279,
  "lat": 49.4974052,
  "lon": 0.1148114
},
{
  "type": "node",
  "id": 33294281,
  "lat": 49.4971954,
  "lon": 0.1132747
},
{
  "type": "node",
  "id": 33294282,
  "lat": 49.4970683,
  "lon": 0.1121811
},
{
  "type": "node",
  "id": 33294283,
  "lat": 49.4971620,
  "lon": 0.1118559
},
{
  "type": "node",
  "id": 33294639,
  "lat": 49.4970993,
  "lon": 0.1124889
},
{
  "type": "node",
  "id": 277268992,
  "lat": 49.5012610,
  "lon": 0.1117332
},
{
  "type": "node",
  "id": 854463293,
  "lat": 49.4975843,
  "lon": 0.1159376
},
{
  "type": "node",
  "id": 854463294,
  "lat": 49.4972817,
  "lon": 0.1140058
},
{
  "type": "node",
  "id": 2017711297,
  "lat": 49.4977241,
  "lon": 0.1175073
},
{
  "type": "node",
  "id": 8158888715,
  "lat": 49.4970967,
  "lon": 0.1120825
},
{
  "type": "node",
  "id": 168410954,
  "lat": 49.5042939,
  "lon": 0.1099202
},
{
  "type": "node",
  "id": 606971832,
  "lat": 49.5045868,
  "lon": 0.1110105
},
{
  "type": "node",
  "id": 606975956,
  "lat": 49.5038253,
  "lon": 0.1102009
},
{
  "type": "node",
  "id": 844178145,
  "lat": 49.5031536,
  "lon": 0.1106153
},
{
  "type": "node",
  "id": 844178157,
  "lat": 49.5037302,
  "lon": 0.1102612
},
{
  "type": "node",
  "id": 845377084,
  "lat": 49.5043369,
  "lon": 0.1100508
},
{
  "type": "node",
  "id": 8187536471,
  "lat": 49.5043936,
  "lon": 0.1102687
},
{
  "type": "node",
  "id": 8187551584,
  "lat": 49.5042198,
  "lon": 0.1099646
},
{
  "type": "node",
  "id": 168410948,
  "lat": 49.5047288,
  "lon": 0.1115458
},
{
  "type": "node",
  "id": 267984773,
  "lat": 49.5049098,
  "lon": 0.1122663
},
{
  "type": "node",
  "id": 845377087,
  "lat": 49.5051675,
  "lon": 0.1134147
},
{
  "type": "node",
  "id": 845377112,
  "lat": 49.5050345,
  "lon": 0.1128356
},
{
  "type": "node",
  "id": 5233636102,
  "lat": 49.5052344,
  "lon": 0.1137114
},
{
  "type": "node",
  "id": 8187550500,
  "lat": 49.5048642,
  "lon": 0.1120848
},
{
  "type": "node",
  "id": 33178170,
  "lat": 49.4982816,
  "lon": 0.1221527
},
{
  "type": "node",
  "id": 33178177,
  "lat": 49.4985460,
  "lon": 0.1229557
},
{
  "type": "node",
  "id": 33294188,
  "lat": 49.4990674,
  "lon": 0.1244715
},
{
  "type": "node",
  "id": 33294272,
  "lat": 49.4981033,
  "lon": 0.1209846
},
{
  "type": "node",
  "id": 33294273,
  "lat": 49.4980275,
  "lon": 0.1200783
},
{
  "type": "node",
  "id": 33294274,
  "lat": 49.4979067,
  "lon": 0.1190419
},
{
  "type": "node",
  "id": 33294275,
  "lat": 49.4977955,
  "lon": 0.1182372
},
{
  "type": "node",
  "id": 846190233,
  "lat": 49.4981931,
  "lon": 0.1217810
},
{
  "type": "node",
  "id": 853875483,
  "lat": 49.4979511,
  "lon": 0.1193066
},
{
  "type": "node",
  "id": 853875493,
  "lat": 49.4983077,
  "lon": 0.1222256
},
{
  "type": "node",
  "id": 853875512,
  "lat": 49.4978350,
  "lon": 0.1186441
},
{
  "type": "node",
  "id": 853875520,
  "lat": 49.4988387,
  "lon": 0.1238064
},
{
  "type": "node",
  "id": 854494797,
  "lat": 49.4980686,
  "lon": 0.1205682
},
{
  "type": "node",
  "id": 2014603205,
  "lat": 49.4981738,
  "lon": 0.1216276
},
{
  "type": "node",
  "id": 2014603843,
  "lat": 49.4979746,
  "lon": 0.1195438
},
{
  "type": "node",
  "id": 2014604213,
  "lat": 49.4979147,
  "lon": 0.1190885
},
{
  "type": "node",
  "id": 2014604251,
  "lat": 49.4978492,
  "lon": 0.1187442
},
{
  "type": "node",
  "id": 2017712518,
  "lat": 49.4978133,
  "lon": 0.1184646
},
{
  "type": "node",
  "id": 2702383472,
  "lat": 49.4981560,
  "lon": 0.1214518
},
{
  "type": "node",
  "id": 2720709893,
  "lat": 49.4987107,
  "lon": 0.1234343
},
{
  "type": "node",
  "id": 2933731849,
  "lat": 49.4980760,
  "lon": 0.1206571
},
{
  "type": "node",
  "id": 3070725431,
  "lat": 49.4981187,
  "lon": 0.1211214
},
{
  "type": "node",
  "id": 6809801082,
  "lat": 49.4978271,
  "lon": 0.1185786
},
{
  "type": "node",
  "id": 33233794,
  "lat": 49.4972325,
  "lon": 0.1277372
},
{
  "type": "node",
  "id": 33233795,
  "lat": 49.4986207,
  "lon": 0.1288005
},
{
  "type": "node",
  "id": 33233796,
  "lat": 49.5000023,
  "lon": 0.1298483
},
{
  "type": "node",
  "id": 33233864,
  "lat": 49.4987810,
  "lon": 0.1287972
},
{
  "type": "node",
  "id": 33294034,
  "lat": 49.4993314,
  "lon": 0.1253358
},
{
  "type": "node",
  "id": 33294189,
  "lat": 49.4996109,
  "lon": 0.1261469
},
{
  "type": "node",
  "id": 33294195,
  "lat": 49.4978443,
  "lon": 0.1280666
},
{
  "type": "node",
  "id": 33294244,
  "lat": 49.4985038,
  "lon": 0.1285775
},
{
  "type": "node",
  "id": 846183838,
  "lat": 49.4998356,
  "lon": 0.1266433
},
{
  "type": "node",
  "id": 853875480,
  "lat": 49.4998846,
  "lon": 0.1267164
},
{
  "type": "node",
  "id": 853875490,
  "lat": 49.4991529,
  "lon": 0.1247264
},
{
  "type": "node",
  "id": 853875491,
  "lat": 49.4994977,
  "lon": 0.1257150
},
{
  "type": "node",
  "id": 853875494,
  "lat": 49.4996518,
  "lon": 0.1263147
},
{
  "type": "node",
  "id": 2022095544,
  "lat": 49.4994309,
  "lon": 0.1255663
},
{
  "type": "node",
  "id": 2022097494,
  "lat": 49.4991088,
  "lon": 0.1245949
},
{
  "type": "node",
  "id": 3986498609,
  "lat": 49.4993070,
  "lon": 0.1252526
},
{
  "type": "node",
  "id": 5178445924,
  "lat": 49.4971797,
  "lon": 0.1279813
},
{
  "type": "node",
  "id": 5520603590,
  "lat": 49.4972062,
  "lon": 0.1278386
},
{
  "type": "node",
  "id": 5520603591,
  "lat": 49.4971944,
  "lon": 0.1278824
},
{
  "type": "node",
  "id": 5520618074,
  "lat": 49.4977023,
  "lon": 0.1279551
},
{
  "type": "node",
  "id": 5520618081,
  "lat": 49.4985101,
  "lon": 0.1287171
},
{
  "type": "node",
  "id": 5520679027,
  "lat": 49.4998588,
  "lon": 0.1297927
},
{
  "type": "node",
  "id": 5520690358,
  "lat": 49.4988986,
  "lon": 0.1288872
},
{
  "type": "node",
  "id": 5520699614,
  "lat": 49.4976961,
  "lon": 0.1280793
},
{
  "type": "node",
  "id": 5520699618,
  "lat": 49.4979014,
  "lon": 0.1282409
},
{
  "type": "node",
  "id": 8163922993,
  "lat": 49.4999889,
  "lon": 0.1267183
},
{
  "type": "node",
  "id": 8163988841,
  "lat": 49.4998958,
  "lon": 0.1298228
},
{
  "type": "node",
  "id": 8193715076,
  "lat": 49.4988793,
  "lon": 0.1288725
},
{
  "type": "node",
  "id": 8193715077,
  "lat": 49.4988496,
  "lon": 0.1288497
},
{
  "type": "node",
  "id": 8228986196,
  "lat": 49.4972630,
  "lon": 0.1277597
},
{
  "type": "node",
  "id": 8228986197,
  "lat": 49.4997605,
  "lon": 0.1297139
},
{
  "type": "node",
  "id": 8366628636,
  "lat": 49.4976498,
  "lon": 0.1280451
},
{
  "type": "node",
  "id": 8366628637,
  "lat": 49.4978755,
  "lon": 0.1282205
},
{
  "type": "node",
  "id": 8366628638,
  "lat": 49.4983378,
  "lon": 0.1285823
},
{
  "type": "node",
  "id": 8366628640,
  "lat": 49.4998439,
  "lon": 0.1297808
},
{
  "type": "node",
  "id": 8366628641,
  "lat": 49.4987335,
  "lon": 0.1288909
},
{
  "type": "node",
  "id": 267283968,
  "lat": 49.4855992,
  "lon": 0.1365454
},
{
  "type": "node",
  "id": 267283969,
  "lat": 49.4853862,
  "lon": 0.1364853
},
{
  "type": "node",
  "id": 267283970,
  "lat": 49.4853391,
  "lon": 0.1365943
},
{
  "type": "node",
  "id": 267283971,
  "lat": 49.4853589,
  "lon": 0.1367807
},
{
  "type": "node",
  "id": 267283972,
  "lat": 49.4855025,
  "lon": 0.1368712
},
{
  "type": "node",
  "id": 267283973,
  "lat": 49.4855821,
  "lon": 0.1368021
},
{
  "type": "node",
  "id": 534088282,
  "lat": 49.4854413,
  "lon": 0.1364429
},
{
  "type": "node",
  "id": 534088283,
  "lat": 49.4855324,
  "lon": 0.1364542
},
{
  "type": "node",
  "id": 534088284,
  "lat": 49.4856156,
  "lon": 0.1366998
},
{
  "type": "node",
  "id": 534088285,
  "lat": 49.4855559,
  "lon": 0.1368373
},
{
  "type": "node",
  "id": 534088286,
  "lat": 49.4854114,
  "lon": 0.1368512
},
{
  "type": "node",
  "id": 534088287,
  "lat": 49.4853353,
  "lon": 0.1366910
},
{
  "type": "node",
  "id": 599728974,
  "lat": 49.4855028,
  "lon": 0.1364402
},
{
  "type": "node",
  "id": 599728975,
  "lat": 49.4854720,
  "lon": 0.1364363
},
{
  "type": "node",
  "id": 599728976,
  "lat": 49.4854122,
  "lon": 0.1364594
},
{
  "type": "node",
  "id": 599728977,
  "lat": 49.4853572,
  "lon": 0.1365343
},
{
  "type": "node",
  "id": 599728978,
  "lat": 49.4853337,
  "lon": 0.1366423
},
{
  "type": "node",
  "id": 599728979,
  "lat": 49.4855594,
  "lon": 0.1364778
},
{
  "type": "node",
  "id": 599728980,
  "lat": 49.4856110,
  "lon": 0.1365856
},
{
  "type": "node",
  "id": 599728982,
  "lat": 49.4853438,
  "lon": 0.1367379
},
{
  "type": "node",
  "id": 599728983,
  "lat": 49.4853823,
  "lon": 0.1368210
},
{
  "type": "node",
  "id": 599728984,
  "lat": 49.4854444,
  "lon": 0.1368696
},
{
  "type": "node",
  "id": 599728985,
  "lat": 49.4855250,
  "lon": 0.1368616
},
{
  "type": "node",
  "id": 599728987,
  "lat": 49.4856032,
  "lon": 0.1367544
},
{
  "type": "node",
  "id": 758904825,
  "lat": 49.4882163,
  "lon": 0.1353933
},
{
  "type": "node",
  "id": 758904853,
  "lat": 49.4884124,
  "lon": 0.1366616
},
{
  "type": "node",
  "id": 758904869,
  "lat": 49.4883321,
  "lon": 0.1369059
},
{
  "type": "node",
  "id": 877883916,
  "lat": 49.4884423,
  "lon": 0.1363464
},
{
  "type": "node",
  "id": 885055273,
  "lat": 49.4883953,
  "lon": 0.1359574
},
{
  "type": "node",
  "id": 6112827491,
  "lat": 49.4854645,
  "lon": 0.1368740
},
{
  "type": "node",
  "id": 6184391747,
  "lat": 49.4883949,
  "lon": 0.1367282
},
{
  "type": "node",
  "id": 6184391750,
  "lat": 49.4879971,
  "lon": 0.1375676
},
{
  "type": "node",
  "id": 6184395091,
  "lat": 49.4884386,
  "lon": 0.1364861
},
{
  "type": "node",
  "id": 6187678144,
  "lat": 49.4884375,
  "lon": 0.1362179
},
{
  "type": "node",
  "id": 8170628906,
  "lat": 49.4855824,
  "lon": 0.1365097
},
{
  "type": "node",
  "id": 8170628907,
  "lat": 49.4856182,
  "lon": 0.1366423
},
{
  "type": "node",
  "id": 2504918342,
  "lat": 49.4876861,
  "lon": 0.1381665
},
{
  "type": "node",
  "id": 8184709246,
  "lat": 49.4877723,
  "lon": 0.1380056
},
{
  "type": "node",
  "id": 6177170251,
  "lat": 49.4960357,
  "lon": 0.1376061
},
{
  "type": "node",
  "id": 7883946536,
  "lat": 49.4960453,
  "lon": 0.1375957
},
{
  "type": "node",
  "id": 616900778,
  "lat": 49.4959132,
  "lon": 0.1377070
},
{
  "type": "node",
  "id": 632346748,
  "lat": 49.4943932,
  "lon": 0.1382967
},
{
  "type": "node",
  "id": 2093055618,
  "lat": 49.4942989,
  "lon": 0.1383562
},
{
  "type": "node",
  "id": 6177170250,
  "lat": 49.4954521,
  "lon": 0.1378775
},
{
  "type": "node",
  "id": 7883946537,
  "lat": 49.4959889,
  "lon": 0.1376566
},
{
  "type": "node",
  "id": 8191445897,
  "lat": 49.4942828,
  "lon": 0.1383718
},
{
  "type": "node",
  "id": 8503957044,
  "lat": 49.4943237,
  "lon": 0.1383373
},
{
  "type": "node",
  "id": 253043897,
  "lat": 49.4924665,
  "lon": 0.1484807
},
{
  "type": "node",
  "id": 359997348,
  "lat": 49.4930692,
  "lon": 0.1500736
},
{
  "type": "node",
  "id": 612261054,
  "lat": 49.4913425,
  "lon": 0.1455961
},
{
  "type": "node",
  "id": 612546214,
  "lat": 49.4914473,
  "lon": 0.1459803
},
{
  "type": "node",
  "id": 895386205,
  "lat": 49.4928620,
  "lon": 0.1494336
},
{
  "type": "node",
  "id": 895386382,
  "lat": 49.4929884,
  "lon": 0.1497832
},
{
  "type": "node",
  "id": 1631210379,
  "lat": 49.4925762,
  "lon": 0.1487427
},
{
  "type": "node",
  "id": 2641101666,
  "lat": 49.4930409,
  "lon": 0.1499553
},
{
  "type": "node",
  "id": 5992636940,
  "lat": 49.4925482,
  "lon": 0.1486758
},
{
  "type": "node",
  "id": 8173876007,
  "lat": 49.4913560,
  "lon": 0.1455032
},
{
  "type": "node",
  "id": 8173876008,
  "lat": 49.4915304,
  "lon": 0.1460521
},
{
  "type": "node",
  "id": 8173876009,
  "lat": 49.4914129,
  "lon": 0.1455490
},
{
  "type": "node",
  "id": 8173876010,
  "lat": 49.4915308,
  "lon": 0.1459373
},
{
  "type": "node",
  "id": 616900779,
  "lat": 49.4964748,
  "lon": 0.1367809
},
{
  "type": "node",
  "id": 616901012,
  "lat": 49.4966830,
  "lon": 0.1364223
},
{
  "type": "node",
  "id": 6177170241,
  "lat": 49.4961057,
  "lon": 0.1374922
},
{
  "type": "node",
  "id": 7883946535,
  "lat": 49.4960783,
  "lon": 0.1375430
},
{
  "type": "node",
  "id": 7883972142,
  "lat": 49.4961343,
  "lon": 0.1374370
},
{
  "type": "node",
  "id": 8194991753,
  "lat": 49.4965917,
  "lon": 0.1365623
},
{
  "type": "node",
  "id": 113381174,
  "lat": 49.5091655,
  "lon": 0.1348159
},
{
  "type": "node",
  "id": 510789945,
  "lat": 49.5091354,
  "lon": 0.1349065
},
{
  "type": "node",
  "id": 941394284,
  "lat": 49.5090030,
  "lon": 0.1352776
},
{
  "type": "node",
  "id": 941394294,
  "lat": 49.5089566,
  "lon": 0.1358781
},
{
  "type": "node",
  "id": 941647640,
  "lat": 49.5084340,
  "lon": 0.1375666
},
{
  "type": "node",
  "id": 5179810680,
  "lat": 49.5084242,
  "lon": 0.1375129
},
{
  "type": "node",
  "id": 5497796780,
  "lat": 49.5089533,
  "lon": 0.1352873
},
{
  "type": "node",
  "id": 5768136984,
  "lat": 49.5090419,
  "lon": 0.1351919
},
{
  "type": "node",
  "id": 6542794977,
  "lat": 49.5090626,
  "lon": 0.1351289
},
{
  "type": "node",
  "id": 8598751157,
  "lat": 49.5089258,
  "lon": 0.1354764
},
{
  "type": "node",
  "id": 8598751158,
  "lat": 49.5089267,
  "lon": 0.1355322
},
{
  "type": "node",
  "id": 8598751159,
  "lat": 49.5089297,
  "lon": 0.1355722
},
{
  "type": "node",
  "id": 8598751160,
  "lat": 49.5089364,
  "lon": 0.1356286
},
{
  "type": "node",
  "id": 8598751161,
  "lat": 49.5089721,
  "lon": 0.1358160
},
{
  "type": "node",
  "id": 8598751162,
  "lat": 49.5089561,
  "lon": 0.1357319
},
{
  "type": "node",
  "id": 8598751163,
  "lat": 49.5089599,
  "lon": 0.1357524
},
{
  "type": "node",
  "id": 8598766614,
  "lat": 49.5089818,
  "lon": 0.1352816
},
{
  "type": "node",
  "id": 8598781320,
  "lat": 49.5089414,
  "lon": 0.1352910
},
{
  "type": "node",
  "id": 113364238,
  "lat": 49.5089822,
  "lon": 0.1396359
},
{
  "type": "node",
  "id": 166220580,
  "lat": 49.5091253,
  "lon": 0.1405569
},
{
  "type": "node",
  "id": 1016786415,
  "lat": 49.5087739,
  "lon": 0.1390241
},
{
  "type": "node",
  "id": 3071543043,
  "lat": 49.5090795,
  "lon": 0.1406655
},
{
  "type": "node",
  "id": 5213102613,
  "lat": 49.5091128,
  "lon": 0.1401068
},
{
  "type": "node",
  "id": 5220045731,
  "lat": 49.5091581,
  "lon": 0.1404070
},
{
  "type": "node",
  "id": 5768204107,
  "lat": 49.5091529,
  "lon": 0.1402732
},
{
  "type": "node",
  "id": 5985528958,
  "lat": 49.5086354,
  "lon": 0.1385624
},
{
  "type": "node",
  "id": 5988677619,
  "lat": 49.5085978,
  "lon": 0.1383770
},
{
  "type": "node",
  "id": 8279000159,
  "lat": 49.5086967,
  "lon": 0.1387970
},
{
  "type": "node",
  "id": 8279000161,
  "lat": 49.5091526,
  "lon": 0.1404501
},
{
  "type": "node",
  "id": 113348306,
  "lat": 49.5091573,
  "lon": 0.1550509
},
{
  "type": "node",
  "id": 151008693,
  "lat": 49.5091785,
  "lon": 0.1560008
},
{
  "type": "node",
  "id": 897966977,
  "lat": 49.5091797,
  "lon": 0.1570550
},
{
  "type": "node",
  "id": 5768244592,
  "lat": 49.5091608,
  "lon": 0.1548568
},
{
  "type": "node",
  "id": 5768244595,
  "lat": 49.5091650,
  "lon": 0.1552855
},
{
  "type": "node",
  "id": 359997368,
  "lat": 49.4981373,
  "lon": 0.1626392
},
{
  "type": "node",
  "id": 359997370,
  "lat": 49.4976409,
  "lon": 0.1633164
},
{
  "type": "node",
  "id": 890162980,
  "lat": 49.4985435,
  "lon": 0.1623032
},
{
  "type": "node",
  "id": 890163013,
  "lat": 49.4982171,
  "lon": 0.1621523
},
{
  "type": "node",
  "id": 890163017,
  "lat": 49.4983583,
  "lon": 0.1628048
},
{
  "type": "node",
  "id": 890163021,
  "lat": 49.4988085,
  "lon": 0.1625070
},
{
  "type": "node",
  "id": 890163024,
  "lat": 49.4986942,
  "lon": 0.1624391
},
{
  "type": "node",
  "id": 890163026,
  "lat": 49.4983574,
  "lon": 0.1620683
},
{
  "type": "node",
  "id": 895581891,
  "lat": 49.4999608,
  "lon": 0.1624680
},
{
  "type": "node",
  "id": 895727198,
  "lat": 49.5004654,
  "lon": 0.1624631
},
{
  "type": "node",
  "id": 1031536914,
  "lat": 49.5000733,
  "lon": 0.1627280
},
{
  "type": "node",
  "id": 1398130763,
  "lat": 49.4978933,
  "lon": 0.1630082
},
{
  "type": "node",
  "id": 1473061430,
  "lat": 49.5000200,
  "lon": 0.1625777
},
{
  "type": "node",
  "id": 1770556267,
  "lat": 49.5008356,
  "lon": 0.1624290
},
{
  "type": "node",
  "id": 1917107638,
  "lat": 49.5000518,
  "lon": 0.1626514
},
{
  "type": "node",
  "id": 1917107689,
  "lat": 49.5000921,
  "lon": 0.1628240
},
{
  "type": "node",
  "id": 4346077106,
  "lat": 49.4981978,
  "lon": 0.1616217
},
{
  "type": "node",
  "id": 6177069489,
  "lat": 49.4983870,
  "lon": 0.1624515
},
{
  "type": "node",
  "id": 6177069557,
  "lat": 49.4979437,
  "lon": 0.1631346
},
{
  "type": "node",
  "id": 6177069583,
  "lat": 49.4984254,
  "lon": 0.1627528
},
{
  "type": "node",
  "id": 6177069599,
  "lat": 49.4980540,
  "lon": 0.1630424
},
{
  "type": "node",
  "id": 8018673445,
  "lat": 49.5006245,
  "lon": 0.1624583
},
{
  "type": "node",
  "id": 8173956261,
  "lat": 49.4983976,
  "lon": 0.1623412
},
{
  "type": "node",
  "id": 8173956263,
  "lat": 49.4981747,
  "lon": 0.1624113
},
{
  "type": "node",
  "id": 9482198509,
  "lat": 49.4983888,
  "lon": 0.1625909
},
{
  "type": "node",
  "id": 443344568,
  "lat": 49.5004277,
  "lon": 0.1666206
},
{
  "type": "node",
  "id": 895581888,
  "lat": 49.5002675,
  "lon": 0.1658247
},
{
  "type": "node",
  "id": 895581894,
  "lat": 49.5003201,
  "lon": 0.1661634
},
{
  "type": "node",
  "id": 895581897,
  "lat": 49.5002418,
  "lon": 0.1655099
},
{
  "type": "node",
  "id": 2151765378,
  "lat": 49.5003569,
  "lon": 0.1663550
},
{
  "type": "node",
  "id": 113349350,
  "lat": 49.5070487,
  "lon": 0.1750080
},
{
  "type": "node",
  "id": 113390445,
  "lat": 49.5054035,
  "lon": 0.1753329
},
{
  "type": "node",
  "id": 113390446,
  "lat": 49.5050522,
  "lon": 0.1755391
},
{
  "type": "node",
  "id": 113390447,
  "lat": 49.5044419,
  "lon": 0.1763296
},
{
  "type": "node",
  "id": 113391617,
  "lat": 49.5058789,
  "lon": 0.1757145
},
{
  "type": "node",
  "id": 113391618,
  "lat": 49.5055284,
  "lon": 0.1759436
},
{
  "type": "node",
  "id": 113391621,
  "lat": 49.5052407,
  "lon": 0.1762801
},
{
  "type": "node",
  "id": 443048523,
  "lat": 49.5047240,
  "lon": 0.1758735
},
{
  "type": "node",
  "id": 897983926,
  "lat": 49.5071855,
  "lon": 0.1752535
},
{
  "type": "node",
  "id": 897983953,
  "lat": 49.5051997,
  "lon": 0.1754429
},
{
  "type": "node",
  "id": 897983960,
  "lat": 49.5070881,
  "lon": 0.1752850
},
{
  "type": "node",
  "id": 897983983,
  "lat": 49.5069249,
  "lon": 0.1750248
},
{
  "type": "node",
  "id": 897984015,
  "lat": 49.5046089,
  "lon": 0.1760192
},
{
  "type": "node",
  "id": 897984025,
  "lat": 49.5042517,
  "lon": 0.1767811
},
{
  "type": "node",
  "id": 897984029,
  "lat": 49.5074770,
  "lon": 0.1751730
},
{
  "type": "node",
  "id": 897984036,
  "lat": 49.5066070,
  "lon": 0.1754527
},
{
  "type": "node",
  "id": 897984058,
  "lat": 49.5071524,
  "lon": 0.1749938
},
{
  "type": "node",
  "id": 897984061,
  "lat": 49.5072587,
  "lon": 0.1749769
},
{
  "type": "node",
  "id": 898004952,
  "lat": 49.5058573,
  "lon": 0.1751880
},
{
  "type": "node",
  "id": 1854841378,
  "lat": 49.5048937,
  "lon": 0.1756857
},
{
  "type": "node",
  "id": 1854841379,
  "lat": 49.5050244,
  "lon": 0.1766269
},
{
  "type": "node",
  "id": 1854841380,
  "lat": 49.5053476,
  "lon": 0.1761406
},
{
  "type": "node",
  "id": 1854841381,
  "lat": 49.5056938,
  "lon": 0.1758200
},
{
  "type": "node",
  "id": 2004600679,
  "lat": 49.5056261,
  "lon": 0.1752526
},
{
  "type": "node",
  "id": 4184060829,
  "lat": 49.5070310,
  "lon": 0.1753034
},
{
  "type": "node",
  "id": 5233309403,
  "lat": 49.5074668,
  "lon": 0.1749588
},
{
  "type": "node",
  "id": 5995029224,
  "lat": 49.5078891,
  "lon": 0.1749580
},
{
  "type": "node",
  "id": 6521598499,
  "lat": 49.5076640,
  "lon": 0.1750754
},
{
  "type": "node",
  "id": 6918908909,
  "lat": 49.5043408,
  "lon": 0.1765387
},
{
  "type": "node",
  "id": 8184843844,
  "lat": 49.5070063,
  "lon": 0.1750144
},
{
  "type": "node",
  "id": 113390452,
  "lat": 49.5034592,
  "lon": 0.1796177
},
{
  "type": "node",
  "id": 113391622,
  "lat": 49.5046797,
  "lon": 0.1774074
},
{
  "type": "node",
  "id": 113391917,
  "lat": 49.5043890,
  "lon": 0.1779300
},
{
  "type": "node",
  "id": 631465972,
  "lat": 49.5041014,
  "lon": 0.1773151
},
{
  "type": "node",
  "id": 631465973,
  "lat": 49.5036368,
  "lon": 0.1789931
},
{
  "type": "node",
  "id": 4345648809,
  "lat": 49.5021159,
  "lon": 0.1847229
},
{
  "type": "node",
  "id": 4345648811,
  "lat": 49.5018040,
  "lon": 0.1847207
},
{
  "type": "node",
  "id": 4345648812,
  "lat": 49.5017473,
  "lon": 0.1847040
},
{
  "type": "node",
  "id": 6025237030,
  "lat": 49.5016532,
  "lon": 0.1846656
},
{
  "type": "node",
  "id": 179834969,
  "lat": 49.5131281,
  "lon": 0.0897733
},
{
  "type": "node",
  "id": 179835225,
  "lat": 49.5118448,
  "lon": 0.0894065
},
{
  "type": "node",
  "id": 179835338,
  "lat": 49.5128127,
  "lon": 0.0897767
},
{
  "type": "node",
  "id": 880601213,
  "lat": 49.5121739,
  "lon": 0.0891766
},
{
  "type": "node",
  "id": 880601214,
  "lat": 49.5117860,
  "lon": 0.0888792
},
{
  "type": "node",
  "id": 880601237,
  "lat": 49.5117084,
  "lon": 0.0889229
},
{
  "type": "node",
  "id": 880601274,
  "lat": 49.5126691,
  "lon": 0.0894577
},
{
  "type": "node",
  "id": 952085248,
  "lat": 49.5116604,
  "lon": 0.0890908
},
{
  "type": "node",
  "id": 952085305,
  "lat": 49.5119804,
  "lon": 0.0890156
},
{
  "type": "node",
  "id": 952085406,
  "lat": 49.5117442,
  "lon": 0.0888795
},
{
  "type": "node",
  "id": 1038745941,
  "lat": 49.5127823,
  "lon": 0.0895724
},
{
  "type": "node",
  "id": 1038745961,
  "lat": 49.5129834,
  "lon": 0.0898324
},
{
  "type": "node",
  "id": 1038746006,
  "lat": 49.5128111,
  "lon": 0.0896662
},
{
  "type": "node",
  "id": 6486619955,
  "lat": 49.5119874,
  "lon": 0.0894872
},
{
  "type": "node",
  "id": 8167576425,
  "lat": 49.5117613,
  "lon": 0.0893360
},
{
  "type": "node",
  "id": 8167576426,
  "lat": 49.5118210,
  "lon": 0.0893864
},
{
  "type": "node",
  "id": 8167576428,
  "lat": 49.5116916,
  "lon": 0.0889817
},
{
  "type": "node",
  "id": 179835265,
  "lat": 49.5191530,
  "lon": 0.0877055
},
{
  "type": "node",
  "id": 179835649,
  "lat": 49.5198646,
  "lon": 0.0880826
},
{
  "type": "node",
  "id": 179835658,
  "lat": 49.5201636,
  "lon": 0.0881558
},
{
  "type": "node",
  "id": 179835670,
  "lat": 49.5200908,
  "lon": 0.0879787
},
{
  "type": "node",
  "id": 179835677,
  "lat": 49.5198962,
  "lon": 0.0883555
},
{
  "type": "node",
  "id": 179835687,
  "lat": 49.5200925,
  "lon": 0.0883879
},
{
  "type": "node",
  "id": 443342711,
  "lat": 49.5201541,
  "lon": 0.0880966
},
{
  "type": "node",
  "id": 443342713,
  "lat": 49.5201286,
  "lon": 0.0880296
},
{
  "type": "node",
  "id": 443342715,
  "lat": 49.5200445,
  "lon": 0.0879486
},
{
  "type": "node",
  "id": 443342716,
  "lat": 49.5200019,
  "lon": 0.0879419
},
{
  "type": "node",
  "id": 443342717,
  "lat": 49.5199598,
  "lon": 0.0879532
},
{
  "type": "node",
  "id": 443342718,
  "lat": 49.5199211,
  "lon": 0.0879815
},
{
  "type": "node",
  "id": 443342720,
  "lat": 49.5198520,
  "lon": 0.0881471
},
{
  "type": "node",
  "id": 443342722,
  "lat": 49.5198521,
  "lon": 0.0882226
},
{
  "type": "node",
  "id": 443342723,
  "lat": 49.5198673,
  "lon": 0.0882944
},
{
  "type": "node",
  "id": 443342725,
  "lat": 49.5199359,
  "lon": 0.0883999
},
{
  "type": "node",
  "id": 443342726,
  "lat": 49.5199825,
  "lon": 0.0884234
},
{
  "type": "node",
  "id": 443342727,
  "lat": 49.5200207,
  "lon": 0.0884256
},
{
  "type": "node",
  "id": 443342729,
  "lat": 49.5201284,
  "lon": 0.0883391
},
{
  "type": "node",
  "id": 443342730,
  "lat": 49.5201530,
  "lon": 0.0882758
},
{
  "type": "node",
  "id": 880615422,
  "lat": 49.5187487,
  "lon": 0.0875654
},
{
  "type": "node",
  "id": 886212432,
  "lat": 49.5201633,
  "lon": 0.0882169
},
{
  "type": "node",
  "id": 886212434,
  "lat": 49.5197847,
  "lon": 0.0879505
},
{
  "type": "node",
  "id": 2062718122,
  "lat": 49.5198882,
  "lon": 0.0880259
},
{
  "type": "node",
  "id": 2480423658,
  "lat": 49.5193585,
  "lon": 0.0877582
},
{
  "type": "node",
  "id": 6486616862,
  "lat": 49.5196366,
  "lon": 0.0878418
},
{
  "type": "node",
  "id": 8167321911,
  "lat": 49.5200581,
  "lon": 0.0884135
},
{
  "type": "node",
  "id": 8194875887,
  "lat": 49.5190029,
  "lon": 0.0876138
},
{
  "type": "node",
  "id": 1293916207,
  "lat": 49.5136212,
  "lon": 0.1114075
},
{
  "type": "node",
  "id": 8728162477,
  "lat": 49.5133308,
  "lon": 0.1111606
},
{
  "type": "node",
  "id": 8728162478,
  "lat": 49.5134105,
  "lon": 0.1112283
},
{
  "type": "node",
  "id": 237446056,
  "lat": 49.5149275,
  "lon": 0.1122971
},
{
  "type": "node",
  "id": 237446113,
  "lat": 49.5155908,
  "lon": 0.1126176
},
{
  "type": "node",
  "id": 886313694,
  "lat": 49.5143783,
  "lon": 0.1120047
},
{
  "type": "node",
  "id": 1294232980,
  "lat": 49.5138137,
  "lon": 0.1115613
},
{
  "type": "node",
  "id": 1294613342,
  "lat": 49.5157003,
  "lon": 0.1126646
},
{
  "type": "node",
  "id": 8198895717,
  "lat": 49.5148655,
  "lon": 0.1122641
},
{
  "type": "node",
  "id": 179834720,
  "lat": 49.5208223,
  "lon": 0.1052755
},
{
  "type": "node",
  "id": 179835447,
  "lat": 49.5196167,
  "lon": 0.1055649
},
{
  "type": "node",
  "id": 179835564,
  "lat": 49.5199481,
  "lon": 0.1054940
},
{
  "type": "node",
  "id": 1304238448,
  "lat": 49.5204838,
  "lon": 0.1053701
},
{
  "type": "node",
  "id": 113381162,
  "lat": 49.5185004,
  "lon": 0.1167143
},
{
  "type": "node",
  "id": 166221598,
  "lat": 49.5178944,
  "lon": 0.1175804
},
{
  "type": "node",
  "id": 237446041,
  "lat": 49.5168823,
  "lon": 0.1137063
},
{
  "type": "node",
  "id": 237446051,
  "lat": 49.5164059,
  "lon": 0.1131395
},
{
  "type": "node",
  "id": 237446259,
  "lat": 49.5172978,
  "lon": 0.1144940
},
{
  "type": "node",
  "id": 237446269,
  "lat": 49.5176855,
  "lon": 0.1153418
},
{
  "type": "node",
  "id": 237446317,
  "lat": 49.5166811,
  "lon": 0.1134348
},
{
  "type": "node",
  "id": 940062545,
  "lat": 49.5171535,
  "lon": 0.1141853
},
{
  "type": "node",
  "id": 940062547,
  "lat": 49.5161179,
  "lon": 0.1129024
},
{
  "type": "node",
  "id": 940062549,
  "lat": 49.5174412,
  "lon": 0.1148211
},
{
  "type": "node",
  "id": 950376785,
  "lat": 49.5176310,
  "lon": 0.1152519
},
{
  "type": "node",
  "id": 951470551,
  "lat": 49.5203900,
  "lon": 0.1144802
},
{
  "type": "node",
  "id": 951470556,
  "lat": 49.5185870,
  "lon": 0.1169050
},
{
  "type": "node",
  "id": 951470560,
  "lat": 49.5179877,
  "lon": 0.1177116
},
{
  "type": "node",
  "id": 951470572,
  "lat": 49.5202493,
  "lon": 0.1146366
},
{
  "type": "node",
  "id": 1293928544,
  "lat": 49.5181622,
  "lon": 0.1161217
},
{
  "type": "node",
  "id": 1294655934,
  "lat": 49.5182563,
  "lon": 0.1162753
},
{
  "type": "node",
  "id": 1294678630,
  "lat": 49.5191550,
  "lon": 0.1161248
},
{
  "type": "node",
  "id": 4552919551,
  "lat": 49.5158751,
  "lon": 0.1127606
},
{
  "type": "node",
  "id": 5188567022,
  "lat": 49.5204340,
  "lon": 0.1144393
},
{
  "type": "node",
  "id": 6268347596,
  "lat": 49.5186820,
  "lon": 0.1167745
},
{
  "type": "node",
  "id": 6268347597,
  "lat": 49.5184930,
  "lon": 0.1170347
},
{
  "type": "node",
  "id": 6268347598,
  "lat": 49.5183927,
  "lon": 0.1168651
},
{
  "type": "node",
  "id": 6268347599,
  "lat": 49.5184593,
  "lon": 0.1166237
},
{
  "type": "node",
  "id": 6268347602,
  "lat": 49.5184258,
  "lon": 0.1171208
},
{
  "type": "node",
  "id": 6268347603,
  "lat": 49.5184465,
  "lon": 0.1165987
},
{
  "type": "node",
  "id": 8188368840,
  "lat": 49.5177851,
  "lon": 0.1155140
},
{
  "type": "node",
  "id": 8188368841,
  "lat": 49.5175946,
  "lon": 0.1151693
},
{
  "type": "node",
  "id": 8188368842,
  "lat": 49.5172441,
  "lon": 0.1143792
},
{
  "type": "node",
  "id": 8188368845,
  "lat": 49.5167520,
  "lon": 0.1135305
},
{
  "type": "node",
  "id": 8198839567,
  "lat": 49.5159172,
  "lon": 0.1127852
},
{
  "type": "node",
  "id": 8598872169,
  "lat": 49.5193949,
  "lon": 0.1157986
},
{
  "type": "node",
  "id": 8744896607,
  "lat": 49.5194325,
  "lon": 0.1157475
},
{
  "type": "node",
  "id": 8895710067,
  "lat": 49.5190999,
  "lon": 0.1162005
},
{
  "type": "node",
  "id": 8895710073,
  "lat": 49.5184802,
  "lon": 0.1166646
},
{
  "type": "node",
  "id": 8895710074,
  "lat": 49.5178202,
  "lon": 0.1176813
},
{
  "type": "node",
  "id": 8895710077,
  "lat": 49.5179054,
  "lon": 0.1178307
},
{
  "type": "node",
  "id": 8926174146,
  "lat": 49.5195610,
  "lon": 0.1155727
},
{
  "type": "node",
  "id": 8926174147,
  "lat": 49.5186560,
  "lon": 0.1168102
},
{
  "type": "node",
  "id": 9483538304,
  "lat": 49.5197533,
  "lon": 0.1153112
},
{
  "type": "node",
  "id": 166221269,
  "lat": 49.5152968,
  "lon": 0.1214786
},
{
  "type": "node",
  "id": 221346938,
  "lat": 49.5146637,
  "lon": 0.1225074
},
{
  "type": "node",
  "id": 951470542,
  "lat": 49.5146911,
  "lon": 0.1227369
},
{
  "type": "node",
  "id": 1292138462,
  "lat": 49.5151315,
  "lon": 0.1217412
},
{
  "type": "node",
  "id": 5218911572,
  "lat": 49.5154047,
  "lon": 0.1216526
},
{
  "type": "node",
  "id": 8598815518,
  "lat": 49.5147782,
  "lon": 0.1226047
},
{
  "type": "node",
  "id": 8598815519,
  "lat": 49.5147354,
  "lon": 0.1223899
},
{
  "type": "node",
  "id": 8598815520,
  "lat": 49.5152658,
  "lon": 0.1218637
},
{
  "type": "node",
  "id": 8598815521,
  "lat": 49.5151449,
  "lon": 0.1220475
},
{
  "type": "node",
  "id": 8598832265,
  "lat": 49.5154044,
  "lon": 0.1213145
},
{
  "type": "node",
  "id": 8895690566,
  "lat": 49.5148057,
  "lon": 0.1225629
},
{
  "type": "node",
  "id": 8895690569,
  "lat": 49.5147096,
  "lon": 0.1224321
},
{
  "type": "node",
  "id": 8895710090,
  "lat": 49.5157264,
  "lon": 0.1207968
},
{
  "type": "node",
  "id": 8895710094,
  "lat": 49.5153633,
  "lon": 0.1213772
},
{
  "type": "node",
  "id": 8895710096,
  "lat": 49.5154751,
  "lon": 0.1215373
},
{
  "type": "node",
  "id": 8895710097,
  "lat": 49.5152145,
  "lon": 0.1216093
},
{
  "type": "node",
  "id": 8895710100,
  "lat": 49.5153275,
  "lon": 0.1217700
},
{
  "type": "node",
  "id": 113381165,
  "lat": 49.5128489,
  "lon": 0.1254050
},
{
  "type": "node",
  "id": 113381167,
  "lat": 49.5116460,
  "lon": 0.1273618
},
{
  "type": "node",
  "id": 113381168,
  "lat": 49.5111407,
  "lon": 0.1287689
},
{
  "type": "node",
  "id": 113381171,
  "lat": 49.5104766,
  "lon": 0.1308360
},
{
  "type": "node",
  "id": 166220771,
  "lat": 49.5112015,
  "lon": 0.1285951
},
{
  "type": "node",
  "id": 1016463330,
  "lat": 49.5128867,
  "lon": 0.1256193
},
{
  "type": "node",
  "id": 1016786536,
  "lat": 49.5109711,
  "lon": 0.1291920
},
{
  "type": "node",
  "id": 1271056451,
  "lat": 49.5126477,
  "lon": 0.1259103
},
{
  "type": "node",
  "id": 6074241975,
  "lat": 49.5108635,
  "lon": 0.1295085
},
{
  "type": "node",
  "id": 6074241977,
  "lat": 49.5105533,
  "lon": 0.1305186
},
{
  "type": "node",
  "id": 6074259426,
  "lat": 49.5113617,
  "lon": 0.1281314
},
{
  "type": "node",
  "id": 6074297513,
  "lat": 49.5115692,
  "lon": 0.1275547
},
{
  "type": "node",
  "id": 6074297515,
  "lat": 49.5117945,
  "lon": 0.1270834
},
{
  "type": "node",
  "id": 7507271713,
  "lat": 49.5105110,
  "lon": 0.1307100
},
{
  "type": "node",
  "id": 8186920112,
  "lat": 49.5111000,
  "lon": 0.1288705
},
{
  "type": "node",
  "id": 8186920116,
  "lat": 49.5112435,
  "lon": 0.1284736
},
{
  "type": "node",
  "id": 8191610888,
  "lat": 49.5115327,
  "lon": 0.1276561
},
{
  "type": "node",
  "id": 8303759766,
  "lat": 49.5129994,
  "lon": 0.1251647
},
{
  "type": "node",
  "id": 8303759767,
  "lat": 49.5133733,
  "lon": 0.1245678
},
{
  "type": "node",
  "id": 8598734038,
  "lat": 49.5110753,
  "lon": 0.1289320
},
{
  "type": "node",
  "id": 8598788088,
  "lat": 49.5104522,
  "lon": 0.1309264
},
{
  "type": "node",
  "id": 8598799324,
  "lat": 49.5127698,
  "lon": 0.1257617
},
{
  "type": "node",
  "id": 8895690570,
  "lat": 49.5129490,
  "lon": 0.1252452
},
{
  "type": "node",
  "id": 8895690573,
  "lat": 49.5130427,
  "lon": 0.1253702
},
{
  "type": "node",
  "id": 8895690577,
  "lat": 49.5128141,
  "lon": 0.1257078
},
{
  "type": "node",
  "id": 113381164,
  "lat": 49.5157996,
  "lon": 0.1206791
},
{
  "type": "node",
  "id": 166221460,
  "lat": 49.5159238,
  "lon": 0.1208021
},
{
  "type": "node",
  "id": 1016786652,
  "lat": 49.5171836,
  "lon": 0.1188042
},
{
  "type": "node",
  "id": 1293850876,
  "lat": 49.5162564,
  "lon": 0.1199419
},
{
  "type": "node",
  "id": 1294691812,
  "lat": 49.5167353,
  "lon": 0.1191960
},
{
  "type": "node",
  "id": 5218912387,
  "lat": 49.5162039,
  "lon": 0.1203235
},
{
  "type": "node",
  "id": 5218914710,
  "lat": 49.5168241,
  "lon": 0.1193402
},
{
  "type": "node",
  "id": 8598843621,
  "lat": 49.5157820,
  "lon": 0.1210344
},
{
  "type": "node",
  "id": 8598843624,
  "lat": 49.5159470,
  "lon": 0.1204413
},
{
  "type": "node",
  "id": 8598855621,
  "lat": 49.5166854,
  "lon": 0.1195568
},
{
  "type": "node",
  "id": 8598855622,
  "lat": 49.5169317,
  "lon": 0.1188948
},
{
  "type": "node",
  "id": 8895710078,
  "lat": 49.5168695,
  "lon": 0.1189902
},
{
  "type": "node",
  "id": 8895710081,
  "lat": 49.5169686,
  "lon": 0.1191225
},
{
  "type": "node",
  "id": 8895710082,
  "lat": 49.5166418,
  "lon": 0.1193417
},
{
  "type": "node",
  "id": 8895710085,
  "lat": 49.5167361,
  "lon": 0.1194776
},
{
  "type": "node",
  "id": 8895710086,
  "lat": 49.5158894,
  "lon": 0.1205342
},
{
  "type": "node",
  "id": 8895710089,
  "lat": 49.5159930,
  "lon": 0.1206838
},
{
  "type": "node",
  "id": 8895710093,
  "lat": 49.5158361,
  "lon": 0.1209458
},
{
  "type": "node",
  "id": 9483587042,
  "lat": 49.5172520,
  "lon": 0.1184573
},
{
  "type": "node",
  "id": 113381173,
  "lat": 49.5102251,
  "lon": 0.1317983
},
{
  "type": "node",
  "id": 168410788,
  "lat": 49.5096412,
  "lon": 0.1336042
},
{
  "type": "node",
  "id": 168410897,
  "lat": 49.5095780,
  "lon": 0.1338143
},
{
  "type": "node",
  "id": 510789984,
  "lat": 49.5095335,
  "lon": 0.1338839
},
{
  "type": "node",
  "id": 847654107,
  "lat": 49.5099293,
  "lon": 0.1328236
},
{
  "type": "node",
  "id": 941460607,
  "lat": 49.5092940,
  "lon": 0.1344778
},
{
  "type": "node",
  "id": 2293353778,
  "lat": 49.5100042,
  "lon": 0.1326236
},
{
  "type": "node",
  "id": 2293353782,
  "lat": 49.5103661,
  "lon": 0.1312460
},
{
  "type": "node",
  "id": 2715229874,
  "lat": 49.5097647,
  "lon": 0.1332601
},
{
  "type": "node",
  "id": 6074241979,
  "lat": 49.5102715,
  "lon": 0.1315562
},
{
  "type": "node",
  "id": 6074241980,
  "lat": 49.5101272,
  "lon": 0.1322123
},
{
  "type": "node",
  "id": 6074248771,
  "lat": 49.5096199,
  "lon": 0.1337066
},
{
  "type": "node",
  "id": 7507271729,
  "lat": 49.5103356,
  "lon": 0.1313529
},
{
  "type": "node",
  "id": 8598788085,
  "lat": 49.5103217,
  "lon": 0.1313970
},
{
  "type": "node",
  "id": 8895690580,
  "lat": 49.5095990,
  "lon": 0.1337602
},
{
  "type": "node",
  "id": 113359183,
  "lat": 49.5125522,
  "lon": 0.1508926
},
{
  "type": "node",
  "id": 144477042,
  "lat": 49.5093382,
  "lon": 0.1533227
},
{
  "type": "node",
  "id": 144477069,
  "lat": 49.5095376,
  "lon": 0.1514915
},
{
  "type": "node",
  "id": 144477089,
  "lat": 49.5094712,
  "lon": 0.1524071
},
{
  "type": "node",
  "id": 144477102,
  "lat": 49.5092277,
  "lon": 0.1540577
},
{
  "type": "node",
  "id": 838680487,
  "lat": 49.5126350,
  "lon": 0.1507820
},
{
  "type": "node",
  "id": 1843862235,
  "lat": 49.5091847,
  "lon": 0.1545264
},
{
  "type": "node",
  "id": 2372609864,
  "lat": 49.5092725,
  "lon": 0.1551133
},
{
  "type": "node",
  "id": 2372609871,
  "lat": 49.5092816,
  "lon": 0.1546186
},
{
  "type": "node",
  "id": 2372609878,
  "lat": 49.5093136,
  "lon": 0.1541918
},
{
  "type": "node",
  "id": 2372609879,
  "lat": 49.5095493,
  "lon": 0.1526670
},
{
  "type": "node",
  "id": 2372609884,
  "lat": 49.5094583,
  "lon": 0.1532568
},
{
  "type": "node",
  "id": 2386898016,
  "lat": 49.5093123,
  "lon": 0.1568592
},
{
  "type": "node",
  "id": 5218729002,
  "lat": 49.5096573,
  "lon": 0.1514824
},
{
  "type": "node",
  "id": 5768234185,
  "lat": 49.5096404,
  "lon": 0.1516608
},
{
  "type": "node",
  "id": 5768234186,
  "lat": 49.5095294,
  "lon": 0.1516399
},
{
  "type": "node",
  "id": 5768244581,
  "lat": 49.5093748,
  "lon": 0.1530768
},
{
  "type": "node",
  "id": 5768244584,
  "lat": 49.5094793,
  "lon": 0.1531207
},
{
  "type": "node",
  "id": 5768244589,
  "lat": 49.5093606,
  "lon": 0.1538237
},
{
  "type": "node",
  "id": 5768244593,
  "lat": 49.5092734,
  "lon": 0.1548635
},
{
  "type": "node",
  "id": 5768244594,
  "lat": 49.5092747,
  "lon": 0.1552766
},
{
  "type": "node",
  "id": 5768250515,
  "lat": 49.5091860,
  "lon": 0.1566966
},
{
  "type": "node",
  "id": 5768250516,
  "lat": 49.5092976,
  "lon": 0.1566914
},
{
  "type": "node",
  "id": 5964622091,
  "lat": 49.5127329,
  "lon": 0.1511438
},
{
  "type": "node",
  "id": 5985675495,
  "lat": 49.5092826,
  "lon": 0.1560192
},
{
  "type": "node",
  "id": 5993583785,
  "lat": 49.5092944,
  "lon": 0.1543841
},
{
  "type": "node",
  "id": 5993583786,
  "lat": 49.5095168,
  "lon": 0.1529080
},
{
  "type": "node",
  "id": 5994914875,
  "lat": 49.5094337,
  "lon": 0.1527020
},
{
  "type": "node",
  "id": 5994914876,
  "lat": 49.5095806,
  "lon": 0.1523724
},
{
  "type": "node",
  "id": 5994914879,
  "lat": 49.5092587,
  "lon": 0.1538229
},
{
  "type": "node",
  "id": 5994914880,
  "lat": 49.5091998,
  "lon": 0.1543338
},
{
  "type": "node",
  "id": 7681133711,
  "lat": 49.5126730,
  "lon": 0.1509224
},
{
  "type": "node",
  "id": 7681133712,
  "lat": 49.5126279,
  "lon": 0.1509979
},
{
  "type": "node",
  "id": 113348308,
  "lat": 49.5092112,
  "lon": 0.1588763
},
{
  "type": "node",
  "id": 151008744,
  "lat": 49.5093876,
  "lon": 0.1610992
},
{
  "type": "node",
  "id": 1575975102,
  "lat": 49.5092835,
  "lon": 0.1626633
},
{
  "type": "node",
  "id": 1843825595,
  "lat": 49.5093560,
  "lon": 0.1588703
},
{
  "type": "node",
  "id": 4551194689,
  "lat": 49.5126850,
  "lon": 0.1629587
},
{
  "type": "node",
  "id": 4551194691,
  "lat": 49.5128644,
  "lon": 0.1631123
},
{
  "type": "node",
  "id": 4551194695,
  "lat": 49.5130675,
  "lon": 0.1632525
},
{
  "type": "node",
  "id": 5218692968,
  "lat": 49.5092803,
  "lon": 0.1632237
},
{
  "type": "node",
  "id": 5218692969,
  "lat": 49.5094271,
  "lon": 0.1632140
},
{
  "type": "node",
  "id": 5218708329,
  "lat": 49.5092614,
  "lon": 0.1611098
},
{
  "type": "node",
  "id": 5768250519,
  "lat": 49.5091975,
  "lon": 0.1579537
},
{
  "type": "node",
  "id": 5768258236,
  "lat": 49.5092083,
  "lon": 0.1586809
},
{
  "type": "node",
  "id": 5768258240,
  "lat": 49.5093576,
  "lon": 0.1590332
},
{
  "type": "node",
  "id": 5768258241,
  "lat": 49.5092205,
  "lon": 0.1590338
},
{
  "type": "node",
  "id": 5768264875,
  "lat": 49.5092594,
  "lon": 0.1609431
},
{
  "type": "node",
  "id": 5768264878,
  "lat": 49.5092627,
  "lon": 0.1612837
},
{
  "type": "node",
  "id": 5768264881,
  "lat": 49.5093853,
  "lon": 0.1609420
},
{
  "type": "node",
  "id": 5768264882,
  "lat": 49.5093903,
  "lon": 0.1612746
},
{
  "type": "node",
  "id": 5768264885,
  "lat": 49.5092862,
  "lon": 0.1630769
},
{
  "type": "node",
  "id": 5768264886,
  "lat": 49.5094215,
  "lon": 0.1630770
},
{
  "type": "node",
  "id": 5768296693,
  "lat": 49.5129802,
  "lon": 0.1631875
},
{
  "type": "node",
  "id": 8915800652,
  "lat": 49.5092814,
  "lon": 0.1625237
},
{
  "type": "node",
  "id": 1020767415,
  "lat": 49.5164951,
  "lon": 0.1679149
},
{
  "type": "node",
  "id": 1020767418,
  "lat": 49.5164857,
  "lon": 0.1680984
},
{
  "type": "node",
  "id": 1020767431,
  "lat": 49.5165693,
  "lon": 0.1672976
},
{
  "type": "node",
  "id": 1020767435,
  "lat": 49.5166395,
  "lon": 0.1676959
},
{
  "type": "node",
  "id": 1020780492,
  "lat": 49.5164955,
  "lon": 0.1677449
},
{
  "type": "node",
  "id": 1020780502,
  "lat": 49.5166033,
  "lon": 0.1674832
},
{
  "type": "node",
  "id": 1020780505,
  "lat": 49.5166569,
  "lon": 0.1679023
},
{
  "type": "node",
  "id": 1020780759,
  "lat": 49.5164386,
  "lon": 0.1673435
},
{
  "type": "node",
  "id": 5218792450,
  "lat": 49.5162948,
  "lon": 0.1669817
},
{
  "type": "node",
  "id": 5218797873,
  "lat": 49.5164970,
  "lon": 0.1687592
},
{
  "type": "node",
  "id": 5218797875,
  "lat": 49.5163033,
  "lon": 0.1688773
},
{
  "type": "node",
  "id": 5300891963,
  "lat": 49.5166502,
  "lon": 0.1681014
},
{
  "type": "node",
  "id": 5300910993,
  "lat": 49.5166170,
  "lon": 0.1683210
},
{
  "type": "node",
  "id": 5768309746,
  "lat": 49.5165338,
  "lon": 0.1686392
},
{
  "type": "node",
  "id": 5768309747,
  "lat": 49.5163895,
  "lon": 0.1685502
},
{
  "type": "node",
  "id": 5768312598,
  "lat": 49.5163772,
  "lon": 0.1671560
},
{
  "type": "node",
  "id": 5768312599,
  "lat": 49.5164746,
  "lon": 0.1675201
},
{
  "type": "node",
  "id": 5768316656,
  "lat": 49.5163562,
  "lon": 0.1686748
},
{
  "type": "node",
  "id": 5768316659,
  "lat": 49.5164561,
  "lon": 0.1683066
},
{
  "type": "node",
  "id": 1020666880,
  "lat": 49.5100550,
  "lon": 0.1746369
},
{
  "type": "node",
  "id": 1020724593,
  "lat": 49.5105204,
  "lon": 0.1746225
},
{
  "type": "node",
  "id": 1020763710,
  "lat": 49.5107485,
  "lon": 0.1747780
},
{
  "type": "node",
  "id": 1020763797,
  "lat": 49.5106945,
  "lon": 0.1747431
},
{
  "type": "node",
  "id": 1020763957,
  "lat": 49.5107976,
  "lon": 0.1747794
},
{
  "type": "node",
  "id": 5232970356,
  "lat": 49.5102921,
  "lon": 0.1744986
},
{
  "type": "node",
  "id": 5232970361,
  "lat": 49.5101767,
  "lon": 0.1747023
},
{
  "type": "node",
  "id": 5232970363,
  "lat": 49.5100480,
  "lon": 0.1744719
},
{
  "type": "node",
  "id": 5232970364,
  "lat": 49.5101191,
  "lon": 0.1744544
},
{
  "type": "node",
  "id": 5232970365,
  "lat": 49.5101850,
  "lon": 0.1744500
},
{
  "type": "node",
  "id": 5768380896,
  "lat": 49.5107711,
  "lon": 0.1747794
},
{
  "type": "node",
  "id": 5768380898,
  "lat": 49.5105606,
  "lon": 0.1746457
},
{
  "type": "node",
  "id": 5768380900,
  "lat": 49.5103840,
  "lon": 0.1745530
},
{
  "type": "node",
  "id": 5768380901,
  "lat": 49.5103784,
  "lon": 0.1748240
},
{
  "type": "node",
  "id": 5768404212,
  "lat": 49.5100669,
  "lon": 0.1744671
},
{
  "type": "node",
  "id": 5768404214,
  "lat": 49.5099759,
  "lon": 0.1745336
},
{
  "type": "node",
  "id": 5994984485,
  "lat": 49.5102377,
  "lon": 0.1744665
}

  ]
}
