{
  "version": 0.6,
  "generator": "Overpass API 0.7.57.1 74a55df1",
  "osm3s": {
    "timestamp_osm_base": "2022-02-13T13:28:39Z",
    "timestamp_areas_base": "2022-02-13T06:29:09Z",
    "copyright": "The data included in this document is from www.openstreetmap.org. The data is made available under ODbL."
  },
  "elements": [

{
  "type": "way",
  "id": 24918340,
  "nodes": [
    270759554,
    722991718,
    270759556
  ],
  "tags": {
    "cycleway:right": "lane",
    "highway": "residential",
    "junction": "roundabout",
    "maxspeed": "30",
    "name": "Rond-Point Marguerite Boutigny",
    "source": "GPS"
  }
},
{
  "type": "way",
  "id": 24918864,
  "nodes": [
    368005055,
    368005058,
    270759518,
    36237890,
    270764669
  ],
  "tags": {
    "bridge": "yes",
    "cycleway:right": "lane",
    "highway": "primary",
    "layer": "1",
    "maxspeed": "70",
    "maxspeed:type": "sign",
    "name": "Avenue de Champagne",
    "oneway": "yes",
    "ref": "N 51",
    "surface": "asphalt"
  }
},
{
  "type": "way",
  "id": 24918865,
  "nodes": [
    270764669,
    2371875543,
    2371875500
  ],
  "tags": {
    "cycleway:right": "lane",
    "highway": "primary",
    "maxspeed": "50",
    "maxspeed:type": "sign",
    "name": "Avenue de Champagne",
    "oneway": "yes",
    "ref": "N 51",
    "surface": "asphalt"
  }
},
{
  "type": "way",
  "id": 25581729,
  "nodes": [
    1821744560,
    4462265114,
    357323701
  ],
  "tags": {
    "cycleway:right": "lane",
    "description:covid19": "Piste cyclable temporaire",
    "highway": "secondary",
    "lanes": "2",
    "low_emission_zone": "yes",
    "maxspeed": "50",
    "name": "Boulevard Lundy",
    "oneway": "yes",
    "ref": "N 44",
    "surface": "asphalt",
    "wikidata": "Q3146324",
    "wikipedia": "fr:Boulevard Lundy"
  }
},
{
  "type": "way",
  "id": 25581737,
  "nodes": [
    278845635,
    7296821114,
    352811481,
    302265364
  ],
  "tags": {
    "cycleway:right": "lane",
    "highway": "secondary",
    "low_emission_zone": "yes",
    "maxspeed": "50",
    "name": "Boulevard Pasteur",
    "oneway": "yes",
    "ref": "N 44",
    "surface": "asphalt"
  }
},
{
  "type": "way",
  "id": 25581739,
  "nodes": [
    9056018064,
    8829019244,
    8829019243,
    278845652,
    4460506831,
    278845651,
    983507575,
    278845637
  ],
  "tags": {
    "cycleway:right": "lane",
    "highway": "primary",
    "lanes": "2",
    "maxspeed": "50",
    "name": "Avenue du Général Giraud",
    "oneway": "yes",
    "ref": "N 44",
    "surface": "asphalt"
  }
},
{
  "type": "way",
  "id": 25684927,
  "nodes": [
    280024528,
    3722729881,
    280024541,
    3722729882,
    3722729883,
    280024518,
    3722729884,
    280024520
  ],
  "tags": {
    "cycleway:right": "lane",
    "highway": "tertiary",
    "junction": "roundabout",
    "name": "Avenue François Mauriac"
  }
},
{
  "type": "way",
  "id": 25684928,
  "nodes": [
    3255857356,
    1095574988,
    3722729871,
    280024567,
    1095575154,
    3722729872,
    280024558,
    1095574785,
    3722729873,
    3722729874,
    280024560
  ],
  "tags": {
    "cycleway:right": "lane",
    "highway": "tertiary",
    "junction": "roundabout",
    "name": "Rond-Point François Mauriac"
  }
},
{
  "type": "way",
  "id": 25684951,
  "nodes": [
    280024255,
    1095675051,
    280024253,
    3722729888,
    280024250,
    1095675083,
    3722729889,
    9439780037,
    280024248
  ],
  "tags": {
    "cycleway:right": "lane",
    "highway": "tertiary",
    "junction": "roundabout",
    "name": "Avenue François Mauriac"
  }
},
{
  "type": "way",
  "id": 25834409,
  "nodes": [
    281788749,
    5275720355,
    5830110190,
    281788751,
    8089365445,
    281788754
  ],
  "tags": {
    "cycleway:right": "lane",
    "highway": "secondary",
    "junction": "roundabout",
    "name": "Place des Combattants d'Indochine",
    "surface": "asphalt"
  }
},
{
  "type": "way",
  "id": 25967177,
  "nodes": [
    350555964,
    2519298897,
    350555961
  ],
  "tags": {
    "cycleway:right": "lane",
    "highway": "residential",
    "lanes": "1",
    "low_emission_zone": "yes",
    "maxspeed": "30",
    "name": "Rue Voltaire",
    "oneway": "yes",
    "source:maxspeed": "FR:zone30",
    "surface": "asphalt",
    "zone:maxspeed": "FR:30"
  }
},
{
  "type": "way",
  "id": 27489932,
  "nodes": [
    301797530,
    354541256,
    352841772
  ],
  "tags": {
    "cycleway:left": "no",
    "cycleway:right": "lane",
    "cycleway:right:lane": "exclusive",
    "highway": "residential",
    "lit": "yes",
    "maxspeed": "30",
    "maxspeed:type": "sign",
    "name": "Boulevard Carteret",
    "oneway": "yes",
    "sidewalk": "both",
    "surface": "asphalt"
  }
},
{
  "type": "way",
  "id": 27532458,
  "nodes": [
    302030609,
    7254703058,
    302265331,
    6750743883,
    1985072470
  ],
  "tags": {
    "cycleway:right": "lane",
    "highway": "tertiary",
    "low_emission_zone": "yes",
    "maxspeed": "50",
    "maxspeed:type": "sign",
    "name": "Boulevard Dieu Lumière",
    "oneway": "yes",
    "surface": "asphalt"
  }
},
{
  "type": "way",
  "id": 27545952,
  "nodes": [
    278845605,
    7495769047,
    7547555344,
    2520083060,
    7276564065,
    302385134
  ],
  "tags": {
    "cycleway:left": "opposite_lane",
    "cycleway:right": "lane",
    "highway": "residential",
    "lit": "yes",
    "low_emission_zone": "yes",
    "maxspeed": "30",
    "name": "Rue Voltaire",
    "oneway": "yes",
    "source:maxspeed": "FR:zone30",
    "surface": "asphalt",
    "wikidata": "Q20669858",
    "wikipedia": "fr:Rue Voltaire (Reims)",
    "zone:maxspeed": "FR:30"
  }
},
{
  "type": "way",
  "id": 27949186,
  "nodes": [
    1095575132,
    7167561422,
    8270156143,
    306938920
  ],
  "tags": {
    "cycleway:right": "lane",
    "highway": "secondary_link",
    "maxspeed": "50",
    "name": "Rue du Docteur Lemoine",
    "oneway": "yes"
  }
},
{
  "type": "way",
  "id": 30887427,
  "nodes": [
    343426452,
    7160657294,
    8655840272,
    343426460,
    343426465,
    8627025096,
    8627025095,
    343426470,
    8661781332,
    8655840220,
    8450552664,
    8627025097,
    343426475,
    343426477,
    7345494966,
    1924390827,
    343426579,
    343426574,
    8671751816
  ],
  "tags": {
    "cycleway:right": "lane",
    "highway": "residential",
    "lanes": "2",
    "lit": "yes",
    "maxspeed": "30",
    "name": "Rue François Arago",
    "note": "François Arago Astronome et physicien Français 1786-1853",
    "source": "cadastre-dgi-fr source : Direction Générale des Impôts - Cadastre;mise à jour : 2008",
    "start_date": "1971-05-03",
    "surface": "asphalt"
  }
},
{
  "type": "way",
  "id": 31291735,
  "nodes": [
    296880754,
    5936309351,
    348140341,
    6764735876,
    6764735877
  ],
  "tags": {
    "cycleway:right": "lane",
    "highway": "residential",
    "name": "Rue de Rouen",
    "oneway": "yes",
    "source": "cadastre-dgi-fr source : Direction Générale des Impôts - Cadastre;mise à jour : 2008"
  }
},
{
  "type": "way",
  "id": 31358006,
  "nodes": [
    270759446,
    349270244,
    349270243,
    270759445,
    7124054034,
    349270245
  ],
  "tags": {
    "cycleway:right": "lane",
    "highway": "secondary",
    "lanes": "2",
    "low_emission_zone": "yes",
    "name": "Boulevard Paul Doumer",
    "oneway": "yes",
    "source": "GPS",
    "surface": "asphalt"
  }
},
{
  "type": "way",
  "id": 31358058,
  "nodes": [
    5830207223,
    7266253443,
    7266253453,
    302385066,
    9201232885,
    507041586,
    349285237,
    982824010,
    302385092,
    982823822
  ],
  "tags": {
    "busway": "opposite_lane",
    "cycleway:left": "share_busway",
    "cycleway:right": "lane",
    "highway": "residential",
    "lit": "yes",
    "low_emission_zone": "yes",
    "maxspeed": "30",
    "name": "Rue Carnot",
    "oneway": "yes",
    "sidewalk": "both",
    "source:maxspeed": "FR:zone30",
    "surface": "asphalt",
    "wikidata": "Q19407212",
    "wikipedia": "fr:Rue Carnot (Reims)",
    "zone:maxspeed": "FR:30"
  }
},
{
  "type": "way",
  "id": 31359635,
  "nodes": [
    349285197,
    349285188,
    314511408
  ],
  "tags": {
    "cycleway:right": "lane",
    "highway": "residential",
    "low_emission_zone": "yes",
    "maxspeed": "30",
    "name": "Rue de l'Arbalète",
    "oneway": "no",
    "source": "cadastre-dgi-fr source : Direction Générale des Impôts - Cadastre;mise à jour : 2008",
    "source:maxspeed": "FR:zone30",
    "surface": "asphalt",
    "zone:maxspeed": "FR:30"
  }
},
{
  "type": "way",
  "id": 31359636,
  "nodes": [
    349285215,
    5861220196,
    350555804,
    349285219,
    349285197
  ],
  "tags": {
    "cycleway:right": "lane",
    "highway": "residential",
    "low_emission_zone": "yes",
    "maxspeed": "30",
    "name": "Place du Forum",
    "oneway": "yes",
    "source": "cadastre-dgi-fr source : Direction Générale des Impôts - Cadastre;mise à jour : 2008",
    "source:maxspeed": "FR:zone30",
    "surface": "asphalt",
    "wikidata": "Q19407182",
    "wikipedia": "fr:Place du Forum",
    "zone:maxspeed": "FR:30"
  }
},
{
  "type": "way",
  "id": 31359678,
  "nodes": [
    349285201,
    349285206,
    349285211,
    302385092
  ],
  "tags": {
    "cycleway:right": "lane",
    "highway": "residential",
    "lit": "yes",
    "low_emission_zone": "yes",
    "maxspeed": "30",
    "name": "Rue Trudaine",
    "oneway": "yes",
    "sidewalk": "both",
    "source": "cadastre-dgi-fr source : Direction Générale des Impôts - Cadastre;mise à jour : 2008",
    "source:maxspeed": "FR:zone30",
    "surface": "sett",
    "zone:maxspeed": "FR:30"
  }
},
{
  "type": "way",
  "id": 31432274,
  "nodes": [
    350555750,
    8898223266,
    350555723,
    5903495090,
    350555724
  ],
  "tags": {
    "cycleway:left": "opposite_lane",
    "cycleway:left:oneway": "-1",
    "cycleway:right": "lane",
    "highway": "residential",
    "lanes": "1",
    "low_emission_zone": "yes",
    "maxspeed": "30",
    "name": "Place Léon Bourgeois",
    "oneway": "yes",
    "source": "cadastre-dgi-fr source : Direction Générale des Impôts - Cadastre;mise à jour : 2008",
    "source:maxspeed": "FR:zone30",
    "surface": "asphalt",
    "wikidata": "Q20155482",
    "wikipedia": "fr:Place Léon-Bourgeois",
    "zone:maxspeed": "FR:30"
  }
},
{
  "type": "way",
  "id": 31432276,
  "nodes": [
    2520083073,
    350555714
  ],
  "tags": {
    "cycleway:left": "opposite_lane",
    "cycleway:left:oneway": "-1",
    "cycleway:right": "lane",
    "highway": "residential",
    "lit": "yes",
    "low_emission_zone": "yes",
    "maxspeed": "30",
    "name": "Rue Jean-Jacques Rousseau",
    "oneway": "yes",
    "source": "cadastre-dgi-fr source : Direction Générale des Impôts - Cadastre;mise à jour : 2008",
    "source:maxspeed": "FR:zone30",
    "surface": "asphalt",
    "wikidata": "Q22669116",
    "wikipedia": "fr:Rue Jean-Jacques-Rousseau (Reims)",
    "zone:maxspeed": "FR:30"
  }
},
{
  "type": "way",
  "id": 31432315,
  "nodes": [
    349285258,
    314511411
  ],
  "tags": {
    "cycleway:left": "opposite_lane",
    "cycleway:right": "lane",
    "highway": "residential",
    "lanes": "1",
    "low_emission_zone": "yes",
    "maxspeed": "30",
    "name": "Rue des Tournelles",
    "oneway": "yes",
    "oneway:bicycle": "no",
    "source": "cadastre-dgi-fr source : Direction Générale des Impôts - Cadastre;mise à jour : 2008",
    "source:maxspeed": "FR:zone30",
    "surface": "asphalt",
    "wikidata": "Q46582692",
    "wikipedia": "fr:Rue des Tournelles (Reims)",
    "zone:maxspeed": "FR:30"
  }
},
{
  "type": "way",
  "id": 31432323,
  "nodes": [
    350555710,
    6214464151,
    350555709,
    6214464155,
    302385134
  ],
  "tags": {
    "cycleway:right": "lane",
    "highway": "residential",
    "lit": "yes",
    "low_emission_zone": "yes",
    "maxspeed": "30",
    "name": "Rue Ponsardin",
    "oneway": "yes",
    "oneway:bicycle": "no",
    "source": "cadastre-dgi-fr source : Direction Générale des Impôts - Cadastre;mise à jour : 2008",
    "source:maxspeed": "FR:zone30",
    "surface": "asphalt",
    "zone:maxspeed": "FR:30"
  }
},
{
  "type": "way",
  "id": 31526204,
  "nodes": [
    352811305,
    302265197,
    302265207,
    302265212,
    9403414601,
    6750743881
  ],
  "tags": {
    "cycleway:right": "lane",
    "highway": "secondary_link",
    "low_emission_zone": "yes",
    "maxspeed": "50",
    "name": "Boulevard Dieu Lumière",
    "oneway": "yes",
    "source": "cadastre-dgi-fr source : Direction Générale des Impôts - Cadastre;mise à jour : 2008",
    "surface": "asphalt"
  }
},
{
  "type": "way",
  "id": 31526234,
  "nodes": [
    278845644,
    7555796336,
    352811503,
    352811480,
    278845646
  ],
  "tags": {
    "cycleway:right": "lane",
    "highway": "secondary",
    "lanes": "2",
    "maxspeed": "50",
    "name": "Boulevard Henry Vasnier",
    "oneway": "yes",
    "ref": "N 44",
    "source": "cadastre-dgi-fr source : Direction Générale des Impôts - Cadastre;mise à jour : 2008",
    "surface": "asphalt",
    "turn:lanes": "through|through;right",
    "wikidata": "Q20669739",
    "wikipedia": "fr:Boulevard Henri-Vasnier"
  }
},
{
  "type": "way",
  "id": 31526235,
  "nodes": [
    352811504,
    352811499
  ],
  "tags": {
    "cycleway:right": "lane",
    "highway": "tertiary",
    "low_emission_zone": "yes",
    "maxspeed": "50",
    "maxspeed:type": "sign",
    "name": "Boulevard Victor Hugo",
    "oneway": "no",
    "source": "cadastre-dgi-fr source : Direction Générale des Impôts - Cadastre;mise à jour : 2008",
    "surface": "asphalt"
  }
},
{
  "type": "way",
  "id": 31527204,
  "nodes": [
    352825117,
    6750796954,
    7124048806,
    7904840817,
    7501251167,
    983507409,
    352825100,
    7182151509,
    983506912
  ],
  "tags": {
    "cycleway:right": "lane",
    "highway": "primary",
    "maxspeed": "50",
    "name": "Avenue du Général Giraud",
    "oneway": "yes",
    "source": "cadastre-dgi-fr source : Direction Générale des Impôts - Cadastre;mise à jour : 2008",
    "surface": "asphalt"
  }
},
{
  "type": "way",
  "id": 31527209,
  "nodes": [
    352825117,
    345210756,
    1095191027,
    2461326855,
    510998851,
    7263310145,
    7263463188
  ],
  "tags": {
    "cycleway:left": "opposite_lane",
    "cycleway:right": "lane",
    "highway": "residential",
    "maxspeed": "50",
    "name": "Rue Saint-Léonard",
    "oneway": "yes",
    "source": "cadastre-dgi-fr source : Direction Générale des Impôts - Cadastre;mise à jour : 2008",
    "surface": "asphalt"
  }
},
{
  "type": "way",
  "id": 31695749,
  "nodes": [
    354684856,
    9043592687,
    354684916,
    2505021196,
    354684918,
    2505021193,
    354684855,
    7022379566,
    8359939092,
    7022379537,
    354684914,
    7022379565,
    354684858,
    354684864,
    354684910,
    354684862,
    2083483098,
    2083483092,
    352841783
  ],
  "tags": {
    "cycleway:right": "lane",
    "highway": "residential",
    "maxspeed": "50",
    "name": "Rue Henri Barbusse",
    "oneway": "yes"
  }
},
{
  "type": "way",
  "id": 31695816,
  "nodes": [
    354685164,
    7158329486,
    7274616540,
    7499200884,
    6116949603,
    354685169,
    6116949606,
    7274616539,
    7274616538,
    6408257927,
    6408257933,
    357235619
  ],
  "tags": {
    "cycleway:right": "lane",
    "highway": "tertiary",
    "name": "Rue d'Estienne d'Orves",
    "oneway": "yes"
  }
},
{
  "type": "way",
  "id": 31695818,
  "nodes": [
    357264008,
    8365025365,
    8365189458,
    354685157,
    354685159,
    4684931230,
    7499184786,
    7306019418,
    354685160
  ],
  "tags": {
    "cycleway:right": "lane",
    "highway": "residential",
    "name": "Chemin des Charbonniers",
    "oneway": "yes"
  }
},
{
  "type": "way",
  "id": 31910306,
  "nodes": [
    357462721,
    1839898333,
    7181532516,
    6003193406,
    7555820739,
    7181532517,
    6001019637,
    6001338777,
    6001019649,
    6001338780,
    8111595839,
    6001353623,
    6001359632,
    6001367752,
    8111595868,
    6001431704,
    6001431707,
    8111595870,
    8111595862,
    357462719
  ],
  "tags": {
    "cycleway:right": "lane",
    "highway": "residential",
    "name": "Rue Denis Papin",
    "oneway": "yes",
    "source": "cadastre-dgi-fr source : Direction Générale des Impôts - Cadastre. Mise à jour : 2009",
    "surface": "asphalt"
  }
},
{
  "type": "way",
  "id": 31915852,
  "nodes": [
    357494429,
    7279499054,
    5225398743,
    7294862379,
    357323720
  ],
  "tags": {
    "cycleway:right": "lane",
    "highway": "residential",
    "lit": "yes",
    "maxspeed": "50",
    "name": "Rue du Champ-de-Mars",
    "oneway": "yes",
    "source": "cadastre-dgi-fr source : Direction Générale des Impôts - Cadastre;mise à jour : 2008",
    "surface": "asphalt"
  }
},
{
  "type": "way",
  "id": 31990780,
  "nodes": [
    358520139,
    7018136997,
    7095778551,
    358520145,
    7095778553,
    358520148,
    7018136998,
    358520151,
    7124758641,
    5159363947,
    7255273729
  ],
  "tags": {
    "busway": "opposite_lane",
    "cycleway:left": "opposite_share_busway",
    "cycleway:right": "lane",
    "highway": "residential",
    "lanes": "2",
    "lit": "yes",
    "maxspeed": "50",
    "name": "Rue André Pingat",
    "oneway": "yes",
    "sidewalk": "both",
    "source": "cadastre-dgi-fr source : Direction Générale des Impôts - Cadastre;mise à jour : 2008",
    "surface": "asphalt"
  }
},
{
  "type": "way",
  "id": 32119462,
  "nodes": [
    291327590,
    7264856643,
    7264856642,
    360481244,
    1091344920,
    1091345073,
    8857386844,
    1091344876,
    7171795759,
    360481242
  ],
  "tags": {
    "cycleway:left": "opposite_lane",
    "cycleway:right": "lane",
    "highway": "residential",
    "name": "Rue Joannes Brochet",
    "source": "cadastre-dgi-fr source : Direction Générale des Impôts - Cadastre;mise à jour : 2008"
  }
},
{
  "type": "way",
  "id": 32642632,
  "nodes": [
    345210750,
    7263141512,
    7263141514,
    8071129867,
    366971399,
    1095135244,
    366971331,
    7263159003,
    366994682,
    3031513322,
    3031513324,
    366948422,
    7263247246,
    366994676,
    7263206395,
    3033454441
  ],
  "tags": {
    "cycleway:right": "lane",
    "highway": "tertiary",
    "maxspeed": "50",
    "name": "Rue Albert Thomas",
    "oneway": "yes",
    "ref": "D 8",
    "source": "cadastre-dgi-fr source : Direction Générale des Impôts - Cadastre. Mise à jour : 2009",
    "surface": "asphalt"
  }
},
{
  "type": "way",
  "id": 32704935,
  "nodes": [
    368004943,
    368004944,
    5275720348,
    368004945,
    368004946,
    4005842701,
    789657583,
    368004947,
    368004948,
    789657592,
    368004949
  ],
  "tags": {
    "cycleway:right": "lane",
    "highway": "primary_link",
    "maxspeed": "50",
    "name": "Avenue de Champagne",
    "oneway": "yes",
    "ref": "N 51",
    "source": "GPS"
  }
},
{
  "type": "way",
  "id": 32704936,
  "nodes": [
    368004947,
    368004951,
    368004952,
    368004953,
    789657625,
    368004954
  ],
  "tags": {
    "cycleway:right": "lane",
    "highway": "tertiary_link",
    "maxspeed": "50",
    "name": "Avenue de Champagne",
    "oneway": "yes"
  }
},
{
  "type": "way",
  "id": 38547040,
  "nodes": [
    352811151,
    4462265101,
    9445686720,
    7904231497,
    7294388177,
    4462265108
  ],
  "tags": {
    "cycleway:right": "lane",
    "highway": "secondary",
    "lanes": "3",
    "lanes:backward": "2",
    "lanes:forward": "1",
    "maxspeed": "50",
    "name": "Boulevard Henry Vasnier",
    "oneway": "no",
    "ref": "N 44",
    "source": "GPS",
    "surface": "asphalt",
    "turn:lanes:backward": "left|through;right",
    "wikidata": "Q20669739",
    "wikipedia": "fr:Boulevard Henri-Vasnier"
  }
},
{
  "type": "way",
  "id": 42720832,
  "nodes": [
    7904840815,
    983507561,
    7857399780,
    7305253332,
    8390103713,
    983508007,
    983506956,
    983506912
  ],
  "tags": {
    "cycleway:right": "lane",
    "highway": "primary",
    "lanes": "2",
    "maxspeed": "50",
    "name": "Boulevard Henry Vasnier",
    "oneway": "yes",
    "ref": "N 44",
    "source": "cadastre-dgi-fr source : Direction Générale des Impôts - Cadastre;mise à jour : 2009",
    "surface": "asphalt"
  }
},
{
  "type": "way",
  "id": 80111845,
  "nodes": [
    358520161,
    7018137001,
    7040668926,
    5953997977,
    358520164
  ],
  "tags": {
    "busway": "opposite_lane",
    "cycleway:left": "opposite_share_busway",
    "cycleway:right": "lane",
    "highway": "residential",
    "lanes": "3",
    "lanes:backward": "1",
    "lanes:forward": "2",
    "lit": "yes",
    "maxspeed": "50",
    "name": "Rue André Pingat",
    "oneway": "yes",
    "sidewalk": "both",
    "source": "cadastre-dgi-fr source : Direction Générale des Impôts - Cadastre;mise à jour : 2008",
    "surface": "asphalt"
  }
},
{
  "type": "way",
  "id": 84665709,
  "nodes": [
    983506912,
    5830207261,
    534262303,
    7279814833,
    983507605,
    534262302
  ],
  "tags": {
    "cycleway:right": "lane",
    "highway": "primary",
    "lanes": "2",
    "maxspeed": "50",
    "name": "Avenue du Général Giraud",
    "oneway": "yes",
    "ref": "N 44",
    "surface": "asphalt"
  }
},
{
  "type": "way",
  "id": 84665769,
  "nodes": [
    278845637,
    4460596527,
    2371574105,
    4460596526,
    278845639,
    7857399779,
    7305253333,
    8390103712,
    3257425802,
    2519256728,
    6750796956
  ],
  "tags": {
    "cycleway:right": "lane",
    "destination:lanes": "left|through;right",
    "highway": "primary",
    "lanes": "2",
    "maxspeed": "50",
    "name": "Boulevard Henry Vasnier",
    "oneway": "yes",
    "ref": "N 44",
    "source": "GPS",
    "surface": "asphalt"
  }
},
{
  "type": "way",
  "id": 84665772,
  "nodes": [
    278845642,
    9043627618,
    7904840816,
    2519256730,
    476613052,
    7089590608,
    476613042
  ],
  "tags": {
    "cycleway:right": "lane",
    "highway": "secondary",
    "lanes": "2",
    "maxspeed": "50",
    "name": "Boulevard Henry Vasnier",
    "oneway": "no",
    "ref": "N 44",
    "surface": "asphalt",
    "wikidata": "Q20669739",
    "wikipedia": "fr:Boulevard Henri-Vasnier"
  }
},
{
  "type": "way",
  "id": 92470020,
  "nodes": [
    283281238,
    1073652985,
    5352267348,
    1073652942
  ],
  "tags": {
    "cycleway:right": "lane",
    "highway": "residential",
    "maxspeed": "50",
    "name": "Rue de Courcelles",
    "source": "cadastre-dgi-fr source : Direction Générale des Impôts - Cadastre. Mise à jour : 2010"
  }
},
{
  "type": "way",
  "id": 92482148,
  "nodes": [
    360425123,
    4108065838,
    6833263870,
    8512810035,
    6832746805,
    6833263871,
    6832746804,
    6832740854,
    6833263875,
    6833223784,
    6832740852,
    6832740872,
    6833223768,
    6833223779,
    6832746803,
    6833223774,
    6834069087,
    6832943999,
    6834321075,
    6832944098,
    7551492395,
    1073653012,
    6832970842,
    1073653264
  ],
  "tags": {
    "cycleway:left": "no",
    "cycleway:right": "lane",
    "highway": "residential",
    "lanes": "2",
    "maxspeed": "50",
    "name": "Rue du Colonel Charbonneaux",
    "sidewalk": "no",
    "source": "cadastre-dgi-fr source : Direction Générale des Impôts - Cadastre. Mise à jour : 2010"
  }
},
{
  "type": "way",
  "id": 94241911,
  "nodes": [
    270759704,
    1095054621,
    1920434951
  ],
  "tags": {
    "cycleway:right": "lane",
    "highway": "secondary",
    "low_emission_zone": "yes",
    "maxspeed": "50",
    "name": "Boulevard Louis Roederer",
    "oneway": "yes",
    "source": "cadastre-dgi-fr source : Direction Générale des Impôts - Cadastre. Mise à jour : 2011",
    "surface": "asphalt",
    "wikidata": "Q20669740",
    "wikipedia": "fr:Boulevard Louis-Roederer"
  }
},
{
  "type": "way",
  "id": 94255026,
  "nodes": [
    354541238,
    2520083142,
    301797530
  ],
  "tags": {
    "cycleway:left": "no",
    "cycleway:right": "lane",
    "cycleway:right:lane": "exclusive",
    "highway": "residential",
    "lit": "yes",
    "maxspeed": "30",
    "maxspeed:type": "sign",
    "name": "Boulevard Carteret",
    "oneway": "yes",
    "sidewalk": "both",
    "source": "cadastre-dgi-fr source : Direction Générale des Impôts - Cadastre;mise à jour : 2008",
    "surface": "asphalt"
  }
},
{
  "type": "way",
  "id": 94255031,
  "nodes": [
    352841772,
    2520083151,
    354541229
  ],
  "tags": {
    "cycleway:right": "lane",
    "cycleway:right:lane": "exclusive",
    "highway": "secondary_link",
    "lane_markings": "no",
    "maxspeed:type": "FR:urban",
    "name": "Place Alfred Brouette",
    "oneway": "yes",
    "sidewalk": "right",
    "source": "cadastre-dgi-fr source : Direction Générale des Impôts - Cadastre. Mise à jour : 2011",
    "surface": "asphalt"
  }
},
{
  "type": "way",
  "id": 94255039,
  "nodes": [
    306938914,
    1095574839,
    7167561421,
    1095575132
  ],
  "tags": {
    "cycleway:right": "lane",
    "highway": "secondary_link",
    "maxspeed": "50",
    "name": "Rue du Docteur Lemoine",
    "oneway": "yes",
    "source": "cadastre-dgi-fr source : Direction Générale des Impôts - Cadastre. Mise à jour : 2011"
  }
},
{
  "type": "way",
  "id": 94255043,
  "nodes": [
    349050710,
    7158138109,
    7332963110,
    8125097990,
    7952505809,
    1082910462,
    7496991591,
    349050715
  ],
  "tags": {
    "cycleway:right": "lane",
    "highway": "residential",
    "lane_markings": "no",
    "lit": "yes",
    "maxspeed": "50",
    "name": "Chaussée Bocquaine",
    "oneway": "no",
    "source": "cadastre-dgi-fr source : Direction Générale des Impôts - Cadastre;mise à jour : 2008",
    "surface": "asphalt"
  }
},
{
  "type": "way",
  "id": 94255045,
  "nodes": [
    306938935,
    1095575060,
    1095575100
  ],
  "tags": {
    "cycleway:right": "lane",
    "highway": "secondary_link",
    "maxspeed": "50",
    "name": "Rue du Docteur Lemoine",
    "oneway": "yes",
    "source": "cadastre-dgi-fr source : Direction Générale des Impôts - Cadastre. Mise à jour : 2011"
  }
},
{
  "type": "way",
  "id": 94316098,
  "nodes": [
    1095837909,
    6736611312,
    1095837790,
    1095838044,
    4210969358,
    1095837742
  ],
  "tags": {
    "cycleway:right": "lane",
    "highway": "secondary",
    "lane_markings": "no",
    "lit": "yes",
    "maxspeed": "50",
    "name": "Boulevard Louis Roederer",
    "oneway": "yes",
    "source": "cadastre-dgi-fr source : Direction Générale des Impôts - Cadastre. Mise à jour : 2011",
    "surface": "asphalt"
  }
},
{
  "type": "way",
  "id": 122884073,
  "nodes": [
    352825132,
    7960193789,
    6750796933,
    352825099,
    270759512,
    1095191035,
    510999647,
    2106812285,
    270759517,
    368005055
  ],
  "tags": {
    "cycleway:right": "lane",
    "highway": "primary",
    "lanes": "2",
    "maxspeed": "70",
    "maxspeed:type": "sign",
    "name": "Avenue de Champagne",
    "oneway": "yes",
    "ref": "N 51",
    "source": "cadastre-dgi-fr source : Direction Générale des Impôts - Cadastre. Mise à jour : 2011",
    "surface": "asphalt"
  }
},
{
  "type": "way",
  "id": 158177830,
  "nodes": [
    302030953,
    7124048812,
    8024965394,
    1102327546,
    8024965397,
    7177445706,
    1704079549,
    5352267539,
    1704079554,
    5830207259,
    4210931240,
    5830207260,
    4210931237,
    351928224,
    1704079551,
    4210931241
  ],
  "tags": {
    "cycleway:right": "lane",
    "highway": "residential",
    "incline": "down",
    "lanes": "1",
    "low_emission_zone": "yes",
    "maxspeed": "30",
    "name": "Rue du Châtelet",
    "oneway": "yes",
    "source:maxspeed": "FR:zone30",
    "surface": "asphalt",
    "zone:maxspeed": "FR:30"
  }
},
{
  "type": "way",
  "id": 158177831,
  "nodes": [
    298666324,
    476612907,
    1704079545,
    1704079553,
    4210931238,
    7254703062,
    7299593572,
    6764735059,
    351928232
  ],
  "tags": {
    "cycleway:right": "lane",
    "highway": "residential",
    "low_emission_zone": "yes",
    "maxspeed": "30",
    "name": "Esplanade Fléchambault",
    "oneway": "yes",
    "source:maxspeed": "FR:zone30",
    "surface": "asphalt",
    "zone:maxspeed": "FR:30"
  }
},
{
  "type": "way",
  "id": 158177959,
  "nodes": [
    7485319946,
    1704080368,
    7254703056,
    302030609
  ],
  "tags": {
    "cycleway:right": "lane",
    "highway": "tertiary",
    "low_emission_zone": "yes",
    "oneway": "yes",
    "surface": "asphalt"
  }
},
{
  "type": "way",
  "id": 175227750,
  "nodes": [
    360293934,
    360293930
  ],
  "tags": {
    "cycleway:right": "lane",
    "highway": "residential",
    "lanes": "1",
    "maxspeed": "50",
    "name": "Place Luton",
    "oneway": "yes",
    "source": "cadastre-dgi-fr source : Direction Générale des Impôts - Cadastre;mise à jour : 2008",
    "surface": "asphalt"
  }
},
{
  "type": "way",
  "id": 175405804,
  "nodes": [
    1095575100,
    306938896,
    8270156141,
    306938899
  ],
  "tags": {
    "cycleway:right": "lane",
    "highway": "secondary_link",
    "maxspeed": "50",
    "name": "Rue du Docteur Lemoine",
    "oneway": "yes"
  }
},
{
  "type": "way",
  "id": 237156816,
  "nodes": [
    302264933,
    7858957559,
    7263310144,
    365791540,
    345210653,
    7275358754,
    8446532970,
    5351823278,
    5351823281,
    509702520,
    1095190966,
    8106212778,
    352811305
  ],
  "tags": {
    "cycleway:left": "track",
    "cycleway:right": "lane",
    "cycleway:right:lane": "advisory",
    "highway": "secondary",
    "lanes": "2",
    "low_emission_zone": "yes",
    "maxspeed": "50",
    "name": "Boulevard Dieu Lumière",
    "oneway": "no",
    "source": "cadastre-dgi-fr source : Direction Générale des Impôts - Cadastre;mise à jour : 2008",
    "surface": "asphalt"
  }
},
{
  "type": "way",
  "id": 239244198,
  "nodes": [
    302385102,
    5861220199,
    349285232,
    350555869,
    2473554375,
    349285227
  ],
  "tags": {
    "cycleway:left": "opposite_lane",
    "cycleway:left:oneway": "-1",
    "cycleway:right": "lane",
    "highway": "residential",
    "lit": "yes",
    "low_emission_zone": "yes",
    "maxspeed": "30",
    "name": "Place du Forum",
    "oneway": "yes",
    "sidewalk": "both",
    "source": "cadastre-dgi-fr source : Direction Générale des Impôts - Cadastre;mise à jour : 2008",
    "source:maxspeed": "FR:zone30",
    "surface": "asphalt",
    "wikidata": "Q19407182",
    "wikipedia": "fr:Place du Forum",
    "zone:maxspeed": "FR:30"
  }
},
{
  "type": "way",
  "id": 239244200,
  "nodes": [
    302385102,
    7931575512,
    5861220195,
    349285215,
    5861220197,
    5903503001,
    302385104
  ],
  "tags": {
    "cycleway:left": "opposite_lane",
    "cycleway:left:oneway": "-1",
    "cycleway:right": "lane",
    "highway": "residential",
    "lanes": "1",
    "lit": "yes",
    "low_emission_zone": "yes",
    "maxspeed": "30",
    "name": "Rue Colbert",
    "oneway": "yes",
    "source:maxspeed": "FR:zone30",
    "surface": "asphalt",
    "wikidata": "Q67199842",
    "wikipedia": "fr:Rue Colbert (Reims)",
    "zone:maxspeed": "FR:30"
  }
},
{
  "type": "way",
  "id": 239244202,
  "nodes": [
    349285201,
    5861220200,
    302385102
  ],
  "tags": {
    "access": "no",
    "cycleway:left": "opposite_lane",
    "cycleway:left:oneway": "-1",
    "cycleway:right": "lane",
    "highway": "residential",
    "low_emission_zone": "yes",
    "maxspeed": "30",
    "name": "Place du Forum",
    "oneway": "yes",
    "psv": "yes",
    "source": "cadastre-dgi-fr source : Direction Générale des Impôts - Cadastre;mise à jour : 2008",
    "source:maxspeed": "FR:zone30",
    "surface": "asphalt",
    "wikidata": "Q19407182",
    "wikipedia": "fr:Place du Forum",
    "zone:maxspeed": "FR:30"
  }
},
{
  "type": "way",
  "id": 241965708,
  "nodes": [
    2495337482,
    2495337490,
    2495337497,
    270759612
  ],
  "tags": {
    "cycleway:right": "lane",
    "highway": "residential",
    "oneway": "yes",
    "source": "Bing"
  }
},
{
  "type": "way",
  "id": 241965712,
  "nodes": [
    2495337451,
    7218107725,
    7218107726,
    1704074253
  ],
  "tags": {
    "cycleway:right": "lane",
    "fixme": "PLEASE REVIEW / quick change due to licence change",
    "highway": "residential",
    "oneway": "yes",
    "source": "Bing"
  }
},
{
  "type": "way",
  "id": 299355047,
  "nodes": [
    3033454441,
    3033454474,
    8068697591,
    7263206396,
    8068625182,
    3033454475
  ],
  "tags": {
    "cycleway:right": "lane",
    "highway": "tertiary",
    "maxspeed": "50",
    "name": "Rue Albert Thomas",
    "oneway": "yes",
    "ref": "D 8",
    "source": "cadastre-dgi-fr source : Direction Générale des Impôts - Cadastre. Mise à jour : 2009",
    "surface": "asphalt"
  }
},
{
  "type": "way",
  "id": 311542351,
  "nodes": [
    3172160742,
    5398791829,
    5398791828,
    7301694860,
    983406183,
    5398732901,
    4460506876,
    1095778069,
    5398588378,
    4460506857,
    1095778122,
    1095778358,
    5398732892,
    7395479771,
    5398732898,
    1095778060,
    983581852,
    4460506882,
    278845655,
    4460506867,
    534262287
  ],
  "tags": {
    "cycleway:right": "lane",
    "highway": "primary",
    "lanes": "2",
    "maxspeed": "70",
    "name": "Avenue Henri Farman",
    "oneway": "yes",
    "ref": "N 44",
    "surface": "asphalt"
  }
},
{
  "type": "way",
  "id": 311542353,
  "nodes": [
    3172160737,
    534262297,
    534262295,
    3172160745,
    278845681
  ],
  "tags": {
    "cycleway:right": "lane",
    "highway": "primary",
    "lanes": "2",
    "maxspeed": "50",
    "name": "Avenue Henri Farman",
    "oneway": "yes",
    "ref": "N 44",
    "source": "cadastre-dgi-fr source : Direction Générale des Impôts - Cadastre;mise à jour : 2009",
    "surface": "asphalt"
  }
},
{
  "type": "way",
  "id": 311542729,
  "nodes": [
    534262302,
    8829019245,
    9056018065,
    8829019247,
    7904846479,
    534262301,
    534262299,
    534262298,
    4460506873,
    4718323690,
    534262305,
    7182171474,
    7005885610,
    7182189896,
    534262309,
    7947661608,
    3172160737
  ],
  "tags": {
    "cycleway:right": "lane",
    "highway": "primary",
    "lanes": "2",
    "maxspeed": "70",
    "name": "Avenue Henri Farman",
    "oneway": "yes",
    "ref": "N 44",
    "source": "cadastre-dgi-fr source : Direction Générale des Impôts - Cadastre;mise à jour : 2009"
  }
},
{
  "type": "way",
  "id": 311542731,
  "nodes": [
    534262287,
    278845654,
    9445686883,
    983507296
  ],
  "tags": {
    "cycleway:right": "lane",
    "highway": "primary",
    "lanes": "2",
    "maxspeed": "50",
    "name": "Avenue Henri Farman",
    "oneway": "yes",
    "ref": "N 44",
    "surface": "asphalt"
  }
},
{
  "type": "way",
  "id": 337576340,
  "nodes": [
    7110460867,
    5046304158,
    6767232082,
    6767232081,
    7888783917,
    5777567522,
    360293872
  ],
  "tags": {
    "bicycle": "yes",
    "covered": "no",
    "cycleway:left": "opposite_lane",
    "cycleway:right": "lane",
    "foot": "yes",
    "highway": "tertiary",
    "lanes": "1",
    "lit": "yes",
    "maxspeed": "30",
    "name": "Rue Lesage",
    "oneway": "yes",
    "source": "cadastre-dgi-fr source : Direction Générale des Impôts - Cadastre;mise à jour : 2008",
    "surface": "asphalt",
    "wikidata": "Q20641893",
    "wikipedia": "fr:Rue Lesage (Reims)"
  }
},
{
  "type": "way",
  "id": 370393928,
  "nodes": [
    302385072,
    302385081
  ],
  "tags": {
    "cycleway:right": "lane",
    "highway": "residential",
    "lit": "yes",
    "low_emission_zone": "yes",
    "maxspeed": "30",
    "name": "Place des Martyrs de la Résistance",
    "oneway": "yes",
    "source": "Bing",
    "source:maxspeed": "FR:zone30",
    "surface": "asphalt",
    "zone:maxspeed": "FR:30"
  }
},
{
  "type": "way",
  "id": 409229195,
  "nodes": [
    355307559,
    4111295945,
    4111295948,
    4111295951,
    4111295950
  ],
  "tags": {
    "cycleway:right": "lane",
    "highway": "residential",
    "maxspeed": "50",
    "name": "Rue de Courcelles",
    "oneway": "yes",
    "wikidata": "Q20235824",
    "wikipedia": "fr:Rue de Courcelles (Reims)"
  }
},
{
  "type": "way",
  "id": 421318296,
  "nodes": [
    1095837909,
    270759431
  ],
  "tags": {
    "cycleway:right": "lane",
    "highway": "secondary",
    "lanes": "2",
    "low_emission_zone": "yes",
    "maxspeed": "50",
    "name": "Boulevard Louis Roederer",
    "oneway": "yes",
    "source": "cadastre-dgi-fr source : Direction Générale des Impôts - Cadastre. Mise à jour : 2011",
    "surface": "asphalt"
  }
},
{
  "type": "way",
  "id": 421318311,
  "nodes": [
    1920434951,
    1095837909
  ],
  "tags": {
    "cycleway:right": "lane",
    "highway": "secondary",
    "low_emission_zone": "yes",
    "maxspeed": "50",
    "name": "Boulevard Louis Roederer",
    "oneway": "yes",
    "source": "cadastre-dgi-fr source : Direction Générale des Impôts - Cadastre. Mise à jour : 2011",
    "surface": "asphalt"
  }
},
{
  "type": "way",
  "id": 449081720,
  "nodes": [
    4460506839,
    534262294,
    4460506874,
    278845659,
    3172160742
  ],
  "tags": {
    "cycleway:right": "lane",
    "highway": "primary",
    "lanes": "2",
    "maxspeed": "50",
    "name": "Avenue Henri Farman",
    "oneway": "yes",
    "ref": "N 44",
    "surface": "asphalt"
  }
},
{
  "type": "way",
  "id": 449255058,
  "nodes": [
    4462265108,
    7904218478
  ],
  "tags": {
    "cycleway:right": "lane",
    "highway": "secondary",
    "lanes": "2",
    "maxspeed": "50",
    "name": "Boulevard Henry Vasnier",
    "oneway": "no",
    "ref": "N 44",
    "source": "GPS",
    "surface": "asphalt"
  }
},
{
  "type": "way",
  "id": 471384342,
  "nodes": [
    350555908,
    350555875,
    2344214118,
    2344214113,
    3728949278,
    350555924,
    8248186899,
    6214464156,
    302385134
  ],
  "tags": {
    "cycleway:right": "lane",
    "highway": "residential",
    "lit": "yes",
    "low_emission_zone": "yes",
    "maxspeed": "30",
    "name": "Rue Eugène Desteuque",
    "oneway": "yes",
    "oneway:bicycle": "no",
    "source": "cadastre-dgi-fr source : Direction Générale des Impôts - Cadastre;mise à jour : 2008;cadastre-dgi-fr source : Direction Générale des Impôts - Cadastre",
    "source:maxspeed": "FR:zone30",
    "surface": "asphalt",
    "wikidata": "Q21039460",
    "wikipedia": "fr:Rue Eugène-Desteuque",
    "zone:maxspeed": "FR:30"
  }
},
{
  "type": "way",
  "id": 545888512,
  "nodes": [
    5275720324,
    5275719920,
    8111583183,
    348161733
  ],
  "tags": {
    "cycleway:right": "lane",
    "highway": "residential",
    "name": "Avenue Edmond Michelet",
    "surface": "asphalt"
  }
},
{
  "type": "way",
  "id": 545888513,
  "nodes": [
    2495337370,
    1704074235,
    2495337367,
    7422278143,
    5275720334
  ],
  "tags": {
    "cycleway:right": "lane",
    "highway": "residential",
    "name": "Avenue Edmond Michelet"
  }
},
{
  "type": "way",
  "id": 545888515,
  "nodes": [
    2495337380,
    1704074233,
    2495337376,
    5275720321,
    348161960,
    8342818690,
    8228638201,
    5275720323,
    5275720322
  ],
  "tags": {
    "cycleway:right": "lane",
    "highway": "residential",
    "name": "Avenue Edmond Michelet"
  }
},
{
  "type": "way",
  "id": 545888518,
  "nodes": [
    5275720336,
    5275720337,
    1704074217,
    1704074205
  ],
  "tags": {
    "cycleway:right": "lane",
    "highway": "residential",
    "name": "Avenue Edmond Michelet",
    "surface": "asphalt"
  }
},
{
  "type": "way",
  "id": 545888522,
  "nodes": [
    1704074196,
    5275720344,
    5275720345,
    5275720346
  ],
  "tags": {
    "cycleway:right": "lane",
    "highway": "residential",
    "name": "Avenue Edmond Michelet",
    "oneway": "yes"
  }
},
{
  "type": "way",
  "id": 545888524,
  "nodes": [
    1704074196,
    1704074209,
    1704074204,
    1704074221,
    1704074243,
    5275720338,
    8342828033,
    1704074237
  ],
  "tags": {
    "cycleway:right": "lane",
    "highway": "residential",
    "junction": "roundabout"
  }
},
{
  "type": "way",
  "id": 616103639,
  "nodes": [
    278845646,
    4462265111,
    278845635
  ],
  "tags": {
    "cycleway:right": "lane",
    "highway": "secondary",
    "lanes": "2",
    "low_emission_zone": "yes",
    "maxspeed": "50",
    "name": "Boulevard Pasteur",
    "oneway": "yes",
    "ref": "N 44",
    "source": "cadastre-dgi-fr source : Direction Générale des Impôts - Cadastre;mise à jour : 2008",
    "surface": "asphalt",
    "turn:lanes": "through|through;right"
  }
},
{
  "type": "way",
  "id": 616103640,
  "nodes": [
    302265364,
    352811504
  ],
  "tags": {
    "cycleway:right": "lane",
    "highway": "secondary",
    "low_emission_zone": "yes",
    "maxspeed": "50",
    "name": "Boulevard Victor Hugo",
    "oneway": "yes",
    "ref": "N 44",
    "surface": "asphalt"
  }
},
{
  "type": "way",
  "id": 616404185,
  "nodes": [
    351928232,
    7254703063,
    1704079539,
    1704079541,
    7275206609,
    1704079544,
    7126052956,
    352811386,
    9445688188,
    7124048809,
    302030926
  ],
  "tags": {
    "cycleway:right": "lane",
    "highway": "residential",
    "incline": "up",
    "lanes": "1",
    "low_emission_zone": "yes",
    "maxspeed": "30",
    "name": "Rue Chanteraine",
    "oneway": "yes",
    "source:maxspeed": "FR:zone30",
    "surface": "asphalt",
    "zone:maxspeed": "FR:30"
  }
},
{
  "type": "way",
  "id": 616713484,
  "nodes": [
    280024511,
    1095574905,
    3722729870,
    8673075322,
    3255857356
  ],
  "tags": {
    "cycleway:right": "lane",
    "highway": "tertiary",
    "junction": "roundabout",
    "name": "Rond-Point François Mauriac"
  }
},
{
  "type": "way",
  "id": 616713485,
  "nodes": [
    280024509,
    1095574842,
    1095574858,
    3722729868,
    3722729869,
    280024511
  ],
  "tags": {
    "cycleway:right": "lane",
    "highway": "tertiary",
    "junction": "roundabout",
    "name": "Rond-Point François Mauriac"
  }
},
{
  "type": "way",
  "id": 616713486,
  "nodes": [
    280024560,
    280024554,
    3722729875,
    3722729876,
    280024509
  ],
  "tags": {
    "cycleway:right": "lane",
    "highway": "tertiary",
    "junction": "roundabout",
    "name": "Rond-Point François Mauriac"
  }
},
{
  "type": "way",
  "id": 616713487,
  "nodes": [
    280024309,
    280024322,
    280024320,
    3722729879,
    3722729880,
    280024528
  ],
  "tags": {
    "cycleway:right": "lane",
    "highway": "tertiary",
    "junction": "roundabout",
    "name": "Avenue François Mauriac"
  }
},
{
  "type": "way",
  "id": 616713488,
  "nodes": [
    280024329,
    6355254559,
    280024317,
    3722729877,
    3722729878,
    6355254561,
    280024309
  ],
  "tags": {
    "cycleway:right": "lane",
    "highway": "tertiary",
    "junction": "roundabout",
    "name": "Avenue François Mauriac"
  }
},
{
  "type": "way",
  "id": 616713491,
  "nodes": [
    280024520,
    280024513,
    280024515,
    3722729885,
    280024329
  ],
  "tags": {
    "cycleway:right": "lane",
    "highway": "tertiary",
    "junction": "roundabout",
    "name": "Avenue François Mauriac"
  }
},
{
  "type": "way",
  "id": 616713574,
  "nodes": [
    2413746457,
    367678145,
    5830207263,
    7181854123,
    367678170
  ],
  "tags": {
    "bus_bay": "right",
    "cycleway:right": "lane",
    "highway": "residential",
    "name": "Avenue de l'Europe",
    "oneway": "yes"
  }
},
{
  "type": "way",
  "id": 616713586,
  "nodes": [
    281788514,
    9445718858,
    281788528,
    9445718857,
    281788510,
    8461728444,
    281788523,
    9445718851,
    9445718863,
    9445718849,
    2318175121,
    281788522,
    281788525,
    9445718852,
    281788524,
    9445718853,
    5830207244,
    9445718862,
    281788519,
    9445718854,
    281788518
  ],
  "tags": {
    "cycleway:right": "lane",
    "highway": "tertiary",
    "junction": "roundabout",
    "name": "Boulevard du Président Wilson"
  }
},
{
  "type": "way",
  "id": 680867251,
  "nodes": [
    302385134,
    6214464157,
    350555708,
    350555703,
    7496994708,
    6214523078,
    350555687
  ],
  "tags": {
    "cycleway:left": "opposite_lane",
    "cycleway:left:oneway": "-1",
    "cycleway:right": "lane",
    "highway": "residential",
    "lit": "yes",
    "low_emission_zone": "yes",
    "maxspeed": "30",
    "name": "Rue Voltaire",
    "oneway": "yes",
    "source:maxspeed": "FR:zone30",
    "surface": "asphalt",
    "wikidata": "Q20669858",
    "wikipedia": "fr:Rue Voltaire (Reims)",
    "zone:maxspeed": "FR:30"
  }
},
{
  "type": "way",
  "id": 680867252,
  "nodes": [
    302385134,
    6214464154,
    6214464153,
    2341977906,
    278845620
  ],
  "tags": {
    "cycleway:right": "lane",
    "highway": "residential",
    "lit": "yes",
    "low_emission_zone": "yes",
    "maxspeed": "30",
    "name": "Rue Eugène Desteuque",
    "oneway": "yes",
    "oneway:bicycle": "no",
    "source": "cadastre-dgi-fr source : Direction Générale des Impôts - Cadastre;mise à jour : 2008;cadastre-dgi-fr source : Direction Générale des Impôts - Cadastre",
    "source:maxspeed": "FR:zone30",
    "surface": "asphalt",
    "zone:maxspeed": "FR:30"
  }
},
{
  "type": "way",
  "id": 720981008,
  "nodes": [
    298666006,
    298665904,
    7254746653,
    1100256856,
    298666327
  ],
  "tags": {
    "cycleway:left": "no",
    "cycleway:right": "lane",
    "cycleway:right:lane": "advisory",
    "highway": "tertiary",
    "lanes": "2",
    "maxspeed": "30",
    "name": "Rue Clovis Chézel",
    "ref": "D 9",
    "source": "cadastre-dgi-fr source : Direction Générale des Impôts - Cadastre;mise à jour : 2008",
    "source:maxspeed": "FR:zone30",
    "surface": "asphalt",
    "zone:maxspeed": "FR:30"
  }
},
{
  "type": "way",
  "id": 720981009,
  "nodes": [
    1704079551,
    6764735057,
    8137245059,
    6764735058,
    7299593571,
    6764735059
  ],
  "tags": {
    "cycleway:right": "lane",
    "highway": "residential",
    "lanes": "1",
    "low_emission_zone": "yes",
    "maxspeed": "30",
    "name": "Esplanade Fléchambault",
    "oneway": "yes",
    "source:maxspeed": "FR:zone30",
    "surface": "asphalt",
    "zone:maxspeed": "FR:30"
  }
},
{
  "type": "way",
  "id": 720981010,
  "nodes": [
    6764735061,
    7124048813,
    302030953
  ],
  "tags": {
    "bicycle": "private",
    "cycleway:right": "lane",
    "highway": "residential",
    "lanes": "2",
    "lit": "yes",
    "low_emission_zone": "yes",
    "maxspeed": "30",
    "name": "Rue Simon",
    "oneway": "no",
    "sidewalk": "both",
    "source": "cadastre-dgi-fr source : Direction Générale des Impôts - Cadastre;mise à jour : 2008",
    "source:maxspeed": "FR:zone30",
    "surface": "asphalt",
    "wikidata": "Q20064366",
    "wikipedia": "fr:Rue Simon (Reims)",
    "zone:maxspeed": "FR:30"
  }
},
{
  "type": "way",
  "id": 720981011,
  "nodes": [
    5936305093,
    1704085770,
    5749537240,
    1704085767
  ],
  "tags": {
    "cycleway:right": "lane",
    "highway": "residential",
    "name": "Boulevard Docteur Roux"
  }
},
{
  "type": "way",
  "id": 720981013,
  "nodes": [
    1704085763,
    7888146167,
    6960062900,
    281788795
  ],
  "tags": {
    "cycleway:right": "lane",
    "highway": "tertiary",
    "name": "Rue de la Maison Blanche",
    "oneway": "yes",
    "wikidata": "Q21027260",
    "wikipedia": "fr:Rue de la Maison-Blanche (Reims)"
  }
},
{
  "type": "way",
  "id": 720981014,
  "nodes": [
    6764735063,
    357235593,
    1704085763
  ],
  "tags": {
    "cycleway:right": "lane",
    "highway": "tertiary",
    "name": "Rue de la Maison Blanche",
    "oneway": "yes",
    "wikidata": "Q21027260",
    "wikipedia": "fr:Rue de la Maison-Blanche (Reims)"
  }
},
{
  "type": "way",
  "id": 721281141,
  "nodes": [
    5777574543,
    7368510994,
    7368510995,
    302482856,
    7369062707,
    360425387,
    7369062711,
    7368997784,
    360425392,
    302482858,
    7368999397,
    360425400,
    302482860,
    360425405
  ],
  "tags": {
    "cycleway:right": "lane",
    "highway": "secondary",
    "maxspeed": "50",
    "name": "Rue Émile Zola",
    "old_ref": "N 366",
    "oneway": "no",
    "ref": "D 966",
    "wikidata": "Q21099813",
    "wikipedia": "fr:Rue Émile-Zola (Reims)"
  }
},
{
  "type": "way",
  "id": 721281150,
  "nodes": [
    360293930,
    5777574654,
    8857436780,
    360293925,
    360425484,
    8203502840,
    360293937,
    7289478782,
    306938988
  ],
  "tags": {
    "cycleway:left": "opposite_lane",
    "cycleway:right": "lane",
    "highway": "residential",
    "lanes": "1",
    "maxspeed": "50",
    "name": "Place Luton",
    "oneway": "yes",
    "source": "cadastre-dgi-fr source : Direction Générale des Impôts - Cadastre;mise à jour : 2008",
    "surface": "asphalt",
    "wikidata": "Q21938019",
    "wikipedia": "fr:Place Luton"
  }
},
{
  "type": "way",
  "id": 721735952,
  "nodes": [
    302385075,
    350555661,
    8402974261,
    2519298884,
    302385109
  ],
  "tags": {
    "cycleway:left": "opposite_lane",
    "cycleway:right": "lane",
    "highway": "residential",
    "lit": "yes",
    "low_emission_zone": "yes",
    "maxspeed": "30",
    "name": "Rue de l'Université",
    "oneway": "yes",
    "source:maxspeed": "FR:zone30",
    "surface": "asphalt",
    "wikidata": "Q20127611",
    "wikipedia": "fr:Rue de l'Université (Reims)",
    "zone:maxspeed": "FR:30"
  }
},
{
  "type": "way",
  "id": 721735953,
  "nodes": [
    351919921,
    2519298864,
    302385113,
    6770463960,
    7196137753,
    302385075
  ],
  "tags": {
    "cycleway:left": "opposite_lane",
    "cycleway:right": "lane",
    "highway": "residential",
    "lanes": "2",
    "low_emission_zone": "yes",
    "maxspeed": "30",
    "name": "Rue Saint-Just",
    "oneway": "yes",
    "oneway:bicycle": "no",
    "source:maxspeed": "FR:zone30",
    "surface": "asphalt",
    "zone:maxspeed": "FR:30"
  }
},
{
  "type": "way",
  "id": 721735956,
  "nodes": [
    350555687,
    6214523076,
    2519298908,
    350555672,
    2519298904,
    350555964,
    2519298895,
    302385109
  ],
  "tags": {
    "cycleway:left": "opposite_lane",
    "cycleway:left:oneway": "-1",
    "cycleway:right": "lane",
    "highway": "residential",
    "lit": "yes",
    "low_emission_zone": "yes",
    "maxspeed": "30",
    "name": "Rue Voltaire",
    "oneway": "yes",
    "source:maxspeed": "FR:zone30",
    "surface": "asphalt",
    "wikidata": "Q20669858",
    "wikipedia": "fr:Rue Voltaire (Reims)",
    "zone:maxspeed": "FR:30"
  }
},
{
  "type": "way",
  "id": 722337364,
  "nodes": [
    349285230,
    2473554384,
    1103726117,
    349285238,
    5861220198,
    9060899801,
    349285215
  ],
  "tags": {
    "cycleway:left": "opposite_lane",
    "cycleway:right": "lane",
    "highway": "residential",
    "lit": "yes",
    "low_emission_zone": "yes",
    "maxspeed": "30",
    "name": "Place du Forum",
    "oneway": "yes",
    "sidewalk": "both",
    "source": "cadastre-dgi-fr source : Direction Générale des Impôts - Cadastre;mise à jour : 2008",
    "source:maxspeed": "FR:zone30",
    "surface": "asphalt",
    "wikidata": "Q19407182",
    "wikipedia": "fr:Place du Forum",
    "zone:maxspeed": "FR:30"
  }
},
{
  "type": "way",
  "id": 736348243,
  "nodes": [
    350555715,
    350555716,
    350555750,
    5903495091,
    350555721,
    350555736,
    5903493483,
    349285249
  ],
  "tags": {
    "cycleway:left": "opposite_lane",
    "cycleway:left:oneway": "-1",
    "cycleway:right": "lane",
    "highway": "residential",
    "lit": "yes",
    "low_emission_zone": "yes",
    "maxspeed": "30",
    "name": "Rue Jean-Jacques Rousseau",
    "oneway": "yes",
    "oneway:bicycle": "no",
    "source": "cadastre-dgi-fr source : Direction Générale des Impôts - Cadastre;mise à jour : 2008",
    "source:maxspeed": "FR:zone30",
    "surface": "asphalt",
    "wikidata": "Q22669116",
    "wikipedia": "fr:Rue Jean-Jacques-Rousseau (Reims)",
    "zone:maxspeed": "FR:30"
  }
},
{
  "type": "way",
  "id": 758057657,
  "nodes": [
    357235619,
    7124627489,
    456317566,
    354685170,
    296880266
  ],
  "tags": {
    "cycleway:right": "lane",
    "highway": "tertiary",
    "name": "Rue d'Estienne d'Orves",
    "oneway": "yes"
  }
},
{
  "type": "way",
  "id": 758674990,
  "nodes": [
    343375252,
    343375168,
    1822373330
  ],
  "tags": {
    "cycleway:right": "lane",
    "highway": "residential",
    "name": "Rue Léon Mathieu",
    "oneway": "yes",
    "oneway:bicycle": "no",
    "source": "cadastre-dgi-fr source : Direction Générale des Impôts - Cadastre;mise à jour : 2008",
    "surface": "asphalt"
  }
},
{
  "type": "way",
  "id": 761031349,
  "nodes": [
    314511411,
    7266402850,
    2519298804,
    2519298849,
    283282544
  ],
  "tags": {
    "cycleway:left": "opposite_lane",
    "cycleway:left:oneway": "-1",
    "cycleway:right": "lane",
    "highway": "residential",
    "lit": "yes",
    "low_emission_zone": "yes",
    "maxspeed": "30",
    "name": "Rue des Tournelles",
    "oneway": "yes",
    "oneway:bicycle": "no",
    "sidewalk": "both",
    "source:maxspeed": "FR:zone30",
    "surface": "asphalt",
    "wikidata": "Q46582692",
    "wikipedia": "fr:Rue des Tournelles (Reims)",
    "zone:maxspeed": "FR:30"
  }
},
{
  "type": "way",
  "id": 777329701,
  "nodes": [
    7253347862,
    7124326480,
    281788604,
    360733099,
    8228748102,
    281788605,
    7124372237,
    7124563220,
    302766351,
    7257247576,
    722991075
  ],
  "tags": {
    "cycleway:right": "lane",
    "highway": "tertiary",
    "maxspeed": "50",
    "name": "Rue de Louvois",
    "oneway": "yes",
    "ref": "D 9"
  }
},
{
  "type": "way",
  "id": 777475162,
  "nodes": [
    7255273729,
    7274708477,
    7124758640,
    7018136999,
    358520154,
    7255273730,
    7018137000,
    358520158,
    358520161
  ],
  "tags": {
    "busway": "opposite_lane",
    "cycleway:left": "opposite_share_busway",
    "cycleway:right": "lane",
    "highway": "residential",
    "lit": "yes",
    "maxspeed": "50",
    "name": "Rue André Pingat",
    "oneway": "yes",
    "sidewalk": "both",
    "source": "cadastre-dgi-fr source : Direction Générale des Impôts - Cadastre;mise à jour : 2008",
    "surface": "asphalt"
  }
},
{
  "type": "way",
  "id": 777818922,
  "nodes": [
    1704074253,
    2495337480,
    2495337482
  ],
  "tags": {
    "cycleway:right": "lane",
    "fixme": "PLEASE REVIEW / quick change due to licence change",
    "highway": "residential",
    "oneway": "yes",
    "source": "Bing"
  }
},
{
  "type": "way",
  "id": 778242913,
  "nodes": [
    7263463188,
    7276175683,
    345210759,
    345210765,
    366994669
  ],
  "tags": {
    "cycleway:left": "opposite_lane",
    "cycleway:right": "lane",
    "highway": "residential",
    "maxspeed": "50",
    "name": "Rue Saint-Léonard",
    "oneway": "yes",
    "source": "cadastre-dgi-fr source : Direction Générale des Impôts - Cadastre;mise à jour : 2008",
    "surface": "asphalt"
  }
},
{
  "type": "way",
  "id": 778871037,
  "nodes": [
    301546119,
    357236047,
    8078965326,
    5830207247,
    7247473327,
    456317560,
    7247473326,
    7247473315,
    7247473314,
    6757772111
  ],
  "tags": {
    "cycleway:left": "track",
    "cycleway:right": "lane",
    "highway": "tertiary",
    "name": "Boulevard du Président Wilson",
    "oneway": "no"
  }
},
{
  "type": "way",
  "id": 779047214,
  "nodes": [
    280024870,
    9451141645,
    280024668,
    9451141644,
    8960402168,
    280024864,
    280024676,
    7109130597,
    7109130610,
    1821030746,
    280024673,
    280024698,
    8960402169,
    280024697,
    8960402170,
    280024704
  ],
  "tags": {
    "cycleway:right": "lane",
    "highway": "secondary",
    "junction": "roundabout",
    "lanes": "1",
    "name": "Rond-Point de la Place Jean Donatini",
    "surface": "asphalt"
  }
},
{
  "type": "way",
  "id": 779061422,
  "nodes": [
    270759560,
    2425467254,
    348153048,
    270759550,
    2495337510,
    722991713,
    348153046,
    722991714,
    270759551
  ],
  "tags": {
    "cycleway:right": "lane",
    "highway": "residential",
    "junction": "roundabout",
    "maxspeed": "30",
    "name": "Rond-Point Marguerite Boutigny",
    "source": "GPS"
  }
},
{
  "type": "way",
  "id": 779061423,
  "nodes": [
    270759556,
    722991722,
    348153045,
    8237881018,
    9383912724,
    270759557,
    2495337507,
    348153047,
    270759559,
    9466004652,
    270759560
  ],
  "tags": {
    "cycleway:right": "lane",
    "highway": "residential",
    "junction": "roundabout",
    "maxspeed": "30",
    "name": "Rond-Point Marguerite Boutigny",
    "source": "GPS"
  }
},
{
  "type": "way",
  "id": 779310805,
  "nodes": [
    281788759,
    1014103813,
    281788761,
    281788551
  ],
  "tags": {
    "cycleway:right": "lane",
    "highway": "secondary",
    "junction": "roundabout",
    "name": "Place des Combattants d'Indochine",
    "surface": "asphalt"
  }
},
{
  "type": "way",
  "id": 779425081,
  "nodes": [
    281788551,
    5859736592,
    8089365446,
    1014103788
  ],
  "tags": {
    "cycleway:right": "lane",
    "highway": "secondary",
    "junction": "roundabout",
    "name": "Place des Combattants d'Indochine",
    "surface": "asphalt"
  }
},
{
  "type": "way",
  "id": 779425082,
  "nodes": [
    281788549,
    5859736588,
    5830110191,
    281788741,
    281788744,
    1014103804,
    5859736589,
    281788749
  ],
  "tags": {
    "cycleway:right": "lane",
    "highway": "secondary",
    "junction": "roundabout",
    "name": "Place des Combattants d'Indochine",
    "surface": "asphalt"
  }
},
{
  "type": "way",
  "id": 779993875,
  "nodes": [
    280024246,
    1095675102,
    3722729891,
    280024261,
    1095675012,
    1095675034,
    3722729886,
    280024258
  ],
  "tags": {
    "cycleway:right": "lane",
    "highway": "tertiary",
    "junction": "roundabout",
    "name": "Avenue François Mauriac"
  }
},
{
  "type": "way",
  "id": 781359012,
  "nodes": [
    357323701,
    7822480076,
    2348686935
  ],
  "tags": {
    "cycleway:right": "lane",
    "highway": "secondary",
    "lanes": "2",
    "low_emission_zone": "yes",
    "maxspeed": "50",
    "name": "Boulevard Lundy",
    "oneway": "yes",
    "ref": "N 44",
    "surface": "asphalt",
    "wikidata": "Q3146324",
    "wikipedia": "fr:Boulevard Lundy"
  }
},
{
  "type": "way",
  "id": 781744427,
  "nodes": [
    280024258,
    3722729887,
    280024255
  ],
  "tags": {
    "cycleway:right": "lane",
    "highway": "tertiary",
    "junction": "roundabout",
    "name": "Avenue François Mauriac"
  }
},
{
  "type": "way",
  "id": 836094875,
  "nodes": [
    7803853354,
    7803853355,
    7803853356,
    7803853357,
    7803853348,
    7803853358,
    9054350585
  ],
  "tags": {
    "cycleway:right": "lane",
    "highway": "residential",
    "lanes": "1",
    "low_emission_zone": "yes",
    "maxspeed": "50",
    "name": "Boulevard Paul Doumer",
    "oneway": "yes",
    "surface": "asphalt"
  }
},
{
  "type": "way",
  "id": 845631466,
  "nodes": [
    357236091,
    301546120,
    301546121,
    7247225535,
    7247326799,
    296877306
  ],
  "tags": {
    "cycleway:right": "lane",
    "highway": "residential",
    "name": "Avenue Paul Marchandeau",
    "oneway": "yes"
  }
},
{
  "type": "way",
  "id": 845631867,
  "nodes": [
    7889538209,
    301546117,
    7889520863
  ],
  "tags": {
    "cycleway:right": "lane",
    "highway": "residential",
    "name": "Avenue Paul Marchandeau",
    "oneway": "yes"
  }
},
{
  "type": "way",
  "id": 846527768,
  "nodes": [
    2348686934,
    7124149364,
    1821744553
  ],
  "tags": {
    "cycleway:right": "lane",
    "highway": "secondary",
    "low_emission_zone": "yes",
    "maxspeed": "50",
    "name": "Boulevard Lundy",
    "oneway": "yes",
    "ref": "N 44",
    "surface": "asphalt",
    "wikidata": "Q3146324",
    "wikipedia": "fr:Boulevard Lundy"
  }
},
{
  "type": "way",
  "id": 846531894,
  "nodes": [
    301790395,
    9024571652,
    4462265095,
    1821744560
  ],
  "tags": {
    "cycleway:right": "lane",
    "highway": "secondary",
    "lanes": "4",
    "lanes:backward": "2",
    "lanes:forward": "2",
    "low_emission_zone": "yes",
    "maxspeed": "50",
    "name": "Boulevard Lundy",
    "oneway": "no",
    "ref": "N 44",
    "surface": "asphalt",
    "was:cycleway:left": "none",
    "was:cycleway:right": "none",
    "wikidata": "Q3146324",
    "wikipedia": "fr:Boulevard Lundy"
  }
},
{
  "type": "way",
  "id": 881222131,
  "nodes": [
    1095190901,
    302264933
  ],
  "tags": {
    "cycleway:left": "no",
    "cycleway:right": "lane",
    "highway": "secondary_link",
    "low_emission_zone": "yes",
    "maxspeed": "50",
    "name": "Boulevard Dieu Lumière",
    "oneway": "yes",
    "surface": "asphalt"
  }
},
{
  "type": "way",
  "id": 894001777,
  "nodes": [
    281788795,
    6960062901,
    7271340246,
    357235585,
    281788577,
    357235790
  ],
  "tags": {
    "cycleway:left": "track",
    "cycleway:right": "lane",
    "highway": "tertiary",
    "name": "Boulevard du Président Wilson",
    "oneway": "no"
  }
},
{
  "type": "way",
  "id": 895018064,
  "nodes": [
    8319429633,
    2495337451
  ],
  "tags": {
    "cycleway:right": "lane",
    "highway": "residential",
    "oneway": "yes",
    "source": "Bing"
  }
},
{
  "type": "way",
  "id": 897716574,
  "nodes": [
    349285249,
    5903495087,
    5903495089,
    350555724
  ],
  "tags": {
    "cycleway:left": "opposite_lane",
    "cycleway:right": "lane",
    "highway": "residential",
    "lit": "no",
    "low_emission_zone": "yes",
    "maxspeed": "30",
    "name": "Place Léon Bourgeois",
    "oneway": "yes",
    "sidewalk": "none",
    "source": "cadastre-dgi-fr source : Direction Générale des Impôts - Cadastre;mise à jour : 2008",
    "source:maxspeed": "FR:zone30",
    "surface": "asphalt",
    "wikidata": "Q20155482",
    "wikipedia": "fr:Place Léon-Bourgeois",
    "zone:maxspeed": "FR:30"
  }
},
{
  "type": "way",
  "id": 912939163,
  "nodes": [
    3997546703,
    360729481
  ],
  "tags": {
    "cycleway:left": "opposite_lane",
    "cycleway:right": "lane",
    "highway": "residential",
    "name": "Boulevard Vasco de Gama",
    "oneway": "yes",
    "source": "Bing"
  }
},
{
  "type": "way",
  "id": 916567674,
  "nodes": [
    6786554465,
    1098841651,
    367680705,
    1098841660
  ],
  "tags": {
    "cycleway:right": "lane",
    "highway": "residential",
    "maxspeed": "50",
    "name": "Rue du Général Carré",
    "oneway": "no"
  }
},
{
  "type": "way",
  "id": 916567675,
  "nodes": [
    1098841660,
    367680283
  ],
  "tags": {
    "cycleway:right": "lane",
    "highway": "residential",
    "maxspeed": "50",
    "name": "Rue du Général Carré",
    "oneway": "no"
  }
},
{
  "type": "way",
  "id": 936494949,
  "nodes": [
    8671751816,
    343426481,
    343426485,
    1082284638,
    343426488,
    1082284664,
    1082284643,
    343426491,
    1082284669,
    7892579222,
    8671781026,
    7892579229,
    8671751815
  ],
  "tags": {
    "cycleway:right": "lane",
    "highway": "residential",
    "lanes": "2",
    "lit": "yes",
    "maxspeed": "30",
    "name": "Rue François Arago",
    "note": "François Arago Astronome et physicien Français 1786-1853",
    "source": "cadastre-dgi-fr source : Direction Générale des Impôts - Cadastre;mise à jour : 2008",
    "start_date": "1971-05-03",
    "surface": "asphalt"
  }
},
{
  "type": "way",
  "id": 936494950,
  "nodes": [
    8671751815,
    5225363414
  ],
  "tags": {
    "cycleway:right": "lane",
    "highway": "residential",
    "lanes": "2",
    "lit": "yes",
    "maxspeed": "30",
    "name": "Rue François Arago",
    "note": "François Arago Astronome et physicien Français 1786-1853",
    "source": "cadastre-dgi-fr source : Direction Générale des Impôts - Cadastre;mise à jour : 2008",
    "start_date": "1971-05-03",
    "surface": "asphalt"
  }
},
{
  "type": "way",
  "id": 957896585,
  "nodes": [
    4210931241,
    7254703061,
    1704079547,
    6764735056,
    298666324
  ],
  "tags": {
    "cycleway:right": "lane",
    "highway": "residential",
    "lanes": "2",
    "low_emission_zone": "yes",
    "maxspeed": "30",
    "name": "Esplanade Fléchambault",
    "oneway": "yes",
    "source:maxspeed": "FR:zone30",
    "surface": "asphalt",
    "zone:maxspeed": "FR:30"
  }
},
{
  "type": "way",
  "id": 1000355972,
  "nodes": [
    2371875500,
    357298831
  ],
  "tags": {
    "cycleway:right": "lane",
    "highway": "primary",
    "lanes": "3",
    "maxspeed": "50",
    "maxspeed:type": "sign",
    "name": "Avenue de Champagne",
    "oneway": "yes",
    "ref": "N 51",
    "surface": "asphalt",
    "turn:lanes": "left;through|through|through"
  }
},
{
  "type": "way",
  "id": 1024339151,
  "nodes": [
    983507296,
    8829019248,
    9056018064
  ],
  "tags": {
    "cycleway:right": "lane",
    "highway": "primary",
    "lanes": "2",
    "maxspeed": "50",
    "name": "Avenue du Général Giraud",
    "oneway": "yes",
    "ref": "N 44",
    "surface": "asphalt"
  }
},
{
  "type": "way",
  "id": 1024342797,
  "nodes": [
    281788518,
    9445718861,
    5830207245,
    9445718859,
    281788521,
    9445718855,
    281788520,
    9445718856,
    9445718865,
    281788515,
    8372304077,
    281788514
  ],
  "tags": {
    "cycleway:right": "lane",
    "highway": "tertiary",
    "junction": "roundabout",
    "name": "Boulevard du Président Wilson"
  }
},
{
  "type": "way",
  "id": 1024999419,
  "nodes": [
    280024712,
    280024718,
    280024716,
    280024862,
    280024870
  ],
  "tags": {
    "cycleway:right": "lane",
    "highway": "secondary",
    "junction": "roundabout",
    "lanes": "1",
    "name": "Rond-Point de la Place Jean Donatini",
    "surface": "asphalt"
  }
},
{
  "type": "way",
  "id": 1024999420,
  "nodes": [
    280024704,
    280024701,
    8960402166,
    280024709
  ],
  "tags": {
    "cycleway:right": "lane",
    "highway": "secondary",
    "junction": "roundabout",
    "lanes": "1",
    "name": "Rond-Point de la Place Jean Donatini",
    "surface": "asphalt"
  }
},
{
  "type": "way",
  "id": 1024999421,
  "nodes": [
    280024709,
    280024707,
    7109130630,
    7109130619,
    7109130612,
    280024714,
    1083013444,
    8960402167,
    280024712
  ],
  "tags": {
    "cycleway:right": "lane",
    "highway": "secondary",
    "junction": "roundabout",
    "lanes": "1",
    "name": "Rond-Point de la Place Jean Donatini",
    "surface": "asphalt"
  }
},
{
  "type": "way",
  "id": 1026612990,
  "nodes": [
    1014103788,
    281788739,
    5275720356,
    281788549
  ],
  "tags": {
    "cycleway:right": "lane",
    "highway": "secondary",
    "junction": "roundabout",
    "name": "Place des Combattants d'Indochine",
    "surface": "asphalt"
  }
},
{
  "type": "way",
  "id": 1026691902,
  "nodes": [
    1704074201,
    1704074211,
    1704074198
  ],
  "tags": {
    "cycleway:right": "lane",
    "highway": "residential",
    "junction": "roundabout"
  }
},
{
  "type": "way",
  "id": 1026691903,
  "nodes": [
    1704074237,
    1704074239,
    1704074219,
    1704074213,
    1704074242,
    1704074201
  ],
  "tags": {
    "cycleway:right": "lane",
    "highway": "residential",
    "junction": "roundabout"
  }
},
{
  "type": "way",
  "id": 1026691904,
  "nodes": [
    1704074203,
    1704074231,
    1704074250,
    1704074196
  ],
  "tags": {
    "cycleway:right": "lane",
    "highway": "residential",
    "junction": "roundabout"
  }
},
{
  "type": "way",
  "id": 1026691905,
  "nodes": [
    1704074198,
    1704074256,
    1704074238,
    2495337407,
    1704074203
  ],
  "tags": {
    "cycleway:right": "lane",
    "highway": "residential",
    "junction": "roundabout"
  }
},
{
  "type": "way",
  "id": 1026693931,
  "nodes": [
    270759551,
    2495337506,
    270759553,
    270759554
  ],
  "tags": {
    "cycleway:right": "lane",
    "highway": "residential",
    "junction": "roundabout",
    "maxspeed": "30",
    "name": "Rond-Point Marguerite Boutigny",
    "source": "GPS"
  }
},
{
  "type": "way",
  "id": 1026694679,
  "nodes": [
    281788552,
    1014103812,
    5859736591,
    281788759
  ],
  "tags": {
    "cycleway:right": "lane",
    "highway": "secondary",
    "junction": "roundabout",
    "name": "Place des Combattants d'Indochine",
    "surface": "asphalt"
  }
},
{
  "type": "way",
  "id": 1026694680,
  "nodes": [
    281788754,
    281788756,
    5859736590,
    281788552
  ],
  "tags": {
    "cycleway:right": "lane",
    "highway": "secondary",
    "junction": "roundabout",
    "name": "Place des Combattants d'Indochine",
    "surface": "asphalt"
  }
},
{
  "type": "area",
  "id": 3600036458,
  "tags": {
    "admin_level": "8",
    "alt_name:eo": "Remso",
    "boundary": "administrative",
    "capital": "7",
    "label:FR:history": "VAH",
    "name": "Reims",
    "name:ar": "ريمس",
    "name:be": "Рэймс",
    "name:bg": "Реймс",
    "name:ce": "Реймс",
    "name:cs": "Remeš",
    "name:cv": "Реймс",
    "name:el": "Ρενς",
    "name:eo": "Reims",
    "name:fa": "رنس",
    "name:fr": "Reims",
    "name:he": "ריימס",
    "name:hy": "Ռեյմս",
    "name:ja": "ランス",
    "name:ka": "რეიმსი",
    "name:kk": "Реймс",
    "name:ko": "랭스",
    "name:la": "Durocortorum",
    "name:lt": "Reimsas",
    "name:lv": "Reimsa",
    "name:mk": "Ремс",
    "name:mr": "रेंस",
    "name:mzn": "رنس",
    "name:oc": "Rems",
    "name:pnb": "رائیم",
    "name:ru": "Реймс",
    "name:sr": "Ремс",
    "name:th": "แร็งส์",
    "name:uk": "Реймс",
    "name:zh": "兰斯",
    "population": "181194",
    "population:date": "2019",
    "postal_code": "51100",
    "ref:FR:SIREN": "215104217",
    "ref:INSEE": "51454",
    "source:population": "INSEE 2022",
    "source:postal_code": "La Poste - 12/2014",
    "type": "boundary",
    "website": "https://www.reims.fr/",
    "wikidata": "Q41876",
    "wikipedia": "fr:Reims"
  }
},
{
  "type": "node",
  "id": 281788549,
  "lat": 49.2182633,
  "lon": 4.0286287
},
{
  "type": "node",
  "id": 281788551,
  "lat": 49.2179845,
  "lon": 4.0285727
},
{
  "type": "node",
  "id": 281788552,
  "lat": 49.2180368,
  "lon": 4.0280693
},
{
  "type": "node",
  "id": 281788739,
  "lat": 49.2181402,
  "lon": 4.0286829
},
{
  "type": "node",
  "id": 281788741,
  "lat": 49.2183187,
  "lon": 4.0285480
},
{
  "type": "node",
  "id": 281788744,
  "lat": 49.2183462,
  "lon": 4.0284704
},
{
  "type": "node",
  "id": 281788749,
  "lat": 49.2183392,
  "lon": 4.0282120
},
{
  "type": "node",
  "id": 281788751,
  "lat": 49.2182652,
  "lon": 4.0280806
},
{
  "type": "node",
  "id": 281788754,
  "lat": 49.2182139,
  "lon": 4.0280418
},
{
  "type": "node",
  "id": 281788756,
  "lat": 49.2181540,
  "lon": 4.0280248
},
{
  "type": "node",
  "id": 281788759,
  "lat": 49.2179396,
  "lon": 4.0282567
},
{
  "type": "node",
  "id": 281788761,
  "lat": 49.2179458,
  "lon": 4.0284775
},
{
  "type": "node",
  "id": 1014103788,
  "lat": 49.2180763,
  "lon": 4.0286657
},
{
  "type": "node",
  "id": 1014103804,
  "lat": 49.2183592,
  "lon": 4.0283843
},
{
  "type": "node",
  "id": 1014103812,
  "lat": 49.2179945,
  "lon": 4.0281187
},
{
  "type": "node",
  "id": 1014103813,
  "lat": 49.2179302,
  "lon": 4.0283679
},
{
  "type": "node",
  "id": 5275720355,
  "lat": 49.2183117,
  "lon": 4.0281476
},
{
  "type": "node",
  "id": 5275720356,
  "lat": 49.2182044,
  "lon": 4.0286702
},
{
  "type": "node",
  "id": 5830110190,
  "lat": 49.2183079,
  "lon": 4.0281387
},
{
  "type": "node",
  "id": 5830110191,
  "lat": 49.2183048,
  "lon": 4.0285722
},
{
  "type": "node",
  "id": 5859736588,
  "lat": 49.2182934,
  "lon": 4.0285922
},
{
  "type": "node",
  "id": 5859736589,
  "lat": 49.2183568,
  "lon": 4.0282961
},
{
  "type": "node",
  "id": 5859736590,
  "lat": 49.2180933,
  "lon": 4.0280342
},
{
  "type": "node",
  "id": 5859736591,
  "lat": 49.2179614,
  "lon": 4.0281825
},
{
  "type": "node",
  "id": 5859736592,
  "lat": 49.2180265,
  "lon": 4.0286283
},
{
  "type": "node",
  "id": 8089365445,
  "lat": 49.2182494,
  "lon": 4.0280667
},
{
  "type": "node",
  "id": 8089365446,
  "lat": 49.2180599,
  "lon": 4.0286534
},
{
  "type": "node",
  "id": 348161733,
  "lat": 49.2199883,
  "lon": 4.0346647
},
{
  "type": "node",
  "id": 5275719920,
  "lat": 49.2200691,
  "lon": 4.0347169
},
{
  "type": "node",
  "id": 5275720324,
  "lat": 49.2203916,
  "lon": 4.0348728
},
{
  "type": "node",
  "id": 8111583183,
  "lat": 49.2200332,
  "lon": 4.0346895
},
{
  "type": "node",
  "id": 343426452,
  "lat": 49.2267499,
  "lon": 4.0031544
},
{
  "type": "node",
  "id": 343426460,
  "lat": 49.2272871,
  "lon": 4.0038776
},
{
  "type": "node",
  "id": 343426465,
  "lat": 49.2273296,
  "lon": 4.0039322
},
{
  "type": "node",
  "id": 7160657294,
  "lat": 49.2267933,
  "lon": 4.0032075
},
{
  "type": "node",
  "id": 8627025096,
  "lat": 49.2273667,
  "lon": 4.0039639
},
{
  "type": "node",
  "id": 8655840272,
  "lat": 49.2270354,
  "lon": 4.0035208
},
{
  "type": "node",
  "id": 280024509,
  "lat": 49.2338500,
  "lon": 3.9989629
},
{
  "type": "node",
  "id": 280024511,
  "lat": 49.2336156,
  "lon": 3.9989136
},
{
  "type": "node",
  "id": 280024554,
  "lat": 49.2338900,
  "lon": 3.9991767
},
{
  "type": "node",
  "id": 280024558,
  "lat": 49.2337238,
  "lon": 3.9994085
},
{
  "type": "node",
  "id": 280024560,
  "lat": 49.2338761,
  "lon": 3.9992498
},
{
  "type": "node",
  "id": 280024567,
  "lat": 49.2335815,
  "lon": 3.9993159
},
{
  "type": "node",
  "id": 343426470,
  "lat": 49.2274517,
  "lon": 4.0039938
},
{
  "type": "node",
  "id": 343426475,
  "lat": 49.2279780,
  "lon": 4.0039604
},
{
  "type": "node",
  "id": 343426477,
  "lat": 49.2280375,
  "lon": 4.0039948
},
{
  "type": "node",
  "id": 1095574785,
  "lat": 49.2337712,
  "lon": 3.9993948
},
{
  "type": "node",
  "id": 1095574842,
  "lat": 49.2338113,
  "lon": 3.9989106
},
{
  "type": "node",
  "id": 1095574858,
  "lat": 49.2337643,
  "lon": 3.9988777
},
{
  "type": "node",
  "id": 1095574905,
  "lat": 49.2335737,
  "lon": 3.9989746
},
{
  "type": "node",
  "id": 1095574988,
  "lat": 49.2335433,
  "lon": 3.9992038
},
{
  "type": "node",
  "id": 1095575154,
  "lat": 49.2336220,
  "lon": 3.9993685
},
{
  "type": "node",
  "id": 1924390827,
  "lat": 49.2281940,
  "lon": 4.0041728
},
{
  "type": "node",
  "id": 3255857356,
  "lat": 49.2335380,
  "lon": 3.9991695
},
{
  "type": "node",
  "id": 3722729868,
  "lat": 49.2337131,
  "lon": 3.9988669
},
{
  "type": "node",
  "id": 3722729869,
  "lat": 49.2336621,
  "lon": 3.9988792
},
{
  "type": "node",
  "id": 3722729870,
  "lat": 49.2335468,
  "lon": 3.9990531
},
{
  "type": "node",
  "id": 3722729871,
  "lat": 49.2335581,
  "lon": 3.9992633
},
{
  "type": "node",
  "id": 3722729872,
  "lat": 49.2336709,
  "lon": 3.9994004
},
{
  "type": "node",
  "id": 3722729873,
  "lat": 49.2338145,
  "lon": 3.9993619
},
{
  "type": "node",
  "id": 3722729874,
  "lat": 49.2338503,
  "lon": 3.9993123
},
{
  "type": "node",
  "id": 3722729875,
  "lat": 49.2338902,
  "lon": 3.9991006
},
{
  "type": "node",
  "id": 3722729876,
  "lat": 49.2338765,
  "lon": 3.9990274
},
{
  "type": "node",
  "id": 7345494966,
  "lat": 49.2280929,
  "lon": 4.0040414
},
{
  "type": "node",
  "id": 8450552664,
  "lat": 49.2278189,
  "lon": 4.0039572
},
{
  "type": "node",
  "id": 8627025095,
  "lat": 49.2274040,
  "lon": 4.0039827
},
{
  "type": "node",
  "id": 8627025097,
  "lat": 49.2279161,
  "lon": 4.0039480
},
{
  "type": "node",
  "id": 8655840220,
  "lat": 49.2277492,
  "lon": 4.0039632
},
{
  "type": "node",
  "id": 8661781332,
  "lat": 49.2276221,
  "lon": 4.0039770
},
{
  "type": "node",
  "id": 8673075322,
  "lat": 49.2335363,
  "lon": 3.9991391
},
{
  "type": "node",
  "id": 343426481,
  "lat": 49.2289532,
  "lon": 4.0052343
},
{
  "type": "node",
  "id": 343426485,
  "lat": 49.2289949,
  "lon": 4.0053396
},
{
  "type": "node",
  "id": 343426488,
  "lat": 49.2290097,
  "lon": 4.0055313
},
{
  "type": "node",
  "id": 343426491,
  "lat": 49.2290339,
  "lon": 4.0058300
},
{
  "type": "node",
  "id": 343426574,
  "lat": 49.2288624,
  "lon": 4.0051004
},
{
  "type": "node",
  "id": 343426579,
  "lat": 49.2287525,
  "lon": 4.0049562
},
{
  "type": "node",
  "id": 1082284638,
  "lat": 49.2290064,
  "lon": 4.0054035
},
{
  "type": "node",
  "id": 1082284643,
  "lat": 49.2290153,
  "lon": 4.0057556
},
{
  "type": "node",
  "id": 1082284664,
  "lat": 49.2290061,
  "lon": 4.0056689
},
{
  "type": "node",
  "id": 1082284669,
  "lat": 49.2290669,
  "lon": 4.0059086
},
{
  "type": "node",
  "id": 5225363414,
  "lat": 49.2296445,
  "lon": 4.0067092
},
{
  "type": "node",
  "id": 7892579222,
  "lat": 49.2292299,
  "lon": 4.0061369
},
{
  "type": "node",
  "id": 7892579229,
  "lat": 49.2293234,
  "lon": 4.0062669
},
{
  "type": "node",
  "id": 8671751815,
  "lat": 49.2294135,
  "lon": 4.0063904
},
{
  "type": "node",
  "id": 8671751816,
  "lat": 49.2289303,
  "lon": 4.0051968
},
{
  "type": "node",
  "id": 8671781026,
  "lat": 49.2293074,
  "lon": 4.0062446
},
{
  "type": "node",
  "id": 280024246,
  "lat": 49.2393662,
  "lon": 3.9963078
},
{
  "type": "node",
  "id": 280024248,
  "lat": 49.2392818,
  "lon": 3.9965049
},
{
  "type": "node",
  "id": 280024250,
  "lat": 49.2391658,
  "lon": 3.9964735
},
{
  "type": "node",
  "id": 280024253,
  "lat": 49.2391221,
  "lon": 3.9963680
},
{
  "type": "node",
  "id": 280024255,
  "lat": 49.2391307,
  "lon": 3.9962438
},
{
  "type": "node",
  "id": 280024258,
  "lat": 49.2391745,
  "lon": 3.9961663
},
{
  "type": "node",
  "id": 280024261,
  "lat": 49.2393171,
  "lon": 3.9961729
},
{
  "type": "node",
  "id": 280024309,
  "lat": 49.2362540,
  "lon": 3.9972813
},
{
  "type": "node",
  "id": 280024317,
  "lat": 49.2363271,
  "lon": 3.9972036
},
{
  "type": "node",
  "id": 280024320,
  "lat": 49.2362453,
  "lon": 3.9973676
},
{
  "type": "node",
  "id": 280024322,
  "lat": 49.2362452,
  "lon": 3.9973234
},
{
  "type": "node",
  "id": 280024329,
  "lat": 49.2363706,
  "lon": 3.9972123
},
{
  "type": "node",
  "id": 280024513,
  "lat": 49.2364250,
  "lon": 3.9972984
},
{
  "type": "node",
  "id": 280024515,
  "lat": 49.2364126,
  "lon": 3.9972620
},
{
  "type": "node",
  "id": 280024518,
  "lat": 49.2364170,
  "lon": 3.9974182
},
{
  "type": "node",
  "id": 280024520,
  "lat": 49.2364300,
  "lon": 3.9973387
},
{
  "type": "node",
  "id": 280024528,
  "lat": 49.2362944,
  "lon": 3.9974717
},
{
  "type": "node",
  "id": 280024541,
  "lat": 49.2363572,
  "lon": 3.9974843
},
{
  "type": "node",
  "id": 1095675012,
  "lat": 49.2392837,
  "lon": 3.9961456
},
{
  "type": "node",
  "id": 1095675034,
  "lat": 49.2392465,
  "lon": 3.9961350
},
{
  "type": "node",
  "id": 1095675051,
  "lat": 49.2391195,
  "lon": 3.9963048
},
{
  "type": "node",
  "id": 1095675083,
  "lat": 49.2392014,
  "lon": 3.9965037
},
{
  "type": "node",
  "id": 1095675102,
  "lat": 49.2393583,
  "lon": 3.9962563
},
{
  "type": "node",
  "id": 3722729877,
  "lat": 49.2363027,
  "lon": 3.9972129
},
{
  "type": "node",
  "id": 3722729878,
  "lat": 49.2362809,
  "lon": 3.9972318
},
{
  "type": "node",
  "id": 3722729879,
  "lat": 49.2362542,
  "lon": 3.9974097
},
{
  "type": "node",
  "id": 3722729880,
  "lat": 49.2362711,
  "lon": 3.9974455
},
{
  "type": "node",
  "id": 3722729881,
  "lat": 49.2363251,
  "lon": 3.9974864
},
{
  "type": "node",
  "id": 3722729882,
  "lat": 49.2363808,
  "lon": 3.9974709
},
{
  "type": "node",
  "id": 3722729883,
  "lat": 49.2364013,
  "lon": 3.9974483
},
{
  "type": "node",
  "id": 3722729884,
  "lat": 49.2364273,
  "lon": 3.9973799
},
{
  "type": "node",
  "id": 3722729885,
  "lat": 49.2363940,
  "lon": 3.9972325
},
{
  "type": "node",
  "id": 3722729886,
  "lat": 49.2392089,
  "lon": 3.9961422
},
{
  "type": "node",
  "id": 3722729887,
  "lat": 49.2391491,
  "lon": 3.9962004
},
{
  "type": "node",
  "id": 3722729888,
  "lat": 49.2391381,
  "lon": 3.9964264
},
{
  "type": "node",
  "id": 3722729889,
  "lat": 49.2392416,
  "lon": 3.9965145
},
{
  "type": "node",
  "id": 3722729891,
  "lat": 49.2393415,
  "lon": 3.9962102
},
{
  "type": "node",
  "id": 6355254559,
  "lat": 49.2363522,
  "lon": 3.9972047
},
{
  "type": "node",
  "id": 6355254561,
  "lat": 49.2362631,
  "lon": 3.9972590
},
{
  "type": "node",
  "id": 9439780037,
  "lat": 49.2392620,
  "lon": 3.9965122
},
{
  "type": "node",
  "id": 1822373330,
  "lat": 49.2404770,
  "lon": 4.0099222
},
{
  "type": "node",
  "id": 343375168,
  "lat": 49.2405256,
  "lon": 4.0099474
},
{
  "type": "node",
  "id": 343375252,
  "lat": 49.2409034,
  "lon": 4.0101348
},
{
  "type": "node",
  "id": 280024668,
  "lat": 49.2273287,
  "lon": 4.0141419
},
{
  "type": "node",
  "id": 280024673,
  "lat": 49.2270703,
  "lon": 4.0142072
},
{
  "type": "node",
  "id": 280024676,
  "lat": 49.2271937,
  "lon": 4.0140975
},
{
  "type": "node",
  "id": 280024697,
  "lat": 49.2270290,
  "lon": 4.0143652
},
{
  "type": "node",
  "id": 280024698,
  "lat": 49.2270474,
  "lon": 4.0142632
},
{
  "type": "node",
  "id": 280024701,
  "lat": 49.2270554,
  "lon": 4.0145446
},
{
  "type": "node",
  "id": 280024704,
  "lat": 49.2270367,
  "lon": 4.0144798
},
{
  "type": "node",
  "id": 280024707,
  "lat": 49.2271532,
  "lon": 4.0146710
},
{
  "type": "node",
  "id": 280024709,
  "lat": 49.2271197,
  "lon": 4.0146453
},
{
  "type": "node",
  "id": 280024714,
  "lat": 49.2272966,
  "lon": 4.0146686
},
{
  "type": "node",
  "id": 280024864,
  "lat": 49.2272266,
  "lon": 4.0140942
},
{
  "type": "node",
  "id": 1083013444,
  "lat": 49.2273322,
  "lon": 4.0146394
},
{
  "type": "node",
  "id": 1821030746,
  "lat": 49.2271006,
  "lon": 4.0141603
},
{
  "type": "node",
  "id": 7109130597,
  "lat": 49.2271617,
  "lon": 4.0141093
},
{
  "type": "node",
  "id": 7109130610,
  "lat": 49.2271370,
  "lon": 4.0141247
},
{
  "type": "node",
  "id": 7109130612,
  "lat": 49.2272579,
  "lon": 4.0146859
},
{
  "type": "node",
  "id": 7109130619,
  "lat": 49.2272176,
  "lon": 4.0146906
},
{
  "type": "node",
  "id": 7109130630,
  "lat": 49.2271894,
  "lon": 4.0146863
},
{
  "type": "node",
  "id": 8960402166,
  "lat": 49.2270836,
  "lon": 4.0146009
},
{
  "type": "node",
  "id": 8960402167,
  "lat": 49.2273666,
  "lon": 4.0145940
},
{
  "type": "node",
  "id": 8960402168,
  "lat": 49.2272624,
  "lon": 4.0141003
},
{
  "type": "node",
  "id": 8960402169,
  "lat": 49.2270352,
  "lon": 4.0143129
},
{
  "type": "node",
  "id": 8960402170,
  "lat": 49.2270292,
  "lon": 4.0144231
},
{
  "type": "node",
  "id": 9451141644,
  "lat": 49.2272968,
  "lon": 4.0141163
},
{
  "type": "node",
  "id": 9451141645,
  "lat": 49.2273570,
  "lon": 4.0141759
},
{
  "type": "node",
  "id": 280024712,
  "lat": 49.2273932,
  "lon": 4.0145376
},
{
  "type": "node",
  "id": 280024716,
  "lat": 49.2274175,
  "lon": 4.0143747
},
{
  "type": "node",
  "id": 280024718,
  "lat": 49.2274129,
  "lon": 4.0144588
},
{
  "type": "node",
  "id": 280024862,
  "lat": 49.2274065,
  "lon": 4.0142920
},
{
  "type": "node",
  "id": 280024870,
  "lat": 49.2273808,
  "lon": 4.0142174
},
{
  "type": "node",
  "id": 296880754,
  "lat": 49.2322633,
  "lon": 4.0200975
},
{
  "type": "node",
  "id": 348140341,
  "lat": 49.2323213,
  "lon": 4.0194166
},
{
  "type": "node",
  "id": 5936309351,
  "lat": 49.2322750,
  "lon": 4.0199606
},
{
  "type": "node",
  "id": 6764735876,
  "lat": 49.2323243,
  "lon": 4.0193817
},
{
  "type": "node",
  "id": 6764735877,
  "lat": 49.2323905,
  "lon": 4.0186126
},
{
  "type": "node",
  "id": 270759550,
  "lat": 49.2270253,
  "lon": 4.0251034
},
{
  "type": "node",
  "id": 270759551,
  "lat": 49.2269069,
  "lon": 4.0248599
},
{
  "type": "node",
  "id": 270759553,
  "lat": 49.2268012,
  "lon": 4.0248767
},
{
  "type": "node",
  "id": 270759554,
  "lat": 49.2267574,
  "lon": 4.0249250
},
{
  "type": "node",
  "id": 270759556,
  "lat": 49.2267160,
  "lon": 4.0250453
},
{
  "type": "node",
  "id": 270759557,
  "lat": 49.2268346,
  "lon": 4.0253254
},
{
  "type": "node",
  "id": 270759559,
  "lat": 49.2269361,
  "lon": 4.0253083
},
{
  "type": "node",
  "id": 270759560,
  "lat": 49.2269927,
  "lon": 4.0252388
},
{
  "type": "node",
  "id": 270759612,
  "lat": 49.2262315,
  "lon": 4.0293818
},
{
  "type": "node",
  "id": 348153045,
  "lat": 49.2267440,
  "lon": 4.0252352
},
{
  "type": "node",
  "id": 348153046,
  "lat": 49.2269641,
  "lon": 4.0249020
},
{
  "type": "node",
  "id": 348153047,
  "lat": 49.2269015,
  "lon": 4.0253262
},
{
  "type": "node",
  "id": 348153048,
  "lat": 49.2270205,
  "lon": 4.0251516
},
{
  "type": "node",
  "id": 722991713,
  "lat": 49.2269985,
  "lon": 4.0249577
},
{
  "type": "node",
  "id": 722991714,
  "lat": 49.2269369,
  "lon": 4.0248765
},
{
  "type": "node",
  "id": 722991718,
  "lat": 49.2267310,
  "lon": 4.0249805
},
{
  "type": "node",
  "id": 722991722,
  "lat": 49.2267168,
  "lon": 4.0251448
},
{
  "type": "node",
  "id": 1704074253,
  "lat": 49.2256395,
  "lon": 4.0297429
},
{
  "type": "node",
  "id": 2425467254,
  "lat": 49.2270095,
  "lon": 4.0251974
},
{
  "type": "node",
  "id": 2495337451,
  "lat": 49.2254212,
  "lon": 4.0299011
},
{
  "type": "node",
  "id": 2495337480,
  "lat": 49.2257888,
  "lon": 4.0295695
},
{
  "type": "node",
  "id": 2495337482,
  "lat": 49.2258139,
  "lon": 4.0295334
},
{
  "type": "node",
  "id": 2495337490,
  "lat": 49.2258942,
  "lon": 4.0295040
},
{
  "type": "node",
  "id": 2495337497,
  "lat": 49.2261534,
  "lon": 4.0294058
},
{
  "type": "node",
  "id": 2495337506,
  "lat": 49.2268531,
  "lon": 4.0248541
},
{
  "type": "node",
  "id": 2495337507,
  "lat": 49.2268652,
  "lon": 4.0253313
},
{
  "type": "node",
  "id": 2495337510,
  "lat": 49.2270196,
  "lon": 4.0250273
},
{
  "type": "node",
  "id": 7218107725,
  "lat": 49.2255417,
  "lon": 4.0298032
},
{
  "type": "node",
  "id": 7218107726,
  "lat": 49.2255497,
  "lon": 4.0297968
},
{
  "type": "node",
  "id": 8237881018,
  "lat": 49.2267715,
  "lon": 4.0252788
},
{
  "type": "node",
  "id": 8319429633,
  "lat": 49.2255093,
  "lon": 4.0297869
},
{
  "type": "node",
  "id": 9383912724,
  "lat": 49.2268053,
  "lon": 4.0253105
},
{
  "type": "node",
  "id": 9466004652,
  "lat": 49.2269671,
  "lon": 4.0252786
},
{
  "type": "node",
  "id": 348161960,
  "lat": 49.2225194,
  "lon": 4.0321167
},
{
  "type": "node",
  "id": 1704074196,
  "lat": 49.2243385,
  "lon": 4.0309648
},
{
  "type": "node",
  "id": 1704074198,
  "lat": 49.2244819,
  "lon": 4.0310113
},
{
  "type": "node",
  "id": 1704074201,
  "lat": 49.2244755,
  "lon": 4.0311015
},
{
  "type": "node",
  "id": 1704074203,
  "lat": 49.2244013,
  "lon": 4.0309180
},
{
  "type": "node",
  "id": 1704074204,
  "lat": 49.2243206,
  "lon": 4.0310321
},
{
  "type": "node",
  "id": 1704074205,
  "lat": 49.2232156,
  "lon": 4.0309510
},
{
  "type": "node",
  "id": 1704074209,
  "lat": 49.2243263,
  "lon": 4.0309965
},
{
  "type": "node",
  "id": 1704074211,
  "lat": 49.2244842,
  "lon": 4.0310573
},
{
  "type": "node",
  "id": 1704074213,
  "lat": 49.2244367,
  "lon": 4.0311583
},
{
  "type": "node",
  "id": 1704074217,
  "lat": 49.2234096,
  "lon": 4.0309208
},
{
  "type": "node",
  "id": 1704074219,
  "lat": 49.2244104,
  "lon": 4.0311691
},
{
  "type": "node",
  "id": 1704074221,
  "lat": 49.2243233,
  "lon": 4.0310776
},
{
  "type": "node",
  "id": 1704074231,
  "lat": 49.2243777,
  "lon": 4.0309239
},
{
  "type": "node",
  "id": 1704074233,
  "lat": 49.2228109,
  "lon": 4.0313063
},
{
  "type": "node",
  "id": 1704074235,
  "lat": 49.2218130,
  "lon": 4.0343594
},
{
  "type": "node",
  "id": 1704074237,
  "lat": 49.2243582,
  "lon": 4.0311498
},
{
  "type": "node",
  "id": 1704074238,
  "lat": 49.2244469,
  "lon": 4.0309380
},
{
  "type": "node",
  "id": 1704074239,
  "lat": 49.2243832,
  "lon": 4.0311662
},
{
  "type": "node",
  "id": 1704074242,
  "lat": 49.2244592,
  "lon": 4.0311349
},
{
  "type": "node",
  "id": 1704074243,
  "lat": 49.2243364,
  "lon": 4.0311186
},
{
  "type": "node",
  "id": 1704074250,
  "lat": 49.2243561,
  "lon": 4.0309399
},
{
  "type": "node",
  "id": 1704074256,
  "lat": 49.2244688,
  "lon": 4.0309696
},
{
  "type": "node",
  "id": 2495337367,
  "lat": 49.2215143,
  "lon": 4.0347101
},
{
  "type": "node",
  "id": 2495337370,
  "lat": 49.2219687,
  "lon": 4.0340551
},
{
  "type": "node",
  "id": 2495337376,
  "lat": 49.2227111,
  "lon": 4.0315090
},
{
  "type": "node",
  "id": 2495337380,
  "lat": 49.2229248,
  "lon": 4.0311622
},
{
  "type": "node",
  "id": 2495337407,
  "lat": 49.2244251,
  "lon": 4.0309229
},
{
  "type": "node",
  "id": 5275720321,
  "lat": 49.2226067,
  "lon": 4.0317960
},
{
  "type": "node",
  "id": 5275720322,
  "lat": 49.2220846,
  "lon": 4.0336695
},
{
  "type": "node",
  "id": 5275720323,
  "lat": 49.2222896,
  "lon": 4.0329400
},
{
  "type": "node",
  "id": 5275720334,
  "lat": 49.2214339,
  "lon": 4.0347961
},
{
  "type": "node",
  "id": 5275720336,
  "lat": 49.2236971,
  "lon": 4.0309444
},
{
  "type": "node",
  "id": 5275720337,
  "lat": 49.2235666,
  "lon": 4.0309297
},
{
  "type": "node",
  "id": 5275720338,
  "lat": 49.2243464,
  "lon": 4.0311330
},
{
  "type": "node",
  "id": 5275720344,
  "lat": 49.2242865,
  "lon": 4.0309765
},
{
  "type": "node",
  "id": 5275720345,
  "lat": 49.2241583,
  "lon": 4.0309799
},
{
  "type": "node",
  "id": 5275720346,
  "lat": 49.2238999,
  "lon": 4.0309350
},
{
  "type": "node",
  "id": 7422278143,
  "lat": 49.2214848,
  "lon": 4.0347416
},
{
  "type": "node",
  "id": 8228638201,
  "lat": 49.2224864,
  "lon": 4.0322349
},
{
  "type": "node",
  "id": 8342818690,
  "lat": 49.2225023,
  "lon": 4.0321780
},
{
  "type": "node",
  "id": 8342828033,
  "lat": 49.2243518,
  "lon": 4.0311407
},
{
  "type": "node",
  "id": 354685157,
  "lat": 49.2328023,
  "lon": 4.0248098
},
{
  "type": "node",
  "id": 354685159,
  "lat": 49.2333308,
  "lon": 4.0259473
},
{
  "type": "node",
  "id": 357264008,
  "lat": 49.2325495,
  "lon": 4.0242813
},
{
  "type": "node",
  "id": 1704085767,
  "lat": 49.2325152,
  "lon": 4.0241689
},
{
  "type": "node",
  "id": 1704085770,
  "lat": 49.2328628,
  "lon": 4.0245436
},
{
  "type": "node",
  "id": 4684931230,
  "lat": 49.2336216,
  "lon": 4.0267134
},
{
  "type": "node",
  "id": 5749537240,
  "lat": 49.2326996,
  "lon": 4.0243945
},
{
  "type": "node",
  "id": 5936305093,
  "lat": 49.2329211,
  "lon": 4.0245849
},
{
  "type": "node",
  "id": 7499184786,
  "lat": 49.2336341,
  "lon": 4.0267506
},
{
  "type": "node",
  "id": 8365025365,
  "lat": 49.2326733,
  "lon": 4.0245400
},
{
  "type": "node",
  "id": 8365189458,
  "lat": 49.2327143,
  "lon": 4.0246259
},
{
  "type": "node",
  "id": 368004943,
  "lat": 49.2285742,
  "lon": 4.0312580
},
{
  "type": "node",
  "id": 368004944,
  "lat": 49.2290731,
  "lon": 4.0321312
},
{
  "type": "node",
  "id": 368004945,
  "lat": 49.2293209,
  "lon": 4.0326118
},
{
  "type": "node",
  "id": 368004946,
  "lat": 49.2295838,
  "lon": 4.0332211
},
{
  "type": "node",
  "id": 368004947,
  "lat": 49.2300273,
  "lon": 4.0345654
},
{
  "type": "node",
  "id": 368004948,
  "lat": 49.2301084,
  "lon": 4.0348217
},
{
  "type": "node",
  "id": 368004949,
  "lat": 49.2302420,
  "lon": 4.0350178
},
{
  "type": "node",
  "id": 368004951,
  "lat": 49.2300414,
  "lon": 4.0348096
},
{
  "type": "node",
  "id": 368004952,
  "lat": 49.2300433,
  "lon": 4.0349505
},
{
  "type": "node",
  "id": 368004953,
  "lat": 49.2300184,
  "lon": 4.0350915
},
{
  "type": "node",
  "id": 368004954,
  "lat": 49.2295461,
  "lon": 4.0358220
},
{
  "type": "node",
  "id": 789657583,
  "lat": 49.2298144,
  "lon": 4.0338685
},
{
  "type": "node",
  "id": 789657592,
  "lat": 49.2301738,
  "lon": 4.0349866
},
{
  "type": "node",
  "id": 789657625,
  "lat": 49.2299604,
  "lon": 4.0352607
},
{
  "type": "node",
  "id": 4005842701,
  "lat": 49.2297255,
  "lon": 4.0336010
},
{
  "type": "node",
  "id": 5275720348,
  "lat": 49.2291624,
  "lon": 4.0322962
},
{
  "type": "node",
  "id": 301546119,
  "lat": 49.2398812,
  "lon": 4.0209730
},
{
  "type": "node",
  "id": 301546120,
  "lat": 49.2401060,
  "lon": 4.0215094
},
{
  "type": "node",
  "id": 357236047,
  "lat": 49.2398923,
  "lon": 4.0209572
},
{
  "type": "node",
  "id": 357236091,
  "lat": 49.2400288,
  "lon": 4.0213978
},
{
  "type": "node",
  "id": 456317560,
  "lat": 49.2403585,
  "lon": 4.0202400
},
{
  "type": "node",
  "id": 5830207247,
  "lat": 49.2399464,
  "lon": 4.0208799
},
{
  "type": "node",
  "id": 7247473314,
  "lat": 49.2404534,
  "lon": 4.0200926
},
{
  "type": "node",
  "id": 7247473315,
  "lat": 49.2404409,
  "lon": 4.0201120
},
{
  "type": "node",
  "id": 7247473326,
  "lat": 49.2403993,
  "lon": 4.0201766
},
{
  "type": "node",
  "id": 7247473327,
  "lat": 49.2402357,
  "lon": 4.0204306
},
{
  "type": "node",
  "id": 7889520863,
  "lat": 49.2403433,
  "lon": 4.0217010
},
{
  "type": "node",
  "id": 8078965326,
  "lat": 49.2399151,
  "lon": 4.0209247
},
{
  "type": "node",
  "id": 281788510,
  "lat": 49.2417162,
  "lon": 4.0175163
},
{
  "type": "node",
  "id": 281788514,
  "lat": 49.2418295,
  "lon": 4.0175294
},
{
  "type": "node",
  "id": 281788515,
  "lat": 49.2418595,
  "lon": 4.0175650
},
{
  "type": "node",
  "id": 281788518,
  "lat": 49.2417916,
  "lon": 4.0179061
},
{
  "type": "node",
  "id": 281788519,
  "lat": 49.2417434,
  "lon": 4.0179082
},
{
  "type": "node",
  "id": 281788520,
  "lat": 49.2418957,
  "lon": 4.0176792
},
{
  "type": "node",
  "id": 281788521,
  "lat": 49.2418915,
  "lon": 4.0177644
},
{
  "type": "node",
  "id": 281788522,
  "lat": 49.2416311,
  "lon": 4.0177227
},
{
  "type": "node",
  "id": 281788523,
  "lat": 49.2416810,
  "lon": 4.0175470
},
{
  "type": "node",
  "id": 281788524,
  "lat": 49.2416610,
  "lon": 4.0178363
},
{
  "type": "node",
  "id": 281788525,
  "lat": 49.2416384,
  "lon": 4.0177754
},
{
  "type": "node",
  "id": 281788528,
  "lat": 49.2417738,
  "lon": 4.0175034
},
{
  "type": "node",
  "id": 301546117,
  "lat": 49.2409642,
  "lon": 4.0226561
},
{
  "type": "node",
  "id": 301546121,
  "lat": 49.2409269,
  "lon": 4.0227492
},
{
  "type": "node",
  "id": 2318175121,
  "lat": 49.2416330,
  "lon": 4.0176689
},
{
  "type": "node",
  "id": 5830207244,
  "lat": 49.2416979,
  "lon": 4.0178839
},
{
  "type": "node",
  "id": 5830207245,
  "lat": 49.2418514,
  "lon": 4.0178602
},
{
  "type": "node",
  "id": 6757772111,
  "lat": 49.2405072,
  "lon": 4.0200091
},
{
  "type": "node",
  "id": 8372304077,
  "lat": 49.2418446,
  "lon": 4.0175447
},
{
  "type": "node",
  "id": 8461728444,
  "lat": 49.2417008,
  "lon": 4.0175270
},
{
  "type": "node",
  "id": 9445718849,
  "lat": 49.2416394,
  "lon": 4.0176339
},
{
  "type": "node",
  "id": 9445718851,
  "lat": 49.2416638,
  "lon": 4.0175720
},
{
  "type": "node",
  "id": 9445718852,
  "lat": 49.2416480,
  "lon": 4.0178074
},
{
  "type": "node",
  "id": 9445718853,
  "lat": 49.2416781,
  "lon": 4.0178627
},
{
  "type": "node",
  "id": 9445718854,
  "lat": 49.2417676,
  "lon": 4.0179105
},
{
  "type": "node",
  "id": 9445718855,
  "lat": 49.2418965,
  "lon": 4.0177222
},
{
  "type": "node",
  "id": 9445718856,
  "lat": 49.2418890,
  "lon": 4.0176375
},
{
  "type": "node",
  "id": 9445718857,
  "lat": 49.2417445,
  "lon": 4.0175050
},
{
  "type": "node",
  "id": 9445718858,
  "lat": 49.2418026,
  "lon": 4.0175117
},
{
  "type": "node",
  "id": 9445718859,
  "lat": 49.2418738,
  "lon": 4.0178216
},
{
  "type": "node",
  "id": 9445718861,
  "lat": 49.2418234,
  "lon": 4.0178890
},
{
  "type": "node",
  "id": 9445718862,
  "lat": 49.2417200,
  "lon": 4.0178992
},
{
  "type": "node",
  "id": 9445718863,
  "lat": 49.2416498,
  "lon": 4.0176013
},
{
  "type": "node",
  "id": 9445718865,
  "lat": 49.2418768,
  "lon": 4.0175989
},
{
  "type": "node",
  "id": 281788577,
  "lat": 49.2374670,
  "lon": 4.0245902
},
{
  "type": "node",
  "id": 281788795,
  "lat": 49.2362852,
  "lon": 4.0262719
},
{
  "type": "node",
  "id": 354685160,
  "lat": 49.2339870,
  "lon": 4.0278023
},
{
  "type": "node",
  "id": 354685164,
  "lat": 49.2348843,
  "lon": 4.0282676
},
{
  "type": "node",
  "id": 354685169,
  "lat": 49.2364589,
  "lon": 4.0291002
},
{
  "type": "node",
  "id": 357235585,
  "lat": 49.2369617,
  "lon": 4.0252717
},
{
  "type": "node",
  "id": 357235593,
  "lat": 49.2368882,
  "lon": 4.0274235
},
{
  "type": "node",
  "id": 357235619,
  "lat": 49.2377463,
  "lon": 4.0300993
},
{
  "type": "node",
  "id": 357235790,
  "lat": 49.2376051,
  "lon": 4.0243970
},
{
  "type": "node",
  "id": 1704085763,
  "lat": 49.2367635,
  "lon": 4.0271421
},
{
  "type": "node",
  "id": 6116949603,
  "lat": 49.2363846,
  "lon": 4.0290628
},
{
  "type": "node",
  "id": 6116949606,
  "lat": 49.2365828,
  "lon": 4.0291912
},
{
  "type": "node",
  "id": 6408257927,
  "lat": 49.2369307,
  "lon": 4.0294627
},
{
  "type": "node",
  "id": 6408257933,
  "lat": 49.2373987,
  "lon": 4.0298303
},
{
  "type": "node",
  "id": 6764735063,
  "lat": 49.2370968,
  "lon": 4.0278047
},
{
  "type": "node",
  "id": 6960062900,
  "lat": 49.2363658,
  "lon": 4.0264186
},
{
  "type": "node",
  "id": 6960062901,
  "lat": 49.2363553,
  "lon": 4.0261683
},
{
  "type": "node",
  "id": 7158329486,
  "lat": 49.2349985,
  "lon": 4.0283281
},
{
  "type": "node",
  "id": 7271340246,
  "lat": 49.2365470,
  "lon": 4.0258848
},
{
  "type": "node",
  "id": 7274616538,
  "lat": 49.2366776,
  "lon": 4.0292652
},
{
  "type": "node",
  "id": 7274616539,
  "lat": 49.2366500,
  "lon": 4.0292437
},
{
  "type": "node",
  "id": 7274616540,
  "lat": 49.2350731,
  "lon": 4.0283677
},
{
  "type": "node",
  "id": 7306019418,
  "lat": 49.2339411,
  "lon": 4.0276655
},
{
  "type": "node",
  "id": 7499200884,
  "lat": 49.2357529,
  "lon": 4.0287280
},
{
  "type": "node",
  "id": 7888146167,
  "lat": 49.2364735,
  "lon": 4.0266144
},
{
  "type": "node",
  "id": 296880266,
  "lat": 49.2390808,
  "lon": 4.0311324
},
{
  "type": "node",
  "id": 298665904,
  "lat": 49.2395619,
  "lon": 4.0315227
},
{
  "type": "node",
  "id": 298666006,
  "lat": 49.2397460,
  "lon": 4.0316886
},
{
  "type": "node",
  "id": 298666327,
  "lat": 49.2391145,
  "lon": 4.0313092
},
{
  "type": "node",
  "id": 354685170,
  "lat": 49.2389608,
  "lon": 4.0310691
},
{
  "type": "node",
  "id": 456317566,
  "lat": 49.2387371,
  "lon": 4.0308730
},
{
  "type": "node",
  "id": 1100256856,
  "lat": 49.2391606,
  "lon": 4.0312941
},
{
  "type": "node",
  "id": 7124627489,
  "lat": 49.2385807,
  "lon": 4.0307509
},
{
  "type": "node",
  "id": 7254746653,
  "lat": 49.2391776,
  "lon": 4.0313038
},
{
  "type": "node",
  "id": 270759445,
  "lat": 49.2466194,
  "lon": 4.0303669
},
{
  "type": "node",
  "id": 296877306,
  "lat": 49.2421379,
  "lon": 4.0246037
},
{
  "type": "node",
  "id": 349270245,
  "lat": 49.2468358,
  "lon": 4.0300214
},
{
  "type": "node",
  "id": 7124054034,
  "lat": 49.2468244,
  "lon": 4.0300396
},
{
  "type": "node",
  "id": 7247225535,
  "lat": 49.2420739,
  "lon": 4.0245058
},
{
  "type": "node",
  "id": 7247326799,
  "lat": 49.2421108,
  "lon": 4.0245622
},
{
  "type": "node",
  "id": 7889538209,
  "lat": 49.2420533,
  "lon": 4.0243327
},
{
  "type": "node",
  "id": 270759446,
  "lat": 49.2461387,
  "lon": 4.0309637
},
{
  "type": "node",
  "id": 298666324,
  "lat": 49.2417705,
  "lon": 4.0360516
},
{
  "type": "node",
  "id": 302030609,
  "lat": 49.2417200,
  "lon": 4.0358237
},
{
  "type": "node",
  "id": 302265331,
  "lat": 49.2410844,
  "lon": 4.0364877
},
{
  "type": "node",
  "id": 349270243,
  "lat": 49.2463532,
  "lon": 4.0307757
},
{
  "type": "node",
  "id": 349270244,
  "lat": 49.2462414,
  "lon": 4.0309253
},
{
  "type": "node",
  "id": 351928224,
  "lat": 49.2420997,
  "lon": 4.0369618
},
{
  "type": "node",
  "id": 476612907,
  "lat": 49.2417736,
  "lon": 4.0361927
},
{
  "type": "node",
  "id": 1704079545,
  "lat": 49.2417744,
  "lon": 4.0362800
},
{
  "type": "node",
  "id": 1704079547,
  "lat": 49.2418343,
  "lon": 4.0362130
},
{
  "type": "node",
  "id": 1704079551,
  "lat": 49.2420321,
  "lon": 4.0369110
},
{
  "type": "node",
  "id": 1704079553,
  "lat": 49.2418528,
  "lon": 4.0366239
},
{
  "type": "node",
  "id": 1704080368,
  "lat": 49.2423674,
  "lon": 4.0351284
},
{
  "type": "node",
  "id": 1985072470,
  "lat": 49.2407940,
  "lon": 4.0369333
},
{
  "type": "node",
  "id": 4210931238,
  "lat": 49.2418454,
  "lon": 4.0367755
},
{
  "type": "node",
  "id": 4210931241,
  "lat": 49.2419648,
  "lon": 4.0368213
},
{
  "type": "node",
  "id": 6750743883,
  "lat": 49.2408431,
  "lon": 4.0368580
},
{
  "type": "node",
  "id": 6764735056,
  "lat": 49.2418089,
  "lon": 4.0361487
},
{
  "type": "node",
  "id": 6764735057,
  "lat": 49.2419314,
  "lon": 4.0368588
},
{
  "type": "node",
  "id": 6764735058,
  "lat": 49.2418471,
  "lon": 4.0369070
},
{
  "type": "node",
  "id": 6764735059,
  "lat": 49.2417715,
  "lon": 4.0369907
},
{
  "type": "node",
  "id": 7254703056,
  "lat": 49.2417941,
  "lon": 4.0357441
},
{
  "type": "node",
  "id": 7254703058,
  "lat": 49.2416425,
  "lon": 4.0359046
},
{
  "type": "node",
  "id": 7254703061,
  "lat": 49.2419550,
  "lon": 4.0367901
},
{
  "type": "node",
  "id": 7254703062,
  "lat": 49.2418280,
  "lon": 4.0368261
},
{
  "type": "node",
  "id": 7299593571,
  "lat": 49.2418016,
  "lon": 4.0369576
},
{
  "type": "node",
  "id": 7299593572,
  "lat": 49.2417867,
  "lon": 4.0369465
},
{
  "type": "node",
  "id": 7485319946,
  "lat": 49.2424057,
  "lon": 4.0350920
},
{
  "type": "node",
  "id": 8137245059,
  "lat": 49.2418679,
  "lon": 4.0368935
},
{
  "type": "node",
  "id": 281788604,
  "lat": 49.2271702,
  "lon": 4.0400430
},
{
  "type": "node",
  "id": 360729481,
  "lat": 49.2232448,
  "lon": 4.0393040
},
{
  "type": "node",
  "id": 360733099,
  "lat": 49.2272387,
  "lon": 4.0398869
},
{
  "type": "node",
  "id": 3997546703,
  "lat": 49.2228633,
  "lon": 4.0396881
},
{
  "type": "node",
  "id": 7124326480,
  "lat": 49.2268700,
  "lon": 4.0407209
},
{
  "type": "node",
  "id": 7253347862,
  "lat": 49.2268612,
  "lon": 4.0407409
},
{
  "type": "node",
  "id": 281788605,
  "lat": 49.2279640,
  "lon": 4.0382797
},
{
  "type": "node",
  "id": 302766351,
  "lat": 49.2286269,
  "lon": 4.0372105
},
{
  "type": "node",
  "id": 722991075,
  "lat": 49.2287255,
  "lon": 4.0371457
},
{
  "type": "node",
  "id": 7124372237,
  "lat": 49.2283686,
  "lon": 4.0376271
},
{
  "type": "node",
  "id": 7124563220,
  "lat": 49.2285213,
  "lon": 4.0373808
},
{
  "type": "node",
  "id": 7257247576,
  "lat": 49.2286820,
  "lon": 4.0371701
},
{
  "type": "node",
  "id": 8228748102,
  "lat": 49.2277097,
  "lon": 4.0388476
},
{
  "type": "node",
  "id": 345210750,
  "lat": 49.2332717,
  "lon": 4.0488219
},
{
  "type": "node",
  "id": 7263141512,
  "lat": 49.2334632,
  "lon": 4.0487256
},
{
  "type": "node",
  "id": 7263141514,
  "lat": 49.2336475,
  "lon": 4.0486329
},
{
  "type": "node",
  "id": 8071129867,
  "lat": 49.2339073,
  "lon": 4.0485023
},
{
  "type": "node",
  "id": 36237890,
  "lat": 49.2353724,
  "lon": 4.0419823
},
{
  "type": "node",
  "id": 270759517,
  "lat": 49.2365962,
  "lon": 4.0435569
},
{
  "type": "node",
  "id": 270759518,
  "lat": 49.2357336,
  "lon": 4.0425836
},
{
  "type": "node",
  "id": 270764669,
  "lat": 49.2351172,
  "lon": 4.0415590
},
{
  "type": "node",
  "id": 302265197,
  "lat": 49.2394603,
  "lon": 4.0392760
},
{
  "type": "node",
  "id": 302265207,
  "lat": 49.2394315,
  "lon": 4.0389367
},
{
  "type": "node",
  "id": 302265212,
  "lat": 49.2394949,
  "lon": 4.0385907
},
{
  "type": "node",
  "id": 345210653,
  "lat": 49.2401114,
  "lon": 4.0414792
},
{
  "type": "node",
  "id": 352811305,
  "lat": 49.2394798,
  "lon": 4.0394416
},
{
  "type": "node",
  "id": 357298831,
  "lat": 49.2344272,
  "lon": 4.0404096
},
{
  "type": "node",
  "id": 368005055,
  "lat": 49.2361834,
  "lon": 4.0431455
},
{
  "type": "node",
  "id": 368005058,
  "lat": 49.2358987,
  "lon": 4.0428241
},
{
  "type": "node",
  "id": 509702520,
  "lat": 49.2396446,
  "lon": 4.0399733
},
{
  "type": "node",
  "id": 1095190966,
  "lat": 49.2396296,
  "lon": 4.0399250
},
{
  "type": "node",
  "id": 2371875500,
  "lat": 49.2348865,
  "lon": 4.0411917
},
{
  "type": "node",
  "id": 2371875543,
  "lat": 49.2350815,
  "lon": 4.0414957
},
{
  "type": "node",
  "id": 5351823278,
  "lat": 49.2400206,
  "lon": 4.0411863
},
{
  "type": "node",
  "id": 5351823281,
  "lat": 49.2396893,
  "lon": 4.0401176
},
{
  "type": "node",
  "id": 6750743881,
  "lat": 49.2395261,
  "lon": 4.0384968
},
{
  "type": "node",
  "id": 7275358754,
  "lat": 49.2400770,
  "lon": 4.0413682
},
{
  "type": "node",
  "id": 8106212778,
  "lat": 49.2395152,
  "lon": 4.0395559
},
{
  "type": "node",
  "id": 8446532970,
  "lat": 49.2400460,
  "lon": 4.0412682
},
{
  "type": "node",
  "id": 9403414601,
  "lat": 49.2395153,
  "lon": 4.0385293
},
{
  "type": "node",
  "id": 270759512,
  "lat": 49.2389581,
  "lon": 4.0448165
},
{
  "type": "node",
  "id": 345210756,
  "lat": 49.2403784,
  "lon": 4.0451813
},
{
  "type": "node",
  "id": 345210759,
  "lat": 49.2385647,
  "lon": 4.0470665
},
{
  "type": "node",
  "id": 345210765,
  "lat": 49.2380231,
  "lon": 4.0479559
},
{
  "type": "node",
  "id": 366948422,
  "lat": 49.2356849,
  "lon": 4.0475158
},
{
  "type": "node",
  "id": 366971331,
  "lat": 49.2344829,
  "lon": 4.0481958
},
{
  "type": "node",
  "id": 366971399,
  "lat": 49.2340915,
  "lon": 4.0484097
},
{
  "type": "node",
  "id": 366994669,
  "lat": 49.2372273,
  "lon": 4.0490126
},
{
  "type": "node",
  "id": 366994676,
  "lat": 49.2358387,
  "lon": 4.0474215
},
{
  "type": "node",
  "id": 366994682,
  "lat": 49.2352216,
  "lon": 4.0477798
},
{
  "type": "node",
  "id": 510998851,
  "lat": 49.2399805,
  "lon": 4.0455186
},
{
  "type": "node",
  "id": 510999647,
  "lat": 49.2386514,
  "lon": 4.0447868
},
{
  "type": "node",
  "id": 1095135244,
  "lat": 49.2342199,
  "lon": 4.0483355
},
{
  "type": "node",
  "id": 1095191027,
  "lat": 49.2401143,
  "lon": 4.0454052
},
{
  "type": "node",
  "id": 1095191035,
  "lat": 49.2388054,
  "lon": 4.0448385
},
{
  "type": "node",
  "id": 2106812285,
  "lat": 49.2369109,
  "lon": 4.0437578
},
{
  "type": "node",
  "id": 2461326855,
  "lat": 49.2400853,
  "lon": 4.0454298
},
{
  "type": "node",
  "id": 3031513322,
  "lat": 49.2355872,
  "lon": 4.0475686
},
{
  "type": "node",
  "id": 3031513324,
  "lat": 49.2356105,
  "lon": 4.0475560
},
{
  "type": "node",
  "id": 3033454441,
  "lat": 49.2370722,
  "lon": 4.0467196
},
{
  "type": "node",
  "id": 3033454474,
  "lat": 49.2385710,
  "lon": 4.0458666
},
{
  "type": "node",
  "id": 3033454475,
  "lat": 49.2397598,
  "lon": 4.0451729
},
{
  "type": "node",
  "id": 7263159003,
  "lat": 49.2348537,
  "lon": 4.0479870
},
{
  "type": "node",
  "id": 7263206395,
  "lat": 49.2369943,
  "lon": 4.0467639
},
{
  "type": "node",
  "id": 7263206396,
  "lat": 49.2388325,
  "lon": 4.0457140
},
{
  "type": "node",
  "id": 7263247246,
  "lat": 49.2357708,
  "lon": 4.0474631
},
{
  "type": "node",
  "id": 7263310145,
  "lat": 49.2398438,
  "lon": 4.0456680
},
{
  "type": "node",
  "id": 7263463188,
  "lat": 49.2398298,
  "lon": 4.0456833
},
{
  "type": "node",
  "id": 7276175683,
  "lat": 49.2398210,
  "lon": 4.0456929
},
{
  "type": "node",
  "id": 8068625182,
  "lat": 49.2391575,
  "lon": 4.0455243
},
{
  "type": "node",
  "id": 8068697591,
  "lat": 49.2387032,
  "lon": 4.0457895
},
{
  "type": "node",
  "id": 302030926,
  "lat": 49.2423955,
  "lon": 4.0406912
},
{
  "type": "node",
  "id": 302030953,
  "lat": 49.2431710,
  "lon": 4.0402141
},
{
  "type": "node",
  "id": 351928232,
  "lat": 49.2416775,
  "lon": 4.0372644
},
{
  "type": "node",
  "id": 352811386,
  "lat": 49.2421646,
  "lon": 4.0397566
},
{
  "type": "node",
  "id": 365791540,
  "lat": 49.2405970,
  "lon": 4.0429920
},
{
  "type": "node",
  "id": 1102327546,
  "lat": 49.2428886,
  "lon": 4.0392505
},
{
  "type": "node",
  "id": 1704079539,
  "lat": 49.2416327,
  "lon": 4.0374681
},
{
  "type": "node",
  "id": 1704079541,
  "lat": 49.2416401,
  "lon": 4.0377664
},
{
  "type": "node",
  "id": 1704079544,
  "lat": 49.2417607,
  "lon": 4.0381789
},
{
  "type": "node",
  "id": 1704079549,
  "lat": 49.2426428,
  "lon": 4.0382959
},
{
  "type": "node",
  "id": 1704079554,
  "lat": 49.2423802,
  "lon": 4.0372653
},
{
  "type": "node",
  "id": 4210931237,
  "lat": 49.2421913,
  "lon": 4.0370180
},
{
  "type": "node",
  "id": 4210931240,
  "lat": 49.2423150,
  "lon": 4.0371396
},
{
  "type": "node",
  "id": 5352267539,
  "lat": 49.2424900,
  "lon": 4.0377025
},
{
  "type": "node",
  "id": 5830207259,
  "lat": 49.2423491,
  "lon": 4.0371966
},
{
  "type": "node",
  "id": 5830207260,
  "lat": 49.2422572,
  "lon": 4.0370665
},
{
  "type": "node",
  "id": 6764735061,
  "lat": 49.2435829,
  "lon": 4.0399578
},
{
  "type": "node",
  "id": 7124048809,
  "lat": 49.2423687,
  "lon": 4.0405826
},
{
  "type": "node",
  "id": 7124048812,
  "lat": 49.2431394,
  "lon": 4.0401062
},
{
  "type": "node",
  "id": 7124048813,
  "lat": 49.2435491,
  "lon": 4.0399788
},
{
  "type": "node",
  "id": 7126052956,
  "lat": 49.2421582,
  "lon": 4.0397315
},
{
  "type": "node",
  "id": 7177445706,
  "lat": 49.2428696,
  "lon": 4.0391765
},
{
  "type": "node",
  "id": 7254703063,
  "lat": 49.2416442,
  "lon": 4.0374159
},
{
  "type": "node",
  "id": 7275206609,
  "lat": 49.2416518,
  "lon": 4.0378064
},
{
  "type": "node",
  "id": 8024965394,
  "lat": 49.2429912,
  "lon": 4.0396005
},
{
  "type": "node",
  "id": 8024965397,
  "lat": 49.2428839,
  "lon": 4.0392322
},
{
  "type": "node",
  "id": 9445688188,
  "lat": 49.2422589,
  "lon": 4.0401417
},
{
  "type": "node",
  "id": 278845642,
  "lat": 49.2441427,
  "lon": 4.0496042
},
{
  "type": "node",
  "id": 302264933,
  "lat": 49.2408871,
  "lon": 4.0439727
},
{
  "type": "node",
  "id": 352811151,
  "lat": 49.2460281,
  "lon": 4.0467899
},
{
  "type": "node",
  "id": 352825099,
  "lat": 49.2405935,
  "lon": 4.0444446
},
{
  "type": "node",
  "id": 352825117,
  "lat": 49.2405586,
  "lon": 4.0450852
},
{
  "type": "node",
  "id": 352825132,
  "lat": 49.2408422,
  "lon": 4.0443824
},
{
  "type": "node",
  "id": 476613042,
  "lat": 49.2445487,
  "lon": 4.0490659
},
{
  "type": "node",
  "id": 476613052,
  "lat": 49.2443833,
  "lon": 4.0493067
},
{
  "type": "node",
  "id": 983507561,
  "lat": 49.2438392,
  "lon": 4.0497684
},
{
  "type": "node",
  "id": 1095190901,
  "lat": 49.2410002,
  "lon": 4.0441506
},
{
  "type": "node",
  "id": 2519256728,
  "lat": 49.2438842,
  "lon": 4.0498408
},
{
  "type": "node",
  "id": 2519256730,
  "lat": 49.2443619,
  "lon": 4.0493308
},
{
  "type": "node",
  "id": 3257425802,
  "lat": 49.2438545,
  "lon": 4.0498718
},
{
  "type": "node",
  "id": 4462265101,
  "lat": 49.2460838,
  "lon": 4.0467069
},
{
  "type": "node",
  "id": 4462265108,
  "lat": 49.2463535,
  "lon": 4.0462955
},
{
  "type": "node",
  "id": 6750796933,
  "lat": 49.2406130,
  "lon": 4.0444397
},
{
  "type": "node",
  "id": 6750796954,
  "lat": 49.2405064,
  "lon": 4.0452833
},
{
  "type": "node",
  "id": 6750796956,
  "lat": 49.2439070,
  "lon": 4.0498170
},
{
  "type": "node",
  "id": 7089590608,
  "lat": 49.2444619,
  "lon": 4.0491933
},
{
  "type": "node",
  "id": 7124048806,
  "lat": 49.2405082,
  "lon": 4.0453359
},
{
  "type": "node",
  "id": 7263310144,
  "lat": 49.2408650,
  "lon": 4.0438979
},
{
  "type": "node",
  "id": 7294388177,
  "lat": 49.2462112,
  "lon": 4.0465103
},
{
  "type": "node",
  "id": 7501251167,
  "lat": 49.2406434,
  "lon": 4.0492720
},
{
  "type": "node",
  "id": 7858957559,
  "lat": 49.2408768,
  "lon": 4.0439378
},
{
  "type": "node",
  "id": 7904218478,
  "lat": 49.2464349,
  "lon": 4.0461676
},
{
  "type": "node",
  "id": 7904231497,
  "lat": 49.2461037,
  "lon": 4.0466761
},
{
  "type": "node",
  "id": 7904840815,
  "lat": 49.2438577,
  "lon": 4.0497491
},
{
  "type": "node",
  "id": 7904840816,
  "lat": 49.2443465,
  "lon": 4.0493482
},
{
  "type": "node",
  "id": 7904840817,
  "lat": 49.2405833,
  "lon": 4.0475232
},
{
  "type": "node",
  "id": 7960193789,
  "lat": 49.2407137,
  "lon": 4.0444145
},
{
  "type": "node",
  "id": 9043627618,
  "lat": 49.2442279,
  "lon": 4.0494971
},
{
  "type": "node",
  "id": 9445686720,
  "lat": 49.2460919,
  "lon": 4.0466943
},
{
  "type": "node",
  "id": 534262305,
  "lat": 49.2392563,
  "lon": 4.0615912
},
{
  "type": "node",
  "id": 983581852,
  "lat": 49.2404806,
  "lon": 4.0578563
},
{
  "type": "node",
  "id": 1095778060,
  "lat": 49.2399840,
  "lon": 4.0594698
},
{
  "type": "node",
  "id": 1095778069,
  "lat": 49.2388401,
  "lon": 4.0631938
},
{
  "type": "node",
  "id": 1095778122,
  "lat": 49.2394934,
  "lon": 4.0610774
},
{
  "type": "node",
  "id": 1095778358,
  "lat": 49.2397147,
  "lon": 4.0603540
},
{
  "type": "node",
  "id": 4460506857,
  "lat": 49.2394019,
  "lon": 4.0613766
},
{
  "type": "node",
  "id": 4718323690,
  "lat": 49.2396030,
  "lon": 4.0604819
},
{
  "type": "node",
  "id": 5398588378,
  "lat": 49.2393386,
  "lon": 4.0615812
},
{
  "type": "node",
  "id": 5398732892,
  "lat": 49.2397747,
  "lon": 4.0601577
},
{
  "type": "node",
  "id": 5398732898,
  "lat": 49.2399487,
  "lon": 4.0595892
},
{
  "type": "node",
  "id": 7395479771,
  "lat": 49.2399279,
  "lon": 4.0596572
},
{
  "type": "node",
  "id": 278845637,
  "lat": 49.2409453,
  "lon": 4.0531097
},
{
  "type": "node",
  "id": 278845639,
  "lat": 49.2411725,
  "lon": 4.0526820
},
{
  "type": "node",
  "id": 278845651,
  "lat": 49.2408577,
  "lon": 4.0534698
},
{
  "type": "node",
  "id": 278845652,
  "lat": 49.2408441,
  "lon": 4.0537676
},
{
  "type": "node",
  "id": 278845654,
  "lat": 49.2409030,
  "lon": 4.0562501
},
{
  "type": "node",
  "id": 352825100,
  "lat": 49.2407759,
  "lon": 4.0526704
},
{
  "type": "node",
  "id": 534262287,
  "lat": 49.2408711,
  "lon": 4.0564681
},
{
  "type": "node",
  "id": 534262299,
  "lat": 49.2408161,
  "lon": 4.0564499
},
{
  "type": "node",
  "id": 534262301,
  "lat": 49.2408479,
  "lon": 4.0562392
},
{
  "type": "node",
  "id": 534262302,
  "lat": 49.2408623,
  "lon": 4.0555191
},
{
  "type": "node",
  "id": 534262303,
  "lat": 49.2407689,
  "lon": 4.0532287
},
{
  "type": "node",
  "id": 983506912,
  "lat": 49.2407892,
  "lon": 4.0530545
},
{
  "type": "node",
  "id": 983506956,
  "lat": 49.2409143,
  "lon": 4.0528189
},
{
  "type": "node",
  "id": 983507296,
  "lat": 49.2409114,
  "lon": 4.0559547
},
{
  "type": "node",
  "id": 983507409,
  "lat": 49.2406811,
  "lon": 4.0503708
},
{
  "type": "node",
  "id": 983507575,
  "lat": 49.2408935,
  "lon": 4.0532696
},
{
  "type": "node",
  "id": 983507605,
  "lat": 49.2408508,
  "lon": 4.0551237
},
{
  "type": "node",
  "id": 983508007,
  "lat": 49.2410369,
  "lon": 4.0526885
},
{
  "type": "node",
  "id": 2371574105,
  "lat": 49.2410441,
  "lon": 4.0528699
},
{
  "type": "node",
  "id": 4460506831,
  "lat": 49.2408448,
  "lon": 4.0536275
},
{
  "type": "node",
  "id": 4460506867,
  "lat": 49.2408438,
  "lon": 4.0566250
},
{
  "type": "node",
  "id": 4460596526,
  "lat": 49.2410920,
  "lon": 4.0527814
},
{
  "type": "node",
  "id": 4460596527,
  "lat": 49.2409796,
  "lon": 4.0530031
},
{
  "type": "node",
  "id": 5830207261,
  "lat": 49.2407744,
  "lon": 4.0531404
},
{
  "type": "node",
  "id": 7182151509,
  "lat": 49.2407839,
  "lon": 4.0529015
},
{
  "type": "node",
  "id": 7279814833,
  "lat": 49.2408327,
  "lon": 4.0547049
},
{
  "type": "node",
  "id": 7305253332,
  "lat": 49.2433629,
  "lon": 4.0502647
},
{
  "type": "node",
  "id": 7305253333,
  "lat": 49.2433735,
  "lon": 4.0503759
},
{
  "type": "node",
  "id": 7857399779,
  "lat": 49.2433488,
  "lon": 4.0504018
},
{
  "type": "node",
  "id": 7857399780,
  "lat": 49.2433895,
  "lon": 4.0502370
},
{
  "type": "node",
  "id": 7904846479,
  "lat": 49.2408604,
  "lon": 4.0559505
},
{
  "type": "node",
  "id": 8390103712,
  "lat": 49.2433922,
  "lon": 4.0503563
},
{
  "type": "node",
  "id": 8390103713,
  "lat": 49.2433420,
  "lon": 4.0502865
},
{
  "type": "node",
  "id": 8829019243,
  "lat": 49.2409212,
  "lon": 4.0555619
},
{
  "type": "node",
  "id": 8829019244,
  "lat": 49.2409175,
  "lon": 4.0557073
},
{
  "type": "node",
  "id": 8829019245,
  "lat": 49.2408623,
  "lon": 4.0556669
},
{
  "type": "node",
  "id": 8829019247,
  "lat": 49.2408604,
  "lon": 4.0558994
},
{
  "type": "node",
  "id": 8829019248,
  "lat": 49.2409138,
  "lon": 4.0558870
},
{
  "type": "node",
  "id": 9056018064,
  "lat": 49.2409173,
  "lon": 4.0557823
},
{
  "type": "node",
  "id": 9056018065,
  "lat": 49.2408622,
  "lon": 4.0557743
},
{
  "type": "node",
  "id": 9445686883,
  "lat": 49.2409099,
  "lon": 4.0560030
},
{
  "type": "node",
  "id": 278845655,
  "lat": 49.2408090,
  "lon": 4.0567868
},
{
  "type": "node",
  "id": 534262298,
  "lat": 49.2407411,
  "lon": 4.0568063
},
{
  "type": "node",
  "id": 4460506873,
  "lat": 49.2406635,
  "lon": 4.0570882
},
{
  "type": "node",
  "id": 4460506882,
  "lat": 49.2407490,
  "lon": 4.0570051
},
{
  "type": "node",
  "id": 278845659,
  "lat": 49.2368549,
  "lon": 4.0696302
},
{
  "type": "node",
  "id": 534262297,
  "lat": 49.2368906,
  "lon": 4.0692134
},
{
  "type": "node",
  "id": 534262309,
  "lat": 49.2375748,
  "lon": 4.0669698
},
{
  "type": "node",
  "id": 983406183,
  "lat": 49.2385322,
  "lon": 4.0642063
},
{
  "type": "node",
  "id": 3172160737,
  "lat": 49.2369664,
  "lon": 4.0689649
},
{
  "type": "node",
  "id": 3172160742,
  "lat": 49.2371844,
  "lon": 4.0685662
},
{
  "type": "node",
  "id": 4460506876,
  "lat": 49.2387573,
  "lon": 4.0634615
},
{
  "type": "node",
  "id": 5398732901,
  "lat": 49.2387207,
  "lon": 4.0635803
},
{
  "type": "node",
  "id": 5398791828,
  "lat": 49.2376978,
  "lon": 4.0669005
},
{
  "type": "node",
  "id": 5398791829,
  "lat": 49.2373508,
  "lon": 4.0680397
},
{
  "type": "node",
  "id": 7005885610,
  "lat": 49.2386908,
  "lon": 4.0634002
},
{
  "type": "node",
  "id": 7182171474,
  "lat": 49.2387043,
  "lon": 4.0633571
},
{
  "type": "node",
  "id": 7182189896,
  "lat": 49.2376614,
  "lon": 4.0666929
},
{
  "type": "node",
  "id": 7301694860,
  "lat": 49.2380955,
  "lon": 4.0656162
},
{
  "type": "node",
  "id": 7947661608,
  "lat": 49.2373623,
  "lon": 4.0676665
},
{
  "type": "node",
  "id": 278845681,
  "lat": 49.2364779,
  "lon": 4.0702433
},
{
  "type": "node",
  "id": 534262294,
  "lat": 49.2367495,
  "lon": 4.0700596
},
{
  "type": "node",
  "id": 534262295,
  "lat": 49.2366471,
  "lon": 4.0699185
},
{
  "type": "node",
  "id": 3172160745,
  "lat": 49.2365771,
  "lon": 4.0700609
},
{
  "type": "node",
  "id": 4460506839,
  "lat": 49.2367312,
  "lon": 4.0701607
},
{
  "type": "node",
  "id": 4460506874,
  "lat": 49.2367927,
  "lon": 4.0698686
},
{
  "type": "node",
  "id": 283281238,
  "lat": 49.2646069,
  "lon": 4.0086551
},
{
  "type": "node",
  "id": 1073652942,
  "lat": 49.2646616,
  "lon": 4.0077750
},
{
  "type": "node",
  "id": 1073652985,
  "lat": 49.2646132,
  "lon": 4.0085543
},
{
  "type": "node",
  "id": 5352267348,
  "lat": 49.2646573,
  "lon": 4.0078435
},
{
  "type": "node",
  "id": 1073653012,
  "lat": 49.2708640,
  "lon": 4.0020078
},
{
  "type": "node",
  "id": 1073653264,
  "lat": 49.2710136,
  "lon": 4.0004084
},
{
  "type": "node",
  "id": 6832944098,
  "lat": 49.2707083,
  "lon": 4.0036920
},
{
  "type": "node",
  "id": 6832970842,
  "lat": 49.2709034,
  "lon": 4.0015679
},
{
  "type": "node",
  "id": 7551492395,
  "lat": 49.2707175,
  "lon": 4.0035925
},
{
  "type": "node",
  "id": 4108065838,
  "lat": 49.2700445,
  "lon": 4.0107307
},
{
  "type": "node",
  "id": 6832740852,
  "lat": 49.2703840,
  "lon": 4.0071730
},
{
  "type": "node",
  "id": 6832740854,
  "lat": 49.2702806,
  "lon": 4.0082872
},
{
  "type": "node",
  "id": 6832740872,
  "lat": 49.2703861,
  "lon": 4.0071421
},
{
  "type": "node",
  "id": 6832746803,
  "lat": 49.2704842,
  "lon": 4.0061056
},
{
  "type": "node",
  "id": 6832746804,
  "lat": 49.2702489,
  "lon": 4.0086384
},
{
  "type": "node",
  "id": 6832746805,
  "lat": 49.2701482,
  "lon": 4.0096310
},
{
  "type": "node",
  "id": 6832943999,
  "lat": 49.2705653,
  "lon": 4.0052017
},
{
  "type": "node",
  "id": 6833223768,
  "lat": 49.2704086,
  "lon": 4.0068939
},
{
  "type": "node",
  "id": 6833223774,
  "lat": 49.2704930,
  "lon": 4.0060201
},
{
  "type": "node",
  "id": 6833223779,
  "lat": 49.2704286,
  "lon": 4.0066913
},
{
  "type": "node",
  "id": 6833223784,
  "lat": 49.2703771,
  "lon": 4.0072376
},
{
  "type": "node",
  "id": 6833263870,
  "lat": 49.2700640,
  "lon": 4.0105573
},
{
  "type": "node",
  "id": 6833263871,
  "lat": 49.2701531,
  "lon": 4.0095787
},
{
  "type": "node",
  "id": 6833263875,
  "lat": 49.2703606,
  "lon": 4.0074125
},
{
  "type": "node",
  "id": 6834069087,
  "lat": 49.2705111,
  "lon": 4.0058261
},
{
  "type": "node",
  "id": 6834321075,
  "lat": 49.2705738,
  "lon": 4.0051154
},
{
  "type": "node",
  "id": 8512810035,
  "lat": 49.2700696,
  "lon": 4.0104955
},
{
  "type": "node",
  "id": 270759431,
  "lat": 49.2534783,
  "lon": 4.0184887
},
{
  "type": "node",
  "id": 349050710,
  "lat": 49.2483373,
  "lon": 4.0217652
},
{
  "type": "node",
  "id": 349050715,
  "lat": 49.2474104,
  "lon": 4.0228897
},
{
  "type": "node",
  "id": 1082910462,
  "lat": 49.2476521,
  "lon": 4.0226591
},
{
  "type": "node",
  "id": 7158138109,
  "lat": 49.2482832,
  "lon": 4.0218011
},
{
  "type": "node",
  "id": 7332963110,
  "lat": 49.2482539,
  "lon": 4.0218395
},
{
  "type": "node",
  "id": 7496991591,
  "lat": 49.2475838,
  "lon": 4.0227476
},
{
  "type": "node",
  "id": 7952505809,
  "lat": 49.2480888,
  "lon": 4.0220643
},
{
  "type": "node",
  "id": 8125097990,
  "lat": 49.2482189,
  "lon": 4.0218871
},
{
  "type": "node",
  "id": 270759704,
  "lat": 49.2550391,
  "lon": 4.0205539
},
{
  "type": "node",
  "id": 358520139,
  "lat": 49.2578925,
  "lon": 4.0216936
},
{
  "type": "node",
  "id": 358520145,
  "lat": 49.2581656,
  "lon": 4.0218009
},
{
  "type": "node",
  "id": 358520148,
  "lat": 49.2588370,
  "lon": 4.0219436
},
{
  "type": "node",
  "id": 358520151,
  "lat": 49.2590239,
  "lon": 4.0220489
},
{
  "type": "node",
  "id": 358520154,
  "lat": 49.2596151,
  "lon": 4.0226094
},
{
  "type": "node",
  "id": 358520158,
  "lat": 49.2597451,
  "lon": 4.0226416
},
{
  "type": "node",
  "id": 358520161,
  "lat": 49.2598190,
  "lon": 4.0226133
},
{
  "type": "node",
  "id": 1095054621,
  "lat": 49.2547057,
  "lon": 4.0200375
},
{
  "type": "node",
  "id": 1095837742,
  "lat": 49.2537775,
  "lon": 4.0180282
},
{
  "type": "node",
  "id": 1095837790,
  "lat": 49.2537166,
  "lon": 4.0185717
},
{
  "type": "node",
  "id": 1095837909,
  "lat": 49.2537640,
  "lon": 4.0188563
},
{
  "type": "node",
  "id": 1095838044,
  "lat": 49.2537236,
  "lon": 4.0183643
},
{
  "type": "node",
  "id": 1920434951,
  "lat": 49.2539289,
  "lon": 4.0190650
},
{
  "type": "node",
  "id": 4210969358,
  "lat": 49.2537322,
  "lon": 4.0182395
},
{
  "type": "node",
  "id": 5159363947,
  "lat": 49.2591950,
  "lon": 4.0222091
},
{
  "type": "node",
  "id": 6736611312,
  "lat": 49.2537511,
  "lon": 4.0187790
},
{
  "type": "node",
  "id": 7018136997,
  "lat": 49.2579740,
  "lon": 4.0217719
},
{
  "type": "node",
  "id": 7018136998,
  "lat": 49.2589346,
  "lon": 4.0219865
},
{
  "type": "node",
  "id": 7018136999,
  "lat": 49.2595381,
  "lon": 4.0225498
},
{
  "type": "node",
  "id": 7018137000,
  "lat": 49.2596799,
  "lon": 4.0226329
},
{
  "type": "node",
  "id": 7095778551,
  "lat": 49.2579911,
  "lon": 4.0217745
},
{
  "type": "node",
  "id": 7095778553,
  "lat": 49.2584729,
  "lon": 4.0218662
},
{
  "type": "node",
  "id": 7124758640,
  "lat": 49.2594162,
  "lon": 4.0224288
},
{
  "type": "node",
  "id": 7124758641,
  "lat": 49.2591429,
  "lon": 4.0221603
},
{
  "type": "node",
  "id": 7255273729,
  "lat": 49.2593219,
  "lon": 4.0223352
},
{
  "type": "node",
  "id": 7255273730,
  "lat": 49.2596652,
  "lon": 4.0226276
},
{
  "type": "node",
  "id": 7274708477,
  "lat": 49.2593370,
  "lon": 4.0223502
},
{
  "type": "node",
  "id": 7803853348,
  "lat": 49.2492266,
  "lon": 4.0262861
},
{
  "type": "node",
  "id": 7803853354,
  "lat": 49.2486821,
  "lon": 4.0271972
},
{
  "type": "node",
  "id": 7803853355,
  "lat": 49.2487105,
  "lon": 4.0271064
},
{
  "type": "node",
  "id": 7803853356,
  "lat": 49.2490334,
  "lon": 4.0266004
},
{
  "type": "node",
  "id": 7803853357,
  "lat": 49.2490607,
  "lon": 4.0265597
},
{
  "type": "node",
  "id": 7803853358,
  "lat": 49.2494160,
  "lon": 4.0259571
},
{
  "type": "node",
  "id": 9054350585,
  "lat": 49.2493775,
  "lon": 4.0258948
},
{
  "type": "node",
  "id": 283282544,
  "lat": 49.2522484,
  "lon": 4.0320508
},
{
  "type": "node",
  "id": 302385075,
  "lat": 49.2527081,
  "lon": 4.0368086
},
{
  "type": "node",
  "id": 302385109,
  "lat": 49.2533033,
  "lon": 4.0362027
},
{
  "type": "node",
  "id": 302385113,
  "lat": 49.2524413,
  "lon": 4.0357898
},
{
  "type": "node",
  "id": 314511411,
  "lat": 49.2525346,
  "lon": 4.0327183
},
{
  "type": "node",
  "id": 349285258,
  "lat": 49.2527946,
  "lon": 4.0333795
},
{
  "type": "node",
  "id": 350555661,
  "lat": 49.2527494,
  "lon": 4.0367179
},
{
  "type": "node",
  "id": 350555961,
  "lat": 49.2534155,
  "lon": 4.0360984
},
{
  "type": "node",
  "id": 350555964,
  "lat": 49.2535508,
  "lon": 4.0364179
},
{
  "type": "node",
  "id": 351919921,
  "lat": 49.2523951,
  "lon": 4.0355956
},
{
  "type": "node",
  "id": 2519298804,
  "lat": 49.2523062,
  "lon": 4.0321787
},
{
  "type": "node",
  "id": 2519298849,
  "lat": 49.2522991,
  "lon": 4.0321620
},
{
  "type": "node",
  "id": 2519298864,
  "lat": 49.2524173,
  "lon": 4.0356891
},
{
  "type": "node",
  "id": 2519298884,
  "lat": 49.2532450,
  "lon": 4.0362569
},
{
  "type": "node",
  "id": 2519298895,
  "lat": 49.2533645,
  "lon": 4.0362559
},
{
  "type": "node",
  "id": 2519298897,
  "lat": 49.2534547,
  "lon": 4.0361901
},
{
  "type": "node",
  "id": 6770463960,
  "lat": 49.2525904,
  "lon": 4.0363593
},
{
  "type": "node",
  "id": 7196137753,
  "lat": 49.2526807,
  "lon": 4.0367038
},
{
  "type": "node",
  "id": 7266402850,
  "lat": 49.2525065,
  "lon": 4.0326520
},
{
  "type": "node",
  "id": 8402974261,
  "lat": 49.2531454,
  "lon": 4.0363496
},
{
  "type": "node",
  "id": 302385066,
  "lat": 49.2550851,
  "lon": 4.0329640
},
{
  "type": "node",
  "id": 302385072,
  "lat": 49.2545344,
  "lon": 4.0347643
},
{
  "type": "node",
  "id": 302385081,
  "lat": 49.2547054,
  "lon": 4.0351682
},
{
  "type": "node",
  "id": 302385092,
  "lat": 49.2553765,
  "lon": 4.0337362
},
{
  "type": "node",
  "id": 302385102,
  "lat": 49.2561679,
  "lon": 4.0334880
},
{
  "type": "node",
  "id": 302385104,
  "lat": 49.2576999,
  "lon": 4.0320288
},
{
  "type": "node",
  "id": 314511408,
  "lat": 49.2565782,
  "lon": 4.0321368
},
{
  "type": "node",
  "id": 349285188,
  "lat": 49.2565274,
  "lon": 4.0322102
},
{
  "type": "node",
  "id": 349285197,
  "lat": 49.2564364,
  "lon": 4.0325778
},
{
  "type": "node",
  "id": 349285201,
  "lat": 49.2560171,
  "lon": 4.0330599
},
{
  "type": "node",
  "id": 349285206,
  "lat": 49.2559904,
  "lon": 4.0331174
},
{
  "type": "node",
  "id": 349285211,
  "lat": 49.2556060,
  "lon": 4.0334939
},
{
  "type": "node",
  "id": 349285215,
  "lat": 49.2565969,
  "lon": 4.0330949
},
{
  "type": "node",
  "id": 349285219,
  "lat": 49.2564414,
  "lon": 4.0326687
},
{
  "type": "node",
  "id": 349285227,
  "lat": 49.2566577,
  "lon": 4.0347623
},
{
  "type": "node",
  "id": 349285230,
  "lat": 49.2571183,
  "lon": 4.0343865
},
{
  "type": "node",
  "id": 349285232,
  "lat": 49.2563125,
  "lon": 4.0338765
},
{
  "type": "node",
  "id": 349285237,
  "lat": 49.2552996,
  "lon": 4.0335294
},
{
  "type": "node",
  "id": 349285238,
  "lat": 49.2567126,
  "lon": 4.0333987
},
{
  "type": "node",
  "id": 349285249,
  "lat": 49.2578913,
  "lon": 4.0350276
},
{
  "type": "node",
  "id": 350555672,
  "lat": 49.2542145,
  "lon": 4.0369846
},
{
  "type": "node",
  "id": 350555716,
  "lat": 49.2577919,
  "lon": 4.0365393
},
{
  "type": "node",
  "id": 350555721,
  "lat": 49.2578897,
  "lon": 4.0355189
},
{
  "type": "node",
  "id": 350555723,
  "lat": 49.2577750,
  "lon": 4.0356909
},
{
  "type": "node",
  "id": 350555724,
  "lat": 49.2575761,
  "lon": 4.0352967
},
{
  "type": "node",
  "id": 350555736,
  "lat": 49.2579030,
  "lon": 4.0353041
},
{
  "type": "node",
  "id": 350555750,
  "lat": 49.2578234,
  "lon": 4.0360522
},
{
  "type": "node",
  "id": 350555804,
  "lat": 49.2564972,
  "lon": 4.0328281
},
{
  "type": "node",
  "id": 350555869,
  "lat": 49.2564990,
  "lon": 4.0343652
},
{
  "type": "node",
  "id": 507041586,
  "lat": 49.2551997,
  "lon": 4.0332610
},
{
  "type": "node",
  "id": 982823822,
  "lat": 49.2554206,
  "lon": 4.0338546
},
{
  "type": "node",
  "id": 982824010,
  "lat": 49.2553560,
  "lon": 4.0336810
},
{
  "type": "node",
  "id": 1103726117,
  "lat": 49.2569859,
  "lon": 4.0341523
},
{
  "type": "node",
  "id": 2473554375,
  "lat": 49.2565887,
  "lon": 4.0345988
},
{
  "type": "node",
  "id": 2473554384,
  "lat": 49.2570266,
  "lon": 4.0342530
},
{
  "type": "node",
  "id": 2519298904,
  "lat": 49.2541614,
  "lon": 4.0369392
},
{
  "type": "node",
  "id": 5830207223,
  "lat": 49.2548135,
  "lon": 4.0322453
},
{
  "type": "node",
  "id": 5861220195,
  "lat": 49.2565421,
  "lon": 4.0331451
},
{
  "type": "node",
  "id": 5861220196,
  "lat": 49.2565688,
  "lon": 4.0330197
},
{
  "type": "node",
  "id": 5861220197,
  "lat": 49.2566498,
  "lon": 4.0330437
},
{
  "type": "node",
  "id": 5861220198,
  "lat": 49.2566396,
  "lon": 4.0332075
},
{
  "type": "node",
  "id": 5861220199,
  "lat": 49.2562069,
  "lon": 4.0336015
},
{
  "type": "node",
  "id": 5861220200,
  "lat": 49.2561358,
  "lon": 4.0333870
},
{
  "type": "node",
  "id": 5903493483,
  "lat": 49.2578987,
  "lon": 4.0351211
},
{
  "type": "node",
  "id": 5903495087,
  "lat": 49.2577958,
  "lon": 4.0351091
},
{
  "type": "node",
  "id": 5903495089,
  "lat": 49.2576194,
  "lon": 4.0352532
},
{
  "type": "node",
  "id": 5903495090,
  "lat": 49.2576131,
  "lon": 4.0353656
},
{
  "type": "node",
  "id": 5903495091,
  "lat": 49.2578738,
  "lon": 4.0356555
},
{
  "type": "node",
  "id": 5903503001,
  "lat": 49.2576163,
  "lon": 4.0321096
},
{
  "type": "node",
  "id": 7266253443,
  "lat": 49.2548663,
  "lon": 4.0323851
},
{
  "type": "node",
  "id": 7266253453,
  "lat": 49.2549066,
  "lon": 4.0324917
},
{
  "type": "node",
  "id": 7931575512,
  "lat": 49.2562561,
  "lon": 4.0334072
},
{
  "type": "node",
  "id": 8898223266,
  "lat": 49.2578083,
  "lon": 4.0357678
},
{
  "type": "node",
  "id": 9060899801,
  "lat": 49.2566103,
  "lon": 4.0331303
},
{
  "type": "node",
  "id": 9201232885,
  "lat": 49.2550982,
  "lon": 4.0329980
},
{
  "type": "node",
  "id": 355307559,
  "lat": 49.2642807,
  "lon": 4.0131754
},
{
  "type": "node",
  "id": 4111295945,
  "lat": 49.2643194,
  "lon": 4.0131355
},
{
  "type": "node",
  "id": 4111295948,
  "lat": 49.2643357,
  "lon": 4.0130865
},
{
  "type": "node",
  "id": 4111295950,
  "lat": 49.2643637,
  "lon": 4.0125387
},
{
  "type": "node",
  "id": 4111295951,
  "lat": 49.2643614,
  "lon": 4.0128283
},
{
  "type": "node",
  "id": 358520164,
  "lat": 49.2603151,
  "lon": 4.0223556
},
{
  "type": "node",
  "id": 5953997977,
  "lat": 49.2602847,
  "lon": 4.0223867
},
{
  "type": "node",
  "id": 7018137001,
  "lat": 49.2601960,
  "lon": 4.0224378
},
{
  "type": "node",
  "id": 7040668926,
  "lat": 49.2602404,
  "lon": 4.0224123
},
{
  "type": "node",
  "id": 360425123,
  "lat": 49.2700335,
  "lon": 4.0108625
},
{
  "type": "node",
  "id": 360293872,
  "lat": 49.2644811,
  "lon": 4.0295694
},
{
  "type": "node",
  "id": 5046304158,
  "lat": 49.2632763,
  "lon": 4.0282667
},
{
  "type": "node",
  "id": 5777567522,
  "lat": 49.2644614,
  "lon": 4.0295481
},
{
  "type": "node",
  "id": 6767232081,
  "lat": 49.2642627,
  "lon": 4.0293332
},
{
  "type": "node",
  "id": 6767232082,
  "lat": 49.2642501,
  "lon": 4.0293196
},
{
  "type": "node",
  "id": 7110460867,
  "lat": 49.2632326,
  "lon": 4.0282153
},
{
  "type": "node",
  "id": 7888783917,
  "lat": 49.2644511,
  "lon": 4.0295369
},
{
  "type": "node",
  "id": 301790395,
  "lat": 49.2612897,
  "lon": 4.0327403
},
{
  "type": "node",
  "id": 357323701,
  "lat": 49.2613181,
  "lon": 4.0309843
},
{
  "type": "node",
  "id": 1821744553,
  "lat": 49.2612525,
  "lon": 4.0310432
},
{
  "type": "node",
  "id": 1821744560,
  "lat": 49.2612864,
  "lon": 4.0313022
},
{
  "type": "node",
  "id": 2348686934,
  "lat": 49.2612430,
  "lon": 4.0306929
},
{
  "type": "node",
  "id": 2348686935,
  "lat": 49.2613130,
  "lon": 4.0307027
},
{
  "type": "node",
  "id": 4462265095,
  "lat": 49.2612962,
  "lon": 4.0320344
},
{
  "type": "node",
  "id": 4462265114,
  "lat": 49.2613082,
  "lon": 4.0311489
},
{
  "type": "node",
  "id": 7124149364,
  "lat": 49.2612433,
  "lon": 4.0307077
},
{
  "type": "node",
  "id": 7822480076,
  "lat": 49.2613140,
  "lon": 4.0307457
},
{
  "type": "node",
  "id": 9024571652,
  "lat": 49.2612944,
  "lon": 4.0322263
},
{
  "type": "node",
  "id": 302482856,
  "lat": 49.2671066,
  "lon": 4.0271551
},
{
  "type": "node",
  "id": 302482858,
  "lat": 49.2678634,
  "lon": 4.0266092
},
{
  "type": "node",
  "id": 302482860,
  "lat": 49.2683941,
  "lon": 4.0263213
},
{
  "type": "node",
  "id": 306938988,
  "lat": 49.2710498,
  "lon": 4.0249133
},
{
  "type": "node",
  "id": 360293925,
  "lat": 49.2698265,
  "lon": 4.0255888
},
{
  "type": "node",
  "id": 360293930,
  "lat": 49.2697144,
  "lon": 4.0256702
},
{
  "type": "node",
  "id": 360293934,
  "lat": 49.2696357,
  "lon": 4.0258199
},
{
  "type": "node",
  "id": 360293937,
  "lat": 49.2708960,
  "lon": 4.0249949
},
{
  "type": "node",
  "id": 360425387,
  "lat": 49.2673718,
  "lon": 4.0269604
},
{
  "type": "node",
  "id": 360425392,
  "lat": 49.2678093,
  "lon": 4.0266432
},
{
  "type": "node",
  "id": 360425400,
  "lat": 49.2682562,
  "lon": 4.0263920
},
{
  "type": "node",
  "id": 360425405,
  "lat": 49.2686237,
  "lon": 4.0262095
},
{
  "type": "node",
  "id": 360425484,
  "lat": 49.2701215,
  "lon": 4.0253997
},
{
  "type": "node",
  "id": 5777574543,
  "lat": 49.2667437,
  "lon": 4.0274457
},
{
  "type": "node",
  "id": 5777574654,
  "lat": 49.2697962,
  "lon": 4.0256108
},
{
  "type": "node",
  "id": 7289478782,
  "lat": 49.2709645,
  "lon": 4.0249585
},
{
  "type": "node",
  "id": 7368510994,
  "lat": 49.2668921,
  "lon": 4.0273268
},
{
  "type": "node",
  "id": 7368510995,
  "lat": 49.2670507,
  "lon": 4.0271999
},
{
  "type": "node",
  "id": 7368997784,
  "lat": 49.2677789,
  "lon": 4.0266653
},
{
  "type": "node",
  "id": 7368999397,
  "lat": 49.2679438,
  "lon": 4.0265647
},
{
  "type": "node",
  "id": 7369062707,
  "lat": 49.2671492,
  "lon": 4.0271238
},
{
  "type": "node",
  "id": 7369062711,
  "lat": 49.2674586,
  "lon": 4.0268975
},
{
  "type": "node",
  "id": 8203502840,
  "lat": 49.2706762,
  "lon": 4.0251098
},
{
  "type": "node",
  "id": 8857436780,
  "lat": 49.2698114,
  "lon": 4.0255998
},
{
  "type": "node",
  "id": 1095575132,
  "lat": 49.2676277,
  "lon": 4.0369645
},
{
  "type": "node",
  "id": 291327590,
  "lat": 49.2884541,
  "lon": 4.0240738
},
{
  "type": "node",
  "id": 360481242,
  "lat": 49.2904581,
  "lon": 4.0241482
},
{
  "type": "node",
  "id": 360481244,
  "lat": 49.2885835,
  "lon": 4.0240837
},
{
  "type": "node",
  "id": 1091344876,
  "lat": 49.2899266,
  "lon": 4.0241299
},
{
  "type": "node",
  "id": 1091344920,
  "lat": 49.2888640,
  "lon": 4.0240934
},
{
  "type": "node",
  "id": 1091345073,
  "lat": 49.2889508,
  "lon": 4.0240963
},
{
  "type": "node",
  "id": 7171795759,
  "lat": 49.2903944,
  "lon": 4.0241460
},
{
  "type": "node",
  "id": 7264856642,
  "lat": 49.2885469,
  "lon": 4.0240790
},
{
  "type": "node",
  "id": 7264856643,
  "lat": 49.2885166,
  "lon": 4.0240750
},
{
  "type": "node",
  "id": 8857386844,
  "lat": 49.2897653,
  "lon": 4.0241243
},
{
  "type": "node",
  "id": 278845635,
  "lat": 49.2490747,
  "lon": 4.0430545
},
{
  "type": "node",
  "id": 278845646,
  "lat": 49.2484859,
  "lon": 4.0435449
},
{
  "type": "node",
  "id": 302265364,
  "lat": 49.2482347,
  "lon": 4.0434400
},
{
  "type": "node",
  "id": 352811481,
  "lat": 49.2483710,
  "lon": 4.0433840
},
{
  "type": "node",
  "id": 4462265111,
  "lat": 49.2485553,
  "lon": 4.0434871
},
{
  "type": "node",
  "id": 7296821114,
  "lat": 49.2484837,
  "lon": 4.0433312
},
{
  "type": "node",
  "id": 278845644,
  "lat": 49.2478277,
  "lon": 4.0440540
},
{
  "type": "node",
  "id": 352811480,
  "lat": 49.2482925,
  "lon": 4.0436851
},
{
  "type": "node",
  "id": 352811499,
  "lat": 49.2476154,
  "lon": 4.0438038
},
{
  "type": "node",
  "id": 352811503,
  "lat": 49.2480425,
  "lon": 4.0438686
},
{
  "type": "node",
  "id": 352811504,
  "lat": 49.2480200,
  "lon": 4.0435748
},
{
  "type": "node",
  "id": 7555796336,
  "lat": 49.2479176,
  "lon": 4.0439604
},
{
  "type": "node",
  "id": 278845605,
  "lat": 49.2571731,
  "lon": 4.0390091
},
{
  "type": "node",
  "id": 278845620,
  "lat": 49.2563714,
  "lon": 4.0396779
},
{
  "type": "node",
  "id": 302385134,
  "lat": 49.2561630,
  "lon": 4.0387497
},
{
  "type": "node",
  "id": 350555687,
  "lat": 49.2549321,
  "lon": 4.0375992
},
{
  "type": "node",
  "id": 350555703,
  "lat": 49.2554376,
  "lon": 4.0380366
},
{
  "type": "node",
  "id": 350555708,
  "lat": 49.2560280,
  "lon": 4.0385360
},
{
  "type": "node",
  "id": 350555709,
  "lat": 49.2567129,
  "lon": 4.0382398
},
{
  "type": "node",
  "id": 350555710,
  "lat": 49.2569735,
  "lon": 4.0380685
},
{
  "type": "node",
  "id": 350555714,
  "lat": 49.2577613,
  "lon": 4.0377110
},
{
  "type": "node",
  "id": 350555715,
  "lat": 49.2578260,
  "lon": 4.0371841
},
{
  "type": "node",
  "id": 350555875,
  "lat": 49.2555949,
  "lon": 4.0371123
},
{
  "type": "node",
  "id": 350555908,
  "lat": 49.2555791,
  "lon": 4.0370361
},
{
  "type": "node",
  "id": 350555924,
  "lat": 49.2559600,
  "lon": 4.0381183
},
{
  "type": "node",
  "id": 2341977906,
  "lat": 49.2563477,
  "lon": 4.0395723
},
{
  "type": "node",
  "id": 2344214113,
  "lat": 49.2557337,
  "lon": 4.0375124
},
{
  "type": "node",
  "id": 2344214118,
  "lat": 49.2557167,
  "lon": 4.0374611
},
{
  "type": "node",
  "id": 2519298908,
  "lat": 49.2542896,
  "lon": 4.0370750
},
{
  "type": "node",
  "id": 2520083060,
  "lat": 49.2570138,
  "lon": 4.0390420
},
{
  "type": "node",
  "id": 2520083073,
  "lat": 49.2574838,
  "lon": 4.0386403
},
{
  "type": "node",
  "id": 3728949278,
  "lat": 49.2557899,
  "lon": 4.0376770
},
{
  "type": "node",
  "id": 6214464151,
  "lat": 49.2568757,
  "lon": 4.0381314
},
{
  "type": "node",
  "id": 6214464153,
  "lat": 49.2563381,
  "lon": 4.0395294
},
{
  "type": "node",
  "id": 6214464154,
  "lat": 49.2561946,
  "lon": 4.0388904
},
{
  "type": "node",
  "id": 6214464155,
  "lat": 49.2562854,
  "lon": 4.0386315
},
{
  "type": "node",
  "id": 6214464156,
  "lat": 49.2560960,
  "lon": 4.0385413
},
{
  "type": "node",
  "id": 6214464157,
  "lat": 49.2560607,
  "lon": 4.0385878
},
{
  "type": "node",
  "id": 6214523076,
  "lat": 49.2548266,
  "lon": 4.0375089
},
{
  "type": "node",
  "id": 6214523078,
  "lat": 49.2550027,
  "lon": 4.0376603
},
{
  "type": "node",
  "id": 7276564065,
  "lat": 49.2563437,
  "lon": 4.0388300
},
{
  "type": "node",
  "id": 7495769047,
  "lat": 49.2570794,
  "lon": 4.0390427
},
{
  "type": "node",
  "id": 7496994708,
  "lat": 49.2551304,
  "lon": 4.0377708
},
{
  "type": "node",
  "id": 7547555344,
  "lat": 49.2570518,
  "lon": 4.0390424
},
{
  "type": "node",
  "id": 8248186899,
  "lat": 49.2560595,
  "lon": 4.0384279
},
{
  "type": "node",
  "id": 301797530,
  "lat": 49.2599490,
  "lon": 4.0476245
},
{
  "type": "node",
  "id": 2520083142,
  "lat": 49.2601423,
  "lon": 4.0471961
},
{
  "type": "node",
  "id": 367678145,
  "lat": 49.2524821,
  "lon": 4.0625519
},
{
  "type": "node",
  "id": 367678170,
  "lat": 49.2526587,
  "lon": 4.0624418
},
{
  "type": "node",
  "id": 2413746457,
  "lat": 49.2523750,
  "lon": 4.0626690
},
{
  "type": "node",
  "id": 5830207263,
  "lat": 49.2525688,
  "lon": 4.0624899
},
{
  "type": "node",
  "id": 7181854123,
  "lat": 49.2526025,
  "lon": 4.0624719
},
{
  "type": "node",
  "id": 352841783,
  "lat": 49.2560699,
  "lon": 4.0554071
},
{
  "type": "node",
  "id": 354684855,
  "lat": 49.2566721,
  "lon": 4.0515514
},
{
  "type": "node",
  "id": 354684856,
  "lat": 49.2564726,
  "lon": 4.0504494
},
{
  "type": "node",
  "id": 354684858,
  "lat": 49.2563810,
  "lon": 4.0530044
},
{
  "type": "node",
  "id": 354684862,
  "lat": 49.2562217,
  "lon": 4.0541441
},
{
  "type": "node",
  "id": 354684864,
  "lat": 49.2563392,
  "lon": 4.0533098
},
{
  "type": "node",
  "id": 354684910,
  "lat": 49.2563040,
  "lon": 4.0535744
},
{
  "type": "node",
  "id": 354684914,
  "lat": 49.2564536,
  "lon": 4.0526522
},
{
  "type": "node",
  "id": 354684916,
  "lat": 49.2565079,
  "lon": 4.0506083
},
{
  "type": "node",
  "id": 354684918,
  "lat": 49.2566348,
  "lon": 4.0513083
},
{
  "type": "node",
  "id": 2083483092,
  "lat": 49.2560687,
  "lon": 4.0552772
},
{
  "type": "node",
  "id": 2083483098,
  "lat": 49.2560744,
  "lon": 4.0552347
},
{
  "type": "node",
  "id": 2505021193,
  "lat": 49.2566565,
  "lon": 4.0514533
},
{
  "type": "node",
  "id": 2505021196,
  "lat": 49.2566148,
  "lon": 4.0511978
},
{
  "type": "node",
  "id": 7022379537,
  "lat": 49.2564589,
  "lon": 4.0526254
},
{
  "type": "node",
  "id": 7022379565,
  "lat": 49.2563938,
  "lon": 4.0529425
},
{
  "type": "node",
  "id": 7022379566,
  "lat": 49.2565056,
  "lon": 4.0523903
},
{
  "type": "node",
  "id": 8359939092,
  "lat": 49.2564731,
  "lon": 4.0525539
},
{
  "type": "node",
  "id": 9043592687,
  "lat": 49.2564858,
  "lon": 4.0505087
},
{
  "type": "node",
  "id": 367680283,
  "lat": 49.2556521,
  "lon": 4.0594229
},
{
  "type": "node",
  "id": 367680705,
  "lat": 49.2557880,
  "lon": 4.0581868
},
{
  "type": "node",
  "id": 1098841651,
  "lat": 49.2558647,
  "lon": 4.0574898
},
{
  "type": "node",
  "id": 1098841660,
  "lat": 49.2557298,
  "lon": 4.0587241
},
{
  "type": "node",
  "id": 6786554465,
  "lat": 49.2558750,
  "lon": 4.0573911
},
{
  "type": "node",
  "id": 357323720,
  "lat": 49.2640998,
  "lon": 4.0392623
},
{
  "type": "node",
  "id": 357494429,
  "lat": 49.2643552,
  "lon": 4.0398220
},
{
  "type": "node",
  "id": 5225398743,
  "lat": 49.2641474,
  "lon": 4.0392941
},
{
  "type": "node",
  "id": 7279499054,
  "lat": 49.2642230,
  "lon": 4.0394862
},
{
  "type": "node",
  "id": 7294862379,
  "lat": 49.2641236,
  "lon": 4.0392782
},
{
  "type": "node",
  "id": 352841772,
  "lat": 49.2603678,
  "lon": 4.0475187
},
{
  "type": "node",
  "id": 354541229,
  "lat": 49.2606468,
  "lon": 4.0470465
},
{
  "type": "node",
  "id": 354541238,
  "lat": 49.2602240,
  "lon": 4.0471328
},
{
  "type": "node",
  "id": 354541256,
  "lat": 49.2602789,
  "lon": 4.0475854
},
{
  "type": "node",
  "id": 2520083151,
  "lat": 49.2604550,
  "lon": 4.0474402
},
{
  "type": "node",
  "id": 306938896,
  "lat": 49.2671943,
  "lon": 4.0377042
},
{
  "type": "node",
  "id": 306938899,
  "lat": 49.2673347,
  "lon": 4.0375640
},
{
  "type": "node",
  "id": 306938914,
  "lat": 49.2674960,
  "lon": 4.0373628
},
{
  "type": "node",
  "id": 306938920,
  "lat": 49.2674112,
  "lon": 4.0372360
},
{
  "type": "node",
  "id": 306938935,
  "lat": 49.2672717,
  "lon": 4.0374289
},
{
  "type": "node",
  "id": 1095574839,
  "lat": 49.2675339,
  "lon": 4.0372394
},
{
  "type": "node",
  "id": 1095575060,
  "lat": 49.2672119,
  "lon": 4.0376049
},
{
  "type": "node",
  "id": 1095575100,
  "lat": 49.2671328,
  "lon": 4.0377584
},
{
  "type": "node",
  "id": 7167561421,
  "lat": 49.2675429,
  "lon": 4.0372128
},
{
  "type": "node",
  "id": 7167561422,
  "lat": 49.2674805,
  "lon": 4.0371492
},
{
  "type": "node",
  "id": 8270156141,
  "lat": 49.2672873,
  "lon": 4.0376114
},
{
  "type": "node",
  "id": 8270156143,
  "lat": 49.2674519,
  "lon": 4.0371850
},
{
  "type": "node",
  "id": 357462721,
  "lat": 49.2705471,
  "lon": 4.0692884
},
{
  "type": "node",
  "id": 1839898333,
  "lat": 49.2705617,
  "lon": 4.0693753
},
{
  "type": "node",
  "id": 6003193406,
  "lat": 49.2706846,
  "lon": 4.0697106
},
{
  "type": "node",
  "id": 7181532516,
  "lat": 49.2705773,
  "lon": 4.0694268
},
{
  "type": "node",
  "id": 357462719,
  "lat": 49.2722410,
  "lon": 4.0738575
},
{
  "type": "node",
  "id": 6001019637,
  "lat": 49.2710910,
  "lon": 4.0707781
},
{
  "type": "node",
  "id": 6001019649,
  "lat": 49.2711784,
  "lon": 4.0710189
},
{
  "type": "node",
  "id": 6001338777,
  "lat": 49.2711714,
  "lon": 4.0709983
},
{
  "type": "node",
  "id": 6001338780,
  "lat": 49.2713556,
  "lon": 4.0714796
},
{
  "type": "node",
  "id": 6001353623,
  "lat": 49.2714633,
  "lon": 4.0717770
},
{
  "type": "node",
  "id": 6001359632,
  "lat": 49.2715959,
  "lon": 4.0721374
},
{
  "type": "node",
  "id": 6001367752,
  "lat": 49.2717031,
  "lon": 4.0724253
},
{
  "type": "node",
  "id": 6001431704,
  "lat": 49.2719012,
  "lon": 4.0729298
},
{
  "type": "node",
  "id": 6001431707,
  "lat": 49.2720172,
  "lon": 4.0732525
},
{
  "type": "node",
  "id": 7181532517,
  "lat": 49.2709574,
  "lon": 4.0704332
},
{
  "type": "node",
  "id": 7555820739,
  "lat": 49.2707918,
  "lon": 4.0699988
},
{
  "type": "node",
  "id": 8111595839,
  "lat": 49.2713720,
  "lon": 4.0715280
},
{
  "type": "node",
  "id": 8111595862,
  "lat": 49.2722024,
  "lon": 4.0737530
},
{
  "type": "node",
  "id": 8111595868,
  "lat": 49.2718675,
  "lon": 4.0728422
},
{
  "type": "node",
  "id": 8111595870,
  "lat": 49.2721024,
  "lon": 4.0734828
}

  ]
}
