{
  "version": 0.6,
  "generator": "Overpass API 0.7.57.1 74a55df1",
  "osm3s": {
    "timestamp_osm_base": "2022-02-13T13:18:30Z",
    "timestamp_areas_base": "2022-02-13T02:36:10Z",
    "copyright": "The data included in this document is from www.openstreetmap.org. The data is made available under ODbL."
  },
  "elements": [

{
  "type": "way",
  "id": 32479709,
  "nodes": [
    374214160,
    5739982411,
    1202915263
  ],
  "tags": {
    "highway": "cycleway",
    "oneway": "yes"
  }
},
{
  "type": "way",
  "id": 99512860,
  "nodes": [
    1151051358,
    2670537916,
    1151051361,
    1151051372,
    1151051360,
    1306569417,
    1151051369,
    1151051375,
    3085821310,
    1151051378,
    1151051359,
    2670537952,
    6578733119
  ],
  "tags": {
    "bicycle": "designated",
    "foot": "designated",
    "highway": "cycleway",
    "segregated": "no"
  }
},
{
  "type": "way",
  "id": 102152727,
  "nodes": [
    5824933806,
    5824933805
  ],
  "tags": {
    "highway": "cycleway",
    "source": "cadastre-dgi-fr source : Direction Générale des Impôts - Cadastre ; mise à jour : 2009"
  }
},
{
  "type": "way",
  "id": 115733370,
  "nodes": [
    1306725947,
    364712932,
    1306725991,
    1306725976,
    1306725983,
    1306725950,
    1306725937,
    1306725968,
    1165702683,
    1306725998,
    1306725987,
    1165702220,
    1324259792,
    1165702920,
    8345644574,
    1165702937,
    8345644573,
    1324259934,
    8345644538,
    1165702796,
    1165702362,
    1165702228,
    1165702622,
    1165702485,
    8345644575,
    6578945063,
    6578945054,
    6578945053,
    6578945052,
    1306802929
  ],
  "tags": {
    "highway": "cycleway"
  }
},
{
  "type": "way",
  "id": 115926661,
  "nodes": [
    1444982248,
    1644079649,
    7122259329,
    365175001
  ],
  "tags": {
    "foot": "yes",
    "highway": "cycleway",
    "tracktype": "grade1"
  }
},
{
  "type": "way",
  "id": 138922399,
  "nodes": [
    6580017976,
    2262434432,
    1523000746,
    6387586916,
    1523000752,
    6387586861,
    9306563327,
    1523000763,
    1523000749,
    1523000758,
    6385109818,
    6385109841,
    1523000770,
    1523000760,
    1523000768,
    6385109803,
    1523000744,
    1523000740,
    6385109874,
    1523000756,
    1523000761,
    6385109825,
    6385109849,
    6385109867,
    6580017931
  ],
  "tags": {
    "bicycle": "designated",
    "foot": "designated",
    "highway": "cycleway",
    "segregated": "no",
    "surface": "asphalt"
  }
},
{
  "type": "way",
  "id": 234356761,
  "nodes": [
    1306547651,
    7350308436,
    1306547611,
    1306547664,
    1306547626,
    1306547623,
    1306547677,
    1306547636,
    1306547698,
    1306547696,
    1306547649,
    1306547610,
    1306547662,
    1306547659,
    1306547620,
    1306547675,
    1306547634,
    1306547631,
    1306547693,
    1306547646,
    1306547607,
    1306547703,
    1306547656,
    1306547616,
    1306547669,
    1306547665,
    1306547627
  ],
  "tags": {
    "foot": "yes",
    "highway": "cycleway",
    "name": "Rue d'Épinal",
    "ref:FR:geofer": "25056.10D"
  }
},
{
  "type": "way",
  "id": 599296042,
  "nodes": [
    365758817,
    7591589224,
    7591589223,
    7591589222,
    3406846811
  ],
  "tags": {
    "foot": "yes",
    "highway": "cycleway",
    "motor_vehicle": "no"
  }
},
{
  "type": "way",
  "id": 616064945,
  "nodes": [
    5824933805,
    5824933810
  ],
  "tags": {
    "highway": "cycleway",
    "source": "cadastre-dgi-fr source : Direction Générale des Impôts - Cadastre;mise à jour : 2009"
  }
},
{
  "type": "way",
  "id": 616064946,
  "nodes": [
    5824933810,
    1178997658,
    379049601,
    3809392584,
    1338492592,
    3809392589,
    379049602,
    3809392591,
    379049603,
    3809392594,
    379049604,
    5241931287,
    3809392597,
    379049605
  ],
  "tags": {
    "highway": "cycleway",
    "source": "cadastre-dgi-fr source : Direction Générale des Impôts - Cadastre ; mise à jour : 2009"
  }
},
{
  "type": "way",
  "id": 629833209,
  "nodes": [
    3027717568,
    1639845996
  ],
  "tags": {
    "highway": "cycleway",
    "lit": "yes",
    "surface": "asphalt",
    "width": "3"
  }
},
{
  "type": "way",
  "id": 631768476,
  "nodes": [
    4521996810,
    5602368803
  ],
  "tags": {
    "highway": "cycleway"
  }
},
{
  "type": "way",
  "id": 631769192,
  "nodes": [
    341230251,
    6578493780,
    5948291596
  ],
  "tags": {
    "highway": "cycleway"
  }
},
{
  "type": "way",
  "id": 632882709,
  "nodes": [
    1157576346,
    1157576521
  ],
  "tags": {
    "highway": "cycleway",
    "surface": "paved"
  }
},
{
  "type": "way",
  "id": 636006268,
  "nodes": [
    5739985869,
    1313540227
  ],
  "tags": {
    "highway": "cycleway"
  }
},
{
  "type": "way",
  "id": 680689423,
  "nodes": [
    5619154607,
    6373761254,
    6373761220,
    6373761218
  ],
  "tags": {
    "highway": "cycleway",
    "oneway": "yes"
  }
},
{
  "type": "way",
  "id": 681591105,
  "nodes": [
    1306547633,
    1306547695,
    1306547690,
    1306547643,
    1306547704,
    1306547657,
    1306547652,
    1306547613,
    1306547666,
    1306547628,
    1306547624,
    1306547612,
    5262444927,
    5262444926,
    1306547687,
    1306547640,
    5262444925,
    7350308434,
    1306547702,
    7350308435,
    1306547679,
    1306547651
  ],
  "tags": {
    "access": "no",
    "bicycle": "yes",
    "foot": "yes",
    "highway": "cycleway"
  }
},
{
  "type": "way",
  "id": 682096176,
  "nodes": [
    6387586772,
    6387586723,
    7059782435,
    7059782436,
    7059782439,
    7059782437,
    7059782432,
    7059782429,
    7059782434,
    7059782433,
    7059782427,
    7059782441,
    7059782426,
    1306538769,
    6987210424,
    1306538784,
    6987210423,
    6987210422,
    1306538782,
    6987210420,
    6987210421,
    1306538771,
    1306538786,
    1306538775,
    6877560703
  ],
  "tags": {
    "access": "no",
    "bicycle": "yes",
    "foot": "yes",
    "highway": "cycleway"
  }
},
{
  "type": "way",
  "id": 683389683,
  "nodes": [
    6400907991,
    6400906558
  ],
  "tags": {
    "highway": "cycleway",
    "maxspeed:type": "FR:urban",
    "noname": "yes",
    "oneway": "yes",
    "surface": "asphalt"
  }
},
{
  "type": "way",
  "id": 696644487,
  "nodes": [
    7116554705,
    6542148128,
    6542148116,
    6542148132,
    6542148087
  ],
  "tags": {
    "highway": "cycleway",
    "oneway": "yes"
  }
},
{
  "type": "way",
  "id": 697614323,
  "nodes": [
    5948244574,
    5948244575,
    5948244577,
    6290850843,
    5948244578,
    6290851010
  ],
  "tags": {
    "highway": "cycleway",
    "lit": "yes",
    "oneway": "no",
    "surface": "asphalt",
    "width": "3"
  }
},
{
  "type": "way",
  "id": 697614325,
  "nodes": [
    7107369179,
    1639845961,
    1639846093,
    8337571070,
    1639846030,
    1639846064,
    1639845978,
    1639845996
  ],
  "tags": {
    "highway": "cycleway",
    "lit": "yes",
    "oneway": "no",
    "surface": "asphalt",
    "width": "3"
  }
},
{
  "type": "way",
  "id": 700552150,
  "nodes": [
    6400906558,
    6400907901
  ],
  "tags": {
    "highway": "cycleway",
    "oneway": "yes"
  }
},
{
  "type": "way",
  "id": 700552151,
  "nodes": [
    6400907901,
    341220615
  ],
  "tags": {
    "highway": "cycleway",
    "maxspeed:type": "FR:urban",
    "noname": "yes",
    "oneway": "yes",
    "surface": "asphalt"
  }
},
{
  "type": "way",
  "id": 700572250,
  "nodes": [
    6578945049,
    6578945048
  ],
  "tags": {
    "highway": "cycleway",
    "oneway": "yes"
  }
},
{
  "type": "way",
  "id": 700572252,
  "nodes": [
    6578945047,
    6578945046,
    6578945039,
    6578945045
  ],
  "tags": {
    "highway": "cycleway",
    "oneway": "yes"
  }
},
{
  "type": "way",
  "id": 700572253,
  "nodes": [
    6578945044,
    6578945040
  ],
  "tags": {
    "highway": "cycleway",
    "oneway": "yes"
  }
},
{
  "type": "way",
  "id": 700572258,
  "nodes": [
    1165702723,
    6578945051,
    1306802929
  ],
  "tags": {
    "highway": "cycleway",
    "oneway": "yes"
  }
},
{
  "type": "way",
  "id": 700680108,
  "nodes": [
    6580017931,
    1913695393
  ],
  "tags": {
    "highway": "cycleway"
  }
},
{
  "type": "way",
  "id": 700680450,
  "nodes": [
    6301183557,
    5739982414
  ],
  "tags": {
    "highway": "cycleway"
  }
},
{
  "type": "way",
  "id": 700921281,
  "nodes": [
    2987273579,
    5469805769,
    6414029568,
    2917389458,
    9375829281,
    2917389459,
    9375829282,
    2917389460,
    2917389462,
    2917389463,
    8989959733,
    8989959734
  ],
  "tags": {
    "highway": "cycleway",
    "lit": "yes",
    "motor_vehicle": "no",
    "segregated": "no",
    "surface": "asphalt"
  }
},
{
  "type": "way",
  "id": 731017440,
  "nodes": [
    6578945040,
    6578945043,
    6578945042,
    6578945041,
    6578945050
  ],
  "tags": {
    "highway": "cycleway",
    "oneway": "yes"
  }
},
{
  "type": "way",
  "id": 747414286,
  "nodes": [
    6542148087,
    6542147986,
    6542148055
  ],
  "tags": {
    "highway": "cycleway",
    "oneway": "yes"
  }
},
{
  "type": "way",
  "id": 748917688,
  "nodes": [
    7116610963,
    7003725444,
    7003725442,
    1178983642
  ],
  "tags": {
    "highway": "cycleway",
    "oneway": "yes"
  }
},
{
  "type": "way",
  "id": 750660056,
  "nodes": [
    1585261688,
    7018753800,
    7018753801
  ],
  "tags": {
    "fixme": "Piste cyclable ?",
    "highway": "cycleway"
  }
},
{
  "type": "way",
  "id": 760748105,
  "nodes": [
    5965693833,
    5602368812
  ],
  "tags": {
    "highway": "cycleway"
  }
},
{
  "type": "way",
  "id": 760836511,
  "nodes": [
    6515392457,
    6576487062
  ],
  "tags": {
    "highway": "cycleway"
  }
},
{
  "type": "way",
  "id": 775185741,
  "nodes": [
    6582364462,
    7005896336,
    9300667748,
    7005896331
  ],
  "tags": {
    "highway": "cycleway",
    "oneway": "yes",
    "smoothness": "good",
    "surface": "paved"
  }
},
{
  "type": "way",
  "id": 781621782,
  "nodes": [
    7297560939,
    7297560949
  ],
  "tags": {
    "highway": "cycleway",
    "oneway": "yes"
  }
},
{
  "type": "way",
  "id": 782951674,
  "nodes": [
    7311575370,
    5796743798
  ],
  "tags": {
    "highway": "cycleway",
    "oneway": "yes"
  }
},
{
  "type": "way",
  "id": 782951677,
  "nodes": [
    7311575375,
    6580018042
  ],
  "tags": {
    "highway": "cycleway",
    "oneway": "yes"
  }
},
{
  "type": "way",
  "id": 784528098,
  "nodes": [
    5186219766,
    5186219774
  ],
  "tags": {
    "highway": "cycleway"
  }
},
{
  "type": "way",
  "id": 793232532,
  "nodes": [
    1493557391,
    7417257319
  ],
  "tags": {
    "highway": "cycleway"
  }
},
{
  "type": "way",
  "id": 801669862,
  "nodes": [
    1585261681,
    7498335193,
    7498335192,
    374176917,
    7498335191,
    374176923,
    7498335198
  ],
  "tags": {
    "bicycle": "designated",
    "foot": "designated",
    "highway": "cycleway",
    "maxspeed": "50",
    "name": "Chemin de la Baume",
    "source": "cadastre-dgi-fr source : Direction Générale des Impôts - Cadastre;mise à jour : 2009",
    "surface": "asphalt"
  }
},
{
  "type": "way",
  "id": 830083804,
  "nodes": [
    7431207414,
    2920499917
  ],
  "tags": {
    "highway": "cycleway",
    "oneway": "yes",
    "surface": "asphalt"
  }
},
{
  "type": "way",
  "id": 830083805,
  "nodes": [
    7747166521,
    7747166520,
    7747166519,
    7747166526
  ],
  "tags": {
    "highway": "cycleway",
    "oneway": "yes"
  }
},
{
  "type": "way",
  "id": 830083806,
  "nodes": [
    6413843052,
    7747166523,
    7747166522
  ],
  "tags": {
    "highway": "cycleway",
    "oneway": "yes"
  }
},
{
  "type": "way",
  "id": 896168299,
  "nodes": [
    8330322748,
    388084754
  ],
  "tags": {
    "highway": "cycleway"
  }
},
{
  "type": "way",
  "id": 896168300,
  "nodes": [
    366064182,
    8330322749
  ],
  "tags": {
    "highway": "cycleway",
    "oneway": "yes"
  }
},
{
  "type": "way",
  "id": 896168349,
  "nodes": [
    486479460,
    8330322829,
    8330322828,
    8330322825,
    8330322913,
    8330322826,
    8330322840,
    8330322856,
    8330322857,
    8330322914,
    8330322748,
    8330322895,
    8937706932,
    8330322899,
    8330322749,
    8937706933,
    8330322904,
    8330322916,
    8330322909,
    8330322727,
    8330322910,
    8330322917,
    8330322928,
    8330322927,
    8330322926
  ],
  "tags": {
    "highway": "cycleway",
    "oneway": "no",
    "smoothness": "excellent",
    "surface": "asphalt",
    "width": "3"
  }
},
{
  "type": "way",
  "id": 896168350,
  "nodes": [
    8330322926,
    8330322923,
    8330322924,
    341230157
  ],
  "tags": {
    "highway": "cycleway",
    "oneway": "yes"
  }
},
{
  "type": "way",
  "id": 896168352,
  "nodes": [
    8330322926,
    8330322925,
    417998523
  ],
  "tags": {
    "highway": "cycleway",
    "oneway": "yes",
    "smoothness": "excellent",
    "surface": "asphalt",
    "width": "3"
  }
},
{
  "type": "way",
  "id": 898008836,
  "nodes": [
    370630680,
    6438018782,
    6438020327,
    6438020384,
    9378802523,
    6438018761,
    6438018759,
    9378776280,
    6438020319,
    9378776279,
    6438020365
  ],
  "tags": {
    "bicycle": "designated",
    "foot": "designated",
    "highway": "cycleway",
    "oneway": "yes",
    "surface": "asphalt"
  }
},
{
  "type": "way",
  "id": 941048561,
  "nodes": [
    8715138988,
    8715138999
  ],
  "tags": {
    "bridge": "yes",
    "highway": "cycleway",
    "layer": "1",
    "oneway": "no",
    "start_date": "2021-04-30",
    "surface": "wood",
    "width": "3"
  }
},
{
  "type": "way",
  "id": 946067322,
  "nodes": [
    1639846067,
    6579197985
  ],
  "tags": {
    "highway": "cycleway",
    "note": "Jonction avec passage souterrain partagé piéton/vélo"
  }
},
{
  "type": "way",
  "id": 964339816,
  "nodes": [
    8919912261,
    8919912267,
    8919912260
  ],
  "tags": {
    "highway": "cycleway",
    "oneway": "yes"
  }
},
{
  "type": "way",
  "id": 971891149,
  "nodes": [
    2152127671,
    8989959721
  ],
  "tags": {
    "highway": "cycleway"
  }
},
{
  "type": "area",
  "id": 3600103599,
  "tags": {
    "admin_level": "8",
    "boundary": "administrative",
    "label:FR:history": "VAH",
    "name": "Besançon",
    "name:ar": "بيزنسون",
    "name:be": "Безансон",
    "name:bg": "Безансон",
    "name:ce": "Безансон",
    "name:cv": "Безансон",
    "name:el": "Μπεζανσόν",
    "name:eo": "Bezansono",
    "name:fa": "بزانسون",
    "name:fr": "Besançon",
    "name:fr-x-fc": "B'sosson",
    "name:he": "בזאנסון",
    "name:hy": "Բեզանսոն",
    "name:ja": "ブザンソン",
    "name:ka": "ბეზანსონი",
    "name:ko": "브장송",
    "name:la": "Vesontio",
    "name:lt": "Bezansonas",
    "name:lv": "Bezansona",
    "name:mk": "Безансон",
    "name:mr": "बेझाँसों",
    "name:mzn": "بزانسون",
    "name:oc": "Besançon",
    "name:pnb": "بیسانکاں",
    "name:ru": "Безансон",
    "name:sr": "Безансон",
    "name:th": "เบอซ็องซง",
    "name:uk": "Безансон",
    "name:ur": "بیزانسون",
    "name:yi": "בעזאנסאן",
    "name:zh": "贝桑松",
    "old_name:de": "Bisanz",
    "population": "117912",
    "population:date": "2019",
    "postal_code": "25000",
    "ref:FR:NAF": "8411Z",
    "ref:FR:SIREN": "212500565",
    "ref:INSEE": "25056",
    "source:population": "INSEE 2022",
    "type": "boundary",
    "website": "http://www.besancon.fr/",
    "wikidata": "Q37776",
    "wikipedia": "fr:Besançon"
  }
},
{
  "type": "node",
  "id": 1178983642,
  "lat": 47.2224048,
  "lon": 5.9599110
},
{
  "type": "node",
  "id": 7003725442,
  "lat": 47.2224600,
  "lon": 5.9599321
},
{
  "type": "node",
  "id": 7003725444,
  "lat": 47.2226627,
  "lon": 5.9601822
},
{
  "type": "node",
  "id": 7116610963,
  "lat": 47.2226653,
  "lon": 5.9602385
},
{
  "type": "node",
  "id": 379049601,
  "lat": 47.2253586,
  "lon": 5.9722320
},
{
  "type": "node",
  "id": 379049602,
  "lat": 47.2256043,
  "lon": 5.9720234
},
{
  "type": "node",
  "id": 379049603,
  "lat": 47.2256887,
  "lon": 5.9719933
},
{
  "type": "node",
  "id": 379049604,
  "lat": 47.2257662,
  "lon": 5.9720408
},
{
  "type": "node",
  "id": 379049605,
  "lat": 47.2258985,
  "lon": 5.9723607
},
{
  "type": "node",
  "id": 1178997658,
  "lat": 47.2252023,
  "lon": 5.9723060
},
{
  "type": "node",
  "id": 1338492592,
  "lat": 47.2254756,
  "lon": 5.9721381
},
{
  "type": "node",
  "id": 3809392584,
  "lat": 47.2254218,
  "lon": 5.9721872
},
{
  "type": "node",
  "id": 3809392589,
  "lat": 47.2255377,
  "lon": 5.9720754
},
{
  "type": "node",
  "id": 3809392591,
  "lat": 47.2256463,
  "lon": 5.9720024
},
{
  "type": "node",
  "id": 3809392594,
  "lat": 47.2257284,
  "lon": 5.9720061
},
{
  "type": "node",
  "id": 3809392597,
  "lat": 47.2258100,
  "lon": 5.9721243
},
{
  "type": "node",
  "id": 5241931287,
  "lat": 47.2257936,
  "lon": 5.9720888
},
{
  "type": "node",
  "id": 5824933805,
  "lat": 47.2248975,
  "lon": 5.9724619
},
{
  "type": "node",
  "id": 5824933806,
  "lat": 47.2247595,
  "lon": 5.9725541
},
{
  "type": "node",
  "id": 5824933810,
  "lat": 47.2251167,
  "lon": 5.9723498
},
{
  "type": "node",
  "id": 5619154607,
  "lat": 47.2497879,
  "lon": 5.9748043
},
{
  "type": "node",
  "id": 6373761218,
  "lat": 47.2500345,
  "lon": 5.9750827
},
{
  "type": "node",
  "id": 6373761220,
  "lat": 47.2499241,
  "lon": 5.9748861
},
{
  "type": "node",
  "id": 6373761254,
  "lat": 47.2498694,
  "lon": 5.9748325
},
{
  "type": "node",
  "id": 1157576346,
  "lat": 47.2202773,
  "lon": 5.9778202
},
{
  "type": "node",
  "id": 1157576521,
  "lat": 47.2203259,
  "lon": 5.9777607
},
{
  "type": "node",
  "id": 364712932,
  "lat": 47.2240720,
  "lon": 5.9791665
},
{
  "type": "node",
  "id": 370630680,
  "lat": 47.2225847,
  "lon": 5.9821683
},
{
  "type": "node",
  "id": 1165702220,
  "lat": 47.2255358,
  "lon": 5.9793533
},
{
  "type": "node",
  "id": 1165702228,
  "lat": 47.2266410,
  "lon": 5.9825653
},
{
  "type": "node",
  "id": 1165702362,
  "lat": 47.2265494,
  "lon": 5.9824278
},
{
  "type": "node",
  "id": 1165702485,
  "lat": 47.2268955,
  "lon": 5.9827182
},
{
  "type": "node",
  "id": 1165702622,
  "lat": 47.2267416,
  "lon": 5.9826551
},
{
  "type": "node",
  "id": 1165702683,
  "lat": 47.2249160,
  "lon": 5.9791455
},
{
  "type": "node",
  "id": 1165702723,
  "lat": 47.2276404,
  "lon": 5.9828135
},
{
  "type": "node",
  "id": 1165702796,
  "lat": 47.2264971,
  "lon": 5.9823064
},
{
  "type": "node",
  "id": 1165702920,
  "lat": 47.2257279,
  "lon": 5.9795391
},
{
  "type": "node",
  "id": 1165702937,
  "lat": 47.2258550,
  "lon": 5.9799018
},
{
  "type": "node",
  "id": 1306725937,
  "lat": 47.2245781,
  "lon": 5.9790932
},
{
  "type": "node",
  "id": 1306725947,
  "lat": 47.2240101,
  "lon": 5.9792524
},
{
  "type": "node",
  "id": 1306725950,
  "lat": 47.2244410,
  "lon": 5.9790818
},
{
  "type": "node",
  "id": 1306725968,
  "lat": 47.2246704,
  "lon": 5.9791076
},
{
  "type": "node",
  "id": 1306725976,
  "lat": 47.2242267,
  "lon": 5.9790812
},
{
  "type": "node",
  "id": 1306725983,
  "lat": 47.2243425,
  "lon": 5.9790797
},
{
  "type": "node",
  "id": 1306725987,
  "lat": 47.2253331,
  "lon": 5.9792548
},
{
  "type": "node",
  "id": 1306725991,
  "lat": 47.2241531,
  "lon": 5.9790934
},
{
  "type": "node",
  "id": 1306725998,
  "lat": 47.2250672,
  "lon": 5.9791790
},
{
  "type": "node",
  "id": 1306802929,
  "lat": 47.2276519,
  "lon": 5.9829810
},
{
  "type": "node",
  "id": 1324259792,
  "lat": 47.2256173,
  "lon": 5.9794150
},
{
  "type": "node",
  "id": 1324259934,
  "lat": 47.2263564,
  "lon": 5.9817759
},
{
  "type": "node",
  "id": 5186219766,
  "lat": 47.2229992,
  "lon": 5.9793144
},
{
  "type": "node",
  "id": 5186219774,
  "lat": 47.2229141,
  "lon": 5.9793466
},
{
  "type": "node",
  "id": 6438018759,
  "lat": 47.2229587,
  "lon": 5.9823615
},
{
  "type": "node",
  "id": 6438018761,
  "lat": 47.2228544,
  "lon": 5.9822516
},
{
  "type": "node",
  "id": 6438018782,
  "lat": 47.2226709,
  "lon": 5.9821843
},
{
  "type": "node",
  "id": 6438020319,
  "lat": 47.2230874,
  "lon": 5.9825205
},
{
  "type": "node",
  "id": 6438020327,
  "lat": 47.2227073,
  "lon": 5.9821763
},
{
  "type": "node",
  "id": 6438020365,
  "lat": 47.2231486,
  "lon": 5.9826311
},
{
  "type": "node",
  "id": 6438020384,
  "lat": 47.2227551,
  "lon": 5.9821831
},
{
  "type": "node",
  "id": 6578945040,
  "lat": 47.2277897,
  "lon": 5.9831920
},
{
  "type": "node",
  "id": 6578945041,
  "lat": 47.2277100,
  "lon": 5.9831142
},
{
  "type": "node",
  "id": 6578945042,
  "lat": 47.2277480,
  "lon": 5.9831326
},
{
  "type": "node",
  "id": 6578945043,
  "lat": 47.2277598,
  "lon": 5.9831842
},
{
  "type": "node",
  "id": 6578945044,
  "lat": 47.2278140,
  "lon": 5.9831983
},
{
  "type": "node",
  "id": 6578945048,
  "lat": 47.2277590,
  "lon": 5.9833263
},
{
  "type": "node",
  "id": 6578945049,
  "lat": 47.2277275,
  "lon": 5.9832714
},
{
  "type": "node",
  "id": 6578945050,
  "lat": 47.2276847,
  "lon": 5.9831037
},
{
  "type": "node",
  "id": 6578945051,
  "lat": 47.2276364,
  "lon": 5.9828704
},
{
  "type": "node",
  "id": 6578945052,
  "lat": 47.2275968,
  "lon": 5.9828094
},
{
  "type": "node",
  "id": 6578945053,
  "lat": 47.2275426,
  "lon": 5.9827162
},
{
  "type": "node",
  "id": 6578945054,
  "lat": 47.2274861,
  "lon": 5.9826652
},
{
  "type": "node",
  "id": 6578945063,
  "lat": 47.2273755,
  "lon": 5.9826471
},
{
  "type": "node",
  "id": 8345644538,
  "lat": 47.2263680,
  "lon": 5.9818196
},
{
  "type": "node",
  "id": 8345644573,
  "lat": 47.2261346,
  "lon": 5.9809332
},
{
  "type": "node",
  "id": 8345644574,
  "lat": 47.2257867,
  "lon": 5.9796678
},
{
  "type": "node",
  "id": 8345644575,
  "lat": 47.2269584,
  "lon": 5.9827215
},
{
  "type": "node",
  "id": 9378776279,
  "lat": 47.2231221,
  "lon": 5.9825718
},
{
  "type": "node",
  "id": 9378776280,
  "lat": 47.2230249,
  "lon": 5.9824383
},
{
  "type": "node",
  "id": 9378802523,
  "lat": 47.2228034,
  "lon": 5.9822073
},
{
  "type": "node",
  "id": 6578945039,
  "lat": 47.2279608,
  "lon": 5.9838089
},
{
  "type": "node",
  "id": 6578945045,
  "lat": 47.2279497,
  "lon": 5.9837334
},
{
  "type": "node",
  "id": 6578945046,
  "lat": 47.2279766,
  "lon": 5.9838903
},
{
  "type": "node",
  "id": 6578945047,
  "lat": 47.2279907,
  "lon": 5.9840154
},
{
  "type": "node",
  "id": 2920499917,
  "lat": 47.2245560,
  "lon": 5.9939929
},
{
  "type": "node",
  "id": 6413843052,
  "lat": 47.2239825,
  "lon": 5.9928151
},
{
  "type": "node",
  "id": 7431207414,
  "lat": 47.2246302,
  "lon": 5.9940767
},
{
  "type": "node",
  "id": 7747166519,
  "lat": 47.2241732,
  "lon": 5.9934470
},
{
  "type": "node",
  "id": 7747166520,
  "lat": 47.2241610,
  "lon": 5.9934054
},
{
  "type": "node",
  "id": 7747166521,
  "lat": 47.2241622,
  "lon": 5.9933030
},
{
  "type": "node",
  "id": 7747166522,
  "lat": 47.2240709,
  "lon": 5.9929875
},
{
  "type": "node",
  "id": 7747166523,
  "lat": 47.2240111,
  "lon": 5.9929186
},
{
  "type": "node",
  "id": 7747166526,
  "lat": 47.2241635,
  "lon": 5.9934736
},
{
  "type": "node",
  "id": 8715138988,
  "lat": 47.2182747,
  "lon": 6.0180412
},
{
  "type": "node",
  "id": 8715138999,
  "lat": 47.2172130,
  "lon": 6.0184762
},
{
  "type": "node",
  "id": 365758817,
  "lat": 47.2199121,
  "lon": 6.0265881
},
{
  "type": "node",
  "id": 3406846811,
  "lat": 47.2191454,
  "lon": 6.0271077
},
{
  "type": "node",
  "id": 7591589222,
  "lat": 47.2191997,
  "lon": 6.0270863
},
{
  "type": "node",
  "id": 7591589223,
  "lat": 47.2194510,
  "lon": 6.0269105
},
{
  "type": "node",
  "id": 7591589224,
  "lat": 47.2198878,
  "lon": 6.0266050
},
{
  "type": "node",
  "id": 6542147986,
  "lat": 47.2344033,
  "lon": 5.9843234
},
{
  "type": "node",
  "id": 6542148055,
  "lat": 47.2343839,
  "lon": 5.9843851
},
{
  "type": "node",
  "id": 6542148087,
  "lat": 47.2344260,
  "lon": 5.9842188
},
{
  "type": "node",
  "id": 6542148116,
  "lat": 47.2346149,
  "lon": 5.9838471
},
{
  "type": "node",
  "id": 6542148128,
  "lat": 47.2347215,
  "lon": 5.9836889
},
{
  "type": "node",
  "id": 6542148132,
  "lat": 47.2344832,
  "lon": 5.9840976
},
{
  "type": "node",
  "id": 7116554705,
  "lat": 47.2347949,
  "lon": 5.9836552
},
{
  "type": "node",
  "id": 1523000740,
  "lat": 47.2377834,
  "lon": 5.9784351
},
{
  "type": "node",
  "id": 1523000744,
  "lat": 47.2385322,
  "lon": 5.9786836
},
{
  "type": "node",
  "id": 1523000749,
  "lat": 47.2410877,
  "lon": 5.9813075
},
{
  "type": "node",
  "id": 1523000756,
  "lat": 47.2375607,
  "lon": 5.9784115
},
{
  "type": "node",
  "id": 1523000758,
  "lat": 47.2407481,
  "lon": 5.9810009
},
{
  "type": "node",
  "id": 1523000760,
  "lat": 47.2394349,
  "lon": 5.9792788
},
{
  "type": "node",
  "id": 1523000761,
  "lat": 47.2373885,
  "lon": 5.9784266
},
{
  "type": "node",
  "id": 1523000763,
  "lat": 47.2414705,
  "lon": 5.9815732
},
{
  "type": "node",
  "id": 1523000768,
  "lat": 47.2389809,
  "lon": 5.9789362
},
{
  "type": "node",
  "id": 1523000770,
  "lat": 47.2396724,
  "lon": 5.9794305
},
{
  "type": "node",
  "id": 1913695393,
  "lat": 47.2369237,
  "lon": 5.9787051
},
{
  "type": "node",
  "id": 6385109803,
  "lat": 47.2386428,
  "lon": 5.9787157
},
{
  "type": "node",
  "id": 6385109818,
  "lat": 47.2407461,
  "lon": 5.9809979
},
{
  "type": "node",
  "id": 6385109825,
  "lat": 47.2371512,
  "lon": 5.9784712
},
{
  "type": "node",
  "id": 6385109841,
  "lat": 47.2397385,
  "lon": 5.9794986
},
{
  "type": "node",
  "id": 6385109849,
  "lat": 47.2370842,
  "lon": 5.9785105
},
{
  "type": "node",
  "id": 6385109867,
  "lat": 47.2370219,
  "lon": 5.9785687
},
{
  "type": "node",
  "id": 6385109874,
  "lat": 47.2376628,
  "lon": 5.9784157
},
{
  "type": "node",
  "id": 6580017931,
  "lat": 47.2369502,
  "lon": 5.9786681
},
{
  "type": "node",
  "id": 9306563327,
  "lat": 47.2415541,
  "lon": 5.9816102
},
{
  "type": "node",
  "id": 1151051358,
  "lat": 47.2444826,
  "lon": 5.9833635
},
{
  "type": "node",
  "id": 1151051361,
  "lat": 47.2451421,
  "lon": 5.9834365
},
{
  "type": "node",
  "id": 1151051372,
  "lat": 47.2454095,
  "lon": 5.9834224
},
{
  "type": "node",
  "id": 1523000746,
  "lat": 47.2437866,
  "lon": 5.9820501
},
{
  "type": "node",
  "id": 1523000752,
  "lat": 47.2421884,
  "lon": 5.9818576
},
{
  "type": "node",
  "id": 2262434432,
  "lat": 47.2441649,
  "lon": 5.9822006
},
{
  "type": "node",
  "id": 2670537916,
  "lat": 47.2445222,
  "lon": 5.9833762
},
{
  "type": "node",
  "id": 6387586861,
  "lat": 47.2418718,
  "lon": 5.9817506
},
{
  "type": "node",
  "id": 6387586916,
  "lat": 47.2435512,
  "lon": 5.9819932
},
{
  "type": "node",
  "id": 6580017976,
  "lat": 47.2441808,
  "lon": 5.9822629
},
{
  "type": "node",
  "id": 1151051360,
  "lat": 47.2458068,
  "lon": 5.9834533
},
{
  "type": "node",
  "id": 1151051369,
  "lat": 47.2466033,
  "lon": 5.9836250
},
{
  "type": "node",
  "id": 1151051375,
  "lat": 47.2477108,
  "lon": 5.9838800
},
{
  "type": "node",
  "id": 1306569417,
  "lat": 47.2463342,
  "lon": 5.9835670
},
{
  "type": "node",
  "id": 3085821310,
  "lat": 47.2479934,
  "lon": 5.9840235
},
{
  "type": "node",
  "id": 1151051359,
  "lat": 47.2485382,
  "lon": 5.9844269
},
{
  "type": "node",
  "id": 1151051378,
  "lat": 47.2482307,
  "lon": 5.9841737
},
{
  "type": "node",
  "id": 1306538769,
  "lat": 47.2535680,
  "lon": 5.9899437
},
{
  "type": "node",
  "id": 2670537952,
  "lat": 47.2487142,
  "lon": 5.9846120
},
{
  "type": "node",
  "id": 6387586723,
  "lat": 47.2529170,
  "lon": 5.9891955
},
{
  "type": "node",
  "id": 6387586772,
  "lat": 47.2528785,
  "lon": 5.9891251
},
{
  "type": "node",
  "id": 6578733119,
  "lat": 47.2488161,
  "lon": 5.9847168
},
{
  "type": "node",
  "id": 7059782426,
  "lat": 47.2534592,
  "lon": 5.9895641
},
{
  "type": "node",
  "id": 7059782427,
  "lat": 47.2533754,
  "lon": 5.9893567
},
{
  "type": "node",
  "id": 7059782429,
  "lat": 47.2532545,
  "lon": 5.9892485
},
{
  "type": "node",
  "id": 7059782432,
  "lat": 47.2531639,
  "lon": 5.9891989
},
{
  "type": "node",
  "id": 7059782433,
  "lat": 47.2533372,
  "lon": 5.9893074
},
{
  "type": "node",
  "id": 7059782434,
  "lat": 47.2532896,
  "lon": 5.9892695
},
{
  "type": "node",
  "id": 7059782435,
  "lat": 47.2529653,
  "lon": 5.9891694
},
{
  "type": "node",
  "id": 7059782436,
  "lat": 47.2530026,
  "lon": 5.9891509
},
{
  "type": "node",
  "id": 7059782437,
  "lat": 47.2530666,
  "lon": 5.9891590
},
{
  "type": "node",
  "id": 7059782439,
  "lat": 47.2530289,
  "lon": 5.9891502
},
{
  "type": "node",
  "id": 7059782441,
  "lat": 47.2534215,
  "lon": 5.9894565
},
{
  "type": "node",
  "id": 341220615,
  "lat": 47.2471449,
  "lon": 5.9934835
},
{
  "type": "node",
  "id": 6400906558,
  "lat": 47.2472099,
  "lon": 5.9930829
},
{
  "type": "node",
  "id": 6400907901,
  "lat": 47.2471355,
  "lon": 5.9934007
},
{
  "type": "node",
  "id": 6400907991,
  "lat": 47.2472432,
  "lon": 5.9930733
},
{
  "type": "node",
  "id": 1639846067,
  "lat": 47.2472140,
  "lon": 5.9994569
},
{
  "type": "node",
  "id": 6579197985,
  "lat": 47.2472708,
  "lon": 5.9994820
},
{
  "type": "node",
  "id": 1306538771,
  "lat": 47.2545696,
  "lon": 5.9941028
},
{
  "type": "node",
  "id": 1306538775,
  "lat": 47.2546787,
  "lon": 5.9947827
},
{
  "type": "node",
  "id": 1306538782,
  "lat": 47.2544289,
  "lon": 5.9932417
},
{
  "type": "node",
  "id": 1306538784,
  "lat": 47.2542002,
  "lon": 5.9922459
},
{
  "type": "node",
  "id": 1306538786,
  "lat": 47.2546399,
  "lon": 5.9946527
},
{
  "type": "node",
  "id": 6877560703,
  "lat": 47.2546922,
  "lon": 5.9948267
},
{
  "type": "node",
  "id": 6987210420,
  "lat": 47.2544604,
  "lon": 5.9934030
},
{
  "type": "node",
  "id": 6987210421,
  "lat": 47.2545189,
  "lon": 5.9937405
},
{
  "type": "node",
  "id": 6987210422,
  "lat": 47.2543214,
  "lon": 5.9927485
},
{
  "type": "node",
  "id": 6987210423,
  "lat": 47.2542652,
  "lon": 5.9924995
},
{
  "type": "node",
  "id": 6987210424,
  "lat": 47.2541095,
  "lon": 5.9919012
},
{
  "type": "node",
  "id": 374176917,
  "lat": 47.2543300,
  "lon": 6.0028051
},
{
  "type": "node",
  "id": 374176923,
  "lat": 47.2537795,
  "lon": 6.0028327
},
{
  "type": "node",
  "id": 1585261681,
  "lat": 47.2544100,
  "lon": 6.0026534
},
{
  "type": "node",
  "id": 7498335191,
  "lat": 47.2542683,
  "lon": 6.0028244
},
{
  "type": "node",
  "id": 7498335192,
  "lat": 47.2543689,
  "lon": 6.0027630
},
{
  "type": "node",
  "id": 7498335193,
  "lat": 47.2544036,
  "lon": 6.0026705
},
{
  "type": "node",
  "id": 7498335198,
  "lat": 47.2536121,
  "lon": 6.0028576
},
{
  "type": "node",
  "id": 1639845961,
  "lat": 47.2381057,
  "lon": 6.0149482
},
{
  "type": "node",
  "id": 1639845978,
  "lat": 47.2398260,
  "lon": 6.0151769
},
{
  "type": "node",
  "id": 1639845996,
  "lat": 47.2400872,
  "lon": 6.0152620
},
{
  "type": "node",
  "id": 1639846030,
  "lat": 47.2386887,
  "lon": 6.0149543
},
{
  "type": "node",
  "id": 1639846064,
  "lat": 47.2393357,
  "lon": 6.0150837
},
{
  "type": "node",
  "id": 1639846093,
  "lat": 47.2381570,
  "lon": 6.0148966
},
{
  "type": "node",
  "id": 3027717568,
  "lat": 47.2401388,
  "lon": 6.0153053
},
{
  "type": "node",
  "id": 5948244574,
  "lat": 47.2401833,
  "lon": 6.0150635
},
{
  "type": "node",
  "id": 5948244575,
  "lat": 47.2402684,
  "lon": 6.0150928
},
{
  "type": "node",
  "id": 5948244577,
  "lat": 47.2405351,
  "lon": 6.0151508
},
{
  "type": "node",
  "id": 5948244578,
  "lat": 47.2410915,
  "lon": 6.0152512
},
{
  "type": "node",
  "id": 6290850843,
  "lat": 47.2406269,
  "lon": 6.0151674
},
{
  "type": "node",
  "id": 6290851010,
  "lat": 47.2414111,
  "lon": 6.0153054
},
{
  "type": "node",
  "id": 7107369179,
  "lat": 47.2380454,
  "lon": 6.0150535
},
{
  "type": "node",
  "id": 8337571070,
  "lat": 47.2382367,
  "lon": 6.0148698
},
{
  "type": "node",
  "id": 2917389458,
  "lat": 47.2315525,
  "lon": 6.0187187
},
{
  "type": "node",
  "id": 2917389459,
  "lat": 47.2316780,
  "lon": 6.0189699
},
{
  "type": "node",
  "id": 2917389460,
  "lat": 47.2318255,
  "lon": 6.0192081
},
{
  "type": "node",
  "id": 2917389462,
  "lat": 47.2319077,
  "lon": 6.0193075
},
{
  "type": "node",
  "id": 2917389463,
  "lat": 47.2320302,
  "lon": 6.0194293
},
{
  "type": "node",
  "id": 2987273579,
  "lat": 47.2314238,
  "lon": 6.0183698
},
{
  "type": "node",
  "id": 5469805769,
  "lat": 47.2314528,
  "lon": 6.0184942
},
{
  "type": "node",
  "id": 6414029568,
  "lat": 47.2315180,
  "lon": 6.0186156
},
{
  "type": "node",
  "id": 8989959733,
  "lat": 47.2321115,
  "lon": 6.0194920
},
{
  "type": "node",
  "id": 8989959734,
  "lat": 47.2321920,
  "lon": 6.0195741
},
{
  "type": "node",
  "id": 9375829281,
  "lat": 47.2316143,
  "lon": 6.0188483
},
{
  "type": "node",
  "id": 9375829282,
  "lat": 47.2317536,
  "lon": 6.0190943
},
{
  "type": "node",
  "id": 2152127671,
  "lat": 47.2306100,
  "lon": 6.0280747
},
{
  "type": "node",
  "id": 8989959721,
  "lat": 47.2305121,
  "lon": 6.0282332
},
{
  "type": "node",
  "id": 341230251,
  "lat": 47.2423650,
  "lon": 6.0090593
},
{
  "type": "node",
  "id": 4521996810,
  "lat": 47.2428031,
  "lon": 6.0080752
},
{
  "type": "node",
  "id": 5602368803,
  "lat": 47.2428559,
  "lon": 6.0079702
},
{
  "type": "node",
  "id": 5602368812,
  "lat": 47.2427431,
  "lon": 6.0078563
},
{
  "type": "node",
  "id": 5948291596,
  "lat": 47.2424187,
  "lon": 6.0092045
},
{
  "type": "node",
  "id": 5965693833,
  "lat": 47.2426687,
  "lon": 6.0079418
},
{
  "type": "node",
  "id": 6578493780,
  "lat": 47.2424000,
  "lon": 6.0090286
},
{
  "type": "node",
  "id": 388084754,
  "lat": 47.2445859,
  "lon": 6.0159707
},
{
  "type": "node",
  "id": 486479460,
  "lat": 47.2438221,
  "lon": 6.0133143
},
{
  "type": "node",
  "id": 8330322748,
  "lat": 47.2445666,
  "lon": 6.0159897
},
{
  "type": "node",
  "id": 8330322825,
  "lat": 47.2438069,
  "lon": 6.0134906
},
{
  "type": "node",
  "id": 8330322826,
  "lat": 47.2438180,
  "lon": 6.0135403
},
{
  "type": "node",
  "id": 8330322828,
  "lat": 47.2438005,
  "lon": 6.0134554
},
{
  "type": "node",
  "id": 8330322829,
  "lat": 47.2437991,
  "lon": 6.0134479
},
{
  "type": "node",
  "id": 8330322840,
  "lat": 47.2441952,
  "lon": 6.0149070
},
{
  "type": "node",
  "id": 8330322856,
  "lat": 47.2443686,
  "lon": 6.0154762
},
{
  "type": "node",
  "id": 8330322857,
  "lat": 47.2443983,
  "lon": 6.0155603
},
{
  "type": "node",
  "id": 8330322913,
  "lat": 47.2438122,
  "lon": 6.0135192
},
{
  "type": "node",
  "id": 8330322914,
  "lat": 47.2445140,
  "lon": 6.0158601
},
{
  "type": "node",
  "id": 341230157,
  "lat": 47.2466230,
  "lon": 6.0193994
},
{
  "type": "node",
  "id": 366064182,
  "lat": 47.2454063,
  "lon": 6.0174783
},
{
  "type": "node",
  "id": 417998523,
  "lat": 47.2464600,
  "lon": 6.0191958
},
{
  "type": "node",
  "id": 8330322727,
  "lat": 47.2461720,
  "lon": 6.0187504
},
{
  "type": "node",
  "id": 8330322749,
  "lat": 47.2453666,
  "lon": 6.0175225
},
{
  "type": "node",
  "id": 8330322895,
  "lat": 47.2448077,
  "lon": 6.0165837
},
{
  "type": "node",
  "id": 8330322899,
  "lat": 47.2453214,
  "lon": 6.0174488
},
{
  "type": "node",
  "id": 8330322904,
  "lat": 47.2454954,
  "lon": 6.0177322
},
{
  "type": "node",
  "id": 8330322909,
  "lat": 47.2460713,
  "lon": 6.0186537
},
{
  "type": "node",
  "id": 8330322910,
  "lat": 47.2465645,
  "lon": 6.0191275
},
{
  "type": "node",
  "id": 8330322916,
  "lat": 47.2459917,
  "lon": 6.0185401
},
{
  "type": "node",
  "id": 8330322917,
  "lat": 47.2466176,
  "lon": 6.0192110
},
{
  "type": "node",
  "id": 8330322923,
  "lat": 47.2465645,
  "lon": 6.0193918
},
{
  "type": "node",
  "id": 8330322924,
  "lat": 47.2465959,
  "lon": 6.0194302
},
{
  "type": "node",
  "id": 8330322925,
  "lat": 47.2464669,
  "lon": 6.0192894
},
{
  "type": "node",
  "id": 8330322926,
  "lat": 47.2465487,
  "lon": 6.0193726
},
{
  "type": "node",
  "id": 8330322927,
  "lat": 47.2465740,
  "lon": 6.0193382
},
{
  "type": "node",
  "id": 8330322928,
  "lat": 47.2466144,
  "lon": 6.0192599
},
{
  "type": "node",
  "id": 8919912260,
  "lat": 47.2454816,
  "lon": 6.0193410
},
{
  "type": "node",
  "id": 8919912261,
  "lat": 47.2455796,
  "lon": 6.0191232
},
{
  "type": "node",
  "id": 8919912267,
  "lat": 47.2455188,
  "lon": 6.0192430
},
{
  "type": "node",
  "id": 8937706932,
  "lat": 47.2452429,
  "lon": 6.0173166
},
{
  "type": "node",
  "id": 8937706933,
  "lat": 47.2454214,
  "lon": 6.0176117
},
{
  "type": "node",
  "id": 7005896331,
  "lat": 47.2481707,
  "lon": 6.0259859
},
{
  "type": "node",
  "id": 6582364462,
  "lat": 47.2482622,
  "lon": 6.0260298
},
{
  "type": "node",
  "id": 7005896336,
  "lat": 47.2482606,
  "lon": 6.0260290
},
{
  "type": "node",
  "id": 9300667748,
  "lat": 47.2482155,
  "lon": 6.0260074
},
{
  "type": "node",
  "id": 5796743798,
  "lat": 47.2458053,
  "lon": 6.0348841
},
{
  "type": "node",
  "id": 6580018042,
  "lat": 47.2458308,
  "lon": 6.0351123
},
{
  "type": "node",
  "id": 7311575370,
  "lat": 47.2458184,
  "lon": 6.0349535
},
{
  "type": "node",
  "id": 7311575375,
  "lat": 47.2459182,
  "lon": 6.0352952
},
{
  "type": "node",
  "id": 1493557391,
  "lat": 47.2493361,
  "lon": 6.0324622
},
{
  "type": "node",
  "id": 6515392457,
  "lat": 47.2484994,
  "lon": 6.0300997
},
{
  "type": "node",
  "id": 6576487062,
  "lat": 47.2484647,
  "lon": 6.0301383
},
{
  "type": "node",
  "id": 7417257319,
  "lat": 47.2493767,
  "lon": 6.0324264
},
{
  "type": "node",
  "id": 7297560939,
  "lat": 47.2491783,
  "lon": 6.0534817
},
{
  "type": "node",
  "id": 7297560949,
  "lat": 47.2492460,
  "lon": 6.0536877
},
{
  "type": "node",
  "id": 1306547633,
  "lat": 47.2595311,
  "lon": 6.0028285
},
{
  "type": "node",
  "id": 1306547627,
  "lat": 47.2674878,
  "lon": 6.0027062
},
{
  "type": "node",
  "id": 1306547665,
  "lat": 47.2671937,
  "lon": 6.0030062
},
{
  "type": "node",
  "id": 1306547613,
  "lat": 47.2607569,
  "lon": 6.0040366
},
{
  "type": "node",
  "id": 1306547628,
  "lat": 47.2612427,
  "lon": 6.0044157
},
{
  "type": "node",
  "id": 1306547643,
  "lat": 47.2600524,
  "lon": 6.0035216
},
{
  "type": "node",
  "id": 1306547652,
  "lat": 47.2606465,
  "lon": 6.0039656
},
{
  "type": "node",
  "id": 1306547657,
  "lat": 47.2604758,
  "lon": 6.0038856
},
{
  "type": "node",
  "id": 1306547666,
  "lat": 47.2609444,
  "lon": 6.0042394
},
{
  "type": "node",
  "id": 1306547690,
  "lat": 47.2598664,
  "lon": 6.0033082
},
{
  "type": "node",
  "id": 1306547695,
  "lat": 47.2597210,
  "lon": 6.0031095
},
{
  "type": "node",
  "id": 1306547704,
  "lat": 47.2603073,
  "lon": 6.0037666
},
{
  "type": "node",
  "id": 1585261688,
  "lat": 47.2610465,
  "lon": 6.0145144
},
{
  "type": "node",
  "id": 7018753800,
  "lat": 47.2611557,
  "lon": 6.0143862
},
{
  "type": "node",
  "id": 7018753801,
  "lat": 47.2612268,
  "lon": 6.0143795
},
{
  "type": "node",
  "id": 1306547607,
  "lat": 47.2655544,
  "lon": 6.0045721
},
{
  "type": "node",
  "id": 1306547610,
  "lat": 47.2637152,
  "lon": 6.0051856
},
{
  "type": "node",
  "id": 1306547611,
  "lat": 47.2625185,
  "lon": 6.0048010
},
{
  "type": "node",
  "id": 1306547612,
  "lat": 47.2618360,
  "lon": 6.0047759
},
{
  "type": "node",
  "id": 1306547616,
  "lat": 47.2666840,
  "lon": 6.0035217
},
{
  "type": "node",
  "id": 1306547620,
  "lat": 47.2644654,
  "lon": 6.0052111
},
{
  "type": "node",
  "id": 1306547623,
  "lat": 47.2628025,
  "lon": 6.0049701
},
{
  "type": "node",
  "id": 1306547624,
  "lat": 47.2617723,
  "lon": 6.0047291
},
{
  "type": "node",
  "id": 1306547626,
  "lat": 47.2626788,
  "lon": 6.0048612
},
{
  "type": "node",
  "id": 1306547631,
  "lat": 47.2648712,
  "lon": 6.0050762
},
{
  "type": "node",
  "id": 1306547634,
  "lat": 47.2646816,
  "lon": 6.0051570
},
{
  "type": "node",
  "id": 1306547636,
  "lat": 47.2632388,
  "lon": 6.0051735
},
{
  "type": "node",
  "id": 1306547640,
  "lat": 47.2620934,
  "lon": 6.0047549
},
{
  "type": "node",
  "id": 1306547646,
  "lat": 47.2652553,
  "lon": 6.0048129
},
{
  "type": "node",
  "id": 1306547649,
  "lat": 47.2636311,
  "lon": 6.0051714
},
{
  "type": "node",
  "id": 1306547651,
  "lat": 47.2622931,
  "lon": 6.0047681
},
{
  "type": "node",
  "id": 1306547656,
  "lat": 47.2664390,
  "lon": 6.0037566
},
{
  "type": "node",
  "id": 1306547659,
  "lat": 47.2640404,
  "lon": 6.0052323
},
{
  "type": "node",
  "id": 1306547662,
  "lat": 47.2638368,
  "lon": 6.0052167
},
{
  "type": "node",
  "id": 1306547664,
  "lat": 47.2625943,
  "lon": 6.0048215
},
{
  "type": "node",
  "id": 1306547669,
  "lat": 47.2668704,
  "lon": 6.0033283
},
{
  "type": "node",
  "id": 1306547675,
  "lat": 47.2645668,
  "lon": 6.0051937
},
{
  "type": "node",
  "id": 1306547677,
  "lat": 47.2630500,
  "lon": 6.0050829
},
{
  "type": "node",
  "id": 1306547679,
  "lat": 47.2622616,
  "lon": 6.0047703
},
{
  "type": "node",
  "id": 1306547687,
  "lat": 47.2620200,
  "lon": 6.0047901
},
{
  "type": "node",
  "id": 1306547693,
  "lat": 47.2650793,
  "lon": 6.0049492
},
{
  "type": "node",
  "id": 1306547696,
  "lat": 47.2635068,
  "lon": 6.0051907
},
{
  "type": "node",
  "id": 1306547698,
  "lat": 47.2633712,
  "lon": 6.0052020
},
{
  "type": "node",
  "id": 1306547702,
  "lat": 47.2621814,
  "lon": 6.0047149
},
{
  "type": "node",
  "id": 1306547703,
  "lat": 47.2661934,
  "lon": 6.0039793
},
{
  "type": "node",
  "id": 5262444925,
  "lat": 47.2621440,
  "lon": 6.0047116
},
{
  "type": "node",
  "id": 5262444926,
  "lat": 47.2619465,
  "lon": 6.0048051
},
{
  "type": "node",
  "id": 5262444927,
  "lat": 47.2618929,
  "lon": 6.0048002
},
{
  "type": "node",
  "id": 7350308434,
  "lat": 47.2621593,
  "lon": 6.0046832
},
{
  "type": "node",
  "id": 7350308435,
  "lat": 47.2622181,
  "lon": 6.0047564
},
{
  "type": "node",
  "id": 7350308436,
  "lat": 47.2623395,
  "lon": 6.0047908
},
{
  "type": "node",
  "id": 374214160,
  "lat": 47.2626481,
  "lon": 6.0502139
},
{
  "type": "node",
  "id": 1202915263,
  "lat": 47.2624508,
  "lon": 6.0500568
},
{
  "type": "node",
  "id": 1313540227,
  "lat": 47.2628187,
  "lon": 6.0516183
},
{
  "type": "node",
  "id": 5739982411,
  "lat": 47.2624798,
  "lon": 6.0500751
},
{
  "type": "node",
  "id": 5739982414,
  "lat": 47.2624881,
  "lon": 6.0504364
},
{
  "type": "node",
  "id": 5739985869,
  "lat": 47.2627640,
  "lon": 6.0515973
},
{
  "type": "node",
  "id": 6301183557,
  "lat": 47.2625007,
  "lon": 6.0503472
},
{
  "type": "node",
  "id": 365175001,
  "lat": 47.2795420,
  "lon": 6.0598493
},
{
  "type": "node",
  "id": 1444982248,
  "lat": 47.2794810,
  "lon": 6.0602708
},
{
  "type": "node",
  "id": 1644079649,
  "lat": 47.2794968,
  "lon": 6.0601682
},
{
  "type": "node",
  "id": 7122259329,
  "lat": 47.2795156,
  "lon": 6.0599658
}

  ]
}
