{
  "version": 0.6,
  "generator": "Overpass API 0.7.57 93a4d346",
  "osm3s": {
    "timestamp_osm_base": "2022-02-13T13:29:38Z",
    "timestamp_areas_base": "2022-02-13T06:31:57Z",
    "copyright": "The data included in this document is from www.openstreetmap.org. The data is made available under ODbL."
  },
  "elements": [

{
  "type": "way",
  "id": 4742604,
  "nodes": [
    30220558,
    9405360357,
    30220640,
    8926706340,
    6417602763,
    30220641
  ],
  "tags": {
    "cycleway:right": "lane",
    "highway": "primary",
    "lanes": "2",
    "maxspeed": "50",
    "name": "Boulevard du Midi",
    "old_ref": "N 98",
    "oneway": "yes",
    "ref": "D 6098",
    "source:maxspeed": "FR:urban",
    "surface": "asphalt"
  }
},
{
  "type": "way",
  "id": 205104197,
  "nodes": [
    32451789,
    6145477608,
    2140249779,
    6145477604,
    60096795
  ],
  "tags": {
    "cycleway:right": "lane",
    "highway": "tertiary",
    "lanes": "1",
    "lit": "yes",
    "maxspeed": "50",
    "name": "Place Franklin Roosevelt",
    "oneway": "yes",
    "surface": "asphalt"
  }
},
{
  "type": "way",
  "id": 251276941,
  "nodes": [
    2575215024,
    1198222392,
    8926706338,
    30220565,
    9405271348,
    30220564
  ],
  "tags": {
    "cycleway:right": "lane",
    "highway": "primary",
    "lanes": "2",
    "maxspeed": "50",
    "name": "Boulevard du Midi",
    "old_ref": "N 98",
    "oneway": "yes",
    "ref": "D 6098",
    "source:maxspeed": "FR:urban",
    "surface": "asphalt"
  }
},
{
  "type": "way",
  "id": 275469388,
  "nodes": [
    1718399446,
    5654954734,
    9389393588
  ],
  "tags": {
    "cycleway:right": "lane",
    "highway": "primary",
    "maxspeed": "50",
    "name": "Boulevard du Midi",
    "surface": "asphalt"
  }
},
{
  "type": "way",
  "id": 371608431,
  "nodes": [
    30222076,
    9389393581
  ],
  "tags": {
    "cycleway:right": "lane",
    "highway": "primary",
    "maxspeed": "50",
    "name": "Boulevard du Midi",
    "surface": "asphalt"
  }
},
{
  "type": "way",
  "id": 466375144,
  "nodes": [
    28842513,
    28842514,
    2575210349
  ],
  "tags": {
    "cycleway:right": "lane",
    "highway": "primary",
    "lanes": "2",
    "maxspeed": "30",
    "name": "Avenue du Maréchal Juin",
    "source:name": "cadastre-dgi-fr source : Direction Générale des Impôts - Cadastre. Mise à jour : 2020"
  }
},
{
  "type": "way",
  "id": 512139797,
  "nodes": [
    1230004703,
    5017023369,
    7480503824
  ],
  "tags": {
    "cycleway:right": "lane",
    "highway": "secondary",
    "lanes": "1",
    "lit": "yes",
    "maxspeed": "30",
    "name": "Boulevard du Riou",
    "oneway": "yes",
    "sidewalk": "right",
    "surface": "asphalt"
  }
},
{
  "type": "way",
  "id": 799832650,
  "nodes": [
    7480503823,
    6178853781,
    29871644,
    5008152699,
    5008152698,
    6178853780,
    29871645,
    7480503822
  ],
  "tags": {
    "cycleway:right": "lane",
    "highway": "secondary",
    "lanes": "2",
    "lit": "yes",
    "maxspeed": "30",
    "name": "Boulevard du Riou",
    "oneway": "yes",
    "sidewalk": "right",
    "surface": "asphalt"
  }
},
{
  "type": "way",
  "id": 936246325,
  "nodes": [
    8675433076,
    1198948908
  ],
  "tags": {
    "cycleway:right": "lane",
    "highway": "primary",
    "maxspeed": "50",
    "name": "Boulevard du Midi"
  }
},
{
  "type": "way",
  "id": 1017958923,
  "nodes": [
    9389393581,
    2800925058
  ],
  "tags": {
    "cycleway:right": "lane",
    "highway": "primary",
    "maxspeed": "50",
    "name": "Boulevard du Midi",
    "surface": "asphalt"
  }
},
{
  "type": "way",
  "id": 1017958924,
  "nodes": [
    2800925057,
    1718399446
  ],
  "tags": {
    "cycleway:right": "lane",
    "highway": "primary",
    "maxspeed": "50",
    "name": "Boulevard du Midi",
    "surface": "asphalt"
  }
},
{
  "type": "way",
  "id": 1017958925,
  "nodes": [
    9389393584,
    8267842284,
    30222076
  ],
  "tags": {
    "cycleway:right": "lane",
    "highway": "primary",
    "maxspeed": "50",
    "name": "Boulevard du Midi",
    "surface": "asphalt"
  }
},
{
  "type": "area",
  "id": 3600091734,
  "tags": {
    "admin_level": "8",
    "boundary": "administrative",
    "name": "Cannes",
    "name:el": "Κάννες",
    "name:fr": "Cannes",
    "name:ja": "カンヌ",
    "name:ko": "칸",
    "name:mi": "Kanehi",
    "name:oc": "Canas",
    "name:ru": "Канны",
    "name:zh": "戛纳",
    "population": "74545",
    "population:date": "2019",
    "postal_code": "06400;06150",
    "ref:FR:SIREN": "210600292",
    "ref:INSEE": "06029",
    "source:name:oc": "ieo-bdtopoc",
    "source:population": "INSEE 2022",
    "type": "boundary",
    "website": "http://www.cannes.com/",
    "wikidata": "Q39984",
    "wikipedia": "fr:Cannes"
  }
},
{
  "type": "node",
  "id": 30220641,
  "lat": 43.5408070,
  "lon": 6.9597563
},
{
  "type": "node",
  "id": 2575215024,
  "lat": 43.5407025,
  "lon": 6.9598862
},
{
  "type": "node",
  "id": 6417602763,
  "lat": 43.5408575,
  "lon": 6.9598455
},
{
  "type": "node",
  "id": 30220558,
  "lat": 43.5415917,
  "lon": 6.9609600
},
{
  "type": "node",
  "id": 30220564,
  "lat": 43.5414828,
  "lon": 6.9610994
},
{
  "type": "node",
  "id": 30220565,
  "lat": 43.5412823,
  "lon": 6.9607937
},
{
  "type": "node",
  "id": 30220640,
  "lat": 43.5413829,
  "lon": 6.9606751
},
{
  "type": "node",
  "id": 1198222392,
  "lat": 43.5410234,
  "lon": 6.9604430
},
{
  "type": "node",
  "id": 8926706338,
  "lat": 43.5411927,
  "lon": 6.9606712
},
{
  "type": "node",
  "id": 8926706340,
  "lat": 43.5412023,
  "lon": 6.9603965
},
{
  "type": "node",
  "id": 9405271348,
  "lat": 43.5414208,
  "lon": 6.9610029
},
{
  "type": "node",
  "id": 9405360357,
  "lat": 43.5415506,
  "lon": 6.9609332
},
{
  "type": "node",
  "id": 30222076,
  "lat": 43.5478009,
  "lon": 6.9821402
},
{
  "type": "node",
  "id": 1718399446,
  "lat": 43.5475319,
  "lon": 6.9801423
},
{
  "type": "node",
  "id": 2800925057,
  "lat": 43.5474658,
  "lon": 6.9796456
},
{
  "type": "node",
  "id": 2800925058,
  "lat": 43.5478815,
  "lon": 6.9827328
},
{
  "type": "node",
  "id": 5654954734,
  "lat": 43.5475673,
  "lon": 6.9802089
},
{
  "type": "node",
  "id": 8267842284,
  "lat": 43.5477449,
  "lon": 6.9817223
},
{
  "type": "node",
  "id": 9389393581,
  "lat": 43.5478076,
  "lon": 6.9821891
},
{
  "type": "node",
  "id": 9389393584,
  "lat": 43.5476086,
  "lon": 6.9804154
},
{
  "type": "node",
  "id": 9389393588,
  "lat": 43.5475925,
  "lon": 6.9802711
},
{
  "type": "node",
  "id": 1198948908,
  "lat": 43.5489020,
  "lon": 7.0060423
},
{
  "type": "node",
  "id": 8675433076,
  "lat": 43.5489077,
  "lon": 7.0058712
},
{
  "type": "node",
  "id": 29871644,
  "lat": 43.5534376,
  "lon": 7.0060803
},
{
  "type": "node",
  "id": 29871645,
  "lat": 43.5530134,
  "lon": 7.0060464
},
{
  "type": "node",
  "id": 1230004703,
  "lat": 43.5535796,
  "lon": 7.0061592
},
{
  "type": "node",
  "id": 5008152698,
  "lat": 43.5532686,
  "lon": 7.0060872
},
{
  "type": "node",
  "id": 5008152699,
  "lat": 43.5533472,
  "lon": 7.0060887
},
{
  "type": "node",
  "id": 5017023369,
  "lat": 43.5536872,
  "lon": 7.0061225
},
{
  "type": "node",
  "id": 6178853780,
  "lat": 43.5531375,
  "lon": 7.0060717
},
{
  "type": "node",
  "id": 6178853781,
  "lat": 43.5535325,
  "lon": 7.0060620
},
{
  "type": "node",
  "id": 7480503822,
  "lat": 43.5529147,
  "lon": 7.0060136
},
{
  "type": "node",
  "id": 7480503823,
  "lat": 43.5536744,
  "lon": 7.0060264
},
{
  "type": "node",
  "id": 7480503824,
  "lat": 43.5537294,
  "lon": 7.0061086
},
{
  "type": "node",
  "id": 32451789,
  "lat": 43.5367979,
  "lon": 7.0366749
},
{
  "type": "node",
  "id": 60096795,
  "lat": 43.5367500,
  "lon": 7.0370044
},
{
  "type": "node",
  "id": 2140249779,
  "lat": 43.5367562,
  "lon": 7.0367940
},
{
  "type": "node",
  "id": 6145477604,
  "lat": 43.5367450,
  "lon": 7.0368952
},
{
  "type": "node",
  "id": 6145477608,
  "lat": 43.5367734,
  "lon": 7.0367230
},
{
  "type": "node",
  "id": 28842513,
  "lat": 43.5473113,
  "lon": 7.0450852
},
{
  "type": "node",
  "id": 28842514,
  "lat": 43.5472698,
  "lon": 7.0447779
},
{
  "type": "node",
  "id": 2575210349,
  "lat": 43.5472376,
  "lon": 7.0445886
}

  ]
}
