{
  "version": 0.6,
  "generator": "Overpass API 0.7.57.1 74a55df1",
  "osm3s": {
    "timestamp_osm_base": "2022-02-13T13:18:30Z",
    "timestamp_areas_base": "2022-02-13T02:36:10Z",
    "copyright": "The data included in this document is from www.openstreetmap.org. The data is made available under ODbL."
  },
  "elements": [

{
  "type": "node",
  "id": 492886603,
  "lat": -21.0409440,
  "lon": 55.2961124,
  "tags": {
    "area": "yes",
    "highway": "bus_stop"
  }
},
{
  "type": "node",
  "id": 959839412,
  "lat": -21.0283942,
  "lon": 55.2698357,
  "tags": {
    "highway": "bus_stop",
    "name": "Lycée Pt. Caillou",
    "source": "cadastre-dgi-fr source : Direction Générale des Impôts - Cadastre. Mise à jour : 2010"
  }
},
{
  "type": "node",
  "id": 959840000,
  "lat": -21.0205042,
  "lon": 55.2657788,
  "tags": {
    "highway": "bus_stop",
    "name": "AFPAR Plateau Caillou",
    "name:fr": "AFPAR Plateau Caillou",
    "operator": "Karouest",
    "source": "cadastre-dgi-fr source : Direction Générale des Impôts - Cadastre. Mise à jour : 2010"
  }
},
{
  "type": "node",
  "id": 1320106032,
  "lat": -20.9876416,
  "lon": 55.2927838,
  "tags": {
    "bench": "yes",
    "highway": "bus_stop",
    "shelter": "yes",
    "source": "cadastre-dgi-fr source : Direction Générale des Impôts - Cadastre. Mise à jour : 2011"
  }
},
{
  "type": "node",
  "id": 1320106043,
  "lat": -20.9877118,
  "lon": 55.2924398,
  "tags": {
    "bench": "yes",
    "highway": "bus_stop",
    "shelter": "yes",
    "source": "cadastre-dgi-fr source : Direction Générale des Impôts - Cadastre. Mise à jour : 2011"
  }
},
{
  "type": "node",
  "id": 1652494446,
  "lat": -21.0388098,
  "lon": 55.2186716,
  "tags": {
    "bus": "yes",
    "highway": "bus_stop",
    "name": "Les Aigrettes",
    "operator": "Car Jaune",
    "public_transport": "platform",
    "ref": "92330",
    "shelter": "yes"
  }
},
{
  "type": "node",
  "id": 1696649385,
  "lat": 45.1479738,
  "lon": -0.6049968,
  "tags": {
    "addr:postcode": "33390",
    "highway": "bus_stop",
    "name": "Saint-Paul",
    "name:oc": "Sent Pau",
    "place": "village",
    "population": "956",
    "source:name:oc": "ieo-bdtopoc"
  }
},
{
  "type": "node",
  "id": 2319984608,
  "lat": -21.0431479,
  "lon": 55.3176612,
  "tags": {
    "highway": "bus_stop"
  }
},
{
  "type": "node",
  "id": 2320075018,
  "lat": -21.0469654,
  "lon": 55.3094698,
  "tags": {
    "bus": "yes",
    "highway": "bus_stop",
    "public_transport": "platform"
  }
},
{
  "type": "node",
  "id": 2320075019,
  "lat": -21.0472408,
  "lon": 55.3095140,
  "tags": {
    "bus": "yes",
    "highway": "bus_stop",
    "public_transport": "platform"
  }
},
{
  "type": "node",
  "id": 2320075020,
  "lat": -21.0441392,
  "lon": 55.3077987,
  "tags": {
    "bus": "yes",
    "highway": "bus_stop",
    "public_transport": "platform"
  }
},
{
  "type": "node",
  "id": 3597746356,
  "lat": -21.0411760,
  "lon": 55.2247948,
  "tags": {
    "bench": "yes",
    "bus": "yes",
    "covered": "yes",
    "highway": "bus_stop",
    "name": "Grand Fond",
    "public_transport": "platform",
    "shelter": "yes"
  }
},
{
  "type": "node",
  "id": 3601879523,
  "lat": -21.0411259,
  "lon": 55.2248109,
  "tags": {
    "bench": "no",
    "bus": "yes",
    "covered": "no",
    "highway": "bus_stop",
    "name": "Grand Fond",
    "public_transport": "platform",
    "shelter": "no"
  }
},
{
  "type": "node",
  "id": 3872896759,
  "lat": -21.0754948,
  "lon": 55.2276119,
  "tags": {
    "bench": "yes",
    "bus": "yes",
    "highway": "bus_stop",
    "name": "Filaos St-Gilles",
    "operator": "Car Jaune",
    "public_transport": "platform",
    "ref": "2323",
    "shelter": "yes",
    "wheelchair": "yes"
  }
},
{
  "type": "node",
  "id": 4036169990,
  "lat": -20.9709579,
  "lon": 55.3138189,
  "tags": {
    "bench": "yes",
    "covered": "yes",
    "highway": "bus_stop",
    "name": "Lycée Agricole",
    "network": "Kar'ouest",
    "shelter": "yes"
  }
},
{
  "type": "node",
  "id": 4272291373,
  "lat": -20.9638256,
  "lon": 55.2943676,
  "tags": {
    "bus": "yes",
    "highway": "bus_stop",
    "name": "Cambaie",
    "operator": "Car Jaune",
    "public_transport": "platform",
    "ref": "2232",
    "shelter": "yes"
  }
},
{
  "type": "node",
  "id": 4272291376,
  "lat": -20.9639423,
  "lon": 55.2942863,
  "tags": {
    "bus": "yes",
    "highway": "bus_stop",
    "name": "Cambaie",
    "operator": "Car Jaune",
    "public_transport": "platform",
    "ref": "92232",
    "shelter": "yes"
  }
},
{
  "type": "node",
  "id": 4272291387,
  "lat": -20.9707285,
  "lon": 55.2997511,
  "tags": {
    "bus": "yes",
    "highway": "bus_stop",
    "name": "Piton Defaud",
    "operator": "Car Jaune",
    "public_transport": "platform",
    "ref": "2231",
    "shelter": "yes"
  }
},
{
  "type": "node",
  "id": 4272291388,
  "lat": -20.9715045,
  "lon": 55.2982506,
  "tags": {
    "bench": "yes",
    "bus": "yes",
    "highway": "bus_stop",
    "name": "Piton Defaud",
    "operator": "Car Jaune",
    "public_transport": "platform",
    "ref": "92231"
  }
},
{
  "type": "node",
  "id": 4272291593,
  "lat": -21.0193566,
  "lon": 55.2648207,
  "tags": {
    "bus": "yes",
    "highway": "bus_stop",
    "name": "RDT Plateau Caillou",
    "operator": "Car Jaune",
    "public_transport": "platform",
    "ref": "2325;92325",
    "wheelchair": "yes"
  }
},
{
  "type": "node",
  "id": 4282614836,
  "lat": -21.0301518,
  "lon": 55.2267339,
  "tags": {
    "bus": "yes",
    "highway": "bus_stop",
    "name": "Boucan Canot",
    "operator": "Car Jaune",
    "public_transport": "platform",
    "ref": "2321",
    "shelter": "yes"
  }
},
{
  "type": "node",
  "id": 4282614838,
  "lat": -21.0301524,
  "lon": 55.2258896,
  "tags": {
    "bus": "yes",
    "highway": "bus_stop",
    "name": "Boucan Canot",
    "operator": "Car Jaune",
    "public_transport": "platform",
    "ref": "92321",
    "shelter": "yes"
  }
},
{
  "type": "node",
  "id": 4282614845,
  "lat": -21.0744503,
  "lon": 55.2271352,
  "tags": {
    "bus": "yes",
    "highway": "bus_stop",
    "name": "Filaos St-Gilles",
    "public_transport": "platform",
    "ref": "92323",
    "wheelchair": "yes"
  }
},
{
  "type": "node",
  "id": 4282614865,
  "lat": -21.0133084,
  "lon": 55.2699198,
  "tags": {
    "bus": "yes",
    "highway": "bus_stop",
    "name": "Hôpital G. Martin",
    "operator": "Car Jaune",
    "public_transport": "platform",
    "ref": "92230"
  }
},
{
  "type": "node",
  "id": 4282614866,
  "lat": -21.0148987,
  "lon": 55.2669350,
  "tags": {
    "bus": "yes",
    "highway": "bus_stop",
    "name": "Hôpital G. Martin",
    "operator": "Car Jaune",
    "public_transport": "platform",
    "ref": "2230"
  }
},
{
  "type": "node",
  "id": 4282614871,
  "lat": -21.0938259,
  "lon": 55.2366717,
  "tags": {
    "bus": "yes",
    "highway": "bus_stop",
    "name": "La Saline les Bains",
    "operator": "Car Jaune",
    "public_transport": "platform",
    "ref": "2322",
    "shelter": "yes"
  }
},
{
  "type": "node",
  "id": 4282614874,
  "lat": -21.0938880,
  "lon": 55.2365720,
  "tags": {
    "bus": "yes",
    "highway": "bus_stop",
    "name": "La Saline les Bains",
    "operator": "Car Jaune",
    "public_transport": "platform",
    "ref": "92322",
    "shelter": "yes"
  }
},
{
  "type": "node",
  "id": 4282614875,
  "lat": -21.0384003,
  "lon": 55.2192570,
  "tags": {
    "bus": "yes",
    "highway": "bus_stop",
    "name": "Les Aigrettes",
    "operator": "Car Jaune",
    "public_transport": "platform",
    "ref": "2330",
    "shelter": "yes"
  }
},
{
  "type": "node",
  "id": 4282614879,
  "lat": -21.0653483,
  "lon": 55.2239444,
  "tags": {
    "bus": "yes",
    "highway": "bus_stop",
    "name": "Maison Bourbon",
    "operator": "Car Jaune",
    "public_transport": "platform",
    "ref": "2331",
    "shelter": "yes"
  }
},
{
  "type": "node",
  "id": 4282614882,
  "lat": -21.0662340,
  "lon": 55.2240570,
  "tags": {
    "bus": "yes",
    "highway": "bus_stop",
    "name": "Maison Bourbon",
    "operator": "Car Jaune",
    "public_transport": "platform",
    "ref": "92331",
    "shelter": "yes"
  }
},
{
  "type": "node",
  "id": 4282614883,
  "lat": -21.0530050,
  "lon": 55.2293110,
  "tags": {
    "bus": "yes",
    "highway": "bus_stop",
    "name": "Roches Noires",
    "operator": "Car Jaune",
    "public_transport": "platform",
    "ref": "2332"
  }
},
{
  "type": "node",
  "id": 4282614888,
  "lat": -21.0507360,
  "lon": 55.2236324,
  "tags": {
    "bench": "yes",
    "bus": "yes",
    "highway": "bus_stop",
    "name": "Saint-Gilles-les-Bains",
    "operator": "Car Jaune",
    "public_transport": "platform",
    "ref": "2320",
    "shelter": "yes"
  }
},
{
  "type": "node",
  "id": 4282617491,
  "lat": -21.0512690,
  "lon": 55.2249710,
  "tags": {
    "bus": "yes",
    "highway": "bus_stop",
    "name": "Saint-Gilles-les-Bains",
    "operator": "Car Jaune",
    "public_transport": "platform",
    "ref": "92320",
    "wheelchair": "yes"
  }
},
{
  "type": "node",
  "id": 4294610360,
  "lat": -20.9877497,
  "lon": 55.2898515,
  "tags": {
    "bench": "yes",
    "bus": "yes",
    "highway": "bus_stop",
    "name": "Pont de l'Etang",
    "operator": "Car Jaune",
    "public_transport": "platform",
    "ref": "2220",
    "shelter": "yes"
  }
},
{
  "type": "node",
  "id": 4294610361,
  "lat": -20.9888243,
  "lon": 55.2892894,
  "tags": {
    "bench": "yes",
    "bus": "yes",
    "highway": "bus_stop",
    "name": "Pont de l'Etang",
    "operator": "Car Jaune",
    "public_transport": "platform",
    "ref": "92220",
    "shelter": "yes"
  }
},
{
  "type": "node",
  "id": 4415281695,
  "lat": -21.0621367,
  "lon": 55.3789178,
  "tags": {
    "highway": "bus_stop",
    "name": "Maido",
    "operator": "Car Ouest",
    "public_transport": "platform"
  }
},
{
  "type": "node",
  "id": 4652801079,
  "lat": -21.0840800,
  "lon": 55.2317390,
  "tags": {
    "bench": "yes",
    "bus": "yes",
    "highway": "bus_stop",
    "name": "Bruniquel",
    "operator": "Car Jaune",
    "public_transport": "platform",
    "shelter": "yes"
  }
},
{
  "type": "node",
  "id": 4652801080,
  "lat": -21.0841472,
  "lon": 55.2315662,
  "tags": {
    "bus": "yes",
    "highway": "bus_stop",
    "name": "Bruniquel",
    "operator": "Car Jaune",
    "public_transport": "platform"
  }
},
{
  "type": "node",
  "id": 4652801081,
  "lat": -21.0817193,
  "lon": 55.2303748,
  "tags": {
    "bench": "yes",
    "bus": "yes",
    "highway": "bus_stop",
    "name": "Pere Lafrite",
    "operator": "Car Jaune",
    "public_transport": "platform",
    "shelter": "yes"
  }
},
{
  "type": "node",
  "id": 4652801082,
  "lat": -21.0812883,
  "lon": 55.2300299,
  "tags": {
    "bus": "yes",
    "highway": "bus_stop",
    "name": "Pere Lafrite",
    "public_transport": "platform"
  }
},
{
  "type": "node",
  "id": 4856163624,
  "lat": -21.0360626,
  "lon": 55.3080681,
  "tags": {
    "highway": "bus_stop",
    "name": "Route du Maïdo",
    "operator": "Car ouest"
  }
},
{
  "type": "node",
  "id": 4856163626,
  "lat": -21.0399178,
  "lon": 55.3044158,
  "tags": {
    "highway": "bus_stop",
    "name": "La Croix",
    "name:fr": "La Croix",
    "operator": "Car Ouest"
  }
},
{
  "type": "node",
  "id": 4860290821,
  "lat": -21.0374058,
  "lon": 55.3097784,
  "tags": {
    "highway": "bus_stop",
    "name": "Bac rouge",
    "name:fr": "Bac rouge"
  }
},
{
  "type": "node",
  "id": 5329705722,
  "lat": -21.0381949,
  "lon": 55.2883746,
  "tags": {
    "highway": "bus_stop",
    "name": "Maison Blanche",
    "operator": "Kar' Ouest"
  }
},
{
  "type": "node",
  "id": 5329720421,
  "lat": -21.0302971,
  "lon": 55.3107579,
  "tags": {
    "highway": "bus_stop",
    "name": "Canots",
    "operator": "Kar Ouest"
  }
},
{
  "type": "node",
  "id": 5861085486,
  "lat": -21.0692484,
  "lon": 55.2230800,
  "tags": {
    "bench": "no",
    "highway": "bus_stop",
    "name": "Camping Ermitage Lagon",
    "public_transport": "platform",
    "shelter": "yes"
  }
},
{
  "type": "node",
  "id": 5861113686,
  "lat": -21.0725040,
  "lon": 55.2234593,
  "tags": {
    "bench": "yes",
    "highway": "bus_stop",
    "name": "Centre Commercial Saint-Gilles Les Bains",
    "public_transport": "platform",
    "shelter": "yes"
  }
},
{
  "type": "node",
  "id": 5861118985,
  "lat": -21.0728319,
  "lon": 55.2233831,
  "tags": {
    "bench": "yes",
    "highway": "bus_stop",
    "name": "Centre Commercial Saint-Gilles Les-Bains",
    "public_transport": "platform",
    "shelter": "yes"
  }
},
{
  "type": "node",
  "id": 6643087585,
  "lat": -21.0994422,
  "lon": 55.2431072,
  "tags": {
    "highway": "bus_stop",
    "name": "Trou d’eau",
    "public_transport": "platform"
  }
},
{
  "type": "node",
  "id": 6668997685,
  "lat": -21.0140592,
  "lon": 55.2818572,
  "tags": {
    "highway": "bus_stop"
  }
},
{
  "type": "node",
  "id": 6698718586,
  "lat": -21.0763057,
  "lon": 55.2237826,
  "tags": {
    "bench": "yes",
    "highway": "bus_stop",
    "name": "Novotel",
    "shelter": "no"
  }
},
{
  "type": "node",
  "id": 6700404539,
  "lat": 49.4185813,
  "lon": 2.0065696,
  "tags": {
    "bus": "yes",
    "highway": "bus_stop",
    "public_transport": "platform"
  }
},
{
  "type": "node",
  "id": 6700404540,
  "lat": 49.4186269,
  "lon": 2.0064067,
  "tags": {
    "bus": "yes",
    "highway": "bus_stop",
    "public_transport": "platform"
  }
},
{
  "type": "node",
  "id": 6783107849,
  "lat": 45.6970130,
  "lon": 5.8019813,
  "tags": {
    "bus": "yes",
    "highway": "bus_stop",
    "name": "Saint-Jean-de-Chevelu - Pont du Bessey",
    "public_transport": "platform"
  }
},
{
  "type": "node",
  "id": 6923458433,
  "lat": 49.4345939,
  "lon": 2.0108601,
  "tags": {
    "highway": "bus_stop",
    "public_transport": "platform"
  }
},
{
  "type": "node",
  "id": 6923458437,
  "lat": 49.4189373,
  "lon": 1.9938496,
  "tags": {
    "highway": "bus_stop",
    "public_transport": "platform"
  }
},
{
  "type": "node",
  "id": 6923458438,
  "lat": 49.4206795,
  "lon": 1.9825307,
  "tags": {
    "highway": "bus_stop",
    "public_transport": "platform"
  }
},
{
  "type": "node",
  "id": 6943312118,
  "lat": -21.0486987,
  "lon": 55.2669182,
  "tags": {
    "bus": "yes",
    "highway": "bus_stop",
    "name": "Mairie Saint Gilles les Hauts",
    "network": "Kar'Ouest",
    "operator": "TCO",
    "public_transport": "platform",
    "shelter": "yes",
    "tactile_paving": "yes"
  }
},
{
  "type": "node",
  "id": 7090562010,
  "lat": -21.0557806,
  "lon": 55.2652630,
  "tags": {
    "bench": "yes",
    "bus": "yes",
    "highway": "bus_stop",
    "name": "Chapelle Pointue",
    "network": "Kar'Ouest",
    "operator": "TCO",
    "public_transport": "platform",
    "shelter": "yes"
  }
},
{
  "type": "node",
  "id": 7090562012,
  "lat": -21.0559557,
  "lon": 55.2652827,
  "tags": {
    "bench": "yes",
    "bus": "yes",
    "highway": "bus_stop",
    "name": "Chapelle Pointue",
    "network": "Kar'Ouest",
    "operator": "TCO",
    "public_transport": "platform",
    "shelter": "yes"
  }
},
{
  "type": "node",
  "id": 7090562013,
  "lat": -21.0525546,
  "lon": 55.2673324,
  "tags": {
    "bench": "yes",
    "bus": "yes",
    "highway": "bus_stop",
    "name": "Law Thime",
    "network": "Kar'Ouest",
    "operator": "TCO",
    "public_transport": "platform",
    "shelter": "yes"
  }
},
{
  "type": "node",
  "id": 7090562014,
  "lat": -21.0518992,
  "lon": 55.2677386,
  "tags": {
    "bus": "yes",
    "highway": "bus_stop",
    "name": "Law Thime",
    "network": "Kar'Ouest",
    "operator": "TCO",
    "public_transport": "platform",
    "shelter": "yes"
  }
},
{
  "type": "node",
  "id": 7090562015,
  "lat": -21.0487129,
  "lon": 55.2667861,
  "tags": {
    "bench": "yes",
    "bus": "yes",
    "highway": "bus_stop",
    "name": "Mairie Saint Gilles les Hauts",
    "network": "Kar'Ouest",
    "operator": "TCO",
    "public_transport": "platform",
    "shelter": "yes"
  }
},
{
  "type": "node",
  "id": 7091376050,
  "lat": -21.0419710,
  "lon": 55.2532916,
  "tags": {
    "bus": "yes",
    "highway": "bus_stop",
    "name": "Ecole Eperon",
    "network": "Kar'Ouest",
    "operator": "TCO",
    "public_transport": "platform",
    "shelter": "yes"
  }
},
{
  "type": "node",
  "id": 7091376051,
  "lat": -21.0421864,
  "lon": 55.2539559,
  "tags": {
    "bus": "yes",
    "highway": "bus_stop",
    "name": "Ecole Eperon",
    "network": "Kar'Ouest",
    "operator": "TCO",
    "public_transport": "platform"
  }
},
{
  "type": "node",
  "id": 7091376054,
  "lat": -21.0447674,
  "lon": 55.2621326,
  "tags": {
    "bus": "yes",
    "highway": "bus_stop",
    "name": "Tamatave",
    "network": "Kar'Ouest",
    "operator": "TCO",
    "public_transport": "platform"
  }
},
{
  "type": "node",
  "id": 7091376055,
  "lat": -21.0448409,
  "lon": 55.2622768,
  "tags": {
    "bus": "yes",
    "highway": "bus_stop",
    "name": "Tamatave",
    "network": "Kar'Ouest",
    "operator": "TCO",
    "public_transport": "platform"
  }
},
{
  "type": "node",
  "id": 7091376057,
  "lat": -21.0447158,
  "lon": 55.2682549,
  "tags": {
    "bus": "yes",
    "highway": "bus_stop",
    "name": "Centhor",
    "network": "Kar'Ouest",
    "operator": "TCO",
    "public_transport": "platform"
  }
},
{
  "type": "node",
  "id": 7091376058,
  "lat": -21.0466385,
  "lon": 55.2676620,
  "tags": {
    "bus": "yes",
    "highway": "bus_stop",
    "name": "Les Oliviers",
    "network": "Kar'Ouest",
    "operator": "TCO",
    "public_transport": "platform"
  }
},
{
  "type": "node",
  "id": 7091376059,
  "lat": -21.0466112,
  "lon": 55.2678077,
  "tags": {
    "bus": "yes",
    "highway": "bus_stop",
    "name": "Les Oliviers",
    "network": "Kar'Ouest",
    "operator": "TCO",
    "public_transport": "platform",
    "shelter": "no"
  }
},
{
  "type": "node",
  "id": 7096472636,
  "lat": -21.0450818,
  "lon": 55.2588050,
  "tags": {
    "bus": "yes",
    "highway": "bus_stop",
    "name": "Eperon",
    "network": "Kar'Ouest",
    "operator": "TCO",
    "public_transport": "platform"
  }
},
{
  "type": "node",
  "id": 7096472637,
  "lat": -21.0454455,
  "lon": 55.2591800,
  "tags": {
    "bus": "yes",
    "highway": "bus_stop",
    "name": "Eperon",
    "network": "Kar'Ouest",
    "operator": "TCO",
    "public_transport": "platform",
    "shelter": "no"
  }
},
{
  "type": "node",
  "id": 7102183841,
  "lat": -21.0484615,
  "lon": 55.2669758,
  "tags": {
    "bench": "yes",
    "bus": "yes",
    "highway": "bus_stop",
    "public_transport": "platform",
    "shelter": "yes"
  }
},
{
  "type": "node",
  "id": 7102183842,
  "lat": -21.0483751,
  "lon": 55.2669536,
  "tags": {
    "bench": "yes",
    "bus": "yes",
    "highway": "bus_stop",
    "public_transport": "platform",
    "shelter": "yes"
  }
},
{
  "type": "node",
  "id": 7102183843,
  "lat": -21.0482575,
  "lon": 55.2669221,
  "tags": {
    "bench": "yes",
    "bus": "yes",
    "highway": "bus_stop",
    "public_transport": "platform",
    "shelter": "yes"
  }
},
{
  "type": "node",
  "id": 7102183844,
  "lat": -21.0481749,
  "lon": 55.2669090,
  "tags": {
    "bench": "yes",
    "bus": "yes",
    "highway": "bus_stop",
    "public_transport": "platform",
    "shelter": "yes"
  }
},
{
  "type": "node",
  "id": 7366422732,
  "lat": -21.0429636,
  "lon": 55.2480775,
  "tags": {
    "amenity": "shelter",
    "bus": "yes",
    "highway": "bus_stop",
    "name": "RDT L'Éperon",
    "network": "Kar'Ouest;Car Jaune",
    "operator": "Car Jaune;TCO;Région Réunion",
    "public_transport": "platform",
    "ref": "2324;92324",
    "shelter_type": "public_transport",
    "wheelchair": "yes"
  }
},
{
  "type": "node",
  "id": 7366422763,
  "lat": -21.0461792,
  "lon": 55.2607365,
  "tags": {
    "bus": "yes",
    "highway": "bus_stop",
    "public_transport": "platform"
  }
},
{
  "type": "node",
  "id": 7716308393,
  "lat": -21.1001558,
  "lon": 55.2435386,
  "tags": {
    "highway": "bus_stop",
    "name": "Trou d’eau",
    "public_transport": "platform"
  }
},
{
  "type": "node",
  "id": 8505620817,
  "lat": -21.0213417,
  "lon": 55.2657567,
  "tags": {
    "bus": "yes",
    "highway": "bus_stop",
    "name": "AFPAR Plateau Caillou",
    "public_transport": "platform"
  }
},
{
  "type": "node",
  "id": 8714391748,
  "lat": 45.7536812,
  "lon": 1.4282227,
  "tags": {
    "bus": "yes",
    "highway": "bus_stop",
    "name": "Saint-Paul - La Croix Verte",
    "public_transport": "platform",
    "route_ref": "LR09"
  }
},
{
  "type": "node",
  "id": 8714391749,
  "lat": 45.7537010,
  "lon": 1.4283617,
  "tags": {
    "bus": "yes",
    "highway": "bus_stop",
    "name": "Saint-Paul - La Croix Verte",
    "public_transport": "platform",
    "route_ref": "LR09"
  }
},
{
  "type": "node",
  "id": 8714391750,
  "lat": 45.7505807,
  "lon": 1.4318800,
  "tags": {
    "bus": "yes",
    "highway": "bus_stop",
    "name": "Saint-Paul - Le Bourg",
    "public_transport": "platform",
    "route_ref": "LR09"
  }
},
{
  "type": "node",
  "id": 8714391751,
  "lat": 45.7504041,
  "lon": 1.4319681,
  "tags": {
    "bus": "yes",
    "highway": "bus_stop",
    "name": "Saint-Paul - Le Bourg",
    "public_transport": "platform",
    "route_ref": "LR09"
  }
},
{
  "type": "node",
  "id": 8714403853,
  "lat": 45.7350848,
  "lon": 1.4684451,
  "tags": {
    "bus": "yes",
    "highway": "bus_stop",
    "name": "Saint-Bonnet-Briance - Leycuras",
    "public_transport": "platform",
    "route_ref": "LR09"
  }
},
{
  "type": "node",
  "id": 8714403855,
  "lat": 45.7351867,
  "lon": 1.4684202,
  "tags": {
    "bus": "yes",
    "highway": "bus_stop",
    "name": "Saint-Bonnet-Briance - Leycuras",
    "public_transport": "platform",
    "route_ref": "LR09"
  }
},
{
  "type": "node",
  "id": 8714443105,
  "lat": 45.7432993,
  "lon": 1.4322851,
  "tags": {
    "bus": "yes",
    "highway": "bus_stop",
    "name": "Saint-Paul - Le Petit Chaleix",
    "public_transport": "platform",
    "route_ref": "LR09"
  }
},
{
  "type": "node",
  "id": 8714443107,
  "lat": 45.7424561,
  "lon": 1.4320188,
  "tags": {
    "bus": "yes",
    "highway": "bus_stop",
    "name": "Saint-Paul - Le Petit Chaleix",
    "public_transport": "platform",
    "route_ref": "LR09"
  }
},
{
  "type": "node",
  "id": 8714443871,
  "lat": 45.7353972,
  "lon": 1.4548310,
  "tags": {
    "bus": "yes",
    "highway": "bus_stop",
    "name": "Saint-Paul - La Violette",
    "public_transport": "platform",
    "route_ref": "LR09"
  }
},
{
  "type": "node",
  "id": 8714443872,
  "lat": 45.7357063,
  "lon": 1.4540331,
  "tags": {
    "bus": "yes",
    "highway": "bus_stop",
    "name": "Saint-Paul - La Violette",
    "public_transport": "platform",
    "route_ref": "LR09"
  }
},
{
  "type": "node",
  "id": 8714459661,
  "lat": 45.7659962,
  "lon": 1.4126114,
  "tags": {
    "bus": "yes",
    "highway": "bus_stop",
    "name": "Saint-Paul - Arfeuille",
    "public_transport": "platform",
    "route_ref": "LR09"
  }
},
{
  "type": "node",
  "id": 8714459662,
  "lat": 45.7658091,
  "lon": 1.4130393,
  "tags": {
    "bus": "yes",
    "highway": "bus_stop",
    "name": "Saint-Paul - Arfeuille",
    "public_transport": "platform",
    "route_ref": "LR09"
  }
},
{
  "type": "node",
  "id": 9357667018,
  "lat": -20.9798697,
  "lon": 55.3459915,
  "tags": {
    "highway": "bus_stop",
    "name": "Citerne rouge ligne 74"
  }
},
{
  "type": "node",
  "id": 9357732422,
  "lat": -20.9809003,
  "lon": 55.3398942,
  "tags": {
    "highway": "bus_stop",
    "name": "École sans soucis ligne 74"
  }
},
{
  "type": "node",
  "id": 9384079827,
  "lat": -21.0291846,
  "lon": 55.2700348,
  "tags": {
    "highway": "bus_stop"
  }
},
{
  "type": "node",
  "id": 9384079828,
  "lat": -21.0290926,
  "lon": 55.2701709,
  "tags": {
    "highway": "bus_stop"
  }
},
{
  "type": "node",
  "id": 9384086550,
  "lat": -21.0306004,
  "lon": 55.2667887,
  "tags": {
    "highway": "bus_stop"
  }
},
{
  "type": "node",
  "id": 9384086551,
  "lat": -21.0300446,
  "lon": 55.2663059,
  "tags": {
    "highway": "bus_stop"
  }
},
{
  "type": "node",
  "id": 9384086566,
  "lat": -21.0281851,
  "lon": 55.2660605,
  "tags": {
    "highway": "bus_stop"
  }
},
{
  "type": "node",
  "id": 9398306824,
  "lat": -21.0997947,
  "lon": 55.2713318,
  "tags": {
    "highway": "bus_stop",
    "name": "Croisée barrage"
  }
},
{
  "type": "node",
  "id": 9398440020,
  "lat": -21.0075915,
  "lon": 55.2754105,
  "tags": {
    "highway": "bus_stop",
    "name": "Parking en paille"
  }
}

  ]
}
