{
  "version": 0.6,
  "generator": "Overpass API 0.7.57.1 74a55df1",
  "osm3s": {
    "timestamp_osm_base": "2022-02-13T13:18:30Z",
    "timestamp_areas_base": "2022-02-13T02:36:10Z",
    "copyright": "The data included in this document is from www.openstreetmap.org. The data is made available under ODbL."
  },
  "elements": [

{
  "type": "way",
  "id": 38228122,
  "nodes": [
    288506301,
    288506302,
    4060381914,
    612115548,
    4060381929,
    4060381933,
    8191617526,
    352713914,
    8359598288,
    8359598287,
    2395878000,
    2395878001,
    416954715
  ],
  "tags": {
    "bicycle": "designated",
    "foot": "yes",
    "highway": "cycleway",
    "lit": "no",
    "surface": "fine_gravel",
    "width": "2"
  }
},
{
  "type": "way",
  "id": 39215796,
  "nodes": [
    469772189,
    469772192,
    469772180
  ],
  "tags": {
    "highway": "cycleway",
    "maxspeed": "20",
    "surface": "paved"
  }
},
{
  "type": "way",
  "id": 39215797,
  "nodes": [
    1473488609,
    6396600042,
    699654773,
    469772201,
    469772202,
    6396600036,
    469772204,
    6396600023,
    469772205,
    469772207,
    469772189
  ],
  "tags": {
    "foot": "yes",
    "highway": "cycleway",
    "maxspeed": "20",
    "surface": "paved"
  }
},
{
  "type": "way",
  "id": 39217046,
  "nodes": [
    469794444,
    469794457
  ],
  "tags": {
    "bridge": "yes",
    "highway": "cycleway",
    "layer": "1",
    "maxspeed": "10",
    "surface": "paved"
  }
},
{
  "type": "way",
  "id": 39325249,
  "nodes": [
    1882693312,
    5322726377,
    471138679
  ],
  "tags": {
    "bicycle": "designated",
    "foot": "designated",
    "highway": "cycleway",
    "maxspeed": "15",
    "motor_vehicle": "no",
    "segregated": "no",
    "surface": "asphalt"
  }
},
{
  "type": "way",
  "id": 39325251,
  "nodes": [
    471138680,
    5322726376,
    5536254224
  ],
  "tags": {
    "bicycle": "designated",
    "foot": "designated",
    "highway": "cycleway",
    "maxspeed": "15",
    "maxweight": "1",
    "motor_vehicle": "no",
    "segregated": "no",
    "surface": "asphalt"
  }
},
{
  "type": "way",
  "id": 39480480,
  "nodes": [
    472875024,
    1608852478,
    1608852505,
    1608856405,
    1608856412,
    472875016,
    1608856427,
    472875014,
    1608856437,
    1608856447,
    3828209524,
    7057733569,
    7057733575,
    3828209530,
    472875009,
    518769512
  ],
  "tags": {
    "highway": "cycleway",
    "maxspeed": "20",
    "oneway": "yes",
    "surface": "paved"
  }
},
{
  "type": "way",
  "id": 39480481,
  "nodes": [
    472865514,
    472865516,
    472865519,
    472865520,
    8067827027,
    7047307921,
    8067820714,
    6954009625,
    6954009624,
    7047307922,
    8067820717,
    472865526,
    472865531,
    472865533,
    472865536,
    2719658390,
    472865539,
    472865542,
    472865543,
    472865545,
    472865548,
    472865549,
    472865552,
    472865553,
    472865555,
    472865557,
    472865560,
    472865562,
    472865564,
    472865567,
    472865570,
    6954009622,
    6954009613,
    4707437978,
    472865572,
    472865575,
    472865579,
    996793642
  ],
  "tags": {
    "highway": "cycleway",
    "maxspeed": "30",
    "oneway": "no",
    "surface": "asphalt"
  }
},
{
  "type": "way",
  "id": 39480699,
  "nodes": [
    472865496,
    4411564381,
    4718072425,
    502169856,
    5322726385,
    472879852
  ],
  "tags": {
    "highway": "cycleway",
    "maxspeed": "30",
    "oneway": "yes",
    "surface": "asphalt"
  }
},
{
  "type": "way",
  "id": 39482289,
  "nodes": [
    472902186,
    6629388843,
    6629388842,
    472902188,
    472902193,
    472902196,
    472902199,
    472902202,
    472902205,
    1635553151,
    472902217,
    472902220,
    472902222,
    1635553141,
    1635553140,
    472902227,
    472902129,
    4778635178,
    472902142,
    472902145,
    472902149,
    1889427529,
    1889427530,
    3075837265,
    472902157
  ],
  "tags": {
    "highway": "cycleway",
    "lit": "yes",
    "maxspeed": "15",
    "oneway": "yes",
    "surface": "paved"
  }
},
{
  "type": "way",
  "id": 39482290,
  "nodes": [
    472902186,
    1940286577,
    1750476822,
    1940318779,
    472902233,
    1750476825,
    3829135561,
    3829135563,
    3829135568,
    1912548025,
    1283267709,
    1283267706,
    4407019806,
    6583836401,
    503641210
  ],
  "tags": {
    "highway": "cycleway",
    "maxspeed": "30",
    "oneway": "yes",
    "surface": "paved"
  }
},
{
  "type": "way",
  "id": 40452035,
  "nodes": [
    489944013,
    489944015,
    3883215897,
    611556347,
    611556348,
    489944027,
    6627047873,
    489944033,
    8491973074,
    1753873237,
    489944038,
    574813148,
    1753873235,
    489944046,
    8464150063,
    2645324671,
    489944049,
    642426708,
    489944061,
    7321123264,
    4723125815,
    489944065,
    3777765003,
    489944068,
    489944073,
    2645324681,
    1423753963,
    1038673553
  ],
  "tags": {
    "highway": "cycleway",
    "maxspeed": "50",
    "oneway": "yes",
    "surface": "paved"
  }
},
{
  "type": "way",
  "id": 41907008,
  "nodes": [
    518769512,
    472875006,
    472875004,
    472875002
  ],
  "tags": {
    "bridge": "yes",
    "highway": "cycleway",
    "layer": "1",
    "maxspeed": "20",
    "oneway": "yes",
    "surface": "paved"
  }
},
{
  "type": "way",
  "id": 41907009,
  "nodes": [
    472875002,
    518769542,
    472874996,
    6743163402,
    472874994,
    6743163401,
    472865457,
    472865463,
    472865465,
    472865466,
    472865468,
    472865470,
    472865471,
    472865473,
    472865474,
    1041021542,
    472865476,
    472865478,
    472865482,
    1041024817,
    5576927553,
    472865486,
    472865490,
    472865493,
    472865496,
    1041021519,
    401585312,
    472865457
  ],
  "tags": {
    "highway": "cycleway",
    "maxspeed": "20",
    "oneway": "yes",
    "surface": "asphalt"
  }
},
{
  "type": "way",
  "id": 41907011,
  "nodes": [
    472879860,
    1911135631,
    6954009618,
    3828209531,
    3828209527,
    1608856449,
    503633050,
    1608856416,
    472879884,
    7603794076,
    1911291689,
    7603794084,
    7603794083,
    472879898,
    3771909093,
    3771909092,
    489935133,
    3771909090,
    3771909091,
    7603819087,
    7603819085,
    489935140,
    3777765007,
    3777765006,
    7042340123,
    642426900,
    489935149,
    1911306777,
    489935167,
    489935169,
    489935173,
    489935175,
    489935179,
    489935182,
    489935184,
    469795087,
    574817208,
    1753873240,
    1753873242,
    8491973073,
    489935215,
    1846550070,
    489935223,
    611556346,
    6627048593,
    3883215899,
    6627048586,
    611556342,
    611556341,
    489935128,
    489930643
  ],
  "tags": {
    "highway": "cycleway",
    "maxspeed": "30",
    "oneway": "yes",
    "surface": "paved"
  }
},
{
  "type": "way",
  "id": 41907013,
  "nodes": [
    472879852,
    472879860
  ],
  "tags": {
    "bridge": "yes",
    "highway": "cycleway",
    "layer": "1",
    "maxspeed": "30",
    "oneway": "yes",
    "surface": "paved"
  }
},
{
  "type": "way",
  "id": 44786463,
  "nodes": [
    1038671204,
    567942038,
    1892471129,
    567942047,
    1049217355
  ],
  "tags": {
    "foot": "no",
    "highway": "cycleway",
    "maxspeed": "50",
    "oneway": "yes",
    "surface": "paved"
  }
},
{
  "type": "way",
  "id": 44786464,
  "nodes": [
    567942068,
    567942073
  ],
  "tags": {
    "bridge": "yes",
    "foot": "no",
    "highway": "cycleway",
    "layer": "1",
    "maxspeed": "50",
    "surface": "paved"
  }
},
{
  "type": "way",
  "id": 44786465,
  "nodes": [
    567942073,
    1048561140,
    1038654807,
    1151031475,
    1038664879,
    1151031486,
    1038664934,
    1038664983,
    1048561098,
    3771513775,
    3771513776,
    1048561211,
    1048561158,
    1038654778,
    1038664895,
    1038654797,
    1945202756
  ],
  "tags": {
    "foot": "no",
    "highway": "cycleway",
    "maxspeed": "50",
    "oneway": "yes",
    "surface": "asphalt"
  }
},
{
  "type": "way",
  "id": 44787329,
  "nodes": [
    1112238256,
    1112238188,
    1112238125,
    1608523611,
    2645331812,
    567951922,
    567951923,
    567951924,
    1608523545,
    567951926,
    567951918,
    567951916,
    3995589572,
    567951911,
    1943092638,
    567951906,
    567951902,
    1848409577,
    567951892,
    567951894,
    567951885,
    8101065525,
    3872797193,
    567951876,
    3872797189,
    567951877,
    567951871
  ],
  "tags": {
    "foot": "no",
    "highway": "cycleway",
    "oneway": "yes",
    "surface": "paved"
  }
},
{
  "type": "way",
  "id": 61486808,
  "nodes": [
    2526316535,
    8244654622,
    767376378,
    767376381,
    3412394099,
    2284903511,
    2284903514,
    3412394100,
    2284903570,
    767376382,
    3412394101,
    767376384,
    3412394102,
    2240013299,
    3412394103,
    767376385,
    2240013300,
    3412394104,
    833420344,
    3412394105,
    833420343,
    833420342,
    767376386
  ],
  "tags": {
    "highway": "cycleway",
    "lcn": "yes"
  }
},
{
  "type": "way",
  "id": 85877787,
  "nodes": [
    996803741,
    996803778,
    1140779198,
    996803781,
    6433815771,
    996803815,
    2642008304,
    996803766,
    1147096514,
    996803794,
    996803806,
    996803750
  ],
  "tags": {
    "highway": "cycleway",
    "lit": "yes",
    "oneway": "yes",
    "surface": "asphalt"
  }
},
{
  "type": "way",
  "id": 85877788,
  "nodes": [
    996803773,
    996803802,
    3870724985,
    1140779197,
    1140779208,
    996803798,
    996803809,
    1140779209,
    996803826,
    2642008339,
    996803787,
    3734798139,
    996803817,
    996803823,
    2642008349,
    996803757,
    2642008351,
    996803821,
    3734798262,
    996803752,
    7524073621,
    8585140431,
    1750476862,
    8585140435,
    7524073629,
    8585140436,
    7524073630,
    1750476873,
    996803791,
    1750476886,
    1750476888,
    2719706203,
    3734109235,
    1137607410
  ],
  "tags": {
    "highway": "cycleway",
    "oneway": "yes",
    "surface": "asphalt"
  }
},
{
  "type": "way",
  "id": 89612591,
  "nodes": [
    1038654756,
    1038654827
  ],
  "tags": {
    "bridge": "yes",
    "foot": "no",
    "highway": "cycleway",
    "layer": "1",
    "lit": "yes",
    "oneway": "yes",
    "surface": "asphalt"
  }
},
{
  "type": "way",
  "id": 89612600,
  "nodes": [
    1038654827,
    1038664996,
    7057733567,
    4718115973,
    1049216989,
    3829292267,
    3830330693,
    1049217176
  ],
  "tags": {
    "foot": "no",
    "highway": "cycleway",
    "lit": "yes",
    "oneway": "yes",
    "surface": "asphalt"
  }
},
{
  "type": "way",
  "id": 89614017,
  "nodes": [
    1945202801,
    1038664896
  ],
  "tags": {
    "foot": "yes",
    "highway": "cycleway",
    "lit": "yes",
    "oneway": "yes",
    "surface": "asphalt"
  }
},
{
  "type": "way",
  "id": 89614018,
  "nodes": [
    1038664989,
    1038664906,
    1945202801
  ],
  "tags": {
    "highway": "cycleway",
    "lit": "yes",
    "oneway": "yes",
    "surface": "asphalt"
  }
},
{
  "type": "way",
  "id": 89614020,
  "nodes": [
    1038664989,
    2477298975,
    6631552065,
    1038664914,
    1048561248,
    1048561218,
    1048561099,
    1038654767,
    1038664924,
    1151031455,
    1038654782,
    1048561117,
    1151031485,
    1038664897,
    1151031470,
    1038654799,
    1038654756
  ],
  "tags": {
    "foot": "no",
    "highway": "cycleway",
    "lit": "yes",
    "oneway": "yes",
    "surface": "asphalt"
  }
},
{
  "type": "way",
  "id": 89614021,
  "nodes": [
    5138626838,
    1945168901,
    1038664937,
    7191855633,
    1038670256,
    7097548173,
    1038670240,
    1048561191
  ],
  "tags": {
    "foot": "yes",
    "highway": "cycleway",
    "lit": "yes",
    "oneway": "yes",
    "surface": "paved"
  }
},
{
  "type": "way",
  "id": 90440615,
  "nodes": [
    567942058,
    1049216905,
    1412517646,
    3830330667,
    567942055
  ],
  "tags": {
    "highway": "cycleway",
    "oneway": "yes"
  }
},
{
  "type": "way",
  "id": 90440616,
  "nodes": [
    567942044,
    3830329516,
    1049217180,
    1412517643,
    1049217264,
    3830329507,
    1049217355
  ],
  "tags": {
    "foot": "no",
    "highway": "cycleway",
    "maxspeed": "30",
    "oneway": "yes",
    "surface": "paved"
  }
},
{
  "type": "way",
  "id": 93480598,
  "nodes": [
    472865463,
    3995589580,
    6627314299,
    6627314298,
    6627289880,
    6627303036,
    1189480514,
    6552844455,
    6552844457,
    1083682841,
    1083682870,
    4414543112,
    1940444283,
    6552844452,
    1083686960
  ],
  "tags": {
    "highway": "cycleway",
    "maxspeed": "20",
    "oneway": "yes",
    "surface": "asphalt"
  }
},
{
  "type": "way",
  "id": 93480867,
  "nodes": [
    1083686944,
    1083686939,
    6552844450,
    1889427523,
    1083684551,
    4778638139,
    4778638138,
    1889427522,
    9135266474,
    1083684544,
    6627303038,
    7603794075,
    1889427519,
    6627289879,
    1889427506,
    1083684513,
    6627314300,
    3995589581,
    1083684509,
    472865468
  ],
  "tags": {
    "highway": "cycleway",
    "maxspeed": "20",
    "oneway": "yes",
    "surface": "asphalt"
  }
},
{
  "type": "way",
  "id": 95662310,
  "nodes": [
    1049217176,
    3830330678,
    1945236848,
    1412517647,
    567942055,
    567942056,
    567942052,
    3830330664,
    567942053,
    469755868,
    567942054,
    3830329543,
    567942044,
    567942045,
    1412517644,
    1150958491,
    1412517642,
    567942046
  ],
  "tags": {
    "bicycle": "designated",
    "foot": "designated",
    "highway": "cycleway",
    "lit": "yes",
    "maxspeed": "6",
    "oneway": "yes",
    "segregated": "no",
    "surface": "asphalt"
  }
},
{
  "type": "way",
  "id": 95662312,
  "nodes": [
    567942046,
    3830329506,
    567942037,
    1893855362
  ],
  "tags": {
    "highway": "cycleway",
    "oneway": "yes"
  }
},
{
  "type": "way",
  "id": 95662351,
  "nodes": [
    567942058,
    3830330663,
    1892380583,
    1892380586,
    3830330672,
    567942063,
    3829292265,
    567942067,
    7057733572,
    7057733577,
    469766785,
    567942068
  ],
  "tags": {
    "foot": "no",
    "highway": "cycleway",
    "maxspeed": "50",
    "oneway": "yes",
    "surface": "paved"
  }
},
{
  "type": "way",
  "id": 95999811,
  "nodes": [
    1112238240,
    1608523629,
    1608523639,
    3772836442,
    3772836444,
    1608523656,
    1112238130,
    1112238256
  ],
  "tags": {
    "access": "yes",
    "foot": "no",
    "highway": "cycleway",
    "maxspeed": "50",
    "motor_vehicle": "no",
    "oneway": "yes",
    "surface": "paved"
  }
},
{
  "type": "way",
  "id": 99506075,
  "nodes": [
    1049217355,
    567942048,
    1892471154,
    567942049,
    3830329508,
    567942050,
    469766788,
    567942051,
    567942057,
    1412517645,
    3830329549,
    567942058
  ],
  "tags": {
    "foot": "yes",
    "highway": "cycleway",
    "lit": "yes",
    "maxspeed": "6",
    "oneway": "yes",
    "segregated": "no",
    "surface": "asphalt"
  }
},
{
  "type": "way",
  "id": 109386873,
  "nodes": [
    1940318746,
    4446051973,
    1252385526,
    4530453107,
    1252385525,
    4530453108,
    1252385527,
    1252385532,
    7635671370,
    1252385533,
    1252385529,
    1083684551
  ],
  "tags": {
    "highway": "cycleway",
    "maxspeed": "20",
    "oneway": "yes",
    "surface": "asphalt"
  }
},
{
  "type": "way",
  "id": 109743226,
  "nodes": [
    4446052899,
    1255467543,
    1255467469
  ],
  "tags": {
    "foot": "no",
    "highway": "cycleway",
    "lit": "yes",
    "oneway": "yes",
    "surface": "asphalt"
  }
},
{
  "type": "way",
  "id": 109743228,
  "nodes": [
    1255467527,
    4446052923,
    4446052916,
    7176432684,
    7176454210,
    7176454185,
    7176454186,
    7176454187,
    7176454188,
    7176454189,
    7176454190,
    7176454191,
    7176454192,
    7176454193,
    7176454194,
    7176454195,
    7176454196,
    7176454197,
    609688970
  ],
  "tags": {
    "foot": "no",
    "highway": "cycleway",
    "lit": "yes",
    "oneway": "yes",
    "surface": "asphalt"
  }
},
{
  "type": "way",
  "id": 109743230,
  "nodes": [
    4402982472,
    1255467500,
    1255467474,
    1255467511,
    1255467496,
    1255467534,
    1255467471,
    1255467546,
    1255467491,
    1255467468,
    1255467503,
    1255467488,
    1255467540
  ],
  "tags": {
    "foot": "yes",
    "highway": "cycleway",
    "surface": "asphalt"
  }
},
{
  "type": "way",
  "id": 109743231,
  "nodes": [
    7162509148,
    1255467494,
    1255467519,
    1255467506,
    1255467554
  ],
  "tags": {
    "foot": "no",
    "highway": "cycleway",
    "lit": "yes",
    "oneway": "yes",
    "surface": "asphalt"
  }
},
{
  "type": "way",
  "id": 109743234,
  "nodes": [
    1255467475,
    7162509134,
    7162509176,
    1255467527,
    1989730633,
    7162509126,
    1889427525,
    7162509127,
    1255467469,
    1283257226,
    7162509128,
    7162509129,
    1889427524,
    1255467518,
    7162509130,
    7162509131,
    7162509148,
    7162509147,
    1889427527,
    1255467549,
    7162509132,
    7129368222,
    1255467544,
    7162509133,
    1889427528,
    1255467475
  ],
  "tags": {
    "foot": "no",
    "highway": "cycleway",
    "lit": "yes",
    "oneway": "yes",
    "surface": "asphalt"
  }
},
{
  "type": "way",
  "id": 109743236,
  "nodes": [
    1255467554,
    1255467499,
    7162509150,
    7162509151,
    7162509152,
    8478612255,
    7162509153,
    7162509154,
    8478612258,
    7162509155,
    7162509156,
    7162509157,
    7162509158,
    1255467528
  ],
  "tags": {
    "foot": "no",
    "highway": "cycleway",
    "lit": "yes",
    "oneway": "yes",
    "surface": "asphalt"
  }
},
{
  "type": "way",
  "id": 111395882,
  "nodes": [
    1269163876,
    1269163722,
    1269163767,
    1989730621,
    1269163662,
    1269163862,
    7047307926,
    1269163872,
    1269163720,
    5536222511,
    7047307925,
    7047307924,
    7047307923,
    5547765093
  ],
  "tags": {
    "highway": "cycleway",
    "segregated": "yes",
    "surface": "asphalt"
  }
},
{
  "type": "way",
  "id": 127393675,
  "nodes": [
    1410230270,
    1410230277,
    1410230303,
    4416512614,
    1410230309,
    1410230316,
    1410230322,
    1410230324,
    1410230326,
    1410230348,
    1083673338,
    4762203308,
    4762203309
  ],
  "tags": {
    "foot": "yes",
    "highway": "cycleway",
    "lit": "yes",
    "maxspeed": "30",
    "oneway": "yes",
    "segregated": "yes",
    "surface": "paved"
  }
},
{
  "type": "way",
  "id": 127393676,
  "nodes": [
    4762203309,
    4762203310,
    4762203311,
    1410230350,
    1410230329,
    1410230320,
    1410230312,
    1410230306,
    4416512615,
    3870782361,
    1410230298,
    1410230285,
    1410230281,
    1410230274,
    1410230263,
    1410230260
  ],
  "tags": {
    "foot": "yes",
    "highway": "cycleway",
    "lit": "yes",
    "maxspeed": "30",
    "oneway": "yes",
    "segregated": "yes",
    "surface": "paved"
  }
},
{
  "type": "way",
  "id": 127393677,
  "nodes": [
    472913535,
    4406993103
  ],
  "tags": {
    "highway": "cycleway",
    "lit": "yes",
    "maxspeed": "30",
    "oneway": "yes",
    "surface": "paved"
  }
},
{
  "type": "way",
  "id": 127393678,
  "nodes": [
    1410230260,
    472913546,
    472913544,
    472913540,
    4416512605,
    4406993102,
    4416512604,
    472913537
  ],
  "tags": {
    "highway": "cycleway",
    "lit": "yes",
    "maxspeed": "30",
    "oneway": "yes",
    "surface": "paved"
  }
},
{
  "type": "way",
  "id": 128956860,
  "nodes": [
    1038673553,
    472875024
  ],
  "tags": {
    "highway": "cycleway",
    "maxspeed": "50",
    "oneway": "yes",
    "surface": "paved"
  }
},
{
  "type": "way",
  "id": 128960987,
  "nodes": [
    299854251,
    1255467528,
    1255467470,
    8478612260,
    1255467545,
    1255467490,
    1255467467,
    1255467502,
    1255467486,
    1255467515,
    4402982472,
    1255467550
  ],
  "tags": {
    "foot": "no",
    "highway": "cycleway",
    "lit": "yes",
    "surface": "asphalt"
  }
},
{
  "type": "way",
  "id": 150928459,
  "nodes": [
    1945244033,
    1945236858,
    564743279,
    1049216999,
    4411564355,
    7057733568,
    1049217176
  ],
  "tags": {
    "highway": "cycleway",
    "lit": "yes",
    "maxspeed": "30",
    "surface": "asphalt"
  }
},
{
  "type": "way",
  "id": 156539266,
  "nodes": [
    1309212461,
    3033468264,
    6138206488,
    1687738988,
    1687738993,
    1687738995,
    1687738997,
    3033468273,
    1687739005,
    9418030429,
    1687739021,
    1687739022,
    9418030431
  ],
  "tags": {
    "highway": "cycleway",
    "oneway": "yes",
    "segregated": "no",
    "source": "Bing",
    "surface": "paved"
  }
},
{
  "type": "way",
  "id": 159685110,
  "nodes": [
    1687739219,
    4748067059,
    4748067060,
    1717940279,
    1717940290,
    1717940286,
    4748067058,
    1717940305,
    1717940335,
    1717940412,
    4252203805,
    4252203804,
    4252203803,
    1717940438
  ],
  "tags": {
    "highway": "cycleway"
  }
},
{
  "type": "way",
  "id": 171091819,
  "nodes": [
    1821851926,
    272331071
  ],
  "tags": {
    "bicycle": "designated",
    "bridge": "yes",
    "foot": "yes",
    "highway": "cycleway",
    "layer": "1",
    "lit": "no",
    "surface": "unpaved",
    "width": "2"
  }
},
{
  "type": "way",
  "id": 171091833,
  "nodes": [
    272331071,
    8585140492,
    4459651090,
    272331073
  ],
  "tags": {
    "foot": "yes",
    "highway": "cycleway",
    "lit": "no",
    "surface": "unpaved",
    "width": "2"
  }
},
{
  "type": "way",
  "id": 275801191,
  "nodes": [
    1105146681,
    4778635170,
    4778635173,
    4778635169,
    4778635174,
    4778635175,
    4778635176,
    4778635177,
    472902142
  ],
  "tags": {
    "highway": "cycleway",
    "lit": "yes"
  }
},
{
  "type": "way",
  "id": 297083308,
  "nodes": [
    1717940078,
    3009150905,
    3009150904,
    3009150903,
    3033468327,
    3033468326,
    3033468325,
    3033468324,
    3009150902,
    3009150901,
    3033468323,
    3009150900,
    3009150899,
    3009150898,
    3009150897,
    3009150896,
    3009150895,
    3033468322,
    3033468321,
    3033468320,
    4742362750,
    3033468319,
    3009150909,
    3033468318,
    3009150892,
    1489160313,
    1489160312,
    3033468316,
    3009150891,
    3033468314,
    3009150890,
    3033468313,
    3009150889,
    4742362727,
    3009150888,
    3033468312,
    3009150887,
    3033468311,
    3009150886,
    3009150885,
    3033468307,
    3009150881,
    3033468305,
    3009150910,
    3033468303,
    3009150877,
    3033468301,
    3009150878,
    3033468299,
    3033468298,
    3009150884,
    3033468297,
    3009150880,
    3033468294,
    3033468293,
    3033468292,
    3033468291,
    3033468290,
    3033468289,
    3033468288,
    3033468287,
    3009150915,
    3033468286,
    4757003163,
    3033468285,
    3033468284,
    3033468283,
    3033468282,
    3033468281,
    3033468280,
    3033468279,
    3033468278,
    3033468276,
    3033468274,
    3033468271,
    3033468270,
    3009150916,
    3033468269,
    3033468268,
    3033468267,
    3033468266,
    6396600011
  ],
  "tags": {
    "highway": "cycleway",
    "oneway": "yes",
    "segregated": "no",
    "source": "Bing",
    "surface": "paved"
  }
},
{
  "type": "way",
  "id": 303242361,
  "nodes": [
    3075837251,
    3075837252,
    3075837253,
    3075837254,
    3075837257,
    3075837259,
    3075837263,
    472902157,
    3075837269,
    472902175,
    3075837270,
    6629375651,
    6629375652,
    472902183,
    3075837271,
    472902186
  ],
  "tags": {
    "highway": "cycleway",
    "lit": "yes",
    "maxspeed": "15",
    "oneway": "yes",
    "surface": "paved"
  }
},
{
  "type": "way",
  "id": 443062368,
  "nodes": [
    6583836399,
    8458598584,
    4407019686,
    8458598583,
    6583836400,
    3829135578,
    3829135569,
    8474827122,
    3829135566,
    3829135560,
    3829135558,
    6631282814,
    501937064,
    472913477,
    1912548023,
    472913475,
    2104032617,
    7642996716,
    472913473,
    2804837735,
    472913466,
    472902188
  ],
  "tags": {
    "highway": "cycleway",
    "maxspeed": "30",
    "oneway": "yes",
    "surface": "paved"
  }
},
{
  "type": "way",
  "id": 443062371,
  "nodes": [
    4407044770,
    4407019807,
    3829135594,
    3829135603,
    472905892,
    472905894,
    472905896,
    472905897,
    472905899,
    472905902,
    472905905,
    472913435,
    472913438,
    472913440,
    2937925531,
    472913443,
    6434469749
  ],
  "tags": {
    "highway": "cycleway",
    "maxspeed": "30",
    "oneway": "yes",
    "surface": "paved"
  }
},
{
  "type": "way",
  "id": 444157967,
  "nodes": [
    472913537,
    472913535
  ],
  "tags": {
    "highway": "cycleway",
    "lit": "yes",
    "maxspeed": "30",
    "oneway": "yes",
    "surface": "paved"
  }
},
{
  "type": "way",
  "id": 444157971,
  "nodes": [
    4406993104,
    3711796018,
    9124464868,
    472913533,
    4406993105,
    4416512602,
    4406993106,
    472913531,
    472913523,
    472913520,
    472913519,
    501931523,
    472913514,
    6434469752
  ],
  "tags": {
    "highway": "cycleway",
    "maxspeed": "30",
    "oneway": "yes",
    "surface": "paved"
  }
},
{
  "type": "way",
  "id": 528896349,
  "nodes": [
    5138626837,
    1048561216,
    5138626838
  ],
  "tags": {
    "highway": "cycleway"
  }
},
{
  "type": "way",
  "id": 551144740,
  "nodes": [
    471138679,
    471138680
  ],
  "tags": {
    "bicycle": "designated",
    "bridge": "yes",
    "foot": "designated",
    "highway": "cycleway",
    "layer": "1",
    "maxspeed": "15",
    "maxweight": "1",
    "motor_vehicle": "no",
    "segregated": "no",
    "surface": "asphalt"
  }
},
{
  "type": "way",
  "id": 576368547,
  "nodes": [
    1893855362,
    299853017
  ],
  "tags": {
    "highway": "cycleway",
    "oneway": "yes"
  }
},
{
  "type": "way",
  "id": 576368548,
  "nodes": [
    1038664912,
    5138626838
  ],
  "tags": {
    "foot": "yes",
    "highway": "cycleway",
    "lit": "yes",
    "oneway": "yes",
    "surface": "paved"
  }
},
{
  "type": "way",
  "id": 576613916,
  "nodes": [
    5138626837,
    1038664989
  ],
  "tags": {
    "highway": "cycleway",
    "lit": "yes",
    "oneway": "yes",
    "surface": "paved"
  }
},
{
  "type": "way",
  "id": 585606199,
  "nodes": [
    5595929981,
    504644326,
    504644812,
    612122734,
    352713898,
    5859010641,
    612122666,
    1821851937,
    2274037619
  ],
  "tags": {
    "foot": "yes",
    "highway": "cycleway",
    "lit": "no",
    "surface": "fine_gravel",
    "width": "2"
  }
},
{
  "type": "way",
  "id": 585608470,
  "nodes": [
    2274037619,
    1821851926
  ],
  "tags": {
    "foot": "yes",
    "highway": "cycleway",
    "lit": "no",
    "surface": "unpaved",
    "width": "2"
  }
},
{
  "type": "way",
  "id": 670392859,
  "nodes": [
    7642996716,
    6583836416,
    6583836417,
    6630741405,
    7642996717,
    8553453107,
    6731677248,
    7642996726,
    7642996725,
    6278004700,
    7642996724,
    7642996727,
    7642996731,
    7642996729,
    7642996730,
    6583836418,
    7642996733,
    7642996734,
    7642996738,
    7642996736,
    7642996737,
    6278004704,
    7642996741,
    6278004705,
    6278004706,
    7642996739,
    7642996740,
    6278004707,
    6731677246,
    6731677245,
    6731677247,
    6704011911,
    6583836399,
    6278004708,
    3829135592
  ],
  "tags": {
    "highway": "cycleway"
  }
},
{
  "type": "way",
  "id": 682930585,
  "nodes": [
    6396600011,
    6396600012,
    6396600013,
    6396600014,
    6396600015,
    6396600016,
    6396600017,
    6396600018,
    6396600019,
    6396600020,
    6396600021,
    6396600022,
    469772205
  ],
  "tags": {
    "highway": "cycleway"
  }
},
{
  "type": "way",
  "id": 686482153,
  "nodes": [
    6434469748,
    472913445,
    2719676193,
    2937925533,
    472913446,
    4416512603,
    472913448,
    4416512609,
    4416512608,
    4416512610,
    4416512611,
    4416512612,
    472913450,
    4416512613,
    472913451,
    472913453,
    472913455,
    1410230266,
    1410230270
  ],
  "tags": {
    "highway": "cycleway",
    "maxspeed": "30",
    "oneway": "yes",
    "surface": "paved"
  }
},
{
  "type": "way",
  "id": 686482154,
  "nodes": [
    6434469749,
    6434469748
  ],
  "tags": {
    "bridge": "yes",
    "highway": "cycleway",
    "layer": "1",
    "maxspeed": "30",
    "oneway": "yes",
    "surface": "paved"
  }
},
{
  "type": "way",
  "id": 686482157,
  "nodes": [
    6434469752,
    6434469753
  ],
  "tags": {
    "bridge": "yes",
    "highway": "cycleway",
    "layer": "1",
    "maxspeed": "30",
    "oneway": "yes",
    "surface": "paved"
  }
},
{
  "type": "way",
  "id": 686482158,
  "nodes": [
    6434469753,
    472913512,
    472913509,
    3393731219,
    1889010314,
    472913507,
    1919880200,
    3393731152,
    472913504,
    3393731138,
    472913501,
    3393731122,
    501934535,
    472913500,
    472913496,
    472913494,
    472913489,
    472913487,
    472913484,
    3829135592
  ],
  "tags": {
    "highway": "cycleway",
    "maxspeed": "30",
    "oneway": "yes",
    "surface": "paved"
  }
},
{
  "type": "way",
  "id": 717560706,
  "nodes": [
    6265575094,
    6738750031,
    6738750032,
    6738750033
  ],
  "tags": {
    "highway": "cycleway"
  }
},
{
  "type": "way",
  "id": 762962789,
  "nodes": [
    7176454255,
    7129368219,
    7129368220,
    7129368221,
    7129368222
  ],
  "tags": {
    "highway": "cycleway",
    "oneway": "yes",
    "surface": "asphalt"
  }
},
{
  "type": "way",
  "id": 766909176,
  "nodes": [
    7129368222,
    7162509135,
    7162509136,
    7162509137,
    7162509138,
    8463148793,
    7162509140,
    7162509141,
    7162509142,
    7162509143,
    7162509144,
    7162509145,
    7162509146,
    3075837251
  ],
  "tags": {
    "highway": "cycleway",
    "oneway": "yes",
    "surface": "asphalt"
  }
},
{
  "type": "way",
  "id": 766909177,
  "nodes": [
    472902149,
    7162509159,
    7419540645,
    7162509177,
    7162509160,
    7162509161,
    7162509162,
    7162509178,
    7162509163,
    7162509164,
    7162509165,
    7162509166,
    7162509167,
    7162509168,
    7162509169,
    7162509170,
    7162509171,
    7162509172,
    7162509173,
    7162509174,
    7162509175,
    7162509176
  ],
  "tags": {
    "highway": "cycleway",
    "oneway": "yes",
    "surface": "asphalt"
  }
},
{
  "type": "way",
  "id": 768685737,
  "nodes": [
    440148710,
    7176454198,
    7176454199,
    7176454200,
    7176454201,
    7176454202,
    7176454203,
    7176454204,
    7176454205,
    4446052899
  ],
  "tags": {
    "highway": "cycleway",
    "oneway": "yes",
    "surface": "asphalt"
  }
},
{
  "type": "way",
  "id": 768685738,
  "nodes": [
    7176454203,
    7176454206,
    7176454207,
    7176454208,
    7176454209,
    7176454210
  ],
  "tags": {
    "highway": "cycleway",
    "oneway": "yes",
    "surface": "asphalt"
  }
},
{
  "type": "way",
  "id": 768685739,
  "nodes": [
    1033940034,
    7176454254,
    7176454253,
    7176454252,
    7176454251,
    7176454250,
    7176454249,
    7176454248,
    7176454247,
    7176454246,
    7176454245,
    7176454244,
    7176454243,
    7176454242,
    7176454241,
    7176454240,
    7176454239,
    7176454238,
    7176454237,
    7176454236,
    7176454235,
    7176454234,
    7176454233,
    7176454232,
    7176454231,
    7176454230,
    7176454229,
    7176454228,
    7176454227,
    7176454226,
    7176454225,
    7176454224,
    7176454223,
    7176454222,
    7176454221,
    7176454220,
    7176454219,
    7176454218,
    7176454217,
    7176454216,
    7176454215,
    7176454214,
    7176454213,
    7176454212,
    7176454211,
    1940318746
  ],
  "tags": {
    "highway": "cycleway",
    "oneway": "yes",
    "surface": "asphalt"
  }
},
{
  "type": "way",
  "id": 768685740,
  "nodes": [
    1105146678,
    7176454256,
    7176454257,
    7176454258,
    7176454259,
    7176454260,
    7176454261,
    7635708458,
    7176454262,
    7176454263,
    7176454264
  ],
  "tags": {
    "highway": "cycleway",
    "surface": "asphalt"
  }
},
{
  "type": "way",
  "id": 769874916,
  "nodes": [
    7187147143,
    7187147144,
    7187147145,
    7187147146,
    7187147147,
    7187147148,
    7187147149
  ],
  "tags": {
    "highway": "cycleway",
    "oneway": "yes",
    "surface": "asphalt"
  }
},
{
  "type": "way",
  "id": 769874917,
  "nodes": [
    6339226304,
    7187147150,
    7187147159,
    7187147151,
    7187147152,
    7187147153,
    7187147154,
    7187147155,
    7187147156,
    7187147157,
    7187147158
  ],
  "tags": {
    "highway": "cycleway",
    "oneway": "yes"
  }
},
{
  "type": "way",
  "id": 769874918,
  "nodes": [
    7187147160,
    7187147161,
    7187147162,
    7187147163,
    7187147164,
    7187147165,
    7187148185
  ],
  "tags": {
    "highway": "cycleway",
    "oneway": "yes",
    "surface": "asphalt"
  }
},
{
  "type": "way",
  "id": 769874919,
  "nodes": [
    7187147166,
    7187147167,
    7187147168,
    7187147169,
    7187147170,
    7187147171,
    7187147172,
    7187147173,
    7187147174
  ],
  "tags": {
    "highway": "cycleway",
    "oneway": "yes",
    "surface": "asphalt"
  }
},
{
  "type": "way",
  "id": 769874920,
  "nodes": [
    7187147174,
    7187147175,
    1038670222
  ],
  "tags": {
    "highway": "cycleway",
    "oneway": "yes",
    "surface": "asphalt"
  }
},
{
  "type": "way",
  "id": 769874921,
  "nodes": [
    1038670222,
    1038670259,
    309169952,
    1945168903,
    1038670246,
    1945202814,
    1038670263,
    5138626837
  ],
  "tags": {
    "highway": "cycleway",
    "lit": "yes",
    "oneway": "yes",
    "surface": "paved"
  }
},
{
  "type": "way",
  "id": 769874924,
  "nodes": [
    1048561191,
    7187147177,
    7187147178,
    7187147179,
    7187147180,
    7187147181,
    7187147182,
    7187147183
  ],
  "tags": {
    "highway": "cycleway",
    "oneway": "yes"
  }
},
{
  "type": "way",
  "id": 769874925,
  "nodes": [
    7187147183,
    7187147166
  ],
  "tags": {
    "highway": "cycleway",
    "oneway": "yes",
    "surface": "asphalt"
  }
},
{
  "type": "way",
  "id": 769874926,
  "nodes": [
    7187148185,
    7187148186,
    7187148187,
    7187148188,
    7187148189,
    7187148190,
    7187148191,
    7187148192,
    7187148193,
    7187148194,
    7187148195,
    7187148196
  ],
  "tags": {
    "highway": "cycleway",
    "oneway": "yes",
    "surface": "asphalt"
  }
},
{
  "type": "way",
  "id": 769874927,
  "nodes": [
    1083686960,
    7465834359,
    3870896069,
    7187148199,
    7187148197,
    357562045
  ],
  "tags": {
    "highway": "cycleway",
    "oneway": "yes",
    "surface": "asphalt"
  }
},
{
  "type": "way",
  "id": 790827884,
  "nodes": [
    1940908801,
    3995589566,
    567951909,
    3995589570,
    1608523541,
    3995589573,
    567951915,
    9008190807,
    567951917,
    567951919,
    567951920,
    567951921,
    1608523572,
    1608523594,
    1112238240
  ],
  "tags": {
    "foot": "no",
    "highway": "cycleway",
    "maxspeed": "50",
    "oneway": "yes",
    "surface": "paved"
  }
},
{
  "type": "way",
  "id": 793499336,
  "nodes": [
    7419540634,
    7419540635,
    7419540636,
    7419540637,
    7419540638,
    7419540639,
    7419540640,
    7419540641,
    7419540642,
    7419540643,
    7419540644,
    7419540645
  ],
  "tags": {
    "foot": "yes",
    "highway": "cycleway",
    "surface": "asphalt"
  }
},
{
  "type": "way",
  "id": 793499337,
  "nodes": [
    7419540634,
    7419540646
  ],
  "tags": {
    "foot": "yes",
    "highway": "cycleway"
  }
},
{
  "type": "way",
  "id": 879580397,
  "nodes": [
    8182477955,
    8182477956
  ],
  "tags": {
    "highway": "cycleway",
    "oneway": "yes"
  }
},
{
  "type": "way",
  "id": 1021124924,
  "nodes": [
    9418030427,
    3033468302,
    1687739088,
    1687739091,
    3033468306,
    1687739093,
    3033468308,
    1687739095,
    3033468310,
    1687739099,
    1687739102,
    1687739104,
    1687739125,
    1687739127,
    1687739129,
    1687739131,
    1687739134,
    1687739137,
    1687739140,
    1687739142,
    7281053764,
    7281053765,
    1687739165,
    9418030426,
    7281053767,
    7281053766,
    1687739169,
    1687739175,
    1687739180,
    1687739181,
    1687739198,
    1687739203,
    1687739208,
    1687739211,
    3033468328,
    1717940184,
    1687739215,
    1717940241,
    1687739219
  ],
  "tags": {
    "highway": "cycleway",
    "oneway": "yes",
    "segregated": "no",
    "source": "Bing",
    "surface": "paved"
  }
},
{
  "type": "way",
  "id": 1021124926,
  "nodes": [
    9418030430,
    1687739025,
    1687739027,
    1687739030,
    1687739036,
    1687739038,
    1687739050,
    1687739051,
    1687739053,
    3033468295,
    1687739057,
    1687739059,
    1687739067,
    3033468300,
    1687739070,
    1687739086,
    9418030428
  ],
  "tags": {
    "highway": "cycleway",
    "oneway": "yes",
    "segregated": "no",
    "source": "Bing",
    "surface": "paved"
  }
},
{
  "type": "way",
  "id": 1021124927,
  "nodes": [
    9418030431,
    9418030430
  ],
  "tags": {
    "highway": "cycleway",
    "layer": "-1",
    "oneway": "yes",
    "segregated": "no",
    "source": "Bing",
    "surface": "paved",
    "tunnel": "yes"
  }
},
{
  "type": "area",
  "id": 3600085276,
  "tags": {
    "admin_level": "8",
    "boundary": "administrative",
    "name": "Saint-Louis",
    "name:de": "Sankt Ludwig",
    "population": "22413",
    "population:date": "2019",
    "postal_code": "68300",
    "ref:FR:SIREN": "216802975",
    "ref:INSEE": "68297",
    "source:population": "INSEE 2022",
    "source:postal_code": "source of postcode is from osm nodes",
    "type": "boundary",
    "website": "https://www.saint-louis.fr/",
    "wikidata": "Q384516",
    "wikipedia": "fr:Saint-Louis (Haut-Rhin)"
  }
},
{
  "type": "area",
  "id": 3600280626,
  "tags": {
    "admin_level": "8",
    "alt_name": "Saint-Louis-en-Guadeloupe",
    "alt_name:fr": "Saint-Louis-en-Guadeloupe",
    "alt_name:gcf": "Sen-Lwi-Gwadloup",
    "boundary": "administrative",
    "name": "Saint-Louis",
    "name:fr": "Saint-Louis",
    "name:gcf": "Sen-Lwi",
    "population": "2397",
    "population:date": "2019",
    "postal_code": "97134",
    "ref:FR:SIREN": "219711264",
    "ref:INSEE": "97126",
    "source": "cadastre-dgi-fr source : Direction Générale des Impôts - Cadastre. Mise à jour : 2008",
    "source:population": "INSEE 2022",
    "source:postal_code": "La Poste - 12/2014",
    "type": "boundary",
    "wikidata": "Q996414",
    "wikipedia": "fr:Saint-Louis (Guadeloupe)"
  }
},
{
  "type": "area",
  "id": 3601282229,
  "tags": {
    "admin_level": "8",
    "boundary": "administrative",
    "name": "Saint-Louis",
    "name:ja": "サン＝ルイ",
    "population": "53120",
    "population:date": "2019",
    "postal_code": "97421;97450",
    "ref:INSEE": "97414",
    "source:population": "INSEE 2022",
    "source:postal_code": "La Poste - 12/2014",
    "type": "boundary",
    "website": "http://www.saintlouis.re",
    "wikidata": "Q1617681",
    "wikipedia": "fr:Saint-Louis (La Réunion)"
  }
},
{
  "type": "area",
  "id": 3601392617,
  "tags": {
    "admin_level": "8",
    "boundary": "administrative",
    "name": "Saint-Louis",
    "name:de": "Sankt Ludwig bei Pfalzburg",
    "population": "653",
    "population:date": "2019",
    "postal_code": "57820",
    "ref:FR:SIREN": "215706185",
    "ref:INSEE": "57618",
    "source:population": "INSEE 2022",
    "source:postal_code": "La Poste - 12/2014",
    "type": "boundary",
    "wikidata": "Q21943",
    "wikipedia": "fr:Saint-Louis (Moselle)"
  }
},
{
  "type": "node",
  "id": 567951871,
  "lat": 47.5662220,
  "lon": 7.5324781
},
{
  "type": "node",
  "id": 567951876,
  "lat": 47.5664548,
  "lon": 7.5334109
},
{
  "type": "node",
  "id": 567951877,
  "lat": 47.5662671,
  "lon": 7.5325457
},
{
  "type": "node",
  "id": 567951885,
  "lat": 47.5671753,
  "lon": 7.5366137
},
{
  "type": "node",
  "id": 3872797189,
  "lat": 47.5664441,
  "lon": 7.5333614
},
{
  "type": "node",
  "id": 3872797193,
  "lat": 47.5664923,
  "lon": 7.5335776
},
{
  "type": "node",
  "id": 8101065525,
  "lat": 47.5670312,
  "lon": 7.5359731
},
{
  "type": "node",
  "id": 567951892,
  "lat": 47.5677456,
  "lon": 7.5377905
},
{
  "type": "node",
  "id": 567951894,
  "lat": 47.5672974,
  "lon": 7.5369439
},
{
  "type": "node",
  "id": 567951902,
  "lat": 47.5690859,
  "lon": 7.5402680
},
{
  "type": "node",
  "id": 1848409577,
  "lat": 47.5687029,
  "lon": 7.5395600
},
{
  "type": "node",
  "id": 489930643,
  "lat": 47.5780924,
  "lon": 7.5311520
},
{
  "type": "node",
  "id": 489935128,
  "lat": 47.5781227,
  "lon": 7.5314162
},
{
  "type": "node",
  "id": 489935223,
  "lat": 47.5780908,
  "lon": 7.5356484
},
{
  "type": "node",
  "id": 489944013,
  "lat": 47.5779868,
  "lon": 7.5311136
},
{
  "type": "node",
  "id": 489944015,
  "lat": 47.5780275,
  "lon": 7.5313184
},
{
  "type": "node",
  "id": 489944027,
  "lat": 47.5780124,
  "lon": 7.5357501
},
{
  "type": "node",
  "id": 611556341,
  "lat": 47.5781124,
  "lon": 7.5320828
},
{
  "type": "node",
  "id": 611556342,
  "lat": 47.5781125,
  "lon": 7.5322911
},
{
  "type": "node",
  "id": 611556346,
  "lat": 47.5780932,
  "lon": 7.5343671
},
{
  "type": "node",
  "id": 611556347,
  "lat": 47.5780109,
  "lon": 7.5340380
},
{
  "type": "node",
  "id": 611556348,
  "lat": 47.5780110,
  "lon": 7.5342014
},
{
  "type": "node",
  "id": 1846550070,
  "lat": 47.5781236,
  "lon": 7.5360540
},
{
  "type": "node",
  "id": 3883215897,
  "lat": 47.5780166,
  "lon": 7.5336527
},
{
  "type": "node",
  "id": 3883215899,
  "lat": 47.5780998,
  "lon": 7.5336546
},
{
  "type": "node",
  "id": 6627047873,
  "lat": 47.5780306,
  "lon": 7.5359784
},
{
  "type": "node",
  "id": 6627048586,
  "lat": 47.5780990,
  "lon": 7.5331086
},
{
  "type": "node",
  "id": 6627048593,
  "lat": 47.5780979,
  "lon": 7.5338571
},
{
  "type": "node",
  "id": 567951906,
  "lat": 47.5697336,
  "lon": 7.5414301
},
{
  "type": "node",
  "id": 567951909,
  "lat": 47.5704803,
  "lon": 7.5429220
},
{
  "type": "node",
  "id": 567951911,
  "lat": 47.5702163,
  "lon": 7.5422945
},
{
  "type": "node",
  "id": 1940908801,
  "lat": 47.5702631,
  "lon": 7.5425661
},
{
  "type": "node",
  "id": 1943092638,
  "lat": 47.5701568,
  "lon": 7.5421879
},
{
  "type": "node",
  "id": 3995589566,
  "lat": 47.5703835,
  "lon": 7.5427664
},
{
  "type": "node",
  "id": 567951915,
  "lat": 47.5713981,
  "lon": 7.5445822
},
{
  "type": "node",
  "id": 567951916,
  "lat": 47.5712473,
  "lon": 7.5441671
},
{
  "type": "node",
  "id": 567951917,
  "lat": 47.5720328,
  "lon": 7.5457413
},
{
  "type": "node",
  "id": 567951918,
  "lat": 47.5717139,
  "lon": 7.5450386
},
{
  "type": "node",
  "id": 567951919,
  "lat": 47.5723713,
  "lon": 7.5463500
},
{
  "type": "node",
  "id": 567951920,
  "lat": 47.5726906,
  "lon": 7.5469620
},
{
  "type": "node",
  "id": 567951921,
  "lat": 47.5730498,
  "lon": 7.5475946
},
{
  "type": "node",
  "id": 567951922,
  "lat": 47.5731204,
  "lon": 7.5475748
},
{
  "type": "node",
  "id": 567951923,
  "lat": 47.5728443,
  "lon": 7.5470673
},
{
  "type": "node",
  "id": 567951924,
  "lat": 47.5726254,
  "lon": 7.5466851
},
{
  "type": "node",
  "id": 567951926,
  "lat": 47.5723181,
  "lon": 7.5461096
},
{
  "type": "node",
  "id": 1112238240,
  "lat": 47.5734371,
  "lon": 7.5482966
},
{
  "type": "node",
  "id": 1608523541,
  "lat": 47.5711918,
  "lon": 7.5442251
},
{
  "type": "node",
  "id": 1608523545,
  "lat": 47.5725855,
  "lon": 7.5466104
},
{
  "type": "node",
  "id": 1608523572,
  "lat": 47.5732839,
  "lon": 7.5480132
},
{
  "type": "node",
  "id": 1608523594,
  "lat": 47.5733622,
  "lon": 7.5481532
},
{
  "type": "node",
  "id": 1608523611,
  "lat": 47.5736239,
  "lon": 7.5484832
},
{
  "type": "node",
  "id": 1608523629,
  "lat": 47.5740289,
  "lon": 7.5493945
},
{
  "type": "node",
  "id": 2645331812,
  "lat": 47.5734220,
  "lon": 7.5481143
},
{
  "type": "node",
  "id": 3995589570,
  "lat": 47.5711116,
  "lon": 7.5440760
},
{
  "type": "node",
  "id": 3995589572,
  "lat": 47.5711607,
  "lon": 7.5440141
},
{
  "type": "node",
  "id": 3995589573,
  "lat": 47.5712901,
  "lon": 7.5443955
},
{
  "type": "node",
  "id": 9008190807,
  "lat": 47.5715098,
  "lon": 7.5447862
},
{
  "type": "node",
  "id": 469794444,
  "lat": 47.5766558,
  "lon": 7.5426194
},
{
  "type": "node",
  "id": 469794457,
  "lat": 47.5765902,
  "lon": 7.5425786
},
{
  "type": "node",
  "id": 469795087,
  "lat": 47.5780339,
  "lon": 7.5386239
},
{
  "type": "node",
  "id": 489935167,
  "lat": 47.5777520,
  "lon": 7.5411849
},
{
  "type": "node",
  "id": 489935169,
  "lat": 47.5777383,
  "lon": 7.5409983
},
{
  "type": "node",
  "id": 489935173,
  "lat": 47.5777445,
  "lon": 7.5407489
},
{
  "type": "node",
  "id": 489935175,
  "lat": 47.5777694,
  "lon": 7.5404608
},
{
  "type": "node",
  "id": 489935179,
  "lat": 47.5778429,
  "lon": 7.5399805
},
{
  "type": "node",
  "id": 489935182,
  "lat": 47.5779189,
  "lon": 7.5394596
},
{
  "type": "node",
  "id": 489935184,
  "lat": 47.5779937,
  "lon": 7.5389313
},
{
  "type": "node",
  "id": 489935215,
  "lat": 47.5781981,
  "lon": 7.5367638
},
{
  "type": "node",
  "id": 489944033,
  "lat": 47.5780986,
  "lon": 7.5368315
},
{
  "type": "node",
  "id": 489944038,
  "lat": 47.5779557,
  "lon": 7.5384723
},
{
  "type": "node",
  "id": 489944046,
  "lat": 47.5776566,
  "lon": 7.5407189
},
{
  "type": "node",
  "id": 489944049,
  "lat": 47.5776535,
  "lon": 7.5412015
},
{
  "type": "node",
  "id": 574813148,
  "lat": 47.5778228,
  "lon": 7.5394475
},
{
  "type": "node",
  "id": 574817208,
  "lat": 47.5780607,
  "lon": 7.5384214
},
{
  "type": "node",
  "id": 642426708,
  "lat": 47.5778243,
  "lon": 7.5423469
},
{
  "type": "node",
  "id": 1753873235,
  "lat": 47.5777907,
  "lon": 7.5397040
},
{
  "type": "node",
  "id": 1753873237,
  "lat": 47.5780673,
  "lon": 7.5375082
},
{
  "type": "node",
  "id": 1753873240,
  "lat": 47.5780880,
  "lon": 7.5382169
},
{
  "type": "node",
  "id": 1753873242,
  "lat": 47.5781250,
  "lon": 7.5379373
},
{
  "type": "node",
  "id": 1911306777,
  "lat": 47.5779848,
  "lon": 7.5426907
},
{
  "type": "node",
  "id": 2645324671,
  "lat": 47.5776558,
  "lon": 7.5410501
},
{
  "type": "node",
  "id": 8464150063,
  "lat": 47.5776562,
  "lon": 7.5409006
},
{
  "type": "node",
  "id": 8491973073,
  "lat": 47.5781813,
  "lon": 7.5373493
},
{
  "type": "node",
  "id": 8491973074,
  "lat": 47.5780954,
  "lon": 7.5371857
},
{
  "type": "node",
  "id": 472875024,
  "lat": 47.5785852,
  "lon": 7.5478123
},
{
  "type": "node",
  "id": 472879884,
  "lat": 47.5794206,
  "lon": 7.5494706
},
{
  "type": "node",
  "id": 472879898,
  "lat": 47.5786534,
  "lon": 7.5476543
},
{
  "type": "node",
  "id": 489935133,
  "lat": 47.5785843,
  "lon": 7.5473269
},
{
  "type": "node",
  "id": 489935140,
  "lat": 47.5785670,
  "lon": 7.5463706
},
{
  "type": "node",
  "id": 489935149,
  "lat": 47.5783115,
  "lon": 7.5446853
},
{
  "type": "node",
  "id": 489944061,
  "lat": 47.5782174,
  "lon": 7.5446326
},
{
  "type": "node",
  "id": 489944065,
  "lat": 47.5784357,
  "lon": 7.5461199
},
{
  "type": "node",
  "id": 489944068,
  "lat": 47.5784774,
  "lon": 7.5466528
},
{
  "type": "node",
  "id": 489944073,
  "lat": 47.5784706,
  "lon": 7.5469625
},
{
  "type": "node",
  "id": 642426900,
  "lat": 47.5784208,
  "lon": 7.5452946
},
{
  "type": "node",
  "id": 1038673553,
  "lat": 47.5785335,
  "lon": 7.5476713
},
{
  "type": "node",
  "id": 1423753963,
  "lat": 47.5785142,
  "lon": 7.5475482
},
{
  "type": "node",
  "id": 1608852478,
  "lat": 47.5787134,
  "lon": 7.5480953
},
{
  "type": "node",
  "id": 1608852505,
  "lat": 47.5789057,
  "lon": 7.5485387
},
{
  "type": "node",
  "id": 1608856405,
  "lat": 47.5792010,
  "lon": 7.5492052
},
{
  "type": "node",
  "id": 1911291689,
  "lat": 47.5790455,
  "lon": 7.5485963
},
{
  "type": "node",
  "id": 2645324681,
  "lat": 47.5784795,
  "lon": 7.5473234
},
{
  "type": "node",
  "id": 3771909090,
  "lat": 47.5785773,
  "lon": 7.5471707
},
{
  "type": "node",
  "id": 3771909091,
  "lat": 47.5785812,
  "lon": 7.5469242
},
{
  "type": "node",
  "id": 3771909092,
  "lat": 47.5785987,
  "lon": 7.5474337
},
{
  "type": "node",
  "id": 3771909093,
  "lat": 47.5786139,
  "lon": 7.5475198
},
{
  "type": "node",
  "id": 3777765003,
  "lat": 47.5784616,
  "lon": 7.5463725
},
{
  "type": "node",
  "id": 3777765006,
  "lat": 47.5785457,
  "lon": 7.5460346
},
{
  "type": "node",
  "id": 3777765007,
  "lat": 47.5785592,
  "lon": 7.5461761
},
{
  "type": "node",
  "id": 4723125815,
  "lat": 47.5783471,
  "lon": 7.5454732
},
{
  "type": "node",
  "id": 7042340123,
  "lat": 47.5784833,
  "lon": 7.5456773
},
{
  "type": "node",
  "id": 7321123264,
  "lat": 47.5782992,
  "lon": 7.5451965
},
{
  "type": "node",
  "id": 7603794076,
  "lat": 47.5791926,
  "lon": 7.5489274
},
{
  "type": "node",
  "id": 7603794083,
  "lat": 47.5786965,
  "lon": 7.5477737
},
{
  "type": "node",
  "id": 7603794084,
  "lat": 47.5787496,
  "lon": 7.5479026
},
{
  "type": "node",
  "id": 7603819085,
  "lat": 47.5785844,
  "lon": 7.5464789
},
{
  "type": "node",
  "id": 7603819087,
  "lat": 47.5785830,
  "lon": 7.5466359
},
{
  "type": "node",
  "id": 1687739027,
  "lat": 47.5852995,
  "lon": 7.5494259
},
{
  "type": "node",
  "id": 1687739030,
  "lat": 47.5858018,
  "lon": 7.5488532
},
{
  "type": "node",
  "id": 1687739036,
  "lat": 47.5861850,
  "lon": 7.5483616
},
{
  "type": "node",
  "id": 1687739038,
  "lat": 47.5864124,
  "lon": 7.5480156
},
{
  "type": "node",
  "id": 1687739050,
  "lat": 47.5866539,
  "lon": 7.5475507
},
{
  "type": "node",
  "id": 1687739051,
  "lat": 47.5868673,
  "lon": 7.5470331
},
{
  "type": "node",
  "id": 1687739053,
  "lat": 47.5871477,
  "lon": 7.5463300
},
{
  "type": "node",
  "id": 1687739057,
  "lat": 47.5873881,
  "lon": 7.5457993
},
{
  "type": "node",
  "id": 1687739059,
  "lat": 47.5875718,
  "lon": 7.5454803
},
{
  "type": "node",
  "id": 1687739067,
  "lat": 47.5877566,
  "lon": 7.5451886
},
{
  "type": "node",
  "id": 1687739070,
  "lat": 47.5881154,
  "lon": 7.5447985
},
{
  "type": "node",
  "id": 1687739086,
  "lat": 47.5883573,
  "lon": 7.5445936
},
{
  "type": "node",
  "id": 1687739088,
  "lat": 47.5886971,
  "lon": 7.5443766
},
{
  "type": "node",
  "id": 1687739091,
  "lat": 47.5889089,
  "lon": 7.5442824
},
{
  "type": "node",
  "id": 3009150877,
  "lat": 47.5884707,
  "lon": 7.5443448
},
{
  "type": "node",
  "id": 3009150878,
  "lat": 47.5880701,
  "lon": 7.5446637
},
{
  "type": "node",
  "id": 3009150880,
  "lat": 47.5873000,
  "lon": 7.5457309
},
{
  "type": "node",
  "id": 3009150884,
  "lat": 47.5875361,
  "lon": 7.5453237
},
{
  "type": "node",
  "id": 3009150910,
  "lat": 47.5888658,
  "lon": 7.5441444
},
{
  "type": "node",
  "id": 3009150915,
  "lat": 47.5850870,
  "lon": 7.5494482
},
{
  "type": "node",
  "id": 3033468287,
  "lat": 47.5857348,
  "lon": 7.5487178
},
{
  "type": "node",
  "id": 3033468288,
  "lat": 47.5860302,
  "lon": 7.5483645
},
{
  "type": "node",
  "id": 3033468289,
  "lat": 47.5862135,
  "lon": 7.5480960
},
{
  "type": "node",
  "id": 3033468290,
  "lat": 47.5863695,
  "lon": 7.5478415
},
{
  "type": "node",
  "id": 3033468291,
  "lat": 47.5865647,
  "lon": 7.5474708
},
{
  "type": "node",
  "id": 3033468292,
  "lat": 47.5866980,
  "lon": 7.5471415
},
{
  "type": "node",
  "id": 3033468293,
  "lat": 47.5868466,
  "lon": 7.5467730
},
{
  "type": "node",
  "id": 3033468294,
  "lat": 47.5870630,
  "lon": 7.5462399
},
{
  "type": "node",
  "id": 3033468295,
  "lat": 47.5872768,
  "lon": 7.5460309
},
{
  "type": "node",
  "id": 3033468297,
  "lat": 47.5874133,
  "lon": 7.5455172
},
{
  "type": "node",
  "id": 3033468298,
  "lat": 47.5877266,
  "lon": 7.5450379
},
{
  "type": "node",
  "id": 3033468299,
  "lat": 47.5879015,
  "lon": 7.5448346
},
{
  "type": "node",
  "id": 3033468300,
  "lat": 47.5879507,
  "lon": 7.5449607
},
{
  "type": "node",
  "id": 3033468301,
  "lat": 47.5882641,
  "lon": 7.5444943
},
{
  "type": "node",
  "id": 3033468302,
  "lat": 47.5885240,
  "lon": 7.5444849
},
{
  "type": "node",
  "id": 3033468303,
  "lat": 47.5886706,
  "lon": 7.5442340
},
{
  "type": "node",
  "id": 9418030427,
  "lat": 47.5884193,
  "lon": 7.5445532
},
{
  "type": "node",
  "id": 9418030428,
  "lat": 47.5883658,
  "lon": 7.5445881
},
{
  "type": "node",
  "id": 1687739134,
  "lat": 47.5938992,
  "lon": 7.5429995
},
{
  "type": "node",
  "id": 1687739137,
  "lat": 47.5942312,
  "lon": 7.5427390
},
{
  "type": "node",
  "id": 1687739140,
  "lat": 47.5945032,
  "lon": 7.5424708
},
{
  "type": "node",
  "id": 1687739142,
  "lat": 47.5947139,
  "lon": 7.5422413
},
{
  "type": "node",
  "id": 1687739165,
  "lat": 47.5951937,
  "lon": 7.5417918
},
{
  "type": "node",
  "id": 1687739169,
  "lat": 47.5953458,
  "lon": 7.5411585
},
{
  "type": "node",
  "id": 1687739175,
  "lat": 47.5954716,
  "lon": 7.5408421
},
{
  "type": "node",
  "id": 3009150896,
  "lat": 47.5941010,
  "lon": 7.5426464
},
{
  "type": "node",
  "id": 3009150897,
  "lat": 47.5944579,
  "lon": 7.5423204
},
{
  "type": "node",
  "id": 3009150898,
  "lat": 47.5947474,
  "lon": 7.5419547
},
{
  "type": "node",
  "id": 3009150899,
  "lat": 47.5949490,
  "lon": 7.5415851
},
{
  "type": "node",
  "id": 3009150900,
  "lat": 47.5951614,
  "lon": 7.5412426
},
{
  "type": "node",
  "id": 3009150901,
  "lat": 47.5953362,
  "lon": 7.5408491
},
{
  "type": "node",
  "id": 3009150902,
  "lat": 47.5954809,
  "lon": 7.5404235
},
{
  "type": "node",
  "id": 3033468323,
  "lat": 47.5952504,
  "lon": 7.5410679
},
{
  "type": "node",
  "id": 7281053764,
  "lat": 47.5949030,
  "lon": 7.5419308
},
{
  "type": "node",
  "id": 7281053765,
  "lat": 47.5950199,
  "lon": 7.5418926
},
{
  "type": "node",
  "id": 7281053766,
  "lat": 47.5952360,
  "lon": 7.5414127
},
{
  "type": "node",
  "id": 7281053767,
  "lat": 47.5952225,
  "lon": 7.5416521
},
{
  "type": "node",
  "id": 9418030426,
  "lat": 47.5952017,
  "lon": 7.5417530
},
{
  "type": "node",
  "id": 1489160312,
  "lat": 47.5917059,
  "lon": 7.5435639
},
{
  "type": "node",
  "id": 1489160313,
  "lat": 47.5917967,
  "lon": 7.5434868
},
{
  "type": "node",
  "id": 1687739093,
  "lat": 47.5892280,
  "lon": 7.5441780
},
{
  "type": "node",
  "id": 1687739095,
  "lat": 47.5895449,
  "lon": 7.5441442
},
{
  "type": "node",
  "id": 1687739099,
  "lat": 47.5898792,
  "lon": 7.5441468
},
{
  "type": "node",
  "id": 1687739102,
  "lat": 47.5902332,
  "lon": 7.5442265
},
{
  "type": "node",
  "id": 1687739104,
  "lat": 47.5908902,
  "lon": 7.5443816
},
{
  "type": "node",
  "id": 1687739125,
  "lat": 47.5912206,
  "lon": 7.5443881
},
{
  "type": "node",
  "id": 1687739127,
  "lat": 47.5916269,
  "lon": 7.5443397
},
{
  "type": "node",
  "id": 1687739129,
  "lat": 47.5920206,
  "lon": 7.5442288
},
{
  "type": "node",
  "id": 1687739131,
  "lat": 47.5926066,
  "lon": 7.5438917
},
{
  "type": "node",
  "id": 3009150881,
  "lat": 47.5891781,
  "lon": 7.5440430
},
{
  "type": "node",
  "id": 3009150885,
  "lat": 47.5895893,
  "lon": 7.5439795
},
{
  "type": "node",
  "id": 3009150886,
  "lat": 47.5898760,
  "lon": 7.5439915
},
{
  "type": "node",
  "id": 3009150887,
  "lat": 47.5905552,
  "lon": 7.5441210
},
{
  "type": "node",
  "id": 3009150888,
  "lat": 47.5910333,
  "lon": 7.5440931
},
{
  "type": "node",
  "id": 3009150889,
  "lat": 47.5913497,
  "lon": 7.5440005
},
{
  "type": "node",
  "id": 3009150890,
  "lat": 47.5915378,
  "lon": 7.5439051
},
{
  "type": "node",
  "id": 3009150891,
  "lat": 47.5916219,
  "lon": 7.5438031
},
{
  "type": "node",
  "id": 3009150892,
  "lat": 47.5918390,
  "lon": 7.5434602
},
{
  "type": "node",
  "id": 3009150895,
  "lat": 47.5928736,
  "lon": 7.5435030
},
{
  "type": "node",
  "id": 3009150909,
  "lat": 47.5919413,
  "lon": 7.5434316
},
{
  "type": "node",
  "id": 3033468305,
  "lat": 47.5890221,
  "lon": 7.5440868
},
{
  "type": "node",
  "id": 3033468306,
  "lat": 47.5890458,
  "lon": 7.5442286
},
{
  "type": "node",
  "id": 3033468307,
  "lat": 47.5893855,
  "lon": 7.5440023
},
{
  "type": "node",
  "id": 3033468308,
  "lat": 47.5893978,
  "lon": 7.5441563
},
{
  "type": "node",
  "id": 3033468310,
  "lat": 47.5897348,
  "lon": 7.5441329
},
{
  "type": "node",
  "id": 3033468311,
  "lat": 47.5902566,
  "lon": 7.5440690
},
{
  "type": "node",
  "id": 3033468312,
  "lat": 47.5907959,
  "lon": 7.5441233
},
{
  "type": "node",
  "id": 3033468313,
  "lat": 47.5914404,
  "lon": 7.5439591
},
{
  "type": "node",
  "id": 3033468314,
  "lat": 47.5915810,
  "lon": 7.5438616
},
{
  "type": "node",
  "id": 3033468316,
  "lat": 47.5916780,
  "lon": 7.5435950
},
{
  "type": "node",
  "id": 3033468318,
  "lat": 47.5918823,
  "lon": 7.5434391
},
{
  "type": "node",
  "id": 3033468319,
  "lat": 47.5919890,
  "lon": 7.5434635
},
{
  "type": "node",
  "id": 3033468320,
  "lat": 47.5920595,
  "lon": 7.5435377
},
{
  "type": "node",
  "id": 3033468321,
  "lat": 47.5923442,
  "lon": 7.5435269
},
{
  "type": "node",
  "id": 3033468322,
  "lat": 47.5927838,
  "lon": 7.5435113
},
{
  "type": "node",
  "id": 4742362727,
  "lat": 47.5911897,
  "lon": 7.5440581
},
{
  "type": "node",
  "id": 4742362750,
  "lat": 47.5920293,
  "lon": 7.5435151
},
{
  "type": "node",
  "id": 1717940412,
  "lat": 47.5972008,
  "lon": 7.5364103
},
{
  "type": "node",
  "id": 1717940438,
  "lat": 47.5972675,
  "lon": 7.5360754
},
{
  "type": "node",
  "id": 4252203803,
  "lat": 47.5972959,
  "lon": 7.5361424
},
{
  "type": "node",
  "id": 4252203804,
  "lat": 47.5973194,
  "lon": 7.5361980
},
{
  "type": "node",
  "id": 4252203805,
  "lat": 47.5973345,
  "lon": 7.5362337
},
{
  "type": "node",
  "id": 1687739180,
  "lat": 47.5956098,
  "lon": 7.5404034
},
{
  "type": "node",
  "id": 1687739181,
  "lat": 47.5956771,
  "lon": 7.5401482
},
{
  "type": "node",
  "id": 1687739198,
  "lat": 47.5957696,
  "lon": 7.5399342
},
{
  "type": "node",
  "id": 1687739203,
  "lat": 47.5958095,
  "lon": 7.5397721
},
{
  "type": "node",
  "id": 1687739208,
  "lat": 47.5958152,
  "lon": 7.5396317
},
{
  "type": "node",
  "id": 1687739211,
  "lat": 47.5960301,
  "lon": 7.5388313
},
{
  "type": "node",
  "id": 1687739215,
  "lat": 47.5964667,
  "lon": 7.5376420
},
{
  "type": "node",
  "id": 1687739219,
  "lat": 47.5967334,
  "lon": 7.5370538
},
{
  "type": "node",
  "id": 1717940078,
  "lat": 47.5958502,
  "lon": 7.5385490
},
{
  "type": "node",
  "id": 1717940184,
  "lat": 47.5962480,
  "lon": 7.5381582
},
{
  "type": "node",
  "id": 1717940241,
  "lat": 47.5966492,
  "lon": 7.5372668
},
{
  "type": "node",
  "id": 1717940279,
  "lat": 47.5968330,
  "lon": 7.5370888
},
{
  "type": "node",
  "id": 1717940286,
  "lat": 47.5968995,
  "lon": 7.5370125
},
{
  "type": "node",
  "id": 1717940290,
  "lat": 47.5968790,
  "lon": 7.5370388
},
{
  "type": "node",
  "id": 1717940305,
  "lat": 47.5969177,
  "lon": 7.5368124
},
{
  "type": "node",
  "id": 1717940335,
  "lat": 47.5969635,
  "lon": 7.5367265
},
{
  "type": "node",
  "id": 3009150903,
  "lat": 47.5957629,
  "lon": 7.5390855
},
{
  "type": "node",
  "id": 3009150904,
  "lat": 47.5957925,
  "lon": 7.5388351
},
{
  "type": "node",
  "id": 3009150905,
  "lat": 47.5958284,
  "lon": 7.5385844
},
{
  "type": "node",
  "id": 3033468324,
  "lat": 47.5955515,
  "lon": 7.5401696
},
{
  "type": "node",
  "id": 3033468325,
  "lat": 47.5955701,
  "lon": 7.5399090
},
{
  "type": "node",
  "id": 3033468326,
  "lat": 47.5956242,
  "lon": 7.5396384
},
{
  "type": "node",
  "id": 3033468327,
  "lat": 47.5957131,
  "lon": 7.5394017
},
{
  "type": "node",
  "id": 3033468328,
  "lat": 47.5961277,
  "lon": 7.5384812
},
{
  "type": "node",
  "id": 4748067058,
  "lat": 47.5968964,
  "lon": 7.5368980
},
{
  "type": "node",
  "id": 4748067059,
  "lat": 47.5967784,
  "lon": 7.5370777
},
{
  "type": "node",
  "id": 4748067060,
  "lat": 47.5968073,
  "lon": 7.5371166
},
{
  "type": "node",
  "id": 472905899,
  "lat": 47.6005346,
  "lon": 7.5497007
},
{
  "type": "node",
  "id": 472905902,
  "lat": 47.6007467,
  "lon": 7.5491600
},
{
  "type": "node",
  "id": 472905905,
  "lat": 47.6010630,
  "lon": 7.5484032
},
{
  "type": "node",
  "id": 472913435,
  "lat": 47.6014226,
  "lon": 7.5476990
},
{
  "type": "node",
  "id": 472913438,
  "lat": 47.6020257,
  "lon": 7.5468858
},
{
  "type": "node",
  "id": 472913500,
  "lat": 47.6006141,
  "lon": 7.5492156
},
{
  "type": "node",
  "id": 472913501,
  "lat": 47.6009864,
  "lon": 7.5483360
},
{
  "type": "node",
  "id": 472913504,
  "lat": 47.6013814,
  "lon": 7.5475535
},
{
  "type": "node",
  "id": 501934535,
  "lat": 47.6006950,
  "lon": 7.5490433
},
{
  "type": "node",
  "id": 1919880200,
  "lat": 47.6019563,
  "lon": 7.5467728
},
{
  "type": "node",
  "id": 3393731122,
  "lat": 47.6008625,
  "lon": 7.5486340
},
{
  "type": "node",
  "id": 3393731138,
  "lat": 47.6012089,
  "lon": 7.5478952
},
{
  "type": "node",
  "id": 3393731152,
  "lat": 47.6014746,
  "lon": 7.5474269
},
{
  "type": "node",
  "id": 6278004704,
  "lat": 47.5978394,
  "lon": 7.5490075
},
{
  "type": "node",
  "id": 6278004705,
  "lat": 47.5979228,
  "lon": 7.5489696
},
{
  "type": "node",
  "id": 6278004706,
  "lat": 47.5979819,
  "lon": 7.5489807
},
{
  "type": "node",
  "id": 6278004707,
  "lat": 47.5980979,
  "lon": 7.5491185
},
{
  "type": "node",
  "id": 6731677245,
  "lat": 47.5983645,
  "lon": 7.5497409
},
{
  "type": "node",
  "id": 6731677246,
  "lat": 47.5983139,
  "lon": 7.5496512
},
{
  "type": "node",
  "id": 7642996733,
  "lat": 47.5973680,
  "lon": 7.5497290
},
{
  "type": "node",
  "id": 7642996734,
  "lat": 47.5974621,
  "lon": 7.5495923
},
{
  "type": "node",
  "id": 7642996736,
  "lat": 47.5977641,
  "lon": 7.5490947
},
{
  "type": "node",
  "id": 7642996737,
  "lat": 47.5978093,
  "lon": 7.5490370
},
{
  "type": "node",
  "id": 7642996738,
  "lat": 47.5975543,
  "lon": 7.5494394
},
{
  "type": "node",
  "id": 7642996739,
  "lat": 47.5980228,
  "lon": 7.5490035
},
{
  "type": "node",
  "id": 7642996740,
  "lat": 47.5980626,
  "lon": 7.5490531
},
{
  "type": "node",
  "id": 7642996741,
  "lat": 47.5978826,
  "lon": 7.5489767
},
{
  "type": "node",
  "id": 1410230298,
  "lat": 47.6076060,
  "lon": 7.5431679
},
{
  "type": "node",
  "id": 1410230306,
  "lat": 47.6080008,
  "lon": 7.5427190
},
{
  "type": "node",
  "id": 1410230309,
  "lat": 47.6080597,
  "lon": 7.5428794
},
{
  "type": "node",
  "id": 3870782361,
  "lat": 47.6076362,
  "lon": 7.5431260
},
{
  "type": "node",
  "id": 4416512614,
  "lat": 47.6078094,
  "lon": 7.5431464
},
{
  "type": "node",
  "id": 4416512615,
  "lat": 47.6077270,
  "lon": 7.5430303
},
{
  "type": "node",
  "id": 472913440,
  "lat": 47.6025207,
  "lon": 7.5462443
},
{
  "type": "node",
  "id": 472913443,
  "lat": 47.6031452,
  "lon": 7.5455231
},
{
  "type": "node",
  "id": 472913445,
  "lat": 47.6036409,
  "lon": 7.5451773
},
{
  "type": "node",
  "id": 472913446,
  "lat": 47.6042191,
  "lon": 7.5448874
},
{
  "type": "node",
  "id": 472913448,
  "lat": 47.6050162,
  "lon": 7.5447615
},
{
  "type": "node",
  "id": 472913450,
  "lat": 47.6056115,
  "lon": 7.5446830
},
{
  "type": "node",
  "id": 472913451,
  "lat": 47.6061112,
  "lon": 7.5445423
},
{
  "type": "node",
  "id": 472913453,
  "lat": 47.6063042,
  "lon": 7.5444639
},
{
  "type": "node",
  "id": 472913455,
  "lat": 47.6063881,
  "lon": 7.5443979
},
{
  "type": "node",
  "id": 472913507,
  "lat": 47.6021294,
  "lon": 7.5465378
},
{
  "type": "node",
  "id": 472913509,
  "lat": 47.6028157,
  "lon": 7.5456990
},
{
  "type": "node",
  "id": 472913512,
  "lat": 47.6030254,
  "lon": 7.5454849
},
{
  "type": "node",
  "id": 472913514,
  "lat": 47.6035987,
  "lon": 7.5450608
},
{
  "type": "node",
  "id": 472913519,
  "lat": 47.6039111,
  "lon": 7.5448592
},
{
  "type": "node",
  "id": 472913520,
  "lat": 47.6041425,
  "lon": 7.5447520
},
{
  "type": "node",
  "id": 472913523,
  "lat": 47.6043327,
  "lon": 7.5446912
},
{
  "type": "node",
  "id": 472913531,
  "lat": 47.6045907,
  "lon": 7.5446481
},
{
  "type": "node",
  "id": 472913533,
  "lat": 47.6049358,
  "lon": 7.5443331
},
{
  "type": "node",
  "id": 472913535,
  "lat": 47.6051835,
  "lon": 7.5440957
},
{
  "type": "node",
  "id": 472913537,
  "lat": 47.6053592,
  "lon": 7.5442003
},
{
  "type": "node",
  "id": 472913540,
  "lat": 47.6054928,
  "lon": 7.5444726
},
{
  "type": "node",
  "id": 472913544,
  "lat": 47.6057259,
  "lon": 7.5444421
},
{
  "type": "node",
  "id": 472913546,
  "lat": 47.6060476,
  "lon": 7.5443849
},
{
  "type": "node",
  "id": 501931523,
  "lat": 47.6037847,
  "lon": 7.5449349
},
{
  "type": "node",
  "id": 1410230260,
  "lat": 47.6062055,
  "lon": 7.5443474
},
{
  "type": "node",
  "id": 1410230263,
  "lat": 47.6065107,
  "lon": 7.5441803
},
{
  "type": "node",
  "id": 1410230266,
  "lat": 47.6065742,
  "lon": 7.5442869
},
{
  "type": "node",
  "id": 1410230270,
  "lat": 47.6067147,
  "lon": 7.5441938
},
{
  "type": "node",
  "id": 1410230274,
  "lat": 47.6069124,
  "lon": 7.5438525
},
{
  "type": "node",
  "id": 1410230277,
  "lat": 47.6071976,
  "lon": 7.5437773
},
{
  "type": "node",
  "id": 1410230281,
  "lat": 47.6072758,
  "lon": 7.5435038
},
{
  "type": "node",
  "id": 1410230285,
  "lat": 47.6074423,
  "lon": 7.5433335
},
{
  "type": "node",
  "id": 1410230303,
  "lat": 47.6075638,
  "lon": 7.5434073
},
{
  "type": "node",
  "id": 1889010314,
  "lat": 47.6024126,
  "lon": 7.5461917
},
{
  "type": "node",
  "id": 2719676193,
  "lat": 47.6038231,
  "lon": 7.5450590
},
{
  "type": "node",
  "id": 2937925531,
  "lat": 47.6029213,
  "lon": 7.5457342
},
{
  "type": "node",
  "id": 2937925533,
  "lat": 47.6040210,
  "lon": 7.5449552
},
{
  "type": "node",
  "id": 3393731219,
  "lat": 47.6024903,
  "lon": 7.5460967
},
{
  "type": "node",
  "id": 3711796018,
  "lat": 47.6049735,
  "lon": 7.5442290
},
{
  "type": "node",
  "id": 4406993102,
  "lat": 47.6053699,
  "lon": 7.5443921
},
{
  "type": "node",
  "id": 4406993103,
  "lat": 47.6051289,
  "lon": 7.5441132
},
{
  "type": "node",
  "id": 4406993104,
  "lat": 47.6050475,
  "lon": 7.5441397
},
{
  "type": "node",
  "id": 4406993105,
  "lat": 47.6049037,
  "lon": 7.5445201
},
{
  "type": "node",
  "id": 4406993106,
  "lat": 47.6048034,
  "lon": 7.5446126
},
{
  "type": "node",
  "id": 4416512602,
  "lat": 47.6048989,
  "lon": 7.5445447
},
{
  "type": "node",
  "id": 4416512603,
  "lat": 47.6049901,
  "lon": 7.5447600
},
{
  "type": "node",
  "id": 4416512604,
  "lat": 47.6053708,
  "lon": 7.5442445
},
{
  "type": "node",
  "id": 4416512605,
  "lat": 47.6054178,
  "lon": 7.5444547
},
{
  "type": "node",
  "id": 4416512608,
  "lat": 47.6051941,
  "lon": 7.5447391
},
{
  "type": "node",
  "id": 4416512609,
  "lat": 47.6051167,
  "lon": 7.5447621
},
{
  "type": "node",
  "id": 4416512610,
  "lat": 47.6052933,
  "lon": 7.5446781
},
{
  "type": "node",
  "id": 4416512611,
  "lat": 47.6053817,
  "lon": 7.5446473
},
{
  "type": "node",
  "id": 4416512612,
  "lat": 47.6054993,
  "lon": 7.5446595
},
{
  "type": "node",
  "id": 4416512613,
  "lat": 47.6057462,
  "lon": 7.5446515
},
{
  "type": "node",
  "id": 6434469748,
  "lat": 47.6035608,
  "lon": 7.5452332
},
{
  "type": "node",
  "id": 6434469749,
  "lat": 47.6034686,
  "lon": 7.5452975
},
{
  "type": "node",
  "id": 6434469752,
  "lat": 47.6035300,
  "lon": 7.5451116
},
{
  "type": "node",
  "id": 6434469753,
  "lat": 47.6034426,
  "lon": 7.5451763
},
{
  "type": "node",
  "id": 9124464868,
  "lat": 47.6049613,
  "lon": 7.5442626
},
{
  "type": "node",
  "id": 996803750,
  "lat": 47.6158951,
  "lon": 7.5339594
},
{
  "type": "node",
  "id": 996803766,
  "lat": 47.6173012,
  "lon": 7.5328323
},
{
  "type": "node",
  "id": 996803773,
  "lat": 47.6187501,
  "lon": 7.5319735
},
{
  "type": "node",
  "id": 996803778,
  "lat": 47.6212628,
  "lon": 7.5302832
},
{
  "type": "node",
  "id": 996803781,
  "lat": 47.6199815,
  "lon": 7.5310254
},
{
  "type": "node",
  "id": 996803794,
  "lat": 47.6163326,
  "lon": 7.5335028
},
{
  "type": "node",
  "id": 996803798,
  "lat": 47.6203653,
  "lon": 7.5309376
},
{
  "type": "node",
  "id": 996803802,
  "lat": 47.6190095,
  "lon": 7.5317981
},
{
  "type": "node",
  "id": 996803806,
  "lat": 47.6160623,
  "lon": 7.5337138
},
{
  "type": "node",
  "id": 996803809,
  "lat": 47.6211872,
  "lon": 7.5304530
},
{
  "type": "node",
  "id": 996803815,
  "lat": 47.6187118,
  "lon": 7.5318582
},
{
  "type": "node",
  "id": 1140779197,
  "lat": 47.6197868,
  "lon": 7.5312812
},
{
  "type": "node",
  "id": 1140779198,
  "lat": 47.6206378,
  "lon": 7.5306423
},
{
  "type": "node",
  "id": 1140779208,
  "lat": 47.6201986,
  "lon": 7.5310473
},
{
  "type": "node",
  "id": 1140779209,
  "lat": 47.6214726,
  "lon": 7.5302835
},
{
  "type": "node",
  "id": 1147096514,
  "lat": 47.6163574,
  "lon": 7.5334819
},
{
  "type": "node",
  "id": 2642008304,
  "lat": 47.6178979,
  "lon": 7.5324203
},
{
  "type": "node",
  "id": 3870724985,
  "lat": 47.6194024,
  "lon": 7.5315290
},
{
  "type": "node",
  "id": 6433815771,
  "lat": 47.6187683,
  "lon": 7.5318177
},
{
  "type": "node",
  "id": 1083673338,
  "lat": 47.6102775,
  "lon": 7.5400020
},
{
  "type": "node",
  "id": 1410230312,
  "lat": 47.6087130,
  "lon": 7.5418725
},
{
  "type": "node",
  "id": 1410230316,
  "lat": 47.6086776,
  "lon": 7.5421494
},
{
  "type": "node",
  "id": 1410230320,
  "lat": 47.6089622,
  "lon": 7.5415376
},
{
  "type": "node",
  "id": 1410230322,
  "lat": 47.6091510,
  "lon": 7.5415430
},
{
  "type": "node",
  "id": 1410230324,
  "lat": 47.6094105,
  "lon": 7.5411901
},
{
  "type": "node",
  "id": 1410230326,
  "lat": 47.6098381,
  "lon": 7.5405877
},
{
  "type": "node",
  "id": 1410230329,
  "lat": 47.6100123,
  "lon": 7.5401614
},
{
  "type": "node",
  "id": 1410230348,
  "lat": 47.6102151,
  "lon": 7.5400848
},
{
  "type": "node",
  "id": 1410230350,
  "lat": 47.6102138,
  "lon": 7.5398600
},
{
  "type": "node",
  "id": 4762203308,
  "lat": 47.6106217,
  "lon": 7.5394882
},
{
  "type": "node",
  "id": 4762203309,
  "lat": 47.6106851,
  "lon": 7.5393110
},
{
  "type": "node",
  "id": 4762203310,
  "lat": 47.6106149,
  "lon": 7.5393400
},
{
  "type": "node",
  "id": 4762203311,
  "lat": 47.6102930,
  "lon": 7.5397544
},
{
  "type": "node",
  "id": 272331071,
  "lat": 47.6193929,
  "lon": 7.5464938
},
{
  "type": "node",
  "id": 272331073,
  "lat": 47.6200753,
  "lon": 7.5458873
},
{
  "type": "node",
  "id": 288506301,
  "lat": 47.6201794,
  "lon": 7.5460993
},
{
  "type": "node",
  "id": 612122666,
  "lat": 47.6168918,
  "lon": 7.5488263
},
{
  "type": "node",
  "id": 1821851926,
  "lat": 47.6191963,
  "lon": 7.5466276
},
{
  "type": "node",
  "id": 1821851937,
  "lat": 47.6190574,
  "lon": 7.5467317
},
{
  "type": "node",
  "id": 2274037619,
  "lat": 47.6191170,
  "lon": 7.5466803
},
{
  "type": "node",
  "id": 4459651090,
  "lat": 47.6197135,
  "lon": 7.5462435
},
{
  "type": "node",
  "id": 8585140492,
  "lat": 47.6195417,
  "lon": 7.5463937
},
{
  "type": "node",
  "id": 996803741,
  "lat": 47.6219224,
  "lon": 7.5298781
},
{
  "type": "node",
  "id": 996803752,
  "lat": 47.6258171,
  "lon": 7.5274186
},
{
  "type": "node",
  "id": 996803757,
  "lat": 47.6243588,
  "lon": 7.5285102
},
{
  "type": "node",
  "id": 996803787,
  "lat": 47.6227697,
  "lon": 7.5294705
},
{
  "type": "node",
  "id": 996803791,
  "lat": 47.6265179,
  "lon": 7.5268571
},
{
  "type": "node",
  "id": 996803817,
  "lat": 47.6237390,
  "lon": 7.5289212
},
{
  "type": "node",
  "id": 996803821,
  "lat": 47.6248971,
  "lon": 7.5280822
},
{
  "type": "node",
  "id": 996803823,
  "lat": 47.6241176,
  "lon": 7.5286860
},
{
  "type": "node",
  "id": 996803826,
  "lat": 47.6218160,
  "lon": 7.5300754
},
{
  "type": "node",
  "id": 1137607410,
  "lat": 47.6275832,
  "lon": 7.5260027
},
{
  "type": "node",
  "id": 1750476862,
  "lat": 47.6259998,
  "lon": 7.5275005
},
{
  "type": "node",
  "id": 1750476873,
  "lat": 47.6263272,
  "lon": 7.5270047
},
{
  "type": "node",
  "id": 1750476886,
  "lat": 47.6266247,
  "lon": 7.5267735
},
{
  "type": "node",
  "id": 1750476888,
  "lat": 47.6267596,
  "lon": 7.5266778
},
{
  "type": "node",
  "id": 2642008339,
  "lat": 47.6219804,
  "lon": 7.5299706
},
{
  "type": "node",
  "id": 2642008349,
  "lat": 47.6242303,
  "lon": 7.5286018
},
{
  "type": "node",
  "id": 2642008351,
  "lat": 47.6246213,
  "lon": 7.5282995
},
{
  "type": "node",
  "id": 2719706203,
  "lat": 47.6272935,
  "lon": 7.5262697
},
{
  "type": "node",
  "id": 3734109235,
  "lat": 47.6275614,
  "lon": 7.5260823
},
{
  "type": "node",
  "id": 3734798139,
  "lat": 47.6232490,
  "lon": 7.5291843
},
{
  "type": "node",
  "id": 3734798262,
  "lat": 47.6252056,
  "lon": 7.5278383
},
{
  "type": "node",
  "id": 7524073621,
  "lat": 47.6258936,
  "lon": 7.5274748
},
{
  "type": "node",
  "id": 7524073629,
  "lat": 47.6261087,
  "lon": 7.5273970
},
{
  "type": "node",
  "id": 7524073630,
  "lat": 47.6261521,
  "lon": 7.5271784
},
{
  "type": "node",
  "id": 8585140431,
  "lat": 47.6259379,
  "lon": 7.5274976
},
{
  "type": "node",
  "id": 8585140435,
  "lat": 47.6260499,
  "lon": 7.5274821
},
{
  "type": "node",
  "id": 8585140436,
  "lat": 47.6261448,
  "lon": 7.5272930
},
{
  "type": "node",
  "id": 352713914,
  "lat": 47.6339596,
  "lon": 7.5325577
},
{
  "type": "node",
  "id": 8191617526,
  "lat": 47.6331974,
  "lon": 7.5333083
},
{
  "type": "node",
  "id": 612115548,
  "lat": 47.6269443,
  "lon": 7.5394942
},
{
  "type": "node",
  "id": 4060381914,
  "lat": 47.6244429,
  "lon": 7.5419319
},
{
  "type": "node",
  "id": 4060381929,
  "lat": 47.6278558,
  "lon": 7.5385711
},
{
  "type": "node",
  "id": 288506302,
  "lat": 47.6219963,
  "lon": 7.5443625
},
{
  "type": "node",
  "id": 4060381933,
  "lat": 47.6288621,
  "lon": 7.5375774
},
{
  "type": "node",
  "id": 416954715,
  "lat": 47.6369046,
  "lon": 7.5296690
},
{
  "type": "node",
  "id": 2395878000,
  "lat": 47.6365381,
  "lon": 7.5300615
},
{
  "type": "node",
  "id": 2395878001,
  "lat": 47.6366087,
  "lon": 7.5299354
},
{
  "type": "node",
  "id": 8359598287,
  "lat": 47.6359508,
  "lon": 7.5306036
},
{
  "type": "node",
  "id": 8359598288,
  "lat": 47.6354574,
  "lon": 7.5310971
},
{
  "type": "node",
  "id": 299853017,
  "lat": 47.5757285,
  "lon": 7.5531594
},
{
  "type": "node",
  "id": 567942038,
  "lat": 47.5758356,
  "lon": 7.5533677
},
{
  "type": "node",
  "id": 1038671204,
  "lat": 47.5758032,
  "lon": 7.5532326
},
{
  "type": "node",
  "id": 1112238125,
  "lat": 47.5745573,
  "lon": 7.5501619
},
{
  "type": "node",
  "id": 1112238130,
  "lat": 47.5748622,
  "lon": 7.5508924
},
{
  "type": "node",
  "id": 1112238188,
  "lat": 47.5749170,
  "lon": 7.5508444
},
{
  "type": "node",
  "id": 1112238256,
  "lat": 47.5749022,
  "lon": 7.5508943
},
{
  "type": "node",
  "id": 1608523639,
  "lat": 47.5744711,
  "lon": 7.5502474
},
{
  "type": "node",
  "id": 1608523656,
  "lat": 47.5747751,
  "lon": 7.5507349
},
{
  "type": "node",
  "id": 1893855362,
  "lat": 47.5758108,
  "lon": 7.5531682
},
{
  "type": "node",
  "id": 3772836442,
  "lat": 47.5745441,
  "lon": 7.5503820
},
{
  "type": "node",
  "id": 3772836444,
  "lat": 47.5746431,
  "lon": 7.5505246
},
{
  "type": "node",
  "id": 469772180,
  "lat": 47.5740420,
  "lon": 7.5591904
},
{
  "type": "node",
  "id": 469772189,
  "lat": 47.5737935,
  "lon": 7.5594749
},
{
  "type": "node",
  "id": 469772192,
  "lat": 47.5739612,
  "lon": 7.5592912
},
{
  "type": "node",
  "id": 469772201,
  "lat": 47.5731275,
  "lon": 7.5583300
},
{
  "type": "node",
  "id": 469772202,
  "lat": 47.5733450,
  "lon": 7.5588518
},
{
  "type": "node",
  "id": 469772204,
  "lat": 47.5735566,
  "lon": 7.5593378
},
{
  "type": "node",
  "id": 469772205,
  "lat": 47.5736319,
  "lon": 7.5595134
},
{
  "type": "node",
  "id": 469772207,
  "lat": 47.5737096,
  "lon": 7.5595088
},
{
  "type": "node",
  "id": 699654773,
  "lat": 47.5728584,
  "lon": 7.5577211
},
{
  "type": "node",
  "id": 1309212461,
  "lat": 47.5747217,
  "lon": 7.5628076
},
{
  "type": "node",
  "id": 1473488609,
  "lat": 47.5725479,
  "lon": 7.5569130
},
{
  "type": "node",
  "id": 1687738988,
  "lat": 47.5750875,
  "lon": 7.5617791
},
{
  "type": "node",
  "id": 1687738993,
  "lat": 47.5753791,
  "lon": 7.5611009
},
{
  "type": "node",
  "id": 1687738995,
  "lat": 47.5758518,
  "lon": 7.5601984
},
{
  "type": "node",
  "id": 3033468264,
  "lat": 47.5747721,
  "lon": 7.5626099
},
{
  "type": "node",
  "id": 3033468266,
  "lat": 47.5751231,
  "lon": 7.5613543
},
{
  "type": "node",
  "id": 3033468267,
  "lat": 47.5754504,
  "lon": 7.5606877
},
{
  "type": "node",
  "id": 3033468268,
  "lat": 47.5756605,
  "lon": 7.5602925
},
{
  "type": "node",
  "id": 3033468269,
  "lat": 47.5758489,
  "lon": 7.5599649
},
{
  "type": "node",
  "id": 6138206488,
  "lat": 47.5748374,
  "lon": 7.5624246
},
{
  "type": "node",
  "id": 6396600011,
  "lat": 47.5747931,
  "lon": 7.5622221
},
{
  "type": "node",
  "id": 6396600012,
  "lat": 47.5747652,
  "lon": 7.5621628
},
{
  "type": "node",
  "id": 6396600013,
  "lat": 47.5746642,
  "lon": 7.5619153
},
{
  "type": "node",
  "id": 6396600014,
  "lat": 47.5745751,
  "lon": 7.5616879
},
{
  "type": "node",
  "id": 6396600015,
  "lat": 47.5744720,
  "lon": 7.5614466
},
{
  "type": "node",
  "id": 6396600016,
  "lat": 47.5743509,
  "lon": 7.5611705
},
{
  "type": "node",
  "id": 6396600017,
  "lat": 47.5742032,
  "lon": 7.5608286
},
{
  "type": "node",
  "id": 6396600018,
  "lat": 47.5740663,
  "lon": 7.5605154
},
{
  "type": "node",
  "id": 6396600019,
  "lat": 47.5738997,
  "lon": 7.5601336
},
{
  "type": "node",
  "id": 6396600020,
  "lat": 47.5737423,
  "lon": 7.5597892
},
{
  "type": "node",
  "id": 6396600021,
  "lat": 47.5736870,
  "lon": 7.5596644
},
{
  "type": "node",
  "id": 6396600022,
  "lat": 47.5736606,
  "lon": 7.5595897
},
{
  "type": "node",
  "id": 6396600023,
  "lat": 47.5736131,
  "lon": 7.5594696
},
{
  "type": "node",
  "id": 6396600036,
  "lat": 47.5735233,
  "lon": 7.5592613
},
{
  "type": "node",
  "id": 6396600042,
  "lat": 47.5726142,
  "lon": 7.5570840
},
{
  "type": "node",
  "id": 469755868,
  "lat": 47.5770692,
  "lon": 7.5548826
},
{
  "type": "node",
  "id": 469766788,
  "lat": 47.5768551,
  "lon": 7.5555085
},
{
  "type": "node",
  "id": 471138679,
  "lat": 47.5809750,
  "lon": 7.5549880
},
{
  "type": "node",
  "id": 471138680,
  "lat": 47.5806356,
  "lon": 7.5543339
},
{
  "type": "node",
  "id": 472874994,
  "lat": 47.5819763,
  "lon": 7.5554301
},
{
  "type": "node",
  "id": 472874996,
  "lat": 47.5818376,
  "lon": 7.5551042
},
{
  "type": "node",
  "id": 472875002,
  "lat": 47.5815262,
  "lon": 7.5544219
},
{
  "type": "node",
  "id": 472875004,
  "lat": 47.5813998,
  "lon": 7.5541489
},
{
  "type": "node",
  "id": 472875006,
  "lat": 47.5812990,
  "lon": 7.5539433
},
{
  "type": "node",
  "id": 472875009,
  "lat": 47.5809819,
  "lon": 7.5532513
},
{
  "type": "node",
  "id": 472875014,
  "lat": 47.5802639,
  "lon": 7.5516423
},
{
  "type": "node",
  "id": 472875016,
  "lat": 47.5798395,
  "lon": 7.5506582
},
{
  "type": "node",
  "id": 472879852,
  "lat": 47.5816053,
  "lon": 7.5543302
},
{
  "type": "node",
  "id": 472879860,
  "lat": 47.5812727,
  "lon": 7.5536358
},
{
  "type": "node",
  "id": 502169856,
  "lat": 47.5819574,
  "lon": 7.5551047
},
{
  "type": "node",
  "id": 503633050,
  "lat": 47.5799648,
  "lon": 7.5506940
},
{
  "type": "node",
  "id": 518769512,
  "lat": 47.5811972,
  "lon": 7.5537143
},
{
  "type": "node",
  "id": 518769542,
  "lat": 47.5816518,
  "lon": 7.5546985
},
{
  "type": "node",
  "id": 567942037,
  "lat": 47.5758834,
  "lon": 7.5532378
},
{
  "type": "node",
  "id": 567942044,
  "lat": 47.5769170,
  "lon": 7.5548310
},
{
  "type": "node",
  "id": 567942045,
  "lat": 47.5768807,
  "lon": 7.5547867
},
{
  "type": "node",
  "id": 567942046,
  "lat": 47.5767183,
  "lon": 7.5547059
},
{
  "type": "node",
  "id": 567942047,
  "lat": 47.5766840,
  "lon": 7.5549161
},
{
  "type": "node",
  "id": 567942048,
  "lat": 47.5767091,
  "lon": 7.5551288
},
{
  "type": "node",
  "id": 567942049,
  "lat": 47.5767412,
  "lon": 7.5553823
},
{
  "type": "node",
  "id": 567942050,
  "lat": 47.5767971,
  "lon": 7.5554747
},
{
  "type": "node",
  "id": 567942051,
  "lat": 47.5769017,
  "lon": 7.5555519
},
{
  "type": "node",
  "id": 567942052,
  "lat": 47.5771797,
  "lon": 7.5550571
},
{
  "type": "node",
  "id": 567942053,
  "lat": 47.5771073,
  "lon": 7.5549202
},
{
  "type": "node",
  "id": 567942054,
  "lat": 47.5770426,
  "lon": 7.5548580
},
{
  "type": "node",
  "id": 567942055,
  "lat": 47.5771900,
  "lon": 7.5553241
},
{
  "type": "node",
  "id": 567942056,
  "lat": 47.5771894,
  "lon": 7.5552579
},
{
  "type": "node",
  "id": 567942057,
  "lat": 47.5769597,
  "lon": 7.5555525
},
{
  "type": "node",
  "id": 567942058,
  "lat": 47.5770631,
  "lon": 7.5555237
},
{
  "type": "node",
  "id": 567942063,
  "lat": 47.5773416,
  "lon": 7.5559920
},
{
  "type": "node",
  "id": 1049216905,
  "lat": 47.5770767,
  "lon": 7.5555085
},
{
  "type": "node",
  "id": 1049217180,
  "lat": 47.5768301,
  "lon": 7.5548803
},
{
  "type": "node",
  "id": 1049217264,
  "lat": 47.5767520,
  "lon": 7.5549866
},
{
  "type": "node",
  "id": 1049217355,
  "lat": 47.5767182,
  "lon": 7.5550495
},
{
  "type": "node",
  "id": 1150958491,
  "lat": 47.5768373,
  "lon": 7.5547147
},
{
  "type": "node",
  "id": 1412517642,
  "lat": 47.5767653,
  "lon": 7.5547304
},
{
  "type": "node",
  "id": 1412517643,
  "lat": 47.5767923,
  "lon": 7.5549319
},
{
  "type": "node",
  "id": 1412517644,
  "lat": 47.5768612,
  "lon": 7.5547551
},
{
  "type": "node",
  "id": 1412517645,
  "lat": 47.5770257,
  "lon": 7.5555413
},
{
  "type": "node",
  "id": 1412517646,
  "lat": 47.5771074,
  "lon": 7.5554717
},
{
  "type": "node",
  "id": 1412517647,
  "lat": 47.5772363,
  "lon": 7.5554819
},
{
  "type": "node",
  "id": 1608856412,
  "lat": 47.5795788,
  "lon": 7.5500674
},
{
  "type": "node",
  "id": 1608856416,
  "lat": 47.5796222,
  "lon": 7.5499117
},
{
  "type": "node",
  "id": 1608856427,
  "lat": 47.5800934,
  "lon": 7.5512469
},
{
  "type": "node",
  "id": 1608856437,
  "lat": 47.5803130,
  "lon": 7.5517517
},
{
  "type": "node",
  "id": 1608856447,
  "lat": 47.5804178,
  "lon": 7.5519970
},
{
  "type": "node",
  "id": 1608856449,
  "lat": 47.5806299,
  "lon": 7.5522356
},
{
  "type": "node",
  "id": 1687739022,
  "lat": 47.5803140,
  "lon": 7.5549367
},
{
  "type": "node",
  "id": 1882693312,
  "lat": 47.5811441,
  "lon": 7.5551985
},
{
  "type": "node",
  "id": 1892380583,
  "lat": 47.5771301,
  "lon": 7.5557060
},
{
  "type": "node",
  "id": 1892380586,
  "lat": 47.5772507,
  "lon": 7.5559170
},
{
  "type": "node",
  "id": 1892471129,
  "lat": 47.5766425,
  "lon": 7.5547910
},
{
  "type": "node",
  "id": 1892471154,
  "lat": 47.5767100,
  "lon": 7.5552503
},
{
  "type": "node",
  "id": 1911135631,
  "lat": 47.5811776,
  "lon": 7.5534288
},
{
  "type": "node",
  "id": 1945236848,
  "lat": 47.5772616,
  "lon": 7.5555255
},
{
  "type": "node",
  "id": 1945236858,
  "lat": 47.5785472,
  "lon": 7.5562888
},
{
  "type": "node",
  "id": 1945244033,
  "lat": 47.5798917,
  "lon": 7.5547878
},
{
  "type": "node",
  "id": 3033468279,
  "lat": 47.5788993,
  "lon": 7.5562922
},
{
  "type": "node",
  "id": 3033468280,
  "lat": 47.5801418,
  "lon": 7.5549094
},
{
  "type": "node",
  "id": 3033468281,
  "lat": 47.5813896,
  "lon": 7.5535531
},
{
  "type": "node",
  "id": 3033468282,
  "lat": 47.5821736,
  "lon": 7.5526873
},
{
  "type": "node",
  "id": 3828209524,
  "lat": 47.5807943,
  "lon": 7.5528339
},
{
  "type": "node",
  "id": 3828209527,
  "lat": 47.5808129,
  "lon": 7.5526342
},
{
  "type": "node",
  "id": 3828209530,
  "lat": 47.5809549,
  "lon": 7.5531928
},
{
  "type": "node",
  "id": 3828209531,
  "lat": 47.5810396,
  "lon": 7.5531282
},
{
  "type": "node",
  "id": 3830329506,
  "lat": 47.5766976,
  "lon": 7.5546695
},
{
  "type": "node",
  "id": 3830329507,
  "lat": 47.5767337,
  "lon": 7.5550207
},
{
  "type": "node",
  "id": 3830329508,
  "lat": 47.5767770,
  "lon": 7.5554414
},
{
  "type": "node",
  "id": 3830329516,
  "lat": 47.5768530,
  "lon": 7.5548673
},
{
  "type": "node",
  "id": 3830329543,
  "lat": 47.5770060,
  "lon": 7.5548501
},
{
  "type": "node",
  "id": 3830329549,
  "lat": 47.5770393,
  "lon": 7.5555349
},
{
  "type": "node",
  "id": 3830330663,
  "lat": 47.5771174,
  "lon": 7.5556716
},
{
  "type": "node",
  "id": 3830330664,
  "lat": 47.5771242,
  "lon": 7.5549521
},
{
  "type": "node",
  "id": 3830330667,
  "lat": 47.5771600,
  "lon": 7.5553778
},
{
  "type": "node",
  "id": 3830330672,
  "lat": 47.5772807,
  "lon": 7.5559418
},
{
  "type": "node",
  "id": 3830330678,
  "lat": 47.5773668,
  "lon": 7.5557071
},
{
  "type": "node",
  "id": 5322726376,
  "lat": 47.5805462,
  "lon": 7.5541415
},
{
  "type": "node",
  "id": 5322726377,
  "lat": 47.5810261,
  "lon": 7.5550910
},
{
  "type": "node",
  "id": 5322726385,
  "lat": 47.5816993,
  "lon": 7.5545359
},
{
  "type": "node",
  "id": 5536254224,
  "lat": 47.5804348,
  "lon": 7.5541178
},
{
  "type": "node",
  "id": 6743163401,
  "lat": 47.5822450,
  "lon": 7.5560376
},
{
  "type": "node",
  "id": 6743163402,
  "lat": 47.5819346,
  "lon": 7.5553126
},
{
  "type": "node",
  "id": 6954009618,
  "lat": 47.5812268,
  "lon": 7.5533665
},
{
  "type": "node",
  "id": 7057733569,
  "lat": 47.5808716,
  "lon": 7.5530088
},
{
  "type": "node",
  "id": 7057733575,
  "lat": 47.5809037,
  "lon": 7.5530797
},
{
  "type": "node",
  "id": 9418030430,
  "lat": 47.5813692,
  "lon": 7.5537751
},
{
  "type": "node",
  "id": 9418030431,
  "lat": 47.5813042,
  "lon": 7.5538467
},
{
  "type": "node",
  "id": 469766785,
  "lat": 47.5779002,
  "lon": 7.5569454
},
{
  "type": "node",
  "id": 564743279,
  "lat": 47.5780815,
  "lon": 7.5568136
},
{
  "type": "node",
  "id": 567942067,
  "lat": 47.5777907,
  "lon": 7.5567613
},
{
  "type": "node",
  "id": 567942068,
  "lat": 47.5780322,
  "lon": 7.5571553
},
{
  "type": "node",
  "id": 567942073,
  "lat": 47.5786210,
  "lon": 7.5582747
},
{
  "type": "node",
  "id": 1038654756,
  "lat": 47.5786828,
  "lon": 7.5581857
},
{
  "type": "node",
  "id": 1038654782,
  "lat": 47.5802982,
  "lon": 7.5612391
},
{
  "type": "node",
  "id": 1038654799,
  "lat": 47.5787582,
  "lon": 7.5583344
},
{
  "type": "node",
  "id": 1038654807,
  "lat": 47.5789818,
  "lon": 7.5589291
},
{
  "type": "node",
  "id": 1038654827,
  "lat": 47.5781012,
  "lon": 7.5570830
},
{
  "type": "node",
  "id": 1038664879,
  "lat": 47.5793173,
  "lon": 7.5595752
},
{
  "type": "node",
  "id": 1038664897,
  "lat": 47.5793993,
  "lon": 7.5595534
},
{
  "type": "node",
  "id": 1038664934,
  "lat": 47.5802076,
  "lon": 7.5613283
},
{
  "type": "node",
  "id": 1038664996,
  "lat": 47.5780423,
  "lon": 7.5569719
},
{
  "type": "node",
  "id": 1048561117,
  "lat": 47.5800358,
  "lon": 7.5607343
},
{
  "type": "node",
  "id": 1048561140,
  "lat": 47.5786974,
  "lon": 7.5584278
},
{
  "type": "node",
  "id": 1049216989,
  "lat": 47.5778330,
  "lon": 7.5566241
},
{
  "type": "node",
  "id": 1049216999,
  "lat": 47.5780120,
  "lon": 7.5568392
},
{
  "type": "node",
  "id": 1049217176,
  "lat": 47.5777745,
  "lon": 7.5564109
},
{
  "type": "node",
  "id": 1151031455,
  "lat": 47.5806281,
  "lon": 7.5619074
},
{
  "type": "node",
  "id": 1151031470,
  "lat": 47.5790040,
  "lon": 7.5587944
},
{
  "type": "node",
  "id": 1151031475,
  "lat": 47.5791334,
  "lon": 7.5591963
},
{
  "type": "node",
  "id": 1151031485,
  "lat": 47.5798034,
  "lon": 7.5602904
},
{
  "type": "node",
  "id": 1151031486,
  "lat": 47.5798240,
  "lon": 7.5605347
},
{
  "type": "node",
  "id": 1687738997,
  "lat": 47.5762042,
  "lon": 7.5596549
},
{
  "type": "node",
  "id": 1687739005,
  "lat": 47.5767244,
  "lon": 7.5589344
},
{
  "type": "node",
  "id": 1687739021,
  "lat": 47.5782830,
  "lon": 7.5572060
},
{
  "type": "node",
  "id": 3009150916,
  "lat": 47.5760395,
  "lon": 7.5596686
},
{
  "type": "node",
  "id": 3033468270,
  "lat": 47.5762384,
  "lon": 7.5593585
},
{
  "type": "node",
  "id": 3033468271,
  "lat": 47.5764537,
  "lon": 7.5590633
},
{
  "type": "node",
  "id": 3033468273,
  "lat": 47.5765155,
  "lon": 7.5591960
},
{
  "type": "node",
  "id": 3033468274,
  "lat": 47.5770355,
  "lon": 7.5583511
},
{
  "type": "node",
  "id": 3033468276,
  "lat": 47.5774438,
  "lon": 7.5578918
},
{
  "type": "node",
  "id": 3033468278,
  "lat": 47.5778703,
  "lon": 7.5574265
},
{
  "type": "node",
  "id": 3829292265,
  "lat": 47.5777415,
  "lon": 7.5566663
},
{
  "type": "node",
  "id": 3829292267,
  "lat": 47.5778207,
  "lon": 7.5565793
},
{
  "type": "node",
  "id": 3830330693,
  "lat": 47.5777859,
  "lon": 7.5564526
},
{
  "type": "node",
  "id": 4411564355,
  "lat": 47.5780054,
  "lon": 7.5568273
},
{
  "type": "node",
  "id": 4718115973,
  "lat": 47.5779487,
  "lon": 7.5568173
},
{
  "type": "node",
  "id": 7057733567,
  "lat": 47.5779617,
  "lon": 7.5568595
},
{
  "type": "node",
  "id": 7057733568,
  "lat": 47.5779860,
  "lon": 7.5567923
},
{
  "type": "node",
  "id": 7057733572,
  "lat": 47.5778229,
  "lon": 7.5568328
},
{
  "type": "node",
  "id": 7057733577,
  "lat": 47.5778594,
  "lon": 7.5568816
},
{
  "type": "node",
  "id": 9418030429,
  "lat": 47.5780633,
  "lon": 7.5574284
},
{
  "type": "node",
  "id": 1038654767,
  "lat": 47.5816412,
  "lon": 7.5639082
},
{
  "type": "node",
  "id": 1038654778,
  "lat": 47.5818240,
  "lon": 7.5644916
},
{
  "type": "node",
  "id": 1038664896,
  "lat": 47.5823276,
  "lon": 7.5670150
},
{
  "type": "node",
  "id": 1038664924,
  "lat": 47.5812299,
  "lon": 7.5630906
},
{
  "type": "node",
  "id": 1038664983,
  "lat": 47.5811540,
  "lon": 7.5631658
},
{
  "type": "node",
  "id": 1048561098,
  "lat": 47.5816068,
  "lon": 7.5640723
},
{
  "type": "node",
  "id": 1048561099,
  "lat": 47.5817091,
  "lon": 7.5640774
},
{
  "type": "node",
  "id": 1048561158,
  "lat": 47.5817304,
  "lon": 7.5642784
},
{
  "type": "node",
  "id": 1048561211,
  "lat": 47.5816781,
  "lon": 7.5641665
},
{
  "type": "node",
  "id": 1048561218,
  "lat": 47.5817949,
  "lon": 7.5642420
},
{
  "type": "node",
  "id": 1048561248,
  "lat": 47.5818824,
  "lon": 7.5644311
},
{
  "type": "node",
  "id": 3771513775,
  "lat": 47.5816262,
  "lon": 7.5640912
},
{
  "type": "node",
  "id": 3771513776,
  "lat": 47.5816489,
  "lon": 7.5641131
},
{
  "type": "node",
  "id": 8182477955,
  "lat": 47.5777346,
  "lon": 7.5712749
},
{
  "type": "node",
  "id": 8182477956,
  "lat": 47.5776999,
  "lon": 7.5714070
},
{
  "type": "node",
  "id": 472865478,
  "lat": 47.5827687,
  "lon": 7.5562855
},
{
  "type": "node",
  "id": 472865482,
  "lat": 47.5827424,
  "lon": 7.5562566
},
{
  "type": "node",
  "id": 472865486,
  "lat": 47.5826534,
  "lon": 7.5562195
},
{
  "type": "node",
  "id": 472865490,
  "lat": 47.5826164,
  "lon": 7.5562288
},
{
  "type": "node",
  "id": 472865493,
  "lat": 47.5825700,
  "lon": 7.5562565
},
{
  "type": "node",
  "id": 472865514,
  "lat": 47.5833879,
  "lon": 7.5546675
},
{
  "type": "node",
  "id": 472865516,
  "lat": 47.5833975,
  "lon": 7.5545429
},
{
  "type": "node",
  "id": 472865519,
  "lat": 47.5834315,
  "lon": 7.5544439
},
{
  "type": "node",
  "id": 472865520,
  "lat": 47.5834884,
  "lon": 7.5543660
},
{
  "type": "node",
  "id": 472865526,
  "lat": 47.5842158,
  "lon": 7.5534081
},
{
  "type": "node",
  "id": 472865531,
  "lat": 47.5843340,
  "lon": 7.5532891
},
{
  "type": "node",
  "id": 472865533,
  "lat": 47.5845530,
  "lon": 7.5531350
},
{
  "type": "node",
  "id": 472865536,
  "lat": 47.5848208,
  "lon": 7.5529778
},
{
  "type": "node",
  "id": 472865539,
  "lat": 47.5849996,
  "lon": 7.5528601
},
{
  "type": "node",
  "id": 472865542,
  "lat": 47.5851214,
  "lon": 7.5527869
},
{
  "type": "node",
  "id": 472865543,
  "lat": 47.5852647,
  "lon": 7.5527103
},
{
  "type": "node",
  "id": 472865545,
  "lat": 47.5853777,
  "lon": 7.5527039
},
{
  "type": "node",
  "id": 472865548,
  "lat": 47.5855604,
  "lon": 7.5527030
},
{
  "type": "node",
  "id": 472865549,
  "lat": 47.5857709,
  "lon": 7.5527511
},
{
  "type": "node",
  "id": 472865552,
  "lat": 47.5859668,
  "lon": 7.5528442
},
{
  "type": "node",
  "id": 472865553,
  "lat": 47.5861883,
  "lon": 7.5530464
},
{
  "type": "node",
  "id": 472865555,
  "lat": 47.5864691,
  "lon": 7.5533252
},
{
  "type": "node",
  "id": 472865557,
  "lat": 47.5867453,
  "lon": 7.5535252
},
{
  "type": "node",
  "id": 472865560,
  "lat": 47.5869761,
  "lon": 7.5535880
},
{
  "type": "node",
  "id": 472865562,
  "lat": 47.5872117,
  "lon": 7.5535739
},
{
  "type": "node",
  "id": 472865564,
  "lat": 47.5874371,
  "lon": 7.5534861
},
{
  "type": "node",
  "id": 472865567,
  "lat": 47.5877188,
  "lon": 7.5532363
},
{
  "type": "node",
  "id": 472865570,
  "lat": 47.5879814,
  "lon": 7.5529798
},
{
  "type": "node",
  "id": 472865572,
  "lat": 47.5888144,
  "lon": 7.5520814
},
{
  "type": "node",
  "id": 1041024817,
  "lat": 47.5826988,
  "lon": 7.5562242
},
{
  "type": "node",
  "id": 1269163662,
  "lat": 47.5886909,
  "lon": 7.5555971
},
{
  "type": "node",
  "id": 1269163722,
  "lat": 47.5881655,
  "lon": 7.5558887
},
{
  "type": "node",
  "id": 1269163767,
  "lat": 47.5882329,
  "lon": 7.5558801
},
{
  "type": "node",
  "id": 1269163862,
  "lat": 47.5888983,
  "lon": 7.5554463
},
{
  "type": "node",
  "id": 1269163876,
  "lat": 47.5881446,
  "lon": 7.5558785
},
{
  "type": "node",
  "id": 1687739025,
  "lat": 47.5841680,
  "lon": 7.5506942
},
{
  "type": "node",
  "id": 1989730621,
  "lat": 47.5884416,
  "lon": 7.5557601
},
{
  "type": "node",
  "id": 2719658390,
  "lat": 47.5849203,
  "lon": 7.5529123
},
{
  "type": "node",
  "id": 3033468283,
  "lat": 47.5829654,
  "lon": 7.5518257
},
{
  "type": "node",
  "id": 3033468284,
  "lat": 47.5832132,
  "lon": 7.5515322
},
{
  "type": "node",
  "id": 3033468285,
  "lat": 47.5834885,
  "lon": 7.5512335
},
{
  "type": "node",
  "id": 3033468286,
  "lat": 47.5840257,
  "lon": 7.5506288
},
{
  "type": "node",
  "id": 4411564381,
  "lat": 47.5824816,
  "lon": 7.5562029
},
{
  "type": "node",
  "id": 4707437978,
  "lat": 47.5881236,
  "lon": 7.5528238
},
{
  "type": "node",
  "id": 4718072425,
  "lat": 47.5824265,
  "lon": 7.5561171
},
{
  "type": "node",
  "id": 4757003163,
  "lat": 47.5838979,
  "lon": 7.5507726
},
{
  "type": "node",
  "id": 5576927553,
  "lat": 47.5826920,
  "lon": 7.5562235
},
{
  "type": "node",
  "id": 6954009613,
  "lat": 47.5880615,
  "lon": 7.5528919
},
{
  "type": "node",
  "id": 6954009622,
  "lat": 47.5880093,
  "lon": 7.5529493
},
{
  "type": "node",
  "id": 6954009624,
  "lat": 47.5841617,
  "lon": 7.5534302
},
{
  "type": "node",
  "id": 6954009625,
  "lat": 47.5841407,
  "lon": 7.5534028
},
{
  "type": "node",
  "id": 7047307921,
  "lat": 47.5841020,
  "lon": 7.5533707
},
{
  "type": "node",
  "id": 7047307922,
  "lat": 47.5841709,
  "lon": 7.5534518
},
{
  "type": "node",
  "id": 8067820714,
  "lat": 47.5841201,
  "lon": 7.5533750
},
{
  "type": "node",
  "id": 8067820717,
  "lat": 47.5841852,
  "lon": 7.5534499
},
{
  "type": "node",
  "id": 8067827027,
  "lat": 47.5840441,
  "lon": 7.5534647
},
{
  "type": "node",
  "id": 401585312,
  "lat": 47.5825085,
  "lon": 7.5564055
},
{
  "type": "node",
  "id": 472865457,
  "lat": 47.5825026,
  "lon": 7.5565482
},
{
  "type": "node",
  "id": 472865463,
  "lat": 47.5826045,
  "lon": 7.5567593
},
{
  "type": "node",
  "id": 472865465,
  "lat": 47.5826462,
  "lon": 7.5567663
},
{
  "type": "node",
  "id": 472865466,
  "lat": 47.5826839,
  "lon": 7.5567614
},
{
  "type": "node",
  "id": 472865468,
  "lat": 47.5827236,
  "lon": 7.5567276
},
{
  "type": "node",
  "id": 472865470,
  "lat": 47.5827722,
  "lon": 7.5566470
},
{
  "type": "node",
  "id": 472865471,
  "lat": 47.5828070,
  "lon": 7.5565679
},
{
  "type": "node",
  "id": 472865473,
  "lat": 47.5828144,
  "lon": 7.5565135
},
{
  "type": "node",
  "id": 472865474,
  "lat": 47.5828175,
  "lon": 7.5564586
},
{
  "type": "node",
  "id": 472865476,
  "lat": 47.5828015,
  "lon": 7.5563382
},
{
  "type": "node",
  "id": 472865496,
  "lat": 47.5825367,
  "lon": 7.5563165
},
{
  "type": "node",
  "id": 1033940034,
  "lat": 47.5863778,
  "lon": 7.5610506
},
{
  "type": "node",
  "id": 1041021519,
  "lat": 47.5825223,
  "lon": 7.5563609
},
{
  "type": "node",
  "id": 1041021542,
  "lat": 47.5828157,
  "lon": 7.5563945
},
{
  "type": "node",
  "id": 1083682841,
  "lat": 47.5846545,
  "lon": 7.5611334
},
{
  "type": "node",
  "id": 1083682870,
  "lat": 47.5847610,
  "lon": 7.5613677
},
{
  "type": "node",
  "id": 1083684509,
  "lat": 47.5827436,
  "lon": 7.5568270
},
{
  "type": "node",
  "id": 1083684513,
  "lat": 47.5832535,
  "lon": 7.5579427
},
{
  "type": "node",
  "id": 1083684544,
  "lat": 47.5842810,
  "lon": 7.5601253
},
{
  "type": "node",
  "id": 1083684551,
  "lat": 47.5848521,
  "lon": 7.5613883
},
{
  "type": "node",
  "id": 1083686939,
  "lat": 47.5851786,
  "lon": 7.5620516
},
{
  "type": "node",
  "id": 1083686944,
  "lat": 47.5851566,
  "lon": 7.5621393
},
{
  "type": "node",
  "id": 1083686960,
  "lat": 47.5849722,
  "lon": 7.5618772
},
{
  "type": "node",
  "id": 1189480514,
  "lat": 47.5839861,
  "lon": 7.5597035
},
{
  "type": "node",
  "id": 1252385527,
  "lat": 47.5875494,
  "lon": 7.5588549
},
{
  "type": "node",
  "id": 1252385529,
  "lat": 47.5848913,
  "lon": 7.5613679
},
{
  "type": "node",
  "id": 1252385532,
  "lat": 47.5863428,
  "lon": 7.5599889
},
{
  "type": "node",
  "id": 1252385533,
  "lat": 47.5852286,
  "lon": 7.5610323
},
{
  "type": "node",
  "id": 1889427506,
  "lat": 47.5835920,
  "lon": 7.5586443
},
{
  "type": "node",
  "id": 1889427519,
  "lat": 47.5837945,
  "lon": 7.5590943
},
{
  "type": "node",
  "id": 1889427522,
  "lat": 47.5846805,
  "lon": 7.5610251
},
{
  "type": "node",
  "id": 1889427523,
  "lat": 47.5848819,
  "lon": 7.5614339
},
{
  "type": "node",
  "id": 1940444283,
  "lat": 47.5848969,
  "lon": 7.5617099
},
{
  "type": "node",
  "id": 3870896069,
  "lat": 47.5851837,
  "lon": 7.5623469
},
{
  "type": "node",
  "id": 3995589580,
  "lat": 47.5828335,
  "lon": 7.5572295
},
{
  "type": "node",
  "id": 3995589581,
  "lat": 47.5828917,
  "lon": 7.5571557
},
{
  "type": "node",
  "id": 4414543112,
  "lat": 47.5847982,
  "lon": 7.5614959
},
{
  "type": "node",
  "id": 4530453108,
  "lat": 47.5879589,
  "lon": 7.5585330
},
{
  "type": "node",
  "id": 4778638138,
  "lat": 47.5847226,
  "lon": 7.5611142
},
{
  "type": "node",
  "id": 4778638139,
  "lat": 47.5848054,
  "lon": 7.5612986
},
{
  "type": "node",
  "id": 6552844450,
  "lat": 47.5850280,
  "lon": 7.5617026
},
{
  "type": "node",
  "id": 6552844452,
  "lat": 47.5849328,
  "lon": 7.5617916
},
{
  "type": "node",
  "id": 6552844455,
  "lat": 47.5843373,
  "lon": 7.5605044
},
{
  "type": "node",
  "id": 6552844457,
  "lat": 47.5844011,
  "lon": 7.5606463
},
{
  "type": "node",
  "id": 6627289879,
  "lat": 47.5836494,
  "lon": 7.5587719
},
{
  "type": "node",
  "id": 6627289880,
  "lat": 47.5835820,
  "lon": 7.5588394
},
{
  "type": "node",
  "id": 6627303036,
  "lat": 47.5839305,
  "lon": 7.5595846
},
{
  "type": "node",
  "id": 6627303038,
  "lat": 47.5839931,
  "lon": 7.5595177
},
{
  "type": "node",
  "id": 6627314298,
  "lat": 47.5833026,
  "lon": 7.5582417
},
{
  "type": "node",
  "id": 6627314299,
  "lat": 47.5831604,
  "lon": 7.5579259
},
{
  "type": "node",
  "id": 6627314300,
  "lat": 47.5832191,
  "lon": 7.5578679
},
{
  "type": "node",
  "id": 7176454226,
  "lat": 47.5889576,
  "lon": 7.5575887
},
{
  "type": "node",
  "id": 7176454227,
  "lat": 47.5888051,
  "lon": 7.5577510
},
{
  "type": "node",
  "id": 7176454228,
  "lat": 47.5887254,
  "lon": 7.5578369
},
{
  "type": "node",
  "id": 7176454229,
  "lat": 47.5885741,
  "lon": 7.5580003
},
{
  "type": "node",
  "id": 7176454230,
  "lat": 47.5885544,
  "lon": 7.5580212
},
{
  "type": "node",
  "id": 7176454231,
  "lat": 47.5885004,
  "lon": 7.5581092
},
{
  "type": "node",
  "id": 7176454232,
  "lat": 47.5884071,
  "lon": 7.5582169
},
{
  "type": "node",
  "id": 7176454233,
  "lat": 47.5883292,
  "lon": 7.5582664
},
{
  "type": "node",
  "id": 7176454234,
  "lat": 47.5881707,
  "lon": 7.5584401
},
{
  "type": "node",
  "id": 7176454235,
  "lat": 47.5879671,
  "lon": 7.5586625
},
{
  "type": "node",
  "id": 7176454236,
  "lat": 47.5879223,
  "lon": 7.5587044
},
{
  "type": "node",
  "id": 7176454237,
  "lat": 47.5878595,
  "lon": 7.5587785
},
{
  "type": "node",
  "id": 7176454238,
  "lat": 47.5878370,
  "lon": 7.5588767
},
{
  "type": "node",
  "id": 7176454239,
  "lat": 47.5878081,
  "lon": 7.5589785
},
{
  "type": "node",
  "id": 7176454240,
  "lat": 47.5877930,
  "lon": 7.5590182
},
{
  "type": "node",
  "id": 7176454241,
  "lat": 47.5877358,
  "lon": 7.5592143
},
{
  "type": "node",
  "id": 7176454242,
  "lat": 47.5876836,
  "lon": 7.5593680
},
{
  "type": "node",
  "id": 7176454243,
  "lat": 47.5876644,
  "lon": 7.5594281
},
{
  "type": "node",
  "id": 7176454244,
  "lat": 47.5875386,
  "lon": 7.5598232
},
{
  "type": "node",
  "id": 7176454245,
  "lat": 47.5874949,
  "lon": 7.5599494
},
{
  "type": "node",
  "id": 7176454246,
  "lat": 47.5874615,
  "lon": 7.5600237
},
{
  "type": "node",
  "id": 7176454247,
  "lat": 47.5874090,
  "lon": 7.5601129
},
{
  "type": "node",
  "id": 7176454248,
  "lat": 47.5873298,
  "lon": 7.5602117
},
{
  "type": "node",
  "id": 7176454249,
  "lat": 47.5872680,
  "lon": 7.5602677
},
{
  "type": "node",
  "id": 7176454250,
  "lat": 47.5871301,
  "lon": 7.5603948
},
{
  "type": "node",
  "id": 7176454251,
  "lat": 47.5869094,
  "lon": 7.5606052
},
{
  "type": "node",
  "id": 7176454252,
  "lat": 47.5867112,
  "lon": 7.5607904
},
{
  "type": "node",
  "id": 7176454253,
  "lat": 47.5866289,
  "lon": 7.5608662
},
{
  "type": "node",
  "id": 7176454254,
  "lat": 47.5864141,
  "lon": 7.5610627
},
{
  "type": "node",
  "id": 7187147153,
  "lat": 47.5855331,
  "lon": 7.5628424
},
{
  "type": "node",
  "id": 7187147154,
  "lat": 47.5855253,
  "lon": 7.5628245
},
{
  "type": "node",
  "id": 7187147155,
  "lat": 47.5853561,
  "lon": 7.5624738
},
{
  "type": "node",
  "id": 7187147156,
  "lat": 47.5853017,
  "lon": 7.5623338
},
{
  "type": "node",
  "id": 7187147157,
  "lat": 47.5852754,
  "lon": 7.5622827
},
{
  "type": "node",
  "id": 7187147158,
  "lat": 47.5851933,
  "lon": 7.5622190
},
{
  "type": "node",
  "id": 7187148196,
  "lat": 47.5869906,
  "lon": 7.5627319
},
{
  "type": "node",
  "id": 7187148199,
  "lat": 47.5853058,
  "lon": 7.5626181
},
{
  "type": "node",
  "id": 7465834359,
  "lat": 47.5850462,
  "lon": 7.5620695
},
{
  "type": "node",
  "id": 7603794075,
  "lat": 47.5839623,
  "lon": 7.5594527
},
{
  "type": "node",
  "id": 7635671370,
  "lat": 47.5860674,
  "lon": 7.5602468
},
{
  "type": "node",
  "id": 9135266474,
  "lat": 47.5843974,
  "lon": 7.5603876
},
{
  "type": "node",
  "id": 472865575,
  "lat": 47.5890033,
  "lon": 7.5518701
},
{
  "type": "node",
  "id": 472865579,
  "lat": 47.5890321,
  "lon": 7.5518239
},
{
  "type": "node",
  "id": 472902129,
  "lat": 47.5934305,
  "lon": 7.5549824
},
{
  "type": "node",
  "id": 472902142,
  "lat": 47.5934107,
  "lon": 7.5550591
},
{
  "type": "node",
  "id": 472902145,
  "lat": 47.5934675,
  "lon": 7.5552465
},
{
  "type": "node",
  "id": 472902149,
  "lat": 47.5934237,
  "lon": 7.5553731
},
{
  "type": "node",
  "id": 472902157,
  "lat": 47.5935917,
  "lon": 7.5555944
},
{
  "type": "node",
  "id": 472902175,
  "lat": 47.5937339,
  "lon": 7.5554972
},
{
  "type": "node",
  "id": 472902183,
  "lat": 47.5938703,
  "lon": 7.5554224
},
{
  "type": "node",
  "id": 472902186,
  "lat": 47.5939411,
  "lon": 7.5553032
},
{
  "type": "node",
  "id": 472902188,
  "lat": 47.5939269,
  "lon": 7.5550424
},
{
  "type": "node",
  "id": 472902193,
  "lat": 47.5938622,
  "lon": 7.5550181
},
{
  "type": "node",
  "id": 472902196,
  "lat": 47.5938358,
  "lon": 7.5549872
},
{
  "type": "node",
  "id": 472902199,
  "lat": 47.5938086,
  "lon": 7.5549327
},
{
  "type": "node",
  "id": 472902202,
  "lat": 47.5937665,
  "lon": 7.5548793
},
{
  "type": "node",
  "id": 472902205,
  "lat": 47.5937225,
  "lon": 7.5548279
},
{
  "type": "node",
  "id": 472902217,
  "lat": 47.5936257,
  "lon": 7.5548019
},
{
  "type": "node",
  "id": 472902220,
  "lat": 47.5935724,
  "lon": 7.5547935
},
{
  "type": "node",
  "id": 472902222,
  "lat": 47.5935532,
  "lon": 7.5547954
},
{
  "type": "node",
  "id": 472902227,
  "lat": 47.5934455,
  "lon": 7.5549644
},
{
  "type": "node",
  "id": 472913466,
  "lat": 47.5940777,
  "lon": 7.5550582
},
{
  "type": "node",
  "id": 472913473,
  "lat": 47.5950962,
  "lon": 7.5542424
},
{
  "type": "node",
  "id": 609688970,
  "lat": 47.5907672,
  "lon": 7.5559204
},
{
  "type": "node",
  "id": 996793642,
  "lat": 47.5890638,
  "lon": 7.5517728
},
{
  "type": "node",
  "id": 1105146678,
  "lat": 47.5909550,
  "lon": 7.5557456
},
{
  "type": "node",
  "id": 1105146681,
  "lat": 47.5928980,
  "lon": 7.5543344
},
{
  "type": "node",
  "id": 1269163720,
  "lat": 47.5891670,
  "lon": 7.5552358
},
{
  "type": "node",
  "id": 1269163872,
  "lat": 47.5891384,
  "lon": 7.5552522
},
{
  "type": "node",
  "id": 1635553140,
  "lat": 47.5934614,
  "lon": 7.5549468
},
{
  "type": "node",
  "id": 1635553141,
  "lat": 47.5935133,
  "lon": 7.5548669
},
{
  "type": "node",
  "id": 1635553151,
  "lat": 47.5936808,
  "lon": 7.5548123
},
{
  "type": "node",
  "id": 1750476822,
  "lat": 47.5945039,
  "lon": 7.5548840
},
{
  "type": "node",
  "id": 1889427529,
  "lat": 47.5934495,
  "lon": 7.5553957
},
{
  "type": "node",
  "id": 1889427530,
  "lat": 47.5935142,
  "lon": 7.5554632
},
{
  "type": "node",
  "id": 1940286577,
  "lat": 47.5941609,
  "lon": 7.5551411
},
{
  "type": "node",
  "id": 1940318779,
  "lat": 47.5953287,
  "lon": 7.5542311
},
{
  "type": "node",
  "id": 2104032617,
  "lat": 47.5954416,
  "lon": 7.5539797
},
{
  "type": "node",
  "id": 2804837735,
  "lat": 47.5950700,
  "lon": 7.5542634
},
{
  "type": "node",
  "id": 3075837251,
  "lat": 47.5933326,
  "lon": 7.5557925
},
{
  "type": "node",
  "id": 3075837252,
  "lat": 47.5933451,
  "lon": 7.5557824
},
{
  "type": "node",
  "id": 3075837253,
  "lat": 47.5933793,
  "lon": 7.5557797
},
{
  "type": "node",
  "id": 3075837254,
  "lat": 47.5933971,
  "lon": 7.5557604
},
{
  "type": "node",
  "id": 3075837257,
  "lat": 47.5934434,
  "lon": 7.5557102
},
{
  "type": "node",
  "id": 3075837259,
  "lat": 47.5934669,
  "lon": 7.5556847
},
{
  "type": "node",
  "id": 3075837263,
  "lat": 47.5935347,
  "lon": 7.5556414
},
{
  "type": "node",
  "id": 3075837265,
  "lat": 47.5935674,
  "lon": 7.5555395
},
{
  "type": "node",
  "id": 3075837269,
  "lat": 47.5936955,
  "lon": 7.5554962
},
{
  "type": "node",
  "id": 3075837270,
  "lat": 47.5937551,
  "lon": 7.5555220
},
{
  "type": "node",
  "id": 3075837271,
  "lat": 47.5939013,
  "lon": 7.5553611
},
{
  "type": "node",
  "id": 4778635169,
  "lat": 47.5930125,
  "lon": 7.5545171
},
{
  "type": "node",
  "id": 4778635170,
  "lat": 47.5929397,
  "lon": 7.5544192
},
{
  "type": "node",
  "id": 4778635173,
  "lat": 47.5929736,
  "lon": 7.5544776
},
{
  "type": "node",
  "id": 4778635174,
  "lat": 47.5930659,
  "lon": 7.5545634
},
{
  "type": "node",
  "id": 4778635175,
  "lat": 47.5931039,
  "lon": 7.5546030
},
{
  "type": "node",
  "id": 4778635176,
  "lat": 47.5931500,
  "lon": 7.5546700
},
{
  "type": "node",
  "id": 4778635177,
  "lat": 47.5933580,
  "lon": 7.5550080
},
{
  "type": "node",
  "id": 4778635178,
  "lat": 47.5934186,
  "lon": 7.5550140
},
{
  "type": "node",
  "id": 5536222511,
  "lat": 47.5892527,
  "lon": 7.5551726
},
{
  "type": "node",
  "id": 5547765093,
  "lat": 47.5899055,
  "lon": 7.5548434
},
{
  "type": "node",
  "id": 6583836416,
  "lat": 47.5953908,
  "lon": 7.5539681
},
{
  "type": "node",
  "id": 6629375651,
  "lat": 47.5937917,
  "lon": 7.5554996
},
{
  "type": "node",
  "id": 6629375652,
  "lat": 47.5938416,
  "lon": 7.5554462
},
{
  "type": "node",
  "id": 6629388842,
  "lat": 47.5939261,
  "lon": 7.5551196
},
{
  "type": "node",
  "id": 6629388843,
  "lat": 47.5939231,
  "lon": 7.5551975
},
{
  "type": "node",
  "id": 7047307923,
  "lat": 47.5897574,
  "lon": 7.5547897
},
{
  "type": "node",
  "id": 7047307924,
  "lat": 47.5896949,
  "lon": 7.5548144
},
{
  "type": "node",
  "id": 7047307925,
  "lat": 47.5893545,
  "lon": 7.5551469
},
{
  "type": "node",
  "id": 7047307926,
  "lat": 47.5890221,
  "lon": 7.5553390
},
{
  "type": "node",
  "id": 7162509145,
  "lat": 47.5928658,
  "lon": 7.5561403
},
{
  "type": "node",
  "id": 7162509146,
  "lat": 47.5931510,
  "lon": 7.5558988
},
{
  "type": "node",
  "id": 7162509159,
  "lat": 47.5933844,
  "lon": 7.5555148
},
{
  "type": "node",
  "id": 7162509160,
  "lat": 47.5933105,
  "lon": 7.5556301
},
{
  "type": "node",
  "id": 7162509161,
  "lat": 47.5932581,
  "lon": 7.5556819
},
{
  "type": "node",
  "id": 7162509162,
  "lat": 47.5931755,
  "lon": 7.5557670
},
{
  "type": "node",
  "id": 7162509163,
  "lat": 47.5930540,
  "lon": 7.5558549
},
{
  "type": "node",
  "id": 7162509164,
  "lat": 47.5929247,
  "lon": 7.5559485
},
{
  "type": "node",
  "id": 7162509165,
  "lat": 47.5928159,
  "lon": 7.5560407
},
{
  "type": "node",
  "id": 7162509166,
  "lat": 47.5926410,
  "lon": 7.5561892
},
{
  "type": "node",
  "id": 7162509167,
  "lat": 47.5925030,
  "lon": 7.5562987
},
{
  "type": "node",
  "id": 7162509177,
  "lat": 47.5933464,
  "lon": 7.5555741
},
{
  "type": "node",
  "id": 7162509178,
  "lat": 47.5930737,
  "lon": 7.5558406
},
{
  "type": "node",
  "id": 7176432684,
  "lat": 47.5909219,
  "lon": 7.5562459
},
{
  "type": "node",
  "id": 7176454185,
  "lat": 47.5909351,
  "lon": 7.5561945
},
{
  "type": "node",
  "id": 7176454186,
  "lat": 47.5909423,
  "lon": 7.5561537
},
{
  "type": "node",
  "id": 7176454187,
  "lat": 47.5909503,
  "lon": 7.5561165
},
{
  "type": "node",
  "id": 7176454188,
  "lat": 47.5909489,
  "lon": 7.5560827
},
{
  "type": "node",
  "id": 7176454189,
  "lat": 47.5909462,
  "lon": 7.5560435
},
{
  "type": "node",
  "id": 7176454190,
  "lat": 47.5909361,
  "lon": 7.5559892
},
{
  "type": "node",
  "id": 7176454191,
  "lat": 47.5909205,
  "lon": 7.5559522
},
{
  "type": "node",
  "id": 7176454192,
  "lat": 47.5908891,
  "lon": 7.5559174
},
{
  "type": "node",
  "id": 7176454193,
  "lat": 47.5908640,
  "lon": 7.5558991
},
{
  "type": "node",
  "id": 7176454194,
  "lat": 47.5908537,
  "lon": 7.5558958
},
{
  "type": "node",
  "id": 7176454195,
  "lat": 47.5908147,
  "lon": 7.5558781
},
{
  "type": "node",
  "id": 7176454196,
  "lat": 47.5907985,
  "lon": 7.5558844
},
{
  "type": "node",
  "id": 7176454197,
  "lat": 47.5907691,
  "lon": 7.5559048
},
{
  "type": "node",
  "id": 7176454209,
  "lat": 47.5908953,
  "lon": 7.5562739
},
{
  "type": "node",
  "id": 7176454210,
  "lat": 47.5909270,
  "lon": 7.5562261
},
{
  "type": "node",
  "id": 7176454256,
  "lat": 47.5909720,
  "lon": 7.5556654
},
{
  "type": "node",
  "id": 7176454257,
  "lat": 47.5909833,
  "lon": 7.5556553
},
{
  "type": "node",
  "id": 7176454258,
  "lat": 47.5911224,
  "lon": 7.5555044
},
{
  "type": "node",
  "id": 7176454259,
  "lat": 47.5913237,
  "lon": 7.5552820
},
{
  "type": "node",
  "id": 7176454260,
  "lat": 47.5919066,
  "lon": 7.5547338
},
{
  "type": "node",
  "id": 7176454261,
  "lat": 47.5922692,
  "lon": 7.5543876
},
{
  "type": "node",
  "id": 7176454262,
  "lat": 47.5925393,
  "lon": 7.5541258
},
{
  "type": "node",
  "id": 7176454263,
  "lat": 47.5925851,
  "lon": 7.5540857
},
{
  "type": "node",
  "id": 7176454264,
  "lat": 47.5927058,
  "lon": 7.5541041
},
{
  "type": "node",
  "id": 7419540634,
  "lat": 47.5926097,
  "lon": 7.5550652
},
{
  "type": "node",
  "id": 7419540635,
  "lat": 47.5926964,
  "lon": 7.5552376
},
{
  "type": "node",
  "id": 7419540636,
  "lat": 47.5927720,
  "lon": 7.5552197
},
{
  "type": "node",
  "id": 7419540637,
  "lat": 47.5928378,
  "lon": 7.5553091
},
{
  "type": "node",
  "id": 7419540638,
  "lat": 47.5930780,
  "lon": 7.5550701
},
{
  "type": "node",
  "id": 7419540639,
  "lat": 47.5931054,
  "lon": 7.5550587
},
{
  "type": "node",
  "id": 7419540640,
  "lat": 47.5931251,
  "lon": 7.5550603
},
{
  "type": "node",
  "id": 7419540641,
  "lat": 47.5932096,
  "lon": 7.5552116
},
{
  "type": "node",
  "id": 7419540642,
  "lat": 47.5932874,
  "lon": 7.5553563
},
{
  "type": "node",
  "id": 7419540643,
  "lat": 47.5933357,
  "lon": 7.5554490
},
{
  "type": "node",
  "id": 7419540644,
  "lat": 47.5933554,
  "lon": 7.5554977
},
{
  "type": "node",
  "id": 7419540645,
  "lat": 47.5933669,
  "lon": 7.5555421
},
{
  "type": "node",
  "id": 7419540646,
  "lat": 47.5925815,
  "lon": 7.5550645
},
{
  "type": "node",
  "id": 7635708458,
  "lat": 47.5924980,
  "lon": 7.5541658
},
{
  "type": "node",
  "id": 7642996716,
  "lat": 47.5953682,
  "lon": 7.5540362
},
{
  "type": "node",
  "id": 440148710,
  "lat": 47.5905997,
  "lon": 7.5563021
},
{
  "type": "node",
  "id": 1252385525,
  "lat": 47.5890884,
  "lon": 7.5573081
},
{
  "type": "node",
  "id": 1252385526,
  "lat": 47.5899503,
  "lon": 7.5565065
},
{
  "type": "node",
  "id": 1255467469,
  "lat": 47.5912320,
  "lon": 7.5573878
},
{
  "type": "node",
  "id": 1255467475,
  "lat": 47.5914566,
  "lon": 7.5573231
},
{
  "type": "node",
  "id": 1255467494,
  "lat": 47.5914577,
  "lon": 7.5577373
},
{
  "type": "node",
  "id": 1255467499,
  "lat": 47.5923072,
  "lon": 7.5596078
},
{
  "type": "node",
  "id": 1255467506,
  "lat": 47.5918511,
  "lon": 7.5585895
},
{
  "type": "node",
  "id": 1255467518,
  "lat": 47.5912875,
  "lon": 7.5576644
},
{
  "type": "node",
  "id": 1255467519,
  "lat": 47.5918176,
  "lon": 7.5585655
},
{
  "type": "node",
  "id": 1255467527,
  "lat": 47.5913966,
  "lon": 7.5572755
},
{
  "type": "node",
  "id": 1255467543,
  "lat": 47.5908577,
  "lon": 7.5566281
},
{
  "type": "node",
  "id": 1255467544,
  "lat": 47.5915041,
  "lon": 7.5574696
},
{
  "type": "node",
  "id": 1255467549,
  "lat": 47.5914706,
  "lon": 7.5576186
},
{
  "type": "node",
  "id": 1255467554,
  "lat": 47.5919236,
  "lon": 7.5587643
},
{
  "type": "node",
  "id": 1283257226,
  "lat": 47.5912191,
  "lon": 7.5574488
},
{
  "type": "node",
  "id": 1889427524,
  "lat": 47.5912559,
  "lon": 7.5576266
},
{
  "type": "node",
  "id": 1889427525,
  "lat": 47.5912836,
  "lon": 7.5573022
},
{
  "type": "node",
  "id": 1889427527,
  "lat": 47.5914452,
  "lon": 7.5576536
},
{
  "type": "node",
  "id": 1889427528,
  "lat": 47.5914792,
  "lon": 7.5573614
},
{
  "type": "node",
  "id": 1940318746,
  "lat": 47.5900707,
  "lon": 7.5564854
},
{
  "type": "node",
  "id": 1989730633,
  "lat": 47.5913578,
  "lon": 7.5572688
},
{
  "type": "node",
  "id": 4446051973,
  "lat": 47.5899979,
  "lon": 7.5564852
},
{
  "type": "node",
  "id": 4446052899,
  "lat": 47.5907939,
  "lon": 7.5564966
},
{
  "type": "node",
  "id": 4446052916,
  "lat": 47.5909562,
  "lon": 7.5563410
},
{
  "type": "node",
  "id": 4446052923,
  "lat": 47.5911045,
  "lon": 7.5566535
},
{
  "type": "node",
  "id": 4530453107,
  "lat": 47.5895072,
  "lon": 7.5569093
},
{
  "type": "node",
  "id": 7129368219,
  "lat": 47.5918544,
  "lon": 7.5584751
},
{
  "type": "node",
  "id": 7129368220,
  "lat": 47.5914976,
  "lon": 7.5576797
},
{
  "type": "node",
  "id": 7129368221,
  "lat": 47.5914868,
  "lon": 7.5576232
},
{
  "type": "node",
  "id": 7129368222,
  "lat": 47.5915010,
  "lon": 7.5575272
},
{
  "type": "node",
  "id": 7162509126,
  "lat": 47.5913191,
  "lon": 7.5572780
},
{
  "type": "node",
  "id": 7162509127,
  "lat": 47.5912539,
  "lon": 7.5573398
},
{
  "type": "node",
  "id": 7162509128,
  "lat": 47.5912189,
  "lon": 7.5575127
},
{
  "type": "node",
  "id": 7162509129,
  "lat": 47.5912316,
  "lon": 7.5575738
},
{
  "type": "node",
  "id": 7162509130,
  "lat": 47.5913250,
  "lon": 7.5576876
},
{
  "type": "node",
  "id": 7162509131,
  "lat": 47.5913655,
  "lon": 7.5576942
},
{
  "type": "node",
  "id": 7162509132,
  "lat": 47.5914895,
  "lon": 7.5575756
},
{
  "type": "node",
  "id": 7162509133,
  "lat": 47.5914967,
  "lon": 7.5574130
},
{
  "type": "node",
  "id": 7162509134,
  "lat": 47.5914286,
  "lon": 7.5572940
},
{
  "type": "node",
  "id": 7162509135,
  "lat": 47.5915174,
  "lon": 7.5574665
},
{
  "type": "node",
  "id": 7162509136,
  "lat": 47.5915281,
  "lon": 7.5574334
},
{
  "type": "node",
  "id": 7162509137,
  "lat": 47.5915534,
  "lon": 7.5573887
},
{
  "type": "node",
  "id": 7162509138,
  "lat": 47.5915864,
  "lon": 7.5573541
},
{
  "type": "node",
  "id": 7162509140,
  "lat": 47.5919557,
  "lon": 7.5569492
},
{
  "type": "node",
  "id": 7162509141,
  "lat": 47.5920840,
  "lon": 7.5568195
},
{
  "type": "node",
  "id": 7162509142,
  "lat": 47.5921918,
  "lon": 7.5567187
},
{
  "type": "node",
  "id": 7162509143,
  "lat": 47.5922875,
  "lon": 7.5566391
},
{
  "type": "node",
  "id": 7162509144,
  "lat": 47.5923668,
  "lon": 7.5565414
},
{
  "type": "node",
  "id": 7162509147,
  "lat": 47.5914095,
  "lon": 7.5576778
},
{
  "type": "node",
  "id": 7162509148,
  "lat": 47.5913861,
  "lon": 7.5576865
},
{
  "type": "node",
  "id": 7162509150,
  "lat": 47.5924345,
  "lon": 7.5598712
},
{
  "type": "node",
  "id": 7162509151,
  "lat": 47.5926491,
  "lon": 7.5602981
},
{
  "type": "node",
  "id": 7162509152,
  "lat": 47.5928903,
  "lon": 7.5607802
},
{
  "type": "node",
  "id": 7162509153,
  "lat": 47.5931687,
  "lon": 7.5613465
},
{
  "type": "node",
  "id": 7162509154,
  "lat": 47.5933378,
  "lon": 7.5616839
},
{
  "type": "node",
  "id": 7162509168,
  "lat": 47.5923631,
  "lon": 7.5564082
},
{
  "type": "node",
  "id": 7162509169,
  "lat": 47.5922573,
  "lon": 7.5564937
},
{
  "type": "node",
  "id": 7162509170,
  "lat": 47.5920171,
  "lon": 7.5567021
},
{
  "type": "node",
  "id": 7162509171,
  "lat": 47.5918461,
  "lon": 7.5568981
},
{
  "type": "node",
  "id": 7162509172,
  "lat": 47.5916566,
  "lon": 7.5571128
},
{
  "type": "node",
  "id": 7162509173,
  "lat": 47.5915613,
  "lon": 7.5572238
},
{
  "type": "node",
  "id": 7162509174,
  "lat": 47.5915127,
  "lon": 7.5572641
},
{
  "type": "node",
  "id": 7162509175,
  "lat": 47.5914612,
  "lon": 7.5572800
},
{
  "type": "node",
  "id": 7162509176,
  "lat": 47.5914120,
  "lon": 7.5572844
},
{
  "type": "node",
  "id": 7176454198,
  "lat": 47.5905903,
  "lon": 7.5563528
},
{
  "type": "node",
  "id": 7176454199,
  "lat": 47.5906207,
  "lon": 7.5563914
},
{
  "type": "node",
  "id": 7176454200,
  "lat": 47.5906449,
  "lon": 7.5564097
},
{
  "type": "node",
  "id": 7176454201,
  "lat": 47.5906762,
  "lon": 7.5564245
},
{
  "type": "node",
  "id": 7176454202,
  "lat": 47.5907165,
  "lon": 7.5564252
},
{
  "type": "node",
  "id": 7176454203,
  "lat": 47.5907525,
  "lon": 7.5564259
},
{
  "type": "node",
  "id": 7176454204,
  "lat": 47.5907663,
  "lon": 7.5564357
},
{
  "type": "node",
  "id": 7176454205,
  "lat": 47.5907786,
  "lon": 7.5564597
},
{
  "type": "node",
  "id": 7176454206,
  "lat": 47.5907797,
  "lon": 7.5563935
},
{
  "type": "node",
  "id": 7176454207,
  "lat": 47.5908218,
  "lon": 7.5563514
},
{
  "type": "node",
  "id": 7176454208,
  "lat": 47.5908664,
  "lon": 7.5563063
},
{
  "type": "node",
  "id": 7176454211,
  "lat": 47.5900401,
  "lon": 7.5565490
},
{
  "type": "node",
  "id": 7176454212,
  "lat": 47.5899917,
  "lon": 7.5565905
},
{
  "type": "node",
  "id": 7176454213,
  "lat": 47.5899533,
  "lon": 7.5566277
},
{
  "type": "node",
  "id": 7176454214,
  "lat": 47.5898798,
  "lon": 7.5566931
},
{
  "type": "node",
  "id": 7176454215,
  "lat": 47.5898420,
  "lon": 7.5567271
},
{
  "type": "node",
  "id": 7176454216,
  "lat": 47.5897823,
  "lon": 7.5567849
},
{
  "type": "node",
  "id": 7176454217,
  "lat": 47.5897316,
  "lon": 7.5568317
},
{
  "type": "node",
  "id": 7176454218,
  "lat": 47.5896729,
  "lon": 7.5568830
},
{
  "type": "node",
  "id": 7176454219,
  "lat": 47.5895767,
  "lon": 7.5569715
},
{
  "type": "node",
  "id": 7176454220,
  "lat": 47.5894217,
  "lon": 7.5571164
},
{
  "type": "node",
  "id": 7176454221,
  "lat": 47.5893513,
  "lon": 7.5571803
},
{
  "type": "node",
  "id": 7176454222,
  "lat": 47.5892545,
  "lon": 7.5572740
},
{
  "type": "node",
  "id": 7176454223,
  "lat": 47.5892045,
  "lon": 7.5573227
},
{
  "type": "node",
  "id": 7176454224,
  "lat": 47.5891332,
  "lon": 7.5573910
},
{
  "type": "node",
  "id": 7176454225,
  "lat": 47.5890309,
  "lon": 7.5575021
},
{
  "type": "node",
  "id": 7176454255,
  "lat": 47.5918520,
  "lon": 7.5585339
},
{
  "type": "node",
  "id": 8463148793,
  "lat": 47.5916520,
  "lon": 7.5572822
},
{
  "type": "node",
  "id": 8478612255,
  "lat": 47.5928968,
  "lon": 7.5607933
},
{
  "type": "node",
  "id": 8478612258,
  "lat": 47.5937025,
  "lon": 7.5623705
},
{
  "type": "node",
  "id": 309169952,
  "lat": 47.5843046,
  "lon": 7.5651947
},
{
  "type": "node",
  "id": 357562045,
  "lat": 47.5856287,
  "lon": 7.5632190
},
{
  "type": "node",
  "id": 1038654797,
  "lat": 47.5825501,
  "lon": 7.5658902
},
{
  "type": "node",
  "id": 1038664895,
  "lat": 47.5824629,
  "lon": 7.5656881
},
{
  "type": "node",
  "id": 1038664906,
  "lat": 47.5828962,
  "lon": 7.5664912
},
{
  "type": "node",
  "id": 1038664912,
  "lat": 47.5829962,
  "lon": 7.5665848
},
{
  "type": "node",
  "id": 1038664914,
  "lat": 47.5824614,
  "lon": 7.5655845
},
{
  "type": "node",
  "id": 1038664937,
  "lat": 47.5834833,
  "lon": 7.5661237
},
{
  "type": "node",
  "id": 1038664989,
  "lat": 47.5829264,
  "lon": 7.5664586
},
{
  "type": "node",
  "id": 1038670222,
  "lat": 47.5848406,
  "lon": 7.5646769
},
{
  "type": "node",
  "id": 1038670240,
  "lat": 47.5847131,
  "lon": 7.5649876
},
{
  "type": "node",
  "id": 1038670246,
  "lat": 47.5838716,
  "lon": 7.5655801
},
{
  "type": "node",
  "id": 1038670256,
  "lat": 47.5840858,
  "lon": 7.5655658
},
{
  "type": "node",
  "id": 1038670259,
  "lat": 47.5844642,
  "lon": 7.5650533
},
{
  "type": "node",
  "id": 1038670263,
  "lat": 47.5830225,
  "lon": 7.5663848
},
{
  "type": "node",
  "id": 1048561191,
  "lat": 47.5849821,
  "lon": 7.5647312
},
{
  "type": "node",
  "id": 1048561216,
  "lat": 47.5830256,
  "lon": 7.5664662
},
{
  "type": "node",
  "id": 1945168901,
  "lat": 47.5834378,
  "lon": 7.5661679
},
{
  "type": "node",
  "id": 1945168903,
  "lat": 47.5841653,
  "lon": 7.5653181
},
{
  "type": "node",
  "id": 1945202756,
  "lat": 47.5825970,
  "lon": 7.5659225
},
{
  "type": "node",
  "id": 1945202801,
  "lat": 47.5828039,
  "lon": 7.5665860
},
{
  "type": "node",
  "id": 1945202814,
  "lat": 47.5835530,
  "lon": 7.5658821
},
{
  "type": "node",
  "id": 2477298975,
  "lat": 47.5826268,
  "lon": 7.5658859
},
{
  "type": "node",
  "id": 5138626837,
  "lat": 47.5829996,
  "lon": 7.5664024
},
{
  "type": "node",
  "id": 5138626838,
  "lat": 47.5830523,
  "lon": 7.5665319
},
{
  "type": "node",
  "id": 6265575094,
  "lat": 47.5834716,
  "lon": 7.5636989
},
{
  "type": "node",
  "id": 6339226304,
  "lat": 47.5858669,
  "lon": 7.5636481
},
{
  "type": "node",
  "id": 6631552065,
  "lat": 47.5826047,
  "lon": 7.5658456
},
{
  "type": "node",
  "id": 6738750031,
  "lat": 47.5832051,
  "lon": 7.5641889
},
{
  "type": "node",
  "id": 6738750032,
  "lat": 47.5831309,
  "lon": 7.5643552
},
{
  "type": "node",
  "id": 6738750033,
  "lat": 47.5829755,
  "lon": 7.5647315
},
{
  "type": "node",
  "id": 7097548173,
  "lat": 47.5843412,
  "lon": 7.5653292
},
{
  "type": "node",
  "id": 7187147143,
  "lat": 47.5864559,
  "lon": 7.5649200
},
{
  "type": "node",
  "id": 7187147144,
  "lat": 47.5864651,
  "lon": 7.5648216
},
{
  "type": "node",
  "id": 7187147145,
  "lat": 47.5863063,
  "lon": 7.5644825
},
{
  "type": "node",
  "id": 7187147146,
  "lat": 47.5862977,
  "lon": 7.5644359
},
{
  "type": "node",
  "id": 7187147147,
  "lat": 47.5862781,
  "lon": 7.5644045
},
{
  "type": "node",
  "id": 7187147148,
  "lat": 47.5860580,
  "lon": 7.5639561
},
{
  "type": "node",
  "id": 7187147149,
  "lat": 47.5859768,
  "lon": 7.5638893
},
{
  "type": "node",
  "id": 7187147150,
  "lat": 47.5858807,
  "lon": 7.5635568
},
{
  "type": "node",
  "id": 7187147151,
  "lat": 47.5856744,
  "lon": 7.5631035
},
{
  "type": "node",
  "id": 7187147152,
  "lat": 47.5856474,
  "lon": 7.5630859
},
{
  "type": "node",
  "id": 7187147159,
  "lat": 47.5856971,
  "lon": 7.5631534
},
{
  "type": "node",
  "id": 7187147160,
  "lat": 47.5867980,
  "lon": 7.5629117
},
{
  "type": "node",
  "id": 7187147161,
  "lat": 47.5867300,
  "lon": 7.5628847
},
{
  "type": "node",
  "id": 7187147162,
  "lat": 47.5865461,
  "lon": 7.5630597
},
{
  "type": "node",
  "id": 7187147163,
  "lat": 47.5862819,
  "lon": 7.5633082
},
{
  "type": "node",
  "id": 7187147164,
  "lat": 47.5861293,
  "lon": 7.5634463
},
{
  "type": "node",
  "id": 7187147165,
  "lat": 47.5860299,
  "lon": 7.5635381
},
{
  "type": "node",
  "id": 7187147166,
  "lat": 47.5858396,
  "lon": 7.5638112
},
{
  "type": "node",
  "id": 7187147167,
  "lat": 47.5857824,
  "lon": 7.5637864
},
{
  "type": "node",
  "id": 7187147168,
  "lat": 47.5855780,
  "lon": 7.5639866
},
{
  "type": "node",
  "id": 7187147169,
  "lat": 47.5854443,
  "lon": 7.5641119
},
{
  "type": "node",
  "id": 7187147170,
  "lat": 47.5853561,
  "lon": 7.5642303
},
{
  "type": "node",
  "id": 7187147171,
  "lat": 47.5851511,
  "lon": 7.5644194
},
{
  "type": "node",
  "id": 7187147172,
  "lat": 47.5850786,
  "lon": 7.5644722
},
{
  "type": "node",
  "id": 7187147173,
  "lat": 47.5850323,
  "lon": 7.5645083
},
{
  "type": "node",
  "id": 7187147174,
  "lat": 47.5849836,
  "lon": 7.5645315
},
{
  "type": "node",
  "id": 7187147175,
  "lat": 47.5849223,
  "lon": 7.5646001
},
{
  "type": "node",
  "id": 7187147177,
  "lat": 47.5850423,
  "lon": 7.5646724
},
{
  "type": "node",
  "id": 7187147178,
  "lat": 47.5850455,
  "lon": 7.5646529
},
{
  "type": "node",
  "id": 7187147179,
  "lat": 47.5852711,
  "lon": 7.5644499
},
{
  "type": "node",
  "id": 7187147180,
  "lat": 47.5854393,
  "lon": 7.5642887
},
{
  "type": "node",
  "id": 7187147181,
  "lat": 47.5855296,
  "lon": 7.5641951
},
{
  "type": "node",
  "id": 7187147182,
  "lat": 47.5855856,
  "lon": 7.5641611
},
{
  "type": "node",
  "id": 7187147183,
  "lat": 47.5858068,
  "lon": 7.5639393
},
{
  "type": "node",
  "id": 7187148185,
  "lat": 47.5859764,
  "lon": 7.5636841
},
{
  "type": "node",
  "id": 7187148186,
  "lat": 47.5860437,
  "lon": 7.5637085
},
{
  "type": "node",
  "id": 7187148187,
  "lat": 47.5860562,
  "lon": 7.5636982
},
{
  "type": "node",
  "id": 7187148188,
  "lat": 47.5861675,
  "lon": 7.5635723
},
{
  "type": "node",
  "id": 7187148189,
  "lat": 47.5862094,
  "lon": 7.5635139
},
{
  "type": "node",
  "id": 7187148190,
  "lat": 47.5862981,
  "lon": 7.5634268
},
{
  "type": "node",
  "id": 7187148191,
  "lat": 47.5864450,
  "lon": 7.5632869
},
{
  "type": "node",
  "id": 7187148192,
  "lat": 47.5865675,
  "lon": 7.5631803
},
{
  "type": "node",
  "id": 7187148193,
  "lat": 47.5865886,
  "lon": 7.5631624
},
{
  "type": "node",
  "id": 7187148194,
  "lat": 47.5868057,
  "lon": 7.5629699
},
{
  "type": "node",
  "id": 7187148195,
  "lat": 47.5869224,
  "lon": 7.5628736
},
{
  "type": "node",
  "id": 7187148197,
  "lat": 47.5855718,
  "lon": 7.5632088
},
{
  "type": "node",
  "id": 7191855633,
  "lat": 47.5839263,
  "lon": 7.5657135
},
{
  "type": "node",
  "id": 299854251,
  "lat": 47.5942842,
  "lon": 7.5633892
},
{
  "type": "node",
  "id": 1255467467,
  "lat": 47.5946236,
  "lon": 7.5644093
},
{
  "type": "node",
  "id": 1255467470,
  "lat": 47.5943068,
  "lon": 7.5634888
},
{
  "type": "node",
  "id": 1255467474,
  "lat": 47.5950584,
  "lon": 7.5652213
},
{
  "type": "node",
  "id": 1255467486,
  "lat": 47.5945967,
  "lon": 7.5647950
},
{
  "type": "node",
  "id": 1255467490,
  "lat": 47.5946659,
  "lon": 7.5641739
},
{
  "type": "node",
  "id": 1255467500,
  "lat": 47.5948911,
  "lon": 7.5653148
},
{
  "type": "node",
  "id": 1255467502,
  "lat": 47.5945729,
  "lon": 7.5646973
},
{
  "type": "node",
  "id": 1255467511,
  "lat": 47.5953301,
  "lon": 7.5650762
},
{
  "type": "node",
  "id": 1255467515,
  "lat": 47.5948237,
  "lon": 7.5653068
},
{
  "type": "node",
  "id": 1255467528,
  "lat": 47.5942911,
  "lon": 7.5634578
},
{
  "type": "node",
  "id": 1255467545,
  "lat": 47.5945697,
  "lon": 7.5639708
},
{
  "type": "node",
  "id": 1255467550,
  "lat": 47.5948854,
  "lon": 7.5654247
},
{
  "type": "node",
  "id": 4402982472,
  "lat": 47.5948378,
  "lon": 7.5653335
},
{
  "type": "node",
  "id": 7162509155,
  "lat": 47.5940064,
  "lon": 7.5629427
},
{
  "type": "node",
  "id": 7162509156,
  "lat": 47.5941323,
  "lon": 7.5631820
},
{
  "type": "node",
  "id": 7162509157,
  "lat": 47.5942245,
  "lon": 7.5633608
},
{
  "type": "node",
  "id": 7162509158,
  "lat": 47.5942499,
  "lon": 7.5633958
},
{
  "type": "node",
  "id": 8478612260,
  "lat": 47.5944287,
  "lon": 7.5637155
},
{
  "type": "node",
  "id": 472902233,
  "lat": 47.5959693,
  "lon": 7.5537323
},
{
  "type": "node",
  "id": 472905892,
  "lat": 47.5995865,
  "lon": 7.5508968
},
{
  "type": "node",
  "id": 472905894,
  "lat": 47.5998042,
  "lon": 7.5507224
},
{
  "type": "node",
  "id": 472905896,
  "lat": 47.6000978,
  "lon": 7.5504440
},
{
  "type": "node",
  "id": 472905897,
  "lat": 47.6003805,
  "lon": 7.5500019
},
{
  "type": "node",
  "id": 472913475,
  "lat": 47.5959129,
  "lon": 7.5536212
},
{
  "type": "node",
  "id": 472913477,
  "lat": 47.5966694,
  "lon": 7.5530353
},
{
  "type": "node",
  "id": 472913484,
  "lat": 47.5993836,
  "lon": 7.5508827
},
{
  "type": "node",
  "id": 472913487,
  "lat": 47.5996706,
  "lon": 7.5506627
},
{
  "type": "node",
  "id": 472913489,
  "lat": 47.5999160,
  "lon": 7.5504603
},
{
  "type": "node",
  "id": 472913494,
  "lat": 47.6000512,
  "lon": 7.5503170
},
{
  "type": "node",
  "id": 472913496,
  "lat": 47.6003046,
  "lon": 7.5499231
},
{
  "type": "node",
  "id": 501937064,
  "lat": 47.5969259,
  "lon": 7.5528260
},
{
  "type": "node",
  "id": 503641210,
  "lat": 47.5989583,
  "lon": 7.5516333
},
{
  "type": "node",
  "id": 1283267706,
  "lat": 47.5985515,
  "lon": 7.5517211
},
{
  "type": "node",
  "id": 1283267709,
  "lat": 47.5983185,
  "lon": 7.5518951
},
{
  "type": "node",
  "id": 1750476825,
  "lat": 47.5965736,
  "lon": 7.5532686
},
{
  "type": "node",
  "id": 1912548023,
  "lat": 47.5961144,
  "lon": 7.5534651
},
{
  "type": "node",
  "id": 1912548025,
  "lat": 47.5977095,
  "lon": 7.5523769
},
{
  "type": "node",
  "id": 3829135558,
  "lat": 47.5972819,
  "lon": 7.5525443
},
{
  "type": "node",
  "id": 3829135560,
  "lat": 47.5973305,
  "lon": 7.5525058
},
{
  "type": "node",
  "id": 3829135561,
  "lat": 47.5973316,
  "lon": 7.5526723
},
{
  "type": "node",
  "id": 3829135563,
  "lat": 47.5973422,
  "lon": 7.5526640
},
{
  "type": "node",
  "id": 3829135566,
  "lat": 47.5974779,
  "lon": 7.5523893
},
{
  "type": "node",
  "id": 3829135568,
  "lat": 47.5974924,
  "lon": 7.5525459
},
{
  "type": "node",
  "id": 3829135569,
  "lat": 47.5985932,
  "lon": 7.5515068
},
{
  "type": "node",
  "id": 3829135578,
  "lat": 47.5987652,
  "lon": 7.5513707
},
{
  "type": "node",
  "id": 3829135592,
  "lat": 47.5990468,
  "lon": 7.5511483
},
{
  "type": "node",
  "id": 3829135594,
  "lat": 47.5990908,
  "lon": 7.5512936
},
{
  "type": "node",
  "id": 3829135603,
  "lat": 47.5992894,
  "lon": 7.5511346
},
{
  "type": "node",
  "id": 4407019686,
  "lat": 47.5988479,
  "lon": 7.5511056
},
{
  "type": "node",
  "id": 4407019806,
  "lat": 47.5987829,
  "lon": 7.5515379
},
{
  "type": "node",
  "id": 4407019807,
  "lat": 47.5990827,
  "lon": 7.5513001
},
{
  "type": "node",
  "id": 4407044770,
  "lat": 47.5989906,
  "lon": 7.5512731
},
{
  "type": "node",
  "id": 6278004700,
  "lat": 47.5966171,
  "lon": 7.5505810
},
{
  "type": "node",
  "id": 6278004708,
  "lat": 47.5989640,
  "lon": 7.5511908
},
{
  "type": "node",
  "id": 6583836399,
  "lat": 47.5989008,
  "lon": 7.5510447
},
{
  "type": "node",
  "id": 6583836400,
  "lat": 47.5987779,
  "lon": 7.5512324
},
{
  "type": "node",
  "id": 6583836401,
  "lat": 47.5988520,
  "lon": 7.5515851
},
{
  "type": "node",
  "id": 6583836417,
  "lat": 47.5957284,
  "lon": 7.5529973
},
{
  "type": "node",
  "id": 6583836418,
  "lat": 47.5972794,
  "lon": 7.5498497
},
{
  "type": "node",
  "id": 6630741405,
  "lat": 47.5959742,
  "lon": 7.5523077
},
{
  "type": "node",
  "id": 6631282814,
  "lat": 47.5969959,
  "lon": 7.5527706
},
{
  "type": "node",
  "id": 6704011911,
  "lat": 47.5986720,
  "lon": 7.5505098
},
{
  "type": "node",
  "id": 6731677247,
  "lat": 47.5983872,
  "lon": 7.5498243
},
{
  "type": "node",
  "id": 6731677248,
  "lat": 47.5963761,
  "lon": 7.5511698
},
{
  "type": "node",
  "id": 7642996717,
  "lat": 47.5961770,
  "lon": 7.5517300
},
{
  "type": "node",
  "id": 7642996724,
  "lat": 47.5966454,
  "lon": 7.5505364
},
{
  "type": "node",
  "id": 7642996725,
  "lat": 47.5965821,
  "lon": 7.5506490
},
{
  "type": "node",
  "id": 7642996726,
  "lat": 47.5965016,
  "lon": 7.5508395
},
{
  "type": "node",
  "id": 7642996727,
  "lat": 47.5967115,
  "lon": 7.5504707
},
{
  "type": "node",
  "id": 7642996729,
  "lat": 47.5971049,
  "lon": 7.5500590
},
{
  "type": "node",
  "id": 7642996730,
  "lat": 47.5971835,
  "lon": 7.5499651
},
{
  "type": "node",
  "id": 7642996731,
  "lat": 47.5969710,
  "lon": 7.5501984
},
{
  "type": "node",
  "id": 8458598583,
  "lat": 47.5987930,
  "lon": 7.5512051
},
{
  "type": "node",
  "id": 8458598584,
  "lat": 47.5988609,
  "lon": 7.5510907
},
{
  "type": "node",
  "id": 8474827122,
  "lat": 47.5978111,
  "lon": 7.5521257
},
{
  "type": "node",
  "id": 8553453107,
  "lat": 47.5961870,
  "lon": 7.5517019
},
{
  "type": "node",
  "id": 504644326,
  "lat": 47.6075169,
  "lon": 7.5580768
},
{
  "type": "node",
  "id": 504644812,
  "lat": 47.6075380,
  "lon": 7.5580564
},
{
  "type": "node",
  "id": 5595929981,
  "lat": 47.6051750,
  "lon": 7.5603857
},
{
  "type": "node",
  "id": 1255467468,
  "lat": 47.5963914,
  "lon": 7.5641578
},
{
  "type": "node",
  "id": 1255467471,
  "lat": 47.5961521,
  "lon": 7.5645729
},
{
  "type": "node",
  "id": 1255467488,
  "lat": 47.5963288,
  "lon": 7.5638258
},
{
  "type": "node",
  "id": 1255467491,
  "lat": 47.5963634,
  "lon": 7.5642886
},
{
  "type": "node",
  "id": 1255467496,
  "lat": 47.5956234,
  "lon": 7.5649126
},
{
  "type": "node",
  "id": 1255467503,
  "lat": 47.5963708,
  "lon": 7.5639372
},
{
  "type": "node",
  "id": 1255467534,
  "lat": 47.5958621,
  "lon": 7.5647724
},
{
  "type": "node",
  "id": 1255467540,
  "lat": 47.5961405,
  "lon": 7.5635285
},
{
  "type": "node",
  "id": 1255467546,
  "lat": 47.5962859,
  "lon": 7.5644494
},
{
  "type": "node",
  "id": 352713898,
  "lat": 47.6131778,
  "lon": 7.5525098
},
{
  "type": "node",
  "id": 612122734,
  "lat": 47.6123621,
  "lon": 7.5532900
},
{
  "type": "node",
  "id": 5859010641,
  "lat": 47.6158309,
  "lon": 7.5498713
},
{
  "type": "node",
  "id": 767376378,
  "lat": 48.7188048,
  "lon": 7.2239170
},
{
  "type": "node",
  "id": 767376381,
  "lat": 48.7189112,
  "lon": 7.2241230
},
{
  "type": "node",
  "id": 767376382,
  "lat": 48.7201960,
  "lon": 7.2261973
},
{
  "type": "node",
  "id": 767376384,
  "lat": 48.7203238,
  "lon": 7.2263906
},
{
  "type": "node",
  "id": 767376385,
  "lat": 48.7203798,
  "lon": 7.2263859
},
{
  "type": "node",
  "id": 767376386,
  "lat": 48.7203796,
  "lon": 7.2259244
},
{
  "type": "node",
  "id": 833420342,
  "lat": 48.7204062,
  "lon": 7.2261555
},
{
  "type": "node",
  "id": 833420343,
  "lat": 48.7204170,
  "lon": 7.2262385
},
{
  "type": "node",
  "id": 833420344,
  "lat": 48.7204180,
  "lon": 7.2263189
},
{
  "type": "node",
  "id": 2240013299,
  "lat": 48.7203528,
  "lon": 7.2263944
},
{
  "type": "node",
  "id": 2240013300,
  "lat": 48.7203998,
  "lon": 7.2263645
},
{
  "type": "node",
  "id": 2284903511,
  "lat": 48.7189919,
  "lon": 7.2242433
},
{
  "type": "node",
  "id": 2284903514,
  "lat": 48.7190581,
  "lon": 7.2243037
},
{
  "type": "node",
  "id": 2284903570,
  "lat": 48.7198020,
  "lon": 7.2255358
},
{
  "type": "node",
  "id": 2526316535,
  "lat": 48.7185015,
  "lon": 7.2233241
},
{
  "type": "node",
  "id": 3412394099,
  "lat": 48.7189522,
  "lon": 7.2241908
},
{
  "type": "node",
  "id": 3412394100,
  "lat": 48.7192697,
  "lon": 7.2246625
},
{
  "type": "node",
  "id": 3412394101,
  "lat": 48.7203041,
  "lon": 7.2263696
},
{
  "type": "node",
  "id": 3412394102,
  "lat": 48.7203376,
  "lon": 7.2263954
},
{
  "type": "node",
  "id": 3412394103,
  "lat": 48.7203662,
  "lon": 7.2263934
},
{
  "type": "node",
  "id": 3412394104,
  "lat": 48.7204091,
  "lon": 7.2263473
},
{
  "type": "node",
  "id": 3412394105,
  "lat": 48.7204185,
  "lon": 7.2262870
},
{
  "type": "node",
  "id": 8244654622,
  "lat": 48.7185335,
  "lon": 7.2234576
}

  ]
}
