{
  "version": 0.6,
  "generator": "Overpass API 0.7.57.1 74a55df1",
  "osm3s": {
    "timestamp_osm_base": "2022-02-13T13:18:30Z",
    "timestamp_areas_base": "2022-02-13T02:36:10Z",
    "copyright": "The data included in this document is from www.openstreetmap.org. The data is made available under ODbL."
  },
  "elements": [

{
  "type": "node",
  "id": 25369279,
  "lat": 43.6025573,
  "lon": 7.0861803,
  "tags": {
    "bus": "yes",
    "highway": "bus_stop",
    "name": "Centre Commercial",
    "public_transport": "stop_position"
  }
},
{
  "type": "node",
  "id": 25744748,
  "lat": 43.6021623,
  "lon": 7.0848221,
  "tags": {
    "bus": "yes",
    "highway": "bus_stop",
    "name": "Carrefour St Claude",
    "public_transport": "stop_position"
  }
},
{
  "type": "node",
  "id": 25900762,
  "lat": 43.5943339,
  "lon": 7.0979996,
  "tags": {
    "bus": "yes",
    "highway": "bus_stop",
    "name": "Square Cerutti",
    "public_transport": "stop_position"
  }
},
{
  "type": "node",
  "id": 25901793,
  "lat": 43.5890010,
  "lon": 7.1235837,
  "tags": {
    "bus": "yes",
    "highway": "bus_stop",
    "name": "Fort Carré",
    "public_transport": "stop_position"
  }
},
{
  "type": "node",
  "id": 27316363,
  "lat": 43.5833889,
  "lon": 7.1080729,
  "tags": {
    "bus": "yes",
    "highway": "bus_stop",
    "name": "Roi Soleil",
    "public_transport": "stop_position"
  }
},
{
  "type": "node",
  "id": 27316546,
  "lat": 43.5784252,
  "lon": 7.1056442,
  "tags": {
    "bus": "yes",
    "highway": "bus_stop",
    "name": "Autrichiens",
    "public_transport": "stop_position"
  }
},
{
  "type": "node",
  "id": 27318434,
  "lat": 43.5763343,
  "lon": 7.0875373,
  "tags": {
    "bus": "yes",
    "highway": "bus_stop",
    "name": "Ambroisie Lauvert",
    "public_transport": "stop_position"
  }
},
{
  "type": "node",
  "id": 27319234,
  "lat": 43.5730422,
  "lon": 7.1248416,
  "tags": {
    "bus": "yes",
    "highway": "bus_stop",
    "name": "Parking du Ponteil",
    "operator": "Envibus",
    "public_transport": "stop_position",
    "ref": "1069"
  }
},
{
  "type": "node",
  "id": 27320746,
  "lat": 43.5551713,
  "lon": 7.1285870,
  "tags": {
    "bus": "yes",
    "highway": "bus_stop",
    "name": "Chemin des Ondes",
    "public_transport": "stop_position"
  }
},
{
  "type": "node",
  "id": 27320755,
  "lat": 43.5570574,
  "lon": 7.1285946,
  "tags": {
    "bus": "yes",
    "highway": "bus_stop",
    "name": "École du Cap",
    "public_transport": "stop_position"
  }
},
{
  "type": "node",
  "id": 27320785,
  "lat": 43.5625078,
  "lon": 7.1270970,
  "tags": {
    "bus": "yes",
    "highway": "bus_stop",
    "name": "Empel",
    "public_transport": "stop_position"
  }
},
{
  "type": "node",
  "id": 27321349,
  "lat": 43.5709174,
  "lon": 7.1280245,
  "tags": {
    "bus": "yes",
    "highway": "bus_stop",
    "name": "Plage de la Salis",
    "public_transport": "stop_position"
  }
},
{
  "type": "node",
  "id": 27321395,
  "lat": 43.5844102,
  "lon": 7.1222067,
  "tags": {
    "bus": "yes",
    "highway": "bus_stop",
    "name": "Avenue Verdun",
    "public_transport": "stop_position"
  }
},
{
  "type": "node",
  "id": 27327355,
  "lat": 43.5975156,
  "lon": 7.0694871,
  "tags": {
    "bus": "yes",
    "highway": "bus_stop",
    "name": "Semboules",
    "public_transport": "stop_position"
  }
},
{
  "type": "node",
  "id": 27330775,
  "lat": 43.5747480,
  "lon": 7.1084121,
  "tags": {
    "bus": "yes",
    "highway": "bus_stop",
    "name": "Olivaie",
    "public_transport": "stop_position"
  }
},
{
  "type": "node",
  "id": 27331307,
  "lat": 43.5705729,
  "lon": 7.1070223,
  "tags": {
    "bus": "yes",
    "highway": "bus_stop",
    "name": "Saint-Honorat",
    "public_transport": "stop_position"
  }
},
{
  "type": "node",
  "id": 27331981,
  "lat": 43.6118387,
  "lon": 7.1262920,
  "tags": {
    "bus": "yes",
    "highway": "bus_stop",
    "name": "Gare SNCF de Biot",
    "public_transport": "stop_position"
  }
},
{
  "type": "node",
  "id": 28842421,
  "lat": 43.5735780,
  "lon": 7.0886305,
  "tags": {
    "bus": "yes",
    "highway": "bus_stop",
    "name": "Les Eucalyptus",
    "public_transport": "stop_position"
  }
},
{
  "type": "node",
  "id": 29416816,
  "lat": 43.5857138,
  "lon": 7.0905338,
  "tags": {
    "bus": "yes",
    "highway": "bus_stop",
    "name": "Chapelle Saint-Jean",
    "public_transport": "stop_position"
  }
},
{
  "type": "node",
  "id": 29851322,
  "lat": 43.5934175,
  "lon": 7.1085177,
  "tags": {
    "bus": "yes",
    "highway": "bus_stop",
    "name": "Cimetière Rabiac Haut",
    "public_transport": "stop_position"
  }
},
{
  "type": "node",
  "id": 29851333,
  "lat": 43.5890360,
  "lon": 7.1123306,
  "tags": {
    "bus": "yes",
    "highway": "bus_stop",
    "name": "Marepolis",
    "public_transport": "stop_position"
  }
},
{
  "type": "node",
  "id": 29851335,
  "lat": 43.5886937,
  "lon": 7.1140244,
  "tags": {
    "bus": "yes",
    "highway": "bus_stop",
    "name": "Chenonceau",
    "public_transport": "stop_position"
  }
},
{
  "type": "node",
  "id": 32862371,
  "lat": 43.5793655,
  "lon": 7.0848384,
  "tags": {
    "bus": "yes",
    "highway": "bus_stop",
    "name": "Pimeau",
    "public_transport": "stop_position"
  }
},
{
  "type": "node",
  "id": 32961990,
  "lat": 43.6051856,
  "lon": 7.0834732,
  "tags": {
    "bus": "yes",
    "highway": "bus_stop",
    "name": "Anemones",
    "public_transport": "stop_position"
  }
},
{
  "type": "node",
  "id": 276812324,
  "lat": 43.6048871,
  "lon": 7.0832991,
  "tags": {
    "bus": "yes",
    "highway": "bus_stop",
    "name": "Super Antibes",
    "public_transport": "stop_position"
  }
},
{
  "type": "node",
  "id": 290103302,
  "lat": 43.6149140,
  "lon": 7.1192851,
  "tags": {
    "bus": "yes",
    "highway": "bus_stop",
    "name": "Château de la Brague",
    "public_transport": "stop_position"
  }
},
{
  "type": "node",
  "id": 301726830,
  "lat": 43.5961332,
  "lon": 7.1143378,
  "tags": {
    "bus": "yes",
    "highway": "bus_stop",
    "name": "Coopérative Agricole",
    "public_transport": "stop_position"
  }
},
{
  "type": "node",
  "id": 330594816,
  "lat": 43.5998264,
  "lon": 7.0859110,
  "tags": {
    "bus": "yes",
    "highway": "bus_stop",
    "name": "Olympie",
    "operator": "Envibus",
    "public_transport": "stop_position",
    "ref": "3022"
  }
},
{
  "type": "node",
  "id": 330594822,
  "lat": 43.5997075,
  "lon": 7.0862283,
  "tags": {
    "bus": "yes",
    "highway": "bus_stop",
    "name": "Olympie",
    "operator": "Envibus",
    "public_transport": "stop_position",
    "ref": "3023"
  }
},
{
  "type": "node",
  "id": 330763604,
  "lat": 43.5590511,
  "lon": 7.1354720,
  "tags": {
    "highway": "bus_stop",
    "name": "Relais Jeunesse",
    "operator": "Envibus",
    "ref": "1090"
  }
},
{
  "type": "node",
  "id": 330763605,
  "lat": 43.5590470,
  "lon": 7.1356191,
  "tags": {
    "highway": "bus_stop",
    "name": "Relais Jeunesse",
    "operator": "Envibus",
    "ref": "1089"
  }
},
{
  "type": "node",
  "id": 503138392,
  "lat": 43.5491241,
  "lon": 7.1202982,
  "tags": {
    "bus": "yes",
    "highway": "bus_stop",
    "name": "Eden Roc",
    "public_transport": "stop_position",
    "source": "cadastre-dgi-fr source : Direction Générale des Impôts - Cadastre. Mise à jour : 2009"
  }
},
{
  "type": "node",
  "id": 529642494,
  "lat": 43.5925652,
  "lon": 7.1021231,
  "tags": {
    "bus": "yes",
    "highway": "bus_stop",
    "name": "Bastides",
    "public_transport": "stop_position"
  }
},
{
  "type": "node",
  "id": 659821477,
  "lat": 43.6035208,
  "lon": 7.1142615,
  "tags": {
    "bus": "yes",
    "highway": "bus_stop",
    "name": "Bréguières",
    "public_transport": "platform",
    "shelter": "no",
    "tactile_paving": "no"
  }
},
{
  "type": "node",
  "id": 1042620098,
  "lat": 43.5757547,
  "lon": 7.1097266,
  "tags": {
    "bus": "yes",
    "highway": "bus_stop",
    "name": "Eden Park",
    "public_transport": "stop_position"
  }
},
{
  "type": "node",
  "id": 1104422648,
  "lat": 43.5972047,
  "lon": 7.0720672,
  "tags": {
    "bus": "yes",
    "highway": "bus_stop",
    "name": "Breton",
    "public_transport": "stop_position"
  }
},
{
  "type": "node",
  "id": 1188863667,
  "lat": 43.5920504,
  "lon": 7.1161230,
  "tags": {
    "bus": "yes",
    "highway": "bus_stop",
    "name": "Oliviers",
    "public_transport": "stop_position"
  }
},
{
  "type": "node",
  "id": 1212249330,
  "lat": 43.5733866,
  "lon": 7.0870441,
  "tags": {
    "bus": "yes",
    "highway": "bus_stop",
    "name": "Les Eucalyptus",
    "public_transport": "stop_position"
  }
},
{
  "type": "node",
  "id": 1231565744,
  "lat": 43.5688889,
  "lon": 7.1147658,
  "tags": {
    "bus": "yes",
    "highway": "bus_stop",
    "name": "Palais des Congrès 2",
    "public_transport": "stop_position"
  }
},
{
  "type": "node",
  "id": 1323051997,
  "lat": 43.5707621,
  "lon": 7.1244382,
  "tags": {
    "bus": "yes",
    "highway": "bus_stop",
    "name": "Hermitage",
    "public_transport": "stop_position"
  }
},
{
  "type": "node",
  "id": 1323052040,
  "lat": 43.5774457,
  "lon": 7.1253410,
  "tags": {
    "bus": "yes",
    "highway": "bus_stop",
    "name": "Avenue Barquier",
    "public_transport": "stop_position"
  }
},
{
  "type": "node",
  "id": 1323052041,
  "lat": 43.5543715,
  "lon": 7.1328650,
  "tags": {
    "highway": "bus_stop",
    "name": "Garoupe"
  }
},
{
  "type": "node",
  "id": 1476378798,
  "lat": 43.5827148,
  "lon": 7.1060752,
  "tags": {
    "bus": "yes",
    "highway": "bus_stop",
    "name": "Saint-Jean",
    "public_transport": "stop_position"
  }
},
{
  "type": "node",
  "id": 1476378806,
  "lat": 43.5842036,
  "lon": 7.1045465,
  "tags": {
    "bus": "yes",
    "highway": "bus_stop",
    "name": "Val d'Or",
    "public_transport": "stop_position"
  }
},
{
  "type": "node",
  "id": 1476378813,
  "lat": 43.5851806,
  "lon": 7.0955170,
  "tags": {
    "bus": "yes",
    "highway": "bus_stop",
    "name": "Route de Saint-Jean",
    "public_transport": "stop_position"
  }
},
{
  "type": "node",
  "id": 1547995890,
  "lat": 43.5767005,
  "lon": 7.0902484,
  "tags": {
    "bus": "yes",
    "highway": "bus_stop",
    "name": "Barreau",
    "public_transport": "stop_position"
  }
},
{
  "type": "node",
  "id": 1595550267,
  "lat": 43.6024762,
  "lon": 7.0855985,
  "tags": {
    "bus": "yes",
    "highway": "bus_stop",
    "name": "Centre Commercial",
    "public_transport": "stop_position"
  }
},
{
  "type": "node",
  "id": 1655331423,
  "lat": 43.5971761,
  "lon": 7.0971998,
  "tags": {
    "bus": "yes",
    "highway": "bus_stop",
    "name": "Corail",
    "public_transport": "stop_position"
  }
},
{
  "type": "node",
  "id": 1657320897,
  "lat": 43.5860260,
  "lon": 7.1123629,
  "tags": {
    "bus": "yes",
    "highway": "bus_stop",
    "name": "Pagane",
    "public_transport": "stop_position"
  }
},
{
  "type": "node",
  "id": 1657320935,
  "lat": 43.5877575,
  "lon": 7.1102853,
  "tags": {
    "bus": "yes",
    "highway": "bus_stop",
    "name": "Rabiac Estagnol",
    "public_transport": "stop_position"
  }
},
{
  "type": "node",
  "id": 1657636966,
  "lat": 43.6070622,
  "lon": 7.1082140,
  "tags": {
    "bus": "yes",
    "highway": "bus_stop",
    "name": "Constance",
    "public_transport": "stop_position"
  }
},
{
  "type": "node",
  "id": 1657714681,
  "lat": 43.6061334,
  "lon": 7.0894267,
  "tags": {
    "bus": "yes",
    "highway": "bus_stop",
    "name": "Les Fleurs",
    "public_transport": "stop_position"
  }
},
{
  "type": "node",
  "id": 1657736180,
  "lat": 43.6006211,
  "lon": 7.0729000,
  "tags": {
    "bus": "yes",
    "highway": "bus_stop",
    "name": "Cimetière Bas",
    "public_transport": "stop_position"
  }
},
{
  "type": "node",
  "id": 1757702653,
  "lat": 43.6027217,
  "lon": 7.1152243,
  "tags": {
    "bus": "yes",
    "highway": "bus_stop",
    "name": "Centre hospitalier",
    "public_transport": "stop_position"
  }
},
{
  "type": "node",
  "id": 1762277510,
  "lat": 43.5795165,
  "lon": 7.0956378,
  "tags": {
    "highway": "bus_stop",
    "name": "Pensées"
  }
},
{
  "type": "node",
  "id": 1762277511,
  "lat": 43.5796195,
  "lon": 7.0955141,
  "tags": {
    "highway": "bus_stop",
    "name": "Pensées"
  }
},
{
  "type": "node",
  "id": 1762277514,
  "lat": 43.5797461,
  "lon": 7.0906922,
  "tags": {
    "highway": "bus_stop",
    "name": "Stade Auvergne",
    "public_transport": "platform",
    "ref": "2095",
    "shelter": "no"
  }
},
{
  "type": "node",
  "id": 1762277515,
  "lat": 43.5798156,
  "lon": 7.0905353,
  "tags": {
    "highway": "bus_stop",
    "name": "Stade Auvergne",
    "public_transport": "platform",
    "ref": "2096",
    "shelter": "no"
  }
},
{
  "type": "node",
  "id": 1789935392,
  "lat": 43.5846137,
  "lon": 7.1018894,
  "tags": {
    "bus": "yes",
    "highway": "bus_stop",
    "name": "Usine Electrique",
    "public_transport": "stop_position"
  }
},
{
  "type": "node",
  "id": 1864840379,
  "lat": 43.5914534,
  "lon": 7.1055632,
  "tags": {
    "bus": "yes",
    "highway": "bus_stop",
    "name": "Sarrazine",
    "public_transport": "stop_position"
  }
},
{
  "type": "node",
  "id": 1864840391,
  "lat": 43.5915629,
  "lon": 7.1052978,
  "tags": {
    "bus": "yes",
    "highway": "bus_stop",
    "name": "Sarrazine",
    "public_transport": "stop_position"
  }
},
{
  "type": "node",
  "id": 1985677613,
  "lat": 43.5903881,
  "lon": 7.0975932,
  "tags": {
    "bus": "yes",
    "highway": "bus_stop",
    "name": "Lou Paradou",
    "public_transport": "stop_position"
  }
},
{
  "type": "node",
  "id": 1988684809,
  "lat": 43.5903327,
  "lon": 7.1080033,
  "tags": {
    "bus": "yes",
    "highway": "bus_stop",
    "name": "Cimetière Rabiac",
    "public_transport": "stop_position"
  }
},
{
  "type": "node",
  "id": 2041088009,
  "lat": 43.5746172,
  "lon": 7.0904045,
  "tags": {
    "bus": "yes",
    "highway": "bus_stop",
    "name": "Amphores 2",
    "public_transport": "stop_position"
  }
},
{
  "type": "node",
  "id": 2041088010,
  "lat": 43.5746230,
  "lon": 7.0904667,
  "tags": {
    "bus": "yes",
    "highway": "bus_stop",
    "name": "Amphores 2",
    "public_transport": "stop_position"
  }
},
{
  "type": "node",
  "id": 2211964626,
  "lat": 43.6063641,
  "lon": 7.0723940,
  "tags": {
    "bus": "yes",
    "highway": "bus_stop",
    "name": "Foyer le Roc",
    "public_transport": "stop_position"
  }
},
{
  "type": "node",
  "id": 2247862959,
  "lat": 43.5918912,
  "lon": 7.1014070,
  "tags": {
    "bench": "yes",
    "highway": "bus_stop",
    "name": "Jardin de l'Amiral",
    "network": "CASA",
    "operator": "Envibus",
    "public_transport": "platform",
    "ref": "3054"
  }
},
{
  "type": "node",
  "id": 2247862960,
  "lat": 43.5921608,
  "lon": 7.1023158,
  "tags": {
    "highway": "bus_stop",
    "name": "Jardin de l'Amiral",
    "network": "CASA",
    "operator": "Envibus",
    "public_transport": "platform",
    "ref": "3055"
  }
},
{
  "type": "node",
  "id": 2247875658,
  "lat": 43.5909178,
  "lon": 7.0986698,
  "tags": {
    "bench": "yes",
    "highway": "bus_stop",
    "name": "Tamaris",
    "network": "CASA",
    "operator": "Envibus",
    "public_transport": "platform",
    "ref": "3083"
  }
},
{
  "type": "node",
  "id": 2247875664,
  "lat": 43.5909651,
  "lon": 7.0985377,
  "tags": {
    "bench": "yes",
    "highway": "bus_stop",
    "name": "Tamaris",
    "network": "CASA",
    "operator": "Envibus",
    "public_transport": "platform",
    "ref": "3082"
  }
},
{
  "type": "node",
  "id": 2248025427,
  "lat": 43.5865731,
  "lon": 7.1069500,
  "tags": {
    "highway": "bus_stop",
    "name": "Mimosas",
    "network": "CASA",
    "operator": "Envibus",
    "public_transport": "platform"
  }
},
{
  "type": "node",
  "id": 2248025428,
  "lat": 43.5867571,
  "lon": 7.1070778,
  "tags": {
    "highway": "bus_stop",
    "name": "Mimosas",
    "network": "CASA",
    "operator": "Envibus",
    "public_transport": "platform",
    "ref": "2059"
  }
},
{
  "type": "node",
  "id": 2248028798,
  "lat": 43.5845691,
  "lon": 7.1069515,
  "tags": {
    "bus": "yes",
    "highway": "bus_stop",
    "name": "Carriat",
    "network": "Envibus",
    "public_transport": "platform",
    "ref": "2022"
  }
},
{
  "type": "node",
  "id": 2248028799,
  "lat": 43.5846169,
  "lon": 7.1068313,
  "tags": {
    "bench": "yes",
    "bus": "yes",
    "highway": "bus_stop",
    "name": "Carriat",
    "network": "Envibus",
    "public_transport": "platform",
    "ref": "2021"
  }
},
{
  "type": "node",
  "id": 2256178773,
  "lat": 43.6027664,
  "lon": 7.0880377,
  "tags": {
    "bus": "yes",
    "highway": "bus_stop",
    "name": "Chapelle des Combes",
    "public_transport": "stop_position"
  }
},
{
  "type": "node",
  "id": 2261575890,
  "lat": 43.6004707,
  "lon": 7.1220534,
  "tags": {
    "bench": "yes",
    "bus": "yes",
    "highway": "bus_stop",
    "name": "Place Jean Aude",
    "network": "Envibus",
    "public_transport": "platform",
    "ref": "4111"
  }
},
{
  "type": "node",
  "id": 2345559789,
  "lat": 43.5930234,
  "lon": 7.1135352,
  "tags": {
    "bus": "yes",
    "highway": "bus_stop",
    "name": "Lycée Jacques Dolle",
    "old_name": "Anthala",
    "public_transport": "stop_position"
  }
},
{
  "type": "node",
  "id": 2345559969,
  "lat": 43.6024521,
  "lon": 7.1205870,
  "tags": {
    "bus": "yes",
    "highway": "bus_stop",
    "name": "Las Palmas",
    "public_transport": "stop_position"
  }
},
{
  "type": "node",
  "id": 2425630957,
  "lat": 43.5743827,
  "lon": 7.0918967,
  "tags": {
    "bus": "yes",
    "highway": "bus_stop",
    "name": "Antibes-les-Pins",
    "old_name": "Amphores",
    "public_transport": "stop_position"
  }
},
{
  "type": "node",
  "id": 2425633884,
  "lat": 43.5746883,
  "lon": 7.0928889,
  "tags": {
    "bus": "yes",
    "highway": "bus_stop",
    "name": "Antibes-les-Pins",
    "old_name": "Amphores",
    "public_transport": "stop_position"
  }
},
{
  "type": "node",
  "id": 2428067043,
  "lat": 43.6038727,
  "lon": 7.0728497,
  "tags": {
    "bus": "yes",
    "highway": "bus_stop",
    "name": "Lycée L. de Vinci",
    "public_transport": "stop_position"
  }
},
{
  "type": "node",
  "id": 2428067050,
  "lat": 43.6031690,
  "lon": 7.0796282,
  "tags": {
    "bus": "yes",
    "highway": "bus_stop",
    "name": "Stade des 3 Moulins",
    "public_transport": "stop_position"
  }
},
{
  "type": "node",
  "id": 2428081785,
  "lat": 43.5995035,
  "lon": 7.1003394,
  "tags": {
    "bus": "yes",
    "highway": "bus_stop",
    "name": "Logis de St. Claude",
    "public_transport": "stop_position"
  }
},
{
  "type": "node",
  "id": 2428081786,
  "lat": 43.6017669,
  "lon": 7.0927771,
  "tags": {
    "bus": "yes",
    "highway": "bus_stop",
    "name": "Nova Antipolis",
    "public_transport": "stop_position"
  }
},
{
  "type": "node",
  "id": 2428081787,
  "lat": 43.5917562,
  "lon": 7.1161967,
  "tags": {
    "bus": "yes",
    "highway": "bus_stop",
    "name": "Oliviers",
    "public_transport": "stop_position"
  }
},
{
  "type": "node",
  "id": 2428081788,
  "lat": 43.5965239,
  "lon": 7.1055415,
  "tags": {
    "bus": "yes",
    "highway": "bus_stop",
    "name": "Vallon Vert",
    "public_transport": "stop_position"
  }
},
{
  "type": "node",
  "id": 2428095449,
  "lat": 43.5830735,
  "lon": 7.1202715,
  "tags": {
    "bus": "yes",
    "highway": "bus_stop",
    "name": "Diables Bleus",
    "public_transport": "stop_position"
  }
},
{
  "type": "node",
  "id": 2428095451,
  "lat": 43.5894876,
  "lon": 7.1176937,
  "tags": {
    "bus": "yes",
    "highway": "bus_stop",
    "name": "Stade Nautique",
    "public_transport": "stop_position"
  }
},
{
  "type": "node",
  "id": 2428141715,
  "lat": 43.5754328,
  "lon": 7.1170999,
  "tags": {
    "bus": "yes",
    "highway": "bus_stop",
    "name": "Balzac",
    "public_transport": "stop_position"
  }
},
{
  "type": "node",
  "id": 2428141724,
  "lat": 43.5805551,
  "lon": 7.1195127,
  "tags": {
    "bus": "yes",
    "highway": "bus_stop",
    "name": "Briand",
    "public_transport": "stop_position"
  }
},
{
  "type": "node",
  "id": 2428141728,
  "lat": 43.5771444,
  "lon": 7.1180639,
  "tags": {
    "bus": "yes",
    "highway": "bus_stop",
    "name": "Dames Blanches",
    "public_transport": "stop_position"
  }
},
{
  "type": "node",
  "id": 2428141731,
  "lat": 43.5720165,
  "lon": 7.1060810,
  "tags": {
    "bus": "yes",
    "highway": "bus_stop",
    "name": "Jardin Pauline",
    "public_transport": "stop_position"
  }
},
{
  "type": "node",
  "id": 2428141736,
  "lat": 43.5739093,
  "lon": 7.1166301,
  "tags": {
    "bus": "yes",
    "highway": "bus_stop",
    "name": "Lycée Audiberti",
    "public_transport": "stop_position"
  }
},
{
  "type": "node",
  "id": 2428141740,
  "lat": 43.5694400,
  "lon": 7.1139124,
  "tags": {
    "bus": "yes",
    "highway": "bus_stop",
    "name": "Pin Doré",
    "public_transport": "stop_position"
  }
},
{
  "type": "node",
  "id": 2428141745,
  "lat": 43.5727913,
  "lon": 7.1013747,
  "tags": {
    "bus": "yes",
    "highway": "bus_stop",
    "name": "Pont du Lys",
    "public_transport": "stop_position"
  }
},
{
  "type": "node",
  "id": 2428141749,
  "lat": 43.5710948,
  "lon": 7.1147047,
  "tags": {
    "bus": "yes",
    "highway": "bus_stop",
    "name": "Printemps",
    "public_transport": "stop_position"
  }
},
{
  "type": "node",
  "id": 2428141753,
  "lat": 43.5688746,
  "lon": 7.1098421,
  "tags": {
    "bus": "yes",
    "highway": "bus_stop",
    "name": "Ruban Bleu",
    "public_transport": "stop_position"
  }
},
{
  "type": "node",
  "id": 2428141757,
  "lat": 43.5750981,
  "lon": 7.0954439,
  "tags": {
    "bus": "yes",
    "highway": "bus_stop",
    "name": "Sainte-Jeanne D'Arc",
    "public_transport": "stop_position"
  }
},
{
  "type": "node",
  "id": 2428141762,
  "lat": 43.5722986,
  "lon": 7.1033306,
  "tags": {
    "bus": "yes",
    "highway": "bus_stop",
    "name": "Square Dulys",
    "public_transport": "stop_position"
  }
},
{
  "type": "node",
  "id": 2428141769,
  "lat": 43.5744272,
  "lon": 7.0991808,
  "tags": {
    "bus": "yes",
    "highway": "bus_stop",
    "name": "Trianon",
    "public_transport": "stop_position"
  }
},
{
  "type": "node",
  "id": 2428141773,
  "lat": 43.5785292,
  "lon": 7.1194886,
  "tags": {
    "bus": "yes",
    "highway": "bus_stop",
    "name": "Wilson",
    "public_transport": "stop_position"
  }
},
{
  "type": "node",
  "id": 2446911779,
  "lat": 43.6040254,
  "lon": 7.0771698,
  "tags": {
    "bus": "yes",
    "highway": "bus_stop",
    "name": "Ateliers Municipaux",
    "public_transport": "stop_position"
  }
},
{
  "type": "node",
  "id": 2446911786,
  "lat": 43.5808543,
  "lon": 7.1197647,
  "tags": {
    "bus": "yes",
    "highway": "bus_stop",
    "name": "Dugommier",
    "public_transport": "stop_position"
  }
},
{
  "type": "node",
  "id": 2446911792,
  "lat": 43.5703673,
  "lon": 7.1087301,
  "tags": {
    "bus": "yes",
    "highway": "bus_stop",
    "name": "Estérel",
    "public_transport": "stop_position"
  }
},
{
  "type": "node",
  "id": 2446911796,
  "lat": 43.5900294,
  "lon": 7.1174994,
  "tags": {
    "bus": "yes",
    "highway": "bus_stop",
    "name": "Stade Nautique",
    "public_transport": "stop_position"
  }
},
{
  "type": "node",
  "id": 2491266165,
  "lat": 43.5801971,
  "lon": 7.1223901,
  "tags": {
    "bus": "yes",
    "highway": "bus_stop",
    "name": "Gare Routière d'Antibes",
    "public_transport": "stop_position"
  }
},
{
  "type": "node",
  "id": 2491266167,
  "lat": 43.5802308,
  "lon": 7.1224513,
  "tags": {
    "bus": "yes",
    "highway": "bus_stop",
    "name": "Gare Routière d'Antibes",
    "public_transport": "stop_position"
  }
},
{
  "type": "node",
  "id": 2508439057,
  "lat": 43.5852476,
  "lon": 7.1166690,
  "tags": {
    "bus": "yes",
    "highway": "bus_stop",
    "name": "Rochat",
    "public_transport": "stop_position"
  }
},
{
  "type": "node",
  "id": 2508439062,
  "lat": 43.5859604,
  "lon": 7.1129267,
  "tags": {
    "bus": "yes",
    "highway": "bus_stop",
    "name": "Pagane",
    "public_transport": "stop_position"
  }
},
{
  "type": "node",
  "id": 2508439066,
  "lat": 43.5878664,
  "lon": 7.1102822,
  "tags": {
    "bus": "yes",
    "highway": "bus_stop",
    "name": "Rabiac Estagnol",
    "public_transport": "stop_position"
  }
},
{
  "type": "node",
  "id": 2508439071,
  "lat": 43.5904823,
  "lon": 7.1087233,
  "tags": {
    "bus": "yes",
    "highway": "bus_stop",
    "name": "Cimetière Rabiac",
    "public_transport": "stop_position"
  }
},
{
  "type": "node",
  "id": 2508439075,
  "lat": 43.5928068,
  "lon": 7.1017489,
  "tags": {
    "bus": "yes",
    "highway": "bus_stop",
    "name": "Bastides",
    "public_transport": "stop_position"
  }
},
{
  "type": "node",
  "id": 2508439078,
  "lat": 43.5936011,
  "lon": 7.0991897,
  "tags": {
    "bus": "yes",
    "highway": "bus_stop",
    "name": "Collège Bertone",
    "public_transport": "stop_position"
  }
},
{
  "type": "node",
  "id": 2508439082,
  "lat": 43.5949084,
  "lon": 7.0925618,
  "tags": {
    "bus": "yes",
    "highway": "bus_stop",
    "name": "Croix Rouge",
    "public_transport": "stop_position"
  }
},
{
  "type": "node",
  "id": 2508439086,
  "lat": 43.5950555,
  "lon": 7.0922702,
  "tags": {
    "bus": "yes",
    "highway": "bus_stop",
    "name": "Croix Rouge",
    "public_transport": "stop_position",
    "survey:date": "2020-05-22"
  }
},
{
  "type": "node",
  "id": 2508439097,
  "lat": 43.5973124,
  "lon": 7.0921666,
  "tags": {
    "bus": "yes",
    "highway": "bus_stop",
    "name": "Martyrs de la Resistance",
    "public_transport": "stop_position"
  }
},
{
  "type": "node",
  "id": 2508439102,
  "lat": 43.6005210,
  "lon": 7.0909523,
  "tags": {
    "bus": "yes",
    "highway": "bus_stop",
    "name": "Pôle Judiciaire",
    "public_transport": "stop_position"
  }
},
{
  "type": "node",
  "id": 2508439105,
  "lat": 43.6009509,
  "lon": 7.0912292,
  "tags": {
    "bus": "yes",
    "highway": "bus_stop",
    "name": "Pôle Judiciaire",
    "public_transport": "stop_position"
  }
},
{
  "type": "node",
  "id": 2917168604,
  "lat": 43.6030769,
  "lon": 7.1138284,
  "tags": {
    "bus": "yes",
    "highway": "bus_stop",
    "name": "Bréguières",
    "public_transport": "stop_position"
  }
},
{
  "type": "node",
  "id": 3050506718,
  "lat": 43.5959364,
  "lon": 7.0669321,
  "tags": {
    "bus": "yes",
    "highway": "bus_stop",
    "name": "Apollinaire Desnos",
    "public_transport": "stop_position"
  }
},
{
  "type": "node",
  "id": 3051411724,
  "lat": 43.5996495,
  "lon": 7.0689727,
  "tags": {
    "bus": "yes",
    "highway": "bus_stop",
    "name": "Cimetière Haut",
    "public_transport": "stop_position"
  }
},
{
  "type": "node",
  "id": 3904768596,
  "lat": 43.6069452,
  "lon": 7.0760091,
  "tags": {
    "bus": "yes",
    "highway": "bus_stop",
    "name": "Azur Arena",
    "public_transport": "stop_position"
  }
},
{
  "type": "node",
  "id": 4948460986,
  "lat": 43.5802684,
  "lon": 7.1082143,
  "tags": {
    "highway": "bus_stop"
  }
},
{
  "type": "node",
  "id": 6041707229,
  "lat": 43.5867365,
  "lon": 7.1189878,
  "tags": {
    "bus": "yes",
    "highway": "bus_stop",
    "name": "Pôle d'Échanges d'Antibes",
    "public_transport": "stop_position"
  }
},
{
  "type": "node",
  "id": 6041707232,
  "lat": 43.5866975,
  "lon": 7.1191969,
  "tags": {
    "bus": "yes",
    "highway": "bus_stop",
    "name": "Pôle d'Échanges d'Antibes",
    "public_transport": "stop_position"
  }
},
{
  "type": "node",
  "id": 6135946385,
  "lat": 43.6071749,
  "lon": 7.0857906,
  "tags": {
    "bus": "yes",
    "highway": "bus_stop",
    "name": "Capucines",
    "public_transport": "stop_position"
  }
},
{
  "type": "node",
  "id": 6135946386,
  "lat": 43.6071095,
  "lon": 7.0856191,
  "tags": {
    "bus": "yes",
    "highway": "bus_stop",
    "name": "Capucines",
    "public_transport": "stop_position"
  }
},
{
  "type": "node",
  "id": 6270085922,
  "lat": 43.5890929,
  "lon": 7.0986810,
  "tags": {
    "bus": "yes",
    "highway": "bus_stop",
    "name": "Flaubert",
    "public_transport": "stop_position"
  }
},
{
  "type": "node",
  "id": 6408513264,
  "lat": 43.6198250,
  "lon": 7.1188912,
  "tags": {
    "bench": "yes",
    "bin": "no",
    "bus": "yes",
    "highway": "bus_stop",
    "mapillary": "https://www.mapillary.com/map/im/7ctajRthXGj5zraEJCGD4A",
    "name": "Rose des vents",
    "network": "Icilà d'Envibus",
    "owner": "Communauté d’Agglomération de Sophia Antipolis",
    "public_transport": "platform",
    "shelter": "no",
    "source": "mapillary;survey 2019"
  }
},
{
  "type": "node",
  "id": 6408513269,
  "lat": 43.6191007,
  "lon": 7.1207017,
  "tags": {
    "bench": "no",
    "bin": "no",
    "bus": "yes",
    "highway": "bus_stop",
    "mapillary": "https://www.mapillary.com/map/im/Ss5sK2kWsByZojTicHhmOA",
    "name": "Lentisques",
    "network": "Icilà d’Envibus",
    "public_transport": "platform",
    "shelter": "no",
    "source": "Mapillary;survey 2019"
  }
},
{
  "type": "node",
  "id": 6408513271,
  "lat": 43.6202784,
  "lon": 7.1210021,
  "tags": {
    "bench": "no",
    "bin": "no",
    "bus": "yes",
    "highway": "bus_stop",
    "public_transport": "platform",
    "shelter": "no",
    "source": "Mapillary"
  }
},
{
  "type": "node",
  "id": 6468372659,
  "lat": 43.5513667,
  "lon": 7.1350083,
  "tags": {
    "bench": "no",
    "bus": "yes",
    "highway": "bus_stop",
    "name": "Contrebandier",
    "public_transport": "platform",
    "shelter": "no"
  }
},
{
  "type": "node",
  "id": 6819907434,
  "lat": 43.5802657,
  "lon": 7.1225529,
  "tags": {
    "bus": "yes",
    "highway": "bus_stop",
    "name": "Gare Routière d'Antibes",
    "public_transport": "stop_position"
  }
},
{
  "type": "node",
  "id": 7142983790,
  "lat": 43.5872659,
  "lon": 7.1194006,
  "tags": {
    "bus": "yes",
    "highway": "bus_stop",
    "name": "Pôle d'Échanges d'Antibes",
    "public_transport": "stop_position"
  }
},
{
  "type": "node",
  "id": 7142983792,
  "lat": 43.5873099,
  "lon": 7.1191904,
  "tags": {
    "bus": "yes",
    "highway": "bus_stop",
    "name": "Pôle d'Échanges d'Antibes",
    "public_transport": "stop_position"
  }
},
{
  "type": "node",
  "id": 7142983793,
  "lat": 43.5869733,
  "lon": 7.1192957,
  "tags": {
    "bus": "yes",
    "highway": "bus_stop",
    "name": "Pôle d'Échanges d'Antibes",
    "public_transport": "stop_position"
  }
},
{
  "type": "node",
  "id": 7142983796,
  "lat": 43.5870090,
  "lon": 7.1190841,
  "tags": {
    "bus": "yes",
    "highway": "bus_stop",
    "name": "Pôle d'Échanges d'Antibes",
    "public_transport": "stop_position"
  }
},
{
  "type": "node",
  "id": 7142983799,
  "lat": 43.5861248,
  "lon": 7.1189917,
  "tags": {
    "bus": "yes",
    "highway": "bus_stop",
    "name": "Pôle d'Échanges d'Antibes",
    "public_transport": "stop_position"
  }
},
{
  "type": "node",
  "id": 7142983801,
  "lat": 43.5861618,
  "lon": 7.1187848,
  "tags": {
    "bus": "yes",
    "highway": "bus_stop",
    "name": "Pôle d'Échanges d'Antibes",
    "public_transport": "stop_position"
  }
},
{
  "type": "node",
  "id": 7142983802,
  "lat": 43.5859312,
  "lon": 7.1189223,
  "tags": {
    "bus": "yes",
    "highway": "bus_stop",
    "name": "Pôle d'Échanges d'Antibes",
    "public_transport": "stop_position"
  }
},
{
  "type": "node",
  "id": 7142983804,
  "lat": 43.5859673,
  "lon": 7.1187160,
  "tags": {
    "bus": "yes",
    "highway": "bus_stop",
    "name": "Pôle d'Échanges d'Antibes",
    "public_transport": "stop_position"
  }
},
{
  "type": "node",
  "id": 7142983805,
  "lat": 43.5856464,
  "lon": 7.1188203,
  "tags": {
    "bus": "yes",
    "highway": "bus_stop",
    "name": "Pôle d'Échanges d'Antibes",
    "public_transport": "stop_position"
  }
},
{
  "type": "node",
  "id": 7142983807,
  "lat": 43.5856827,
  "lon": 7.1186155,
  "tags": {
    "bus": "yes",
    "highway": "bus_stop",
    "name": "Pôle d'Échanges d'Antibes",
    "public_transport": "stop_position"
  }
},
{
  "type": "node",
  "id": 7169649491,
  "lat": 43.6008751,
  "lon": 7.1221801,
  "tags": {
    "bus": "yes",
    "highway": "bus_stop",
    "name": "Fontonne",
    "public_transport": "stop_position"
  }
},
{
  "type": "node",
  "id": 7193959419,
  "lat": 43.5802845,
  "lon": 7.1206039,
  "tags": {
    "bus": "yes",
    "highway": "bus_stop",
    "name": "Place de Gaulle",
    "public_transport": "stop_position"
  }
},
{
  "type": "node",
  "id": 7195466224,
  "lat": 43.5805650,
  "lon": 7.1205176,
  "tags": {
    "bus": "yes",
    "highway": "bus_stop",
    "name": "Place de Gaulle",
    "public_transport": "stop_position"
  }
},
{
  "type": "node",
  "id": 7357128560,
  "lat": 43.6048110,
  "lon": 7.0819805,
  "tags": {
    "bus": "yes",
    "highway": "bus_stop",
    "name": "Trois Moulins",
    "public_transport": "stop_position"
  }
},
{
  "type": "node",
  "id": 7357128561,
  "lat": 43.6050486,
  "lon": 7.0820877,
  "tags": {
    "bus": "yes",
    "highway": "bus_stop",
    "name": "Trois Moulins",
    "public_transport": "stop_position"
  }
},
{
  "type": "node",
  "id": 7804189992,
  "lat": 43.5840718,
  "lon": 7.1236427,
  "tags": {
    "bus": "yes",
    "highway": "bus_stop",
    "name": "Rue F. Mistral",
    "public_transport": "stop_position"
  }
},
{
  "type": "node",
  "id": 7804189993,
  "lat": 43.5838416,
  "lon": 7.1264040,
  "tags": {
    "bus": "yes",
    "highway": "bus_stop",
    "name": "Porte Marine",
    "public_transport": "stop_position"
  }
},
{
  "type": "node",
  "id": 7804189994,
  "lat": 43.5922616,
  "lon": 7.1248981,
  "tags": {
    "bus": "yes",
    "highway": "bus_stop",
    "name": "Parc Relais du Fort Carré",
    "public_transport": "stop_position"
  }
},
{
  "type": "node",
  "id": 8316116451,
  "lat": 43.6004970,
  "lon": 7.1216374,
  "tags": {
    "bus": "yes",
    "highway": "bus_stop",
    "name": "Fontonne",
    "public_transport": "stop_position"
  }
},
{
  "type": "node",
  "id": 8316268203,
  "lat": 43.6073706,
  "lon": 7.0875497,
  "tags": {
    "bus": "yes",
    "highway": "bus_stop",
    "name": "Cougoulins",
    "public_transport": "stop_position"
  }
},
{
  "type": "node",
  "id": 8316270226,
  "lat": 43.6065724,
  "lon": 7.0843244,
  "tags": {
    "bus": "yes",
    "highway": "bus_stop",
    "name": "Bleuets",
    "public_transport": "stop_position"
  }
},
{
  "type": "node",
  "id": 8712883018,
  "lat": 43.5714838,
  "lon": 7.1049307,
  "tags": {
    "bus": "yes",
    "highway": "bus_stop",
    "name": "Bricka",
    "public_transport": "stop_position"
  }
},
{
  "type": "node",
  "id": 8712883766,
  "lat": 43.5705246,
  "lon": 7.1115875,
  "tags": {
    "bus": "yes",
    "highway": "bus_stop",
    "name": "Gare SNCF de Juan-les-Pins",
    "public_transport": "stop_position"
  }
},
{
  "type": "node",
  "id": 8712883767,
  "lat": 43.5700080,
  "lon": 7.1087694,
  "tags": {
    "bus": "yes",
    "highway": "bus_stop",
    "name": "Estérel",
    "public_transport": "stop_position"
  }
},
{
  "type": "node",
  "id": 8712883768,
  "lat": 43.5713218,
  "lon": 7.1065350,
  "tags": {
    "bus": "yes",
    "highway": "bus_stop",
    "name": "Heliodore",
    "public_transport": "stop_position"
  }
},
{
  "type": "node",
  "id": 8712883769,
  "lat": 43.5715792,
  "lon": 7.1039891,
  "tags": {
    "bus": "yes",
    "highway": "bus_stop",
    "name": "Rue des Îles",
    "public_transport": "stop_position"
  }
},
{
  "type": "node",
  "id": 8712883770,
  "lat": 43.5714460,
  "lon": 7.1024913,
  "tags": {
    "bus": "yes",
    "highway": "bus_stop",
    "name": "Parking Dulys",
    "public_transport": "stop_position"
  }
},
{
  "type": "node",
  "id": 8712883771,
  "lat": 43.5705860,
  "lon": 7.1039718,
  "tags": {
    "bus": "yes",
    "highway": "bus_stop",
    "name": "Plage Publique",
    "public_transport": "stop_position"
  }
},
{
  "type": "node",
  "id": 8712883772,
  "lat": 43.5701296,
  "lon": 7.1055888,
  "tags": {
    "bus": "yes",
    "highway": "bus_stop",
    "name": "Guillaumont",
    "public_transport": "stop_position"
  }
},
{
  "type": "node",
  "id": 8712883773,
  "lat": 43.5692763,
  "lon": 7.1076354,
  "tags": {
    "bus": "yes",
    "highway": "bus_stop",
    "name": "Maison du Tourisme",
    "public_transport": "stop_position"
  }
},
{
  "type": "node",
  "id": 8712883774,
  "lat": 43.5688453,
  "lon": 7.1100552,
  "tags": {
    "bus": "yes",
    "highway": "bus_stop",
    "name": "Ruban Bleu",
    "public_transport": "stop_position"
  }
},
{
  "type": "node",
  "id": 8712883775,
  "lat": 43.5684337,
  "lon": 7.1121361,
  "tags": {
    "bus": "yes",
    "highway": "bus_stop",
    "name": "Luna Park",
    "public_transport": "stop_position"
  }
},
{
  "type": "node",
  "id": 8712883776,
  "lat": 43.5682687,
  "lon": 7.1152110,
  "tags": {
    "bus": "yes",
    "highway": "bus_stop",
    "name": "Palais des Congrès",
    "public_transport": "stop_position"
  }
},
{
  "type": "node",
  "id": 8712883777,
  "lat": 43.5691879,
  "lon": 7.1134698,
  "tags": {
    "bus": "yes",
    "highway": "bus_stop",
    "name": "Fabre",
    "public_transport": "stop_position"
  }
},
{
  "type": "node",
  "id": 8725403134,
  "lat": 43.5890920,
  "lon": 7.1227475,
  "tags": {
    "bus": "yes",
    "highway": "bus_stop",
    "name": "Espace du Fort Carré",
    "public_transport": "stop_position"
  }
},
{
  "type": "node",
  "id": 8733380631,
  "lat": 43.5927030,
  "lon": 7.1205964,
  "tags": {
    "bus": "yes",
    "highway": "bus_stop",
    "name": "Les Phalènes",
    "public_transport": "stop_position"
  }
},
{
  "type": "node",
  "id": 8733380633,
  "lat": 43.5908589,
  "lon": 7.1208720,
  "tags": {
    "bus": "yes",
    "highway": "bus_stop",
    "name": "Bleu Marine",
    "public_transport": "stop_position"
  }
},
{
  "type": "node",
  "id": 8733380634,
  "lat": 43.6012824,
  "lon": 7.1222909,
  "tags": {
    "bus": "yes",
    "highway": "bus_stop",
    "name": "Fontonne",
    "public_transport": "stop_position"
  }
},
{
  "type": "node",
  "id": 8733380636,
  "lat": 43.5927957,
  "lon": 7.1153681,
  "tags": {
    "bus": "yes",
    "highway": "bus_stop",
    "name": "Beauvallon",
    "public_transport": "stop_position"
  }
},
{
  "type": "node",
  "id": 8733380644,
  "lat": 43.6012037,
  "lon": 7.1126966,
  "tags": {
    "bus": "yes",
    "highway": "bus_stop",
    "name": "Tilleuls",
    "public_transport": "stop_position"
  }
},
{
  "type": "node",
  "id": 8733380645,
  "lat": 43.6050582,
  "lon": 7.1232310,
  "tags": {
    "bus": "yes",
    "highway": "bus_stop",
    "name": "Tananarive",
    "public_transport": "stop_position"
  }
},
{
  "type": "node",
  "id": 8733380651,
  "lat": 43.5981571,
  "lon": 7.1133785,
  "tags": {
    "bus": "yes",
    "highway": "bus_stop",
    "name": "Lycée Horticole",
    "public_transport": "stop_position"
  }
},
{
  "type": "node",
  "id": 8733380657,
  "lat": 43.5957581,
  "lon": 7.1143623,
  "tags": {
    "bus": "yes",
    "highway": "bus_stop",
    "name": "Coopérative Agricole",
    "public_transport": "stop_position"
  }
},
{
  "type": "node",
  "id": 8733380658,
  "lat": 43.6025798,
  "lon": 7.1171453,
  "tags": {
    "bus": "yes",
    "highway": "bus_stop",
    "name": "Hôpital",
    "public_transport": "stop_position"
  }
},
{
  "type": "node",
  "id": 8733380665,
  "lat": 43.6010445,
  "lon": 7.1128321,
  "tags": {
    "bus": "yes",
    "highway": "bus_stop",
    "name": "Tilleuls",
    "public_transport": "stop_position"
  }
},
{
  "type": "node",
  "id": 8733380673,
  "lat": 43.5978941,
  "lon": 7.1202514,
  "tags": {
    "bus": "yes",
    "highway": "bus_stop",
    "name": "Petit Four",
    "public_transport": "stop_position"
  }
},
{
  "type": "node",
  "id": 8733380679,
  "lat": 43.6178497,
  "lon": 7.1287792,
  "tags": {
    "bus": "yes",
    "highway": "bus_stop",
    "name": "Les Groules",
    "public_transport": "stop_position"
  }
},
{
  "type": "node",
  "id": 8733380684,
  "lat": 43.5963370,
  "lon": 7.1200606,
  "tags": {
    "bus": "yes",
    "highway": "bus_stop",
    "name": "Chemin du Prugnon",
    "public_transport": "stop_position"
  }
},
{
  "type": "node",
  "id": 8733380688,
  "lat": 43.5981416,
  "lon": 7.1202987,
  "tags": {
    "bus": "yes",
    "highway": "bus_stop",
    "name": "Petit Four",
    "public_transport": "stop_position"
  }
},
{
  "type": "node",
  "id": 8733380691,
  "lat": 43.5895311,
  "lon": 7.1201478,
  "tags": {
    "bus": "yes",
    "highway": "bus_stop",
    "name": "Mésanges",
    "public_transport": "stop_position"
  }
},
{
  "type": "node",
  "id": 8733380695,
  "lat": 43.5978288,
  "lon": 7.1136139,
  "tags": {
    "bus": "yes",
    "highway": "bus_stop",
    "name": "Lycée Horticole",
    "public_transport": "stop_position"
  }
},
{
  "type": "node",
  "id": 8733380698,
  "lat": 43.5922488,
  "lon": 7.1208141,
  "tags": {
    "bus": "yes",
    "highway": "bus_stop",
    "name": "Les Phalènes",
    "public_transport": "stop_position"
  }
},
{
  "type": "node",
  "id": 8733380700,
  "lat": 43.5943342,
  "lon": 7.1200338,
  "tags": {
    "bus": "yes",
    "highway": "bus_stop",
    "name": "Chemin du Prugnon",
    "public_transport": "stop_position"
  }
},
{
  "type": "node",
  "id": 8733380707,
  "lat": 43.5938278,
  "lon": 7.1150462,
  "tags": {
    "bus": "yes",
    "highway": "bus_stop",
    "name": "Beauvallon",
    "public_transport": "stop_position"
  }
},
{
  "type": "node",
  "id": 8733380709,
  "lat": 43.6099543,
  "lon": 7.1253969,
  "tags": {
    "bus": "yes",
    "highway": "bus_stop",
    "name": "Gare SNCF de Biot",
    "public_transport": "stop_position"
  }
},
{
  "type": "node",
  "id": 8733380716,
  "lat": 43.6176793,
  "lon": 7.1287228,
  "tags": {
    "bus": "yes",
    "highway": "bus_stop",
    "name": "Les Groules",
    "public_transport": "stop_position"
  }
},
{
  "type": "node",
  "id": 8733405818,
  "lat": 43.6064566,
  "lon": 7.1237446,
  "tags": {
    "bus": "yes",
    "highway": "bus_stop",
    "name": "Tananarive",
    "public_transport": "stop_position"
  }
},
{
  "type": "node",
  "id": 8753737824,
  "lat": 43.6089613,
  "lon": 7.0736677,
  "tags": {
    "bus": "yes",
    "highway": "bus_stop",
    "name": "Cistes",
    "public_transport": "stop_position"
  }
},
{
  "type": "node",
  "id": 8753737838,
  "lat": 43.6043670,
  "lon": 7.0828910,
  "tags": {
    "bus": "yes",
    "highway": "bus_stop",
    "name": "Super Antibes",
    "public_transport": "stop_position"
  }
},
{
  "type": "node",
  "id": 8753737839,
  "lat": 43.6042289,
  "lon": 7.0829853,
  "tags": {
    "bus": "yes",
    "highway": "bus_stop",
    "name": "Super Antibes",
    "public_transport": "stop_position"
  }
},
{
  "type": "node",
  "id": 8753737840,
  "lat": 43.6049088,
  "lon": 7.0846561,
  "tags": {
    "bus": "yes",
    "highway": "bus_stop",
    "name": "Anemones",
    "public_transport": "stop_position"
  }
},
{
  "type": "node",
  "id": 8753737841,
  "lat": 43.6058389,
  "lon": 7.0851065,
  "tags": {
    "bus": "yes",
    "highway": "bus_stop",
    "name": "Bleuets",
    "public_transport": "stop_position"
  }
},
{
  "type": "node",
  "id": 8753737844,
  "lat": 43.6027559,
  "lon": 7.0891586,
  "tags": {
    "bus": "yes",
    "highway": "bus_stop",
    "name": "Chapelle des Combes",
    "public_transport": "stop_position"
  }
},
{
  "type": "node",
  "id": 8753737845,
  "lat": 43.6041254,
  "lon": 7.0957862,
  "tags": {
    "bus": "yes",
    "highway": "bus_stop",
    "name": "Chemin du Valbosquet",
    "public_transport": "stop_position"
  }
},
{
  "type": "node",
  "id": 8753737846,
  "lat": 43.6047052,
  "lon": 7.0914271,
  "tags": {
    "bus": "yes",
    "highway": "bus_stop",
    "name": "Coutelier",
    "public_transport": "stop_position"
  }
},
{
  "type": "node",
  "id": 8753737847,
  "lat": 43.6047908,
  "lon": 7.0911365,
  "tags": {
    "bus": "yes",
    "highway": "bus_stop",
    "name": "Coutelier",
    "public_transport": "stop_position"
  }
},
{
  "type": "node",
  "id": 8753737848,
  "lat": 43.6027574,
  "lon": 7.0993688,
  "tags": {
    "bus": "yes",
    "highway": "bus_stop",
    "name": "Rastines Valbosquet",
    "public_transport": "stop_position"
  }
},
{
  "type": "node",
  "id": 8753737849,
  "lat": 43.6023612,
  "lon": 7.0995537,
  "tags": {
    "bus": "yes",
    "highway": "bus_stop",
    "name": "Rastines Valbosquet",
    "public_transport": "stop_position"
  }
},
{
  "type": "node",
  "id": 8753737850,
  "lat": 43.6005004,
  "lon": 7.1014155,
  "tags": {
    "bus": "yes",
    "highway": "bus_stop",
    "name": "Rastines",
    "public_transport": "stop_position"
  }
},
{
  "type": "node",
  "id": 8753737851,
  "lat": 43.5998829,
  "lon": 7.1027150,
  "tags": {
    "bus": "yes",
    "highway": "bus_stop",
    "name": "Rastines",
    "public_transport": "stop_position"
  }
},
{
  "type": "node",
  "id": 8753737852,
  "lat": 43.5954212,
  "lon": 7.1054171,
  "tags": {
    "bus": "yes",
    "highway": "bus_stop",
    "name": "Château Vert",
    "public_transport": "stop_position"
  }
},
{
  "type": "node",
  "id": 8753737853,
  "lat": 43.5955307,
  "lon": 7.1058695,
  "tags": {
    "bus": "yes",
    "highway": "bus_stop",
    "name": "Château Vert",
    "public_transport": "stop_position"
  }
},
{
  "type": "node",
  "id": 8753737854,
  "lat": 43.5947490,
  "lon": 7.1077204,
  "tags": {
    "bus": "yes",
    "highway": "bus_stop",
    "name": "Avenue de la Sarrazine",
    "public_transport": "stop_position"
  }
},
{
  "type": "node",
  "id": 8753737855,
  "lat": 43.5947466,
  "lon": 7.1075823,
  "tags": {
    "bus": "yes",
    "highway": "bus_stop",
    "name": "Avenue de la Sarrazine",
    "public_transport": "stop_position"
  }
},
{
  "type": "node",
  "id": 8753737859,
  "lat": 43.5930024,
  "lon": 7.1135901,
  "tags": {
    "bus": "yes",
    "highway": "bus_stop",
    "name": "Lycée Jacques Dolle",
    "old_name": "Anthala",
    "public_transport": "stop_position"
  }
},
{
  "type": "node",
  "id": 8753737860,
  "lat": 43.5801331,
  "lon": 7.1186175,
  "tags": {
    "bus": "yes",
    "highway": "bus_stop",
    "name": "Directeur Chaudon",
    "public_transport": "stop_position"
  }
},
{
  "type": "node",
  "id": 8753737861,
  "lat": 43.5782712,
  "lon": 7.1192163,
  "tags": {
    "bus": "yes",
    "highway": "bus_stop",
    "name": "Wilson",
    "public_transport": "stop_position"
  }
},
{
  "type": "node",
  "id": 8753737862,
  "lat": 43.5785178,
  "lon": 7.1205791,
  "tags": {
    "bus": "yes",
    "highway": "bus_stop",
    "name": "Guillabert",
    "public_transport": "stop_position"
  }
},
{
  "type": "node",
  "id": 8753737863,
  "lat": 43.5787341,
  "lon": 7.1201215,
  "tags": {
    "bus": "yes",
    "highway": "bus_stop",
    "name": "Richelieu",
    "public_transport": "stop_position"
  }
},
{
  "type": "node",
  "id": 8753737864,
  "lat": 43.5793799,
  "lon": 7.1219591,
  "tags": {
    "bus": "yes",
    "highway": "bus_stop",
    "name": "Guillabert",
    "public_transport": "stop_position"
  }
},
{
  "type": "node",
  "id": 8753737865,
  "lat": 43.5830978,
  "lon": 7.1213134,
  "tags": {
    "bus": "yes",
    "highway": "bus_stop",
    "name": "Rue Pasteur",
    "public_transport": "stop_position"
  }
},
{
  "type": "node",
  "id": 8753737866,
  "lat": 43.5834054,
  "lon": 7.1219938,
  "tags": {
    "bus": "yes",
    "highway": "bus_stop",
    "name": "Mirabeau",
    "public_transport": "stop_position"
  }
},
{
  "type": "node",
  "id": 8755756588,
  "lat": 43.5747523,
  "lon": 7.1156324,
  "tags": {
    "bus": "yes",
    "highway": "bus_stop",
    "name": "Pont Colonial",
    "public_transport": "stop_position"
  }
},
{
  "type": "node",
  "id": 8755756589,
  "lat": 43.5750481,
  "lon": 7.1158457,
  "tags": {
    "bus": "yes",
    "highway": "bus_stop",
    "name": "Pont Colonial",
    "public_transport": "stop_position"
  }
},
{
  "type": "node",
  "id": 8755756590,
  "lat": 43.5717799,
  "lon": 7.1083877,
  "tags": {
    "bus": "yes",
    "highway": "bus_stop",
    "name": "Régence",
    "public_transport": "stop_position"
  }
},
{
  "type": "node",
  "id": 8755756591,
  "lat": 43.5716188,
  "lon": 7.1099834,
  "tags": {
    "bus": "yes",
    "highway": "bus_stop",
    "name": "Régence",
    "public_transport": "stop_position"
  }
},
{
  "type": "node",
  "id": 8755756592,
  "lat": 43.5722743,
  "lon": 7.1035525,
  "tags": {
    "bus": "yes",
    "highway": "bus_stop",
    "name": "Square Dulys",
    "public_transport": "stop_position"
  }
},
{
  "type": "node",
  "id": 8755756593,
  "lat": 43.5728710,
  "lon": 7.1012662,
  "tags": {
    "bus": "yes",
    "highway": "bus_stop",
    "name": "Pont du Lys",
    "public_transport": "stop_position"
  }
},
{
  "type": "node",
  "id": 8755756594,
  "lat": 43.5745562,
  "lon": 7.0990067,
  "tags": {
    "bus": "yes",
    "highway": "bus_stop",
    "name": "Trianon",
    "public_transport": "stop_position"
  }
},
{
  "type": "node",
  "id": 8755835770,
  "lat": 43.5770043,
  "lon": 7.1245518,
  "tags": {
    "bus": "yes",
    "highway": "bus_stop",
    "name": "Maizière",
    "public_transport": "stop_position"
  }
},
{
  "type": "node",
  "id": 8755835771,
  "lat": 43.5744013,
  "lon": 7.1240860,
  "tags": {
    "bus": "yes",
    "highway": "bus_stop",
    "name": "Ilette",
    "public_transport": "stop_position"
  }
},
{
  "type": "node",
  "id": 8755835772,
  "lat": 43.5742497,
  "lon": 7.1240677,
  "tags": {
    "bus": "yes",
    "highway": "bus_stop",
    "name": "Ilette",
    "public_transport": "stop_position"
  }
},
{
  "type": "node",
  "id": 8755835773,
  "lat": 43.5767766,
  "lon": 7.1235404,
  "tags": {
    "bus": "yes",
    "highway": "bus_stop",
    "name": "Maizière",
    "public_transport": "stop_position"
  }
},
{
  "type": "node",
  "id": 8755835785,
  "lat": 43.5711441,
  "lon": 7.1246283,
  "tags": {
    "bus": "yes",
    "highway": "bus_stop",
    "name": "Hermitage",
    "public_transport": "stop_position"
  }
},
{
  "type": "node",
  "id": 8755835786,
  "lat": 43.5683408,
  "lon": 7.1244110,
  "tags": {
    "bus": "yes",
    "highway": "bus_stop",
    "name": "Crouton",
    "public_transport": "stop_position"
  }
},
{
  "type": "node",
  "id": 8755835787,
  "lat": 43.5654728,
  "lon": 7.1246519,
  "tags": {
    "bus": "yes",
    "highway": "bus_stop",
    "name": "Chemin de la Salis",
    "public_transport": "stop_position"
  }
},
{
  "type": "node",
  "id": 8755835790,
  "lat": 43.5661196,
  "lon": 7.1249762,
  "tags": {
    "bus": "yes",
    "highway": "bus_stop",
    "name": "Chemin de la Salis",
    "public_transport": "stop_position"
  }
},
{
  "type": "node",
  "id": 8755835791,
  "lat": 43.5630835,
  "lon": 7.1264229,
  "tags": {
    "bus": "yes",
    "highway": "bus_stop",
    "name": "Empel",
    "public_transport": "stop_position"
  }
},
{
  "type": "node",
  "id": 8755835792,
  "lat": 43.5611675,
  "lon": 7.1283553,
  "tags": {
    "bus": "yes",
    "highway": "bus_stop",
    "name": "Nielles",
    "public_transport": "stop_position"
  }
},
{
  "type": "node",
  "id": 8755835793,
  "lat": 43.5609866,
  "lon": 7.1283490,
  "tags": {
    "bus": "yes",
    "highway": "bus_stop",
    "name": "Nielles",
    "public_transport": "stop_position"
  }
},
{
  "type": "node",
  "id": 8755835794,
  "lat": 43.5596021,
  "lon": 7.1283769,
  "tags": {
    "bus": "yes",
    "highway": "bus_stop",
    "name": "Phare du Cap",
    "public_transport": "stop_position"
  }
},
{
  "type": "node",
  "id": 8755835795,
  "lat": 43.5593376,
  "lon": 7.1283978,
  "tags": {
    "bus": "yes",
    "highway": "bus_stop",
    "name": "Phare du Cap",
    "public_transport": "stop_position"
  }
},
{
  "type": "node",
  "id": 8755835796,
  "lat": 43.5572033,
  "lon": 7.1285980,
  "tags": {
    "bus": "yes",
    "highway": "bus_stop",
    "name": "École du Cap",
    "public_transport": "stop_position"
  }
},
{
  "type": "node",
  "id": 8755835797,
  "lat": 43.5553393,
  "lon": 7.1286283,
  "tags": {
    "bus": "yes",
    "highway": "bus_stop",
    "name": "Chemin des Ondes",
    "public_transport": "stop_position"
  }
},
{
  "type": "node",
  "id": 8755835798,
  "lat": 43.5523626,
  "lon": 7.1288586,
  "tags": {
    "bus": "yes",
    "highway": "bus_stop",
    "name": "Fontaine",
    "public_transport": "stop_position"
  }
},
{
  "type": "node",
  "id": 8755835799,
  "lat": 43.5518984,
  "lon": 7.1287594,
  "tags": {
    "bus": "yes",
    "highway": "bus_stop",
    "name": "Fontaine",
    "public_transport": "stop_position"
  }
},
{
  "type": "node",
  "id": 8755835800,
  "lat": 43.5509162,
  "lon": 7.1269175,
  "tags": {
    "bus": "yes",
    "highway": "bus_stop",
    "name": "Chênes Verts",
    "public_transport": "stop_position"
  }
},
{
  "type": "node",
  "id": 8755835801,
  "lat": 43.5506186,
  "lon": 7.1261344,
  "tags": {
    "bus": "yes",
    "highway": "bus_stop",
    "name": "Chênes Verts",
    "public_transport": "stop_position"
  }
},
{
  "type": "node",
  "id": 8757419196,
  "lat": 43.5810014,
  "lon": 7.1137760,
  "tags": {
    "bus": "yes",
    "highway": "bus_stop",
    "name": "Concorde",
    "public_transport": "stop_position"
  }
},
{
  "type": "node",
  "id": 8757419197,
  "lat": 43.5809910,
  "lon": 7.1143219,
  "tags": {
    "bus": "yes",
    "highway": "bus_stop",
    "name": "Concorde",
    "public_transport": "stop_position"
  }
},
{
  "type": "node",
  "id": 8757419198,
  "lat": 43.5807678,
  "lon": 7.1125609,
  "tags": {
    "bus": "yes",
    "highway": "bus_stop",
    "name": "Mont Saint-Jean",
    "public_transport": "stop_position"
  }
},
{
  "type": "node",
  "id": 8757419199,
  "lat": 43.5804532,
  "lon": 7.1114041,
  "tags": {
    "bus": "yes",
    "highway": "bus_stop",
    "name": "Mont Saint-Jean",
    "public_transport": "stop_position"
  }
},
{
  "type": "node",
  "id": 8757419200,
  "lat": 43.5833713,
  "lon": 7.1084402,
  "tags": {
    "bus": "yes",
    "highway": "bus_stop",
    "name": "Roi Soleil",
    "public_transport": "stop_position"
  }
},
{
  "type": "node",
  "id": 8757419205,
  "lat": 43.5841666,
  "lon": 7.1046977,
  "tags": {
    "bus": "yes",
    "highway": "bus_stop",
    "name": "Val d'Or",
    "public_transport": "stop_position"
  }
},
{
  "type": "node",
  "id": 8757419207,
  "lat": 43.5845958,
  "lon": 7.1016964,
  "tags": {
    "bus": "yes",
    "highway": "bus_stop",
    "name": "Usine Electrique",
    "public_transport": "stop_position"
  }
},
{
  "type": "node",
  "id": 8757419208,
  "lat": 43.5850717,
  "lon": 7.0984508,
  "tags": {
    "bus": "yes",
    "highway": "bus_stop",
    "name": "Parc Elvina",
    "public_transport": "stop_position"
  }
},
{
  "type": "node",
  "id": 8757419209,
  "lat": 43.5851453,
  "lon": 7.0983056,
  "tags": {
    "bus": "yes",
    "highway": "bus_stop",
    "name": "Parc Elvina",
    "public_transport": "stop_position"
  }
},
{
  "type": "node",
  "id": 8757419211,
  "lat": 43.5851765,
  "lon": 7.0954208,
  "tags": {
    "bus": "yes",
    "highway": "bus_stop",
    "name": "Route de Saint-Jean",
    "public_transport": "stop_position"
  }
},
{
  "type": "node",
  "id": 8757429817,
  "lat": 43.5763266,
  "lon": 7.0891549,
  "tags": {
    "bus": "yes",
    "highway": "bus_stop",
    "name": "Barreau",
    "public_transport": "stop_position"
  }
},
{
  "type": "node",
  "id": 8757429818,
  "lat": 43.5760939,
  "lon": 7.0881296,
  "tags": {
    "bus": "yes",
    "highway": "bus_stop",
    "name": "Ambroisie Lauvert",
    "public_transport": "stop_position"
  }
},
{
  "type": "node",
  "id": 8757429827,
  "lat": 43.5781394,
  "lon": 7.0885110,
  "tags": {
    "bus": "yes",
    "highway": "bus_stop",
    "name": "Eucalyptus 2",
    "public_transport": "stop_position"
  }
},
{
  "type": "node",
  "id": 8757429828,
  "lat": 43.5786338,
  "lon": 7.0886178,
  "tags": {
    "bus": "yes",
    "highway": "bus_stop",
    "name": "Eucalyptus 2",
    "public_transport": "stop_position"
  }
},
{
  "type": "node",
  "id": 8757429829,
  "lat": 43.5794386,
  "lon": 7.0845271,
  "tags": {
    "bus": "yes",
    "highway": "bus_stop",
    "name": "Pimeau",
    "public_transport": "stop_position"
  }
},
{
  "type": "node",
  "id": 8757429830,
  "lat": 43.5858534,
  "lon": 7.0810218,
  "tags": {
    "bus": "yes",
    "highway": "bus_stop",
    "name": "Chemin de Saint-Maymes",
    "public_transport": "stop_position"
  }
},
{
  "type": "node",
  "id": 8757429831,
  "lat": 43.5859287,
  "lon": 7.0809856,
  "tags": {
    "bus": "yes",
    "highway": "bus_stop",
    "name": "Chemin de Saint-Maymes",
    "public_transport": "stop_position"
  }
},
{
  "type": "node",
  "id": 8757429832,
  "lat": 43.5855549,
  "lon": 7.0790361,
  "tags": {
    "bus": "yes",
    "highway": "bus_stop",
    "name": "Blacasse",
    "public_transport": "stop_position"
  }
},
{
  "type": "node",
  "id": 8757429833,
  "lat": 43.5855151,
  "lon": 7.0789031,
  "tags": {
    "bus": "yes",
    "highway": "bus_stop",
    "name": "Blacasse",
    "public_transport": "stop_position"
  }
},
{
  "type": "node",
  "id": 8757429834,
  "lat": 43.5873249,
  "lon": 7.0763540,
  "tags": {
    "bus": "yes",
    "highway": "bus_stop",
    "name": "St-Maymes Vieux Brusquet",
    "public_transport": "stop_position"
  }
},
{
  "type": "node",
  "id": 8757429835,
  "lat": 43.5878132,
  "lon": 7.0747499,
  "tags": {
    "bus": "yes",
    "highway": "bus_stop",
    "name": "Brusquets",
    "public_transport": "stop_position"
  }
},
{
  "type": "node",
  "id": 8757429836,
  "lat": 43.5883491,
  "lon": 7.0719582,
  "tags": {
    "bus": "yes",
    "highway": "bus_stop",
    "name": "St-Maymes Haut",
    "public_transport": "stop_position"
  }
},
{
  "type": "node",
  "id": 8757429837,
  "lat": 43.5883257,
  "lon": 7.0718120,
  "tags": {
    "bus": "yes",
    "highway": "bus_stop",
    "name": "St-Maymes Haut",
    "public_transport": "stop_position"
  }
},
{
  "type": "node",
  "id": 8757429838,
  "lat": 43.5885579,
  "lon": 7.0672180,
  "tags": {
    "bus": "yes",
    "highway": "bus_stop",
    "name": "Retenaou Brusquets",
    "public_transport": "stop_position"
  }
},
{
  "type": "node",
  "id": 8757429839,
  "lat": 43.5885102,
  "lon": 7.0670738,
  "tags": {
    "bus": "yes",
    "highway": "bus_stop",
    "name": "Retenaou Brusquets",
    "public_transport": "stop_position"
  }
},
{
  "type": "node",
  "id": 8757486082,
  "lat": 43.5938034,
  "lon": 7.1066134,
  "tags": {
    "bus": "yes",
    "highway": "bus_stop",
    "name": "Avenue de la Sarrazine",
    "public_transport": "stop_position"
  }
},
{
  "type": "node",
  "id": 8757514511,
  "lat": 43.5712219,
  "lon": 7.1147941,
  "tags": {
    "bus": "yes",
    "highway": "bus_stop",
    "name": "Printemps",
    "public_transport": "stop_position"
  }
},
{
  "type": "node",
  "id": 8757514512,
  "lat": 43.5759292,
  "lon": 7.1172445,
  "tags": {
    "bus": "yes",
    "highway": "bus_stop",
    "name": "Balzac",
    "public_transport": "stop_position"
  }
},
{
  "type": "node",
  "id": 8757514513,
  "lat": 43.5773644,
  "lon": 7.1182808,
  "tags": {
    "bus": "yes",
    "highway": "bus_stop",
    "name": "Dames Blanches",
    "public_transport": "stop_position"
  }
},
{
  "type": "node",
  "id": 8757514514,
  "lat": 43.6019867,
  "lon": 7.0848200,
  "tags": {
    "bus": "yes",
    "highway": "bus_stop",
    "name": "Carrefour St Claude",
    "public_transport": "stop_position"
  }
},
{
  "type": "node",
  "id": 8757514515,
  "lat": 43.5978981,
  "lon": 7.0851814,
  "tags": {
    "bus": "yes",
    "highway": "bus_stop",
    "name": "Foyer P. Merli",
    "public_transport": "stop_position"
  }
},
{
  "type": "node",
  "id": 8757514516,
  "lat": 43.5979857,
  "lon": 7.0852475,
  "tags": {
    "bus": "yes",
    "highway": "bus_stop",
    "name": "Foyer P. Merli",
    "public_transport": "stop_position"
  }
},
{
  "type": "node",
  "id": 8757526817,
  "lat": 43.5958242,
  "lon": 7.0813888,
  "tags": {
    "bus": "yes",
    "highway": "bus_stop",
    "name": "Altana",
    "public_transport": "stop_position"
  }
},
{
  "type": "node",
  "id": 8757526818,
  "lat": 43.5957826,
  "lon": 7.0820446,
  "tags": {
    "bus": "yes",
    "highway": "bus_stop",
    "name": "Altana",
    "public_transport": "stop_position"
  }
},
{
  "type": "node",
  "id": 8757526819,
  "lat": 43.5963622,
  "lon": 7.0770147,
  "tags": {
    "bus": "yes",
    "highway": "bus_stop",
    "name": "Terriers",
    "public_transport": "stop_position"
  }
},
{
  "type": "node",
  "id": 8757526820,
  "lat": 43.5961897,
  "lon": 7.0773024,
  "tags": {
    "bus": "yes",
    "highway": "bus_stop",
    "name": "Terriers",
    "public_transport": "stop_position"
  }
},
{
  "type": "node",
  "id": 8757526821,
  "lat": 43.6010319,
  "lon": 7.0759692,
  "tags": {
    "bus": "yes",
    "highway": "bus_stop",
    "name": "ZAC des Terriers",
    "public_transport": "stop_position"
  }
},
{
  "type": "node",
  "id": 8757526822,
  "lat": 43.5967235,
  "lon": 7.0695763,
  "tags": {
    "bus": "yes",
    "highway": "bus_stop",
    "name": "Mairie Annexe",
    "public_transport": "stop_position"
  }
},
{
  "type": "node",
  "id": 8757526845,
  "lat": 43.5947365,
  "lon": 7.0684166,
  "tags": {
    "bus": "yes",
    "highway": "bus_stop",
    "name": "Hauts d'Antibes",
    "public_transport": "stop_position"
  }
},
{
  "type": "node",
  "id": 8757526846,
  "lat": 43.5962641,
  "lon": 7.0717562,
  "tags": {
    "bus": "yes",
    "highway": "bus_stop",
    "name": "Les Jonquilles",
    "public_transport": "stop_position"
  }
},
{
  "type": "node",
  "id": 8758304801,
  "lat": 43.5856853,
  "lon": 7.0906703,
  "tags": {
    "bus": "yes",
    "highway": "bus_stop",
    "name": "Chapelle Saint-Jean",
    "public_transport": "stop_position"
  }
},
{
  "type": "node",
  "id": 8758304804,
  "lat": 43.5953781,
  "lon": 7.0906411,
  "tags": {
    "bus": "yes",
    "highway": "bus_stop",
    "name": "RD 35bis",
    "public_transport": "stop_position"
  }
},
{
  "type": "node",
  "id": 8758304805,
  "lat": 43.5803791,
  "lon": 7.0896594,
  "tags": {
    "bus": "yes",
    "highway": "bus_stop",
    "name": "École Saint-Maymes",
    "public_transport": "stop_position"
  }
},
{
  "type": "node",
  "id": 8758304806,
  "lat": 43.5804894,
  "lon": 7.0897981,
  "tags": {
    "bus": "yes",
    "highway": "bus_stop",
    "name": "École Saint-Maymes",
    "public_transport": "stop_position"
  }
},
{
  "type": "node",
  "id": 8758304807,
  "lat": 43.5965876,
  "lon": 7.0898147,
  "tags": {
    "bus": "yes",
    "highway": "bus_stop",
    "name": "RD 35bis",
    "public_transport": "stop_position"
  }
},
{
  "type": "node",
  "id": 8759782977,
  "lat": 43.6036060,
  "lon": 7.1125595,
  "tags": {
    "bus": "yes",
    "highway": "bus_stop",
    "name": "Rossignol",
    "public_transport": "stop_position"
  }
},
{
  "type": "node",
  "id": 8759782978,
  "lat": 43.6035400,
  "lon": 7.1125163,
  "tags": {
    "bus": "yes",
    "highway": "bus_stop",
    "name": "Rossignol",
    "public_transport": "stop_position"
  }
},
{
  "type": "node",
  "id": 8759782983,
  "lat": 43.6080423,
  "lon": 7.1111816,
  "tags": {
    "bus": "yes",
    "highway": "bus_stop",
    "name": "Pont Romain",
    "public_transport": "stop_position"
  }
},
{
  "type": "node",
  "id": 8759782984,
  "lat": 43.6072368,
  "lon": 7.1114501,
  "tags": {
    "bus": "yes",
    "highway": "bus_stop",
    "name": "Pont Romain",
    "public_transport": "stop_position"
  }
},
{
  "type": "node",
  "id": 8759782985,
  "lat": 43.6044643,
  "lon": 7.1065142,
  "tags": {
    "bus": "yes",
    "highway": "bus_stop",
    "name": "Panorama Constance",
    "public_transport": "stop_position"
  }
},
{
  "type": "node",
  "id": 8759782986,
  "lat": 43.6046653,
  "lon": 7.1065687,
  "tags": {
    "bus": "yes",
    "highway": "bus_stop",
    "name": "Panorama Constance",
    "public_transport": "stop_position"
  }
},
{
  "type": "node",
  "id": 8759782987,
  "lat": 43.6071235,
  "lon": 7.0882041,
  "tags": {
    "bus": "yes",
    "highway": "bus_stop",
    "name": "Cougoulins",
    "public_transport": "stop_position"
  }
},
{
  "type": "node",
  "id": 8759976021,
  "lat": 43.6065096,
  "lon": 7.0891825,
  "tags": {
    "bus": "yes",
    "highway": "bus_stop",
    "name": "Les Fleurs",
    "public_transport": "stop_position"
  }
},
{
  "type": "node",
  "id": 8760467322,
  "lat": 43.5810757,
  "lon": 7.0979879,
  "tags": {
    "bus": "yes",
    "highway": "bus_stop",
    "name": "Terrasses d'Antibes",
    "public_transport": "stop_position"
  }
},
{
  "type": "node",
  "id": 8760467323,
  "lat": 43.5814070,
  "lon": 7.0980000,
  "tags": {
    "bus": "yes",
    "highway": "bus_stop",
    "name": "Terrasses d'Antibes",
    "public_transport": "stop_position"
  }
},
{
  "type": "node",
  "id": 8760467324,
  "lat": 43.5760010,
  "lon": 7.0979376,
  "tags": {
    "bus": "yes",
    "highway": "bus_stop",
    "name": "Général Ferrié",
    "public_transport": "stop_position"
  }
},
{
  "type": "node",
  "id": 8760467325,
  "lat": 43.5765556,
  "lon": 7.0978889,
  "tags": {
    "bus": "yes",
    "highway": "bus_stop",
    "name": "Général Ferrié",
    "public_transport": "stop_position"
  }
},
{
  "type": "node",
  "id": 8760551470,
  "lat": 43.5837902,
  "lon": 7.1198246,
  "tags": {
    "bus": "yes",
    "highway": "bus_stop",
    "name": "Jardin de la Gare",
    "public_transport": "stop_position"
  }
},
{
  "type": "node",
  "id": 8765688745,
  "lat": 43.5698495,
  "lon": 7.1226812,
  "tags": {
    "bus": "yes",
    "highway": "bus_stop",
    "name": "Mûriers",
    "public_transport": "stop_position"
  }
},
{
  "type": "node",
  "id": 8765688746,
  "lat": 43.5689535,
  "lon": 7.1191540,
  "tags": {
    "bus": "yes",
    "highway": "bus_stop",
    "name": "Rostagne",
    "public_transport": "stop_position"
  }
},
{
  "type": "node",
  "id": 8765688747,
  "lat": 43.5691322,
  "lon": 7.1202221,
  "tags": {
    "bus": "yes",
    "highway": "bus_stop",
    "name": "Rostagne",
    "public_transport": "stop_position"
  }
},
{
  "type": "node",
  "id": 8765688748,
  "lat": 43.5683740,
  "lon": 7.1173640,
  "tags": {
    "bus": "yes",
    "highway": "bus_stop",
    "name": "Ambassadeur",
    "public_transport": "stop_position"
  }
},
{
  "type": "node",
  "id": 8765688749,
  "lat": 43.5722459,
  "lon": 7.1072492,
  "tags": {
    "bus": "yes",
    "highway": "bus_stop",
    "name": "Rue Pauline",
    "public_transport": "stop_position"
  }
},
{
  "type": "node",
  "id": 8765688750,
  "lat": 43.5748182,
  "lon": 7.1083034,
  "tags": {
    "bus": "yes",
    "highway": "bus_stop",
    "name": "Olivaie",
    "public_transport": "stop_position"
  }
},
{
  "type": "node",
  "id": 8765688751,
  "lat": 43.5755513,
  "lon": 7.1090933,
  "tags": {
    "bus": "yes",
    "highway": "bus_stop",
    "name": "Eden Park",
    "public_transport": "stop_position"
  }
},
{
  "type": "node",
  "id": 8765688755,
  "lat": 43.5764363,
  "lon": 7.1120230,
  "tags": {
    "bus": "yes",
    "highway": "bus_stop",
    "name": "Tradelière",
    "public_transport": "stop_position"
  }
},
{
  "type": "node",
  "id": 8765688757,
  "lat": 43.5760657,
  "lon": 7.1069341,
  "tags": {
    "bus": "yes",
    "highway": "bus_stop",
    "name": "Adriana",
    "public_transport": "stop_position"
  }
},
{
  "type": "node",
  "id": 8765688758,
  "lat": 43.5761084,
  "lon": 7.1069236,
  "tags": {
    "bus": "yes",
    "highway": "bus_stop",
    "name": "Adriana",
    "public_transport": "stop_position"
  }
},
{
  "type": "node",
  "id": 8765688760,
  "lat": 43.5771482,
  "lon": 7.1071878,
  "tags": {
    "bus": "yes",
    "highway": "bus_stop",
    "name": "Roses",
    "public_transport": "stop_position"
  }
},
{
  "type": "node",
  "id": 8765688761,
  "lat": 43.5773062,
  "lon": 7.1070618,
  "tags": {
    "bus": "yes",
    "highway": "bus_stop",
    "name": "Roses",
    "public_transport": "stop_position"
  }
},
{
  "type": "node",
  "id": 8765688767,
  "lat": 43.5780050,
  "lon": 7.1053517,
  "tags": {
    "bus": "yes",
    "highway": "bus_stop",
    "name": "Autrichiens",
    "public_transport": "stop_position"
  }
},
{
  "type": "node",
  "id": 8765688772,
  "lat": 43.5800909,
  "lon": 7.1053225,
  "tags": {
    "bus": "yes",
    "highway": "bus_stop",
    "name": "Mayerling",
    "public_transport": "stop_position"
  }
},
{
  "type": "node",
  "id": 8765688773,
  "lat": 43.5805048,
  "lon": 7.1052569,
  "tags": {
    "bus": "yes",
    "highway": "bus_stop",
    "name": "Mayerling",
    "public_transport": "stop_position"
  }
},
{
  "type": "node",
  "id": 8765688777,
  "lat": 43.5828700,
  "lon": 7.1061827,
  "tags": {
    "bus": "yes",
    "highway": "bus_stop",
    "name": "Saint-Jean",
    "public_transport": "stop_position"
  }
},
{
  "type": "node",
  "id": 8765688779,
  "lat": 43.5859089,
  "lon": 7.1013297,
  "tags": {
    "bus": "yes",
    "highway": "bus_stop",
    "name": "Plateau Fleuri",
    "public_transport": "stop_position"
  }
},
{
  "type": "node",
  "id": 8765688780,
  "lat": 43.5858079,
  "lon": 7.1013189,
  "tags": {
    "bus": "yes",
    "highway": "bus_stop",
    "name": "Plateau Fleuri",
    "public_transport": "stop_position"
  }
},
{
  "type": "node",
  "id": 8765688781,
  "lat": 43.5867613,
  "lon": 7.1037616,
  "tags": {
    "bus": "yes",
    "highway": "bus_stop",
    "name": "Fontmerle",
    "public_transport": "stop_position"
  }
},
{
  "type": "node",
  "id": 8765688782,
  "lat": 43.5866457,
  "lon": 7.1032691,
  "tags": {
    "bus": "yes",
    "highway": "bus_stop",
    "name": "Fontmerle",
    "public_transport": "stop_position"
  }
},
{
  "type": "node",
  "id": 8765688783,
  "lat": 43.5881300,
  "lon": 7.1040172,
  "tags": {
    "bus": "yes",
    "highway": "bus_stop",
    "name": "Consul",
    "public_transport": "stop_position"
  }
},
{
  "type": "node",
  "id": 8765688784,
  "lat": 43.5893099,
  "lon": 7.1008121,
  "tags": {
    "bus": "yes",
    "highway": "bus_stop",
    "name": "Soleil d'Or",
    "public_transport": "stop_position"
  }
},
{
  "type": "node",
  "id": 8765688785,
  "lat": 43.5892969,
  "lon": 7.1006535,
  "tags": {
    "bus": "yes",
    "highway": "bus_stop",
    "name": "Soleil d'Or",
    "public_transport": "stop_position"
  }
},
{
  "type": "node",
  "id": 8765688786,
  "lat": 43.5891012,
  "lon": 7.0991552,
  "tags": {
    "bus": "yes",
    "highway": "bus_stop",
    "name": "Flaubert",
    "public_transport": "stop_position"
  }
},
{
  "type": "node",
  "id": 8765688787,
  "lat": 43.5895208,
  "lon": 7.0978055,
  "tags": {
    "bus": "yes",
    "highway": "bus_stop",
    "name": "Lerina",
    "public_transport": "stop_position"
  }
},
{
  "type": "node",
  "id": 8765688788,
  "lat": 43.5908663,
  "lon": 7.0953404,
  "tags": {
    "bus": "yes",
    "highway": "bus_stop",
    "name": "Goya",
    "public_transport": "stop_position"
  }
},
{
  "type": "node",
  "id": 8765688789,
  "lat": 43.5909535,
  "lon": 7.0952844,
  "tags": {
    "bus": "yes",
    "highway": "bus_stop",
    "name": "Goya",
    "public_transport": "stop_position"
  }
},
{
  "type": "node",
  "id": 8765688790,
  "lat": 43.5919954,
  "lon": 7.0947252,
  "tags": {
    "bus": "yes",
    "highway": "bus_stop",
    "name": "Jeux de Boules",
    "public_transport": "stop_position"
  }
},
{
  "type": "node",
  "id": 8765688791,
  "lat": 43.5921377,
  "lon": 7.0946908,
  "tags": {
    "bus": "yes",
    "highway": "bus_stop",
    "name": "Jeux de Boules",
    "public_transport": "stop_position"
  }
},
{
  "type": "node",
  "id": 8765846903,
  "lat": 43.5982061,
  "lon": 7.0933778,
  "tags": {
    "bus": "yes",
    "highway": "bus_stop",
    "name": "École Jean Moulin",
    "public_transport": "stop_position"
  }
},
{
  "type": "node",
  "id": 8765846904,
  "lat": 43.5971878,
  "lon": 7.0970952,
  "tags": {
    "bus": "yes",
    "highway": "bus_stop",
    "name": "Corail",
    "public_transport": "stop_position"
  }
},
{
  "type": "node",
  "id": 8765846905,
  "lat": 43.5957106,
  "lon": 7.0993812,
  "tags": {
    "bus": "yes",
    "highway": "bus_stop",
    "name": "Antilles",
    "public_transport": "stop_position"
  }
},
{
  "type": "node",
  "id": 8765846906,
  "lat": 43.5955052,
  "lon": 7.0997139,
  "tags": {
    "bus": "yes",
    "highway": "bus_stop",
    "name": "Antilles",
    "public_transport": "stop_position"
  }
},
{
  "type": "node",
  "id": 8765846907,
  "lat": 43.5934174,
  "lon": 7.1037091,
  "tags": {
    "bus": "yes",
    "highway": "bus_stop",
    "name": "Terres Blanches",
    "public_transport": "stop_position"
  }
},
{
  "type": "node",
  "id": 8765846908,
  "lat": 43.5935867,
  "lon": 7.1037222,
  "tags": {
    "bus": "yes",
    "highway": "bus_stop",
    "name": "Terres Blanches",
    "public_transport": "stop_position"
  }
},
{
  "type": "node",
  "id": 8765846909,
  "lat": 43.5927584,
  "lon": 7.1088791,
  "tags": {
    "bus": "yes",
    "highway": "bus_stop",
    "name": "Cimetière Rabiac Haut",
    "public_transport": "stop_position"
  }
},
{
  "type": "node",
  "id": 8765846910,
  "lat": 43.5920617,
  "lon": 7.1097978,
  "tags": {
    "bus": "yes",
    "highway": "bus_stop",
    "name": "Mexicaines",
    "public_transport": "stop_position"
  }
},
{
  "type": "node",
  "id": 8765846911,
  "lat": 43.5919422,
  "lon": 7.1102801,
  "tags": {
    "bus": "yes",
    "highway": "bus_stop",
    "name": "Mexicaines",
    "public_transport": "stop_position"
  }
},
{
  "type": "node",
  "id": 8765846912,
  "lat": 43.5898869,
  "lon": 7.1115908,
  "tags": {
    "bus": "yes",
    "highway": "bus_stop",
    "name": "Marepolis",
    "public_transport": "stop_position"
  }
},
{
  "type": "node",
  "id": 8765846913,
  "lat": 43.5882585,
  "lon": 7.1150453,
  "tags": {
    "bus": "yes",
    "highway": "bus_stop",
    "name": "Chenonceau",
    "public_transport": "stop_position"
  }
},
{
  "type": "node",
  "id": 8765846914,
  "lat": 43.5879383,
  "lon": 7.1173618,
  "tags": {
    "bus": "yes",
    "highway": "bus_stop",
    "name": "Chemin du Puy",
    "public_transport": "stop_position"
  }
},
{
  "type": "node",
  "id": 8768856799,
  "lat": 43.5720681,
  "lon": 7.1089913,
  "tags": {
    "bus": "yes",
    "highway": "bus_stop",
    "name": "Vilmorin",
    "public_transport": "stop_position"
  }
},
{
  "type": "node",
  "id": 8778664310,
  "lat": 43.6145118,
  "lon": 7.1205841,
  "tags": {
    "bus": "yes",
    "highway": "bus_stop",
    "name": "Château de la Brague",
    "public_transport": "stop_position"
  }
},
{
  "type": "node",
  "id": 8778664311,
  "lat": 43.6134129,
  "lon": 7.1233426,
  "tags": {
    "bus": "yes",
    "highway": "bus_stop",
    "name": "Marineland",
    "public_transport": "stop_position"
  }
},
{
  "type": "node",
  "id": 8778664312,
  "lat": 43.6130500,
  "lon": 7.1242416,
  "tags": {
    "bus": "yes",
    "highway": "bus_stop",
    "name": "Marineland",
    "public_transport": "stop_position"
  }
},
{
  "type": "node",
  "id": 8778876576,
  "lat": 43.6062446,
  "lon": 7.1150272,
  "tags": {
    "bus": "yes",
    "highway": "bus_stop",
    "name": "Hautes Bréguières",
    "public_transport": "stop_position"
  }
},
{
  "type": "node",
  "id": 8778876584,
  "lat": 43.6064526,
  "lon": 7.1176680,
  "tags": {
    "bus": "yes",
    "highway": "bus_stop",
    "name": "Pépinières",
    "public_transport": "stop_position"
  }
},
{
  "type": "node",
  "id": 8778876587,
  "lat": 43.6040045,
  "lon": 7.1170049,
  "tags": {
    "bus": "yes",
    "highway": "bus_stop",
    "name": "Moyennes Brèguières",
    "public_transport": "stop_position"
  }
},
{
  "type": "node",
  "id": 8779226021,
  "lat": 43.5849782,
  "lon": 7.1205400,
  "tags": {
    "bus": "yes",
    "highway": "bus_stop",
    "name": "Avenue de la Libération",
    "public_transport": "stop_position"
  }
},
{
  "type": "node",
  "id": 8779226022,
  "lat": 43.5849238,
  "lon": 7.1196443,
  "tags": {
    "bus": "yes",
    "highway": "bus_stop",
    "name": "Gare SNCF",
    "public_transport": "stop_position"
  }
},
{
  "type": "node",
  "id": 8779241583,
  "lat": 43.5839902,
  "lon": 7.1248102,
  "tags": {
    "bus": "yes",
    "highway": "bus_stop",
    "name": "Port Vauban",
    "public_transport": "stop_position"
  }
},
{
  "type": "node",
  "id": 8779241584,
  "lat": 43.5865730,
  "lon": 7.1208123,
  "tags": {
    "bus": "yes",
    "highway": "bus_stop",
    "name": "Chapelle St Roch",
    "public_transport": "stop_position"
  }
},
{
  "type": "node",
  "id": 8779241585,
  "lat": 43.5714534,
  "lon": 7.1275590,
  "tags": {
    "bus": "yes",
    "highway": "bus_stop",
    "name": "Plage de la Salis",
    "public_transport": "stop_position"
  }
},
{
  "type": "node",
  "id": 8779241586,
  "lat": 43.5690315,
  "lon": 7.1307210,
  "tags": {
    "bus": "yes",
    "highway": "bus_stop",
    "name": "Port de la Salis",
    "public_transport": "stop_position"
  }
},
{
  "type": "node",
  "id": 8779241587,
  "lat": 43.5692980,
  "lon": 7.1300360,
  "tags": {
    "bus": "yes",
    "highway": "bus_stop",
    "name": "Port de la Salis",
    "public_transport": "stop_position"
  }
},
{
  "type": "node",
  "id": 8779241588,
  "lat": 43.5723692,
  "lon": 7.1263850,
  "tags": {
    "bus": "yes",
    "highway": "bus_stop",
    "name": "Handiplage",
    "public_transport": "stop_position"
  }
},
{
  "type": "node",
  "id": 8779241590,
  "lat": 43.5782588,
  "lon": 7.1241539,
  "tags": {
    "bus": "yes",
    "highway": "bus_stop",
    "name": "Avenue Maréchal Reille",
    "public_transport": "stop_position"
  }
},
{
  "type": "node",
  "id": 8779241591,
  "lat": 43.5796122,
  "lon": 7.1228699,
  "tags": {
    "bus": "yes",
    "highway": "bus_stop",
    "name": "Place Barnaud",
    "public_transport": "stop_position"
  }
},
{
  "type": "node",
  "id": 8780456632,
  "lat": 43.6012746,
  "lon": 7.1235919,
  "tags": {
    "bus": "yes",
    "highway": "bus_stop",
    "name": "CCAS Beau Rivage",
    "public_transport": "stop_position"
  }
},
{
  "type": "node",
  "id": 8780456633,
  "lat": 43.5995685,
  "lon": 7.1240646,
  "tags": {
    "bus": "yes",
    "highway": "bus_stop",
    "name": "Collège de la Fontonne",
    "public_transport": "stop_position"
  }
},
{
  "type": "node",
  "id": 8780456634,
  "lat": 43.5994470,
  "lon": 7.1242169,
  "tags": {
    "bus": "yes",
    "highway": "bus_stop",
    "name": "Collège de la Fontonne",
    "public_transport": "stop_position"
  }
},
{
  "type": "node",
  "id": 8780456635,
  "lat": 43.5998988,
  "lon": 7.1229148,
  "tags": {
    "bus": "yes",
    "highway": "bus_stop",
    "name": "Frères Garbéro",
    "public_transport": "stop_position"
  }
},
{
  "type": "node",
  "id": 8780456636,
  "lat": 43.5999271,
  "lon": 7.1227257,
  "tags": {
    "bus": "yes",
    "highway": "bus_stop",
    "name": "Frères Garbéro",
    "public_transport": "stop_position"
  }
},
{
  "type": "node",
  "id": 8780456637,
  "lat": 43.5979780,
  "lon": 7.1241837,
  "tags": {
    "bus": "yes",
    "highway": "bus_stop",
    "name": "Plein Sud",
    "public_transport": "stop_position"
  }
},
{
  "type": "node",
  "id": 8780456638,
  "lat": 43.5971705,
  "lon": 7.1241793,
  "tags": {
    "bus": "yes",
    "highway": "bus_stop",
    "name": "Plein Sud",
    "public_transport": "stop_position"
  }
},
{
  "type": "node",
  "id": 8780456639,
  "lat": 43.5945299,
  "lon": 7.1228565,
  "tags": {
    "bus": "yes",
    "highway": "bus_stop",
    "name": "Romarins",
    "public_transport": "stop_position"
  }
},
{
  "type": "node",
  "id": 8780456640,
  "lat": 43.5942910,
  "lon": 7.1223651,
  "tags": {
    "bus": "yes",
    "highway": "bus_stop",
    "name": "Romarins",
    "public_transport": "stop_position"
  }
},
{
  "type": "node",
  "id": 8780456641,
  "lat": 43.5942241,
  "lon": 7.1212057,
  "tags": {
    "bus": "yes",
    "highway": "bus_stop",
    "name": "Saint-François",
    "public_transport": "stop_position"
  }
},
{
  "type": "node",
  "id": 9143056492,
  "lat": 43.5739164,
  "lon": 7.1165902,
  "tags": {
    "bus": "yes",
    "highway": "bus_stop",
    "name": "Lycée Audiberti",
    "public_transport": "stop_position"
  }
},
{
  "type": "node",
  "id": 9482932383,
  "lat": 43.5918409,
  "lon": 7.1054587,
  "tags": {
    "bus": "yes",
    "highway": "bus_stop",
    "name": "Sarrazine",
    "public_transport": "stop_position"
  }
}

  ]
}
