{
  "version": 0.6,
  "generator": "Overpass API 0.7.57.1 74a55df1",
  "osm3s": {
    "timestamp_osm_base": "2022-02-13T13:18:30Z",
    "timestamp_areas_base": "2022-02-13T02:36:10Z",
    "copyright": "The data included in this document is from www.openstreetmap.org. The data is made available under ODbL."
  },
  "elements": [

{
  "type": "way",
  "id": 4079534,
  "nodes": [
    6186431775,
    1273271168,
    8274997434,
    245439816
  ],
  "tags": {
    "cycleway:right": "lane",
    "cycleway:right:lane": "advisory",
    "highway": "secondary",
    "lanes": "1",
    "maxspeed": "30",
    "name": "Rue des Alpes",
    "oneway": "yes",
    "surface": "asphalt"
  }
},
{
  "type": "way",
  "id": 4278359,
  "nodes": [
    16464664,
    4745810693
  ],
  "tags": {
    "bridge": "yes",
    "cycleway:right": "lane",
    "highway": "primary",
    "lanes": "2",
    "layer": "2",
    "lit": "yes",
    "maxspeed": "50",
    "name": "Pont Frédéric Mistral",
    "oneway": "yes",
    "ref": "D 533",
    "surface": "asphalt"
  }
},
{
  "type": "way",
  "id": 4278360,
  "nodes": [
    16464661,
    4745810695
  ],
  "tags": {
    "bridge": "yes",
    "cycleway:right": "lane",
    "highway": "primary",
    "lanes": "2",
    "layer": "2",
    "lit": "yes",
    "maxspeed": "50",
    "name": "Pont Frédéric Mistral",
    "oneway": "yes",
    "ref": "D 533N",
    "surface": "asphalt"
  }
},
{
  "type": "way",
  "id": 4644348,
  "nodes": [
    21639139,
    7947600920,
    21639146
  ],
  "tags": {
    "cycleway:right": "lane",
    "highway": "secondary",
    "name": "Rue Faventines",
    "oneway": "yes",
    "surface": "asphalt"
  }
},
{
  "type": "way",
  "id": 4651253,
  "nodes": [
    655773,
    1221359363,
    8994326114,
    1221359388,
    1218043545
  ],
  "tags": {
    "cycleway:right": "lane",
    "highway": "primary",
    "maxspeed": "50",
    "name": "Boulevard Gustave André",
    "oneway": "yes",
    "surface": "asphalt"
  }
},
{
  "type": "way",
  "id": 4981447,
  "nodes": [
    33041010,
    33041011,
    1177429468,
    1235158126,
    8753562845,
    33041012,
    8753559944,
    1739468573
  ],
  "tags": {
    "cycleway:right": "lane",
    "highway": "tertiary",
    "name": "Rue Jean Jaurès",
    "oneway": "yes",
    "oneway:bicycle": "yes",
    "surface": "asphalt"
  }
},
{
  "type": "way",
  "id": 4981451,
  "nodes": [
    33041014,
    33041029,
    8753579980,
    33041024
  ],
  "tags": {
    "cycleway:left": "opposite",
    "cycleway:right": "lane",
    "highway": "tertiary",
    "maxspeed": "30",
    "name": "Rue Adolphe Thiers",
    "oneway": "yes",
    "short_name": "Rue Thiers",
    "zone:maxspeed": "FR:30"
  }
},
{
  "type": "way",
  "id": 4981478,
  "nodes": [
    16645442,
    6138692191,
    16645445
  ],
  "tags": {
    "cycleway:right": "lane",
    "cycleway:right:lane": "exclusive",
    "highway": "secondary",
    "maxspeed": "50",
    "name": "Boulevard du Maréchal Juin",
    "oneway": "yes",
    "surface": "asphalt"
  }
},
{
  "type": "way",
  "id": 4981479,
  "nodes": [
    16645445,
    7260555571,
    16645443
  ],
  "tags": {
    "cycleway:right": "lane",
    "cycleway:right:lane": "exclusive",
    "highway": "secondary",
    "maxspeed": "50",
    "name": "Boulevard du Maréchal Juin",
    "oneway": "yes",
    "surface": "asphalt"
  }
},
{
  "type": "way",
  "id": 7987791,
  "nodes": [
    7203573058,
    29595490,
    1944745263,
    29595494,
    1944745265,
    29595486
  ],
  "tags": {
    "cycleway:right": "lane",
    "highway": "unclassified"
  }
},
{
  "type": "way",
  "id": 7987793,
  "nodes": [
    29595486,
    29595498,
    29595506,
    1944745268,
    7203573074,
    1218043533,
    29595510,
    78482931,
    413770682
  ],
  "tags": {
    "cycleway:right": "lane",
    "highway": "residential",
    "name": "Rue Antoine Barnave",
    "short_name": "Rue Barnave"
  }
},
{
  "type": "way",
  "id": 7987918,
  "nodes": [
    21639065,
    4200402544,
    4413681549
  ],
  "tags": {
    "cycleway:right": "lane",
    "cycleway:right:lane": "exclusive",
    "highway": "secondary",
    "maxspeed": "30",
    "name": "Place Championnet",
    "oneway": "yes",
    "surface": "asphalt"
  }
},
{
  "type": "way",
  "id": 7987952,
  "nodes": [
    21639042,
    6186431752,
    16464616
  ],
  "tags": {
    "cycleway:right": "lane",
    "highway": "primary",
    "maxspeed": "30",
    "name": "Avenue Sadi Carnot",
    "oneway": "yes",
    "surface": "asphalt"
  }
},
{
  "type": "way",
  "id": 7988031,
  "nodes": [
    21645581,
    21645582,
    4837047444,
    1223374036,
    4837047441,
    1117963379,
    21645584
  ],
  "tags": {
    "cycleway:right": "lane",
    "highway": "residential",
    "lit": "no",
    "name": "Avenue de Lautagne",
    "oneway": "yes",
    "sidewalk": "none",
    "surface": "asphalt"
  }
},
{
  "type": "way",
  "id": 7988037,
  "nodes": [
    21645589,
    1038072603,
    1038072598,
    21645585
  ],
  "tags": {
    "cycleway:right": "lane",
    "highway": "unclassified",
    "junction": "roundabout",
    "surface": "asphalt"
  }
},
{
  "type": "way",
  "id": 7988039,
  "nodes": [
    21645585,
    1117963459,
    4837047442,
    1223374145,
    4837047443,
    21645583,
    21645581
  ],
  "tags": {
    "cycleway:right": "lane",
    "highway": "residential",
    "lit": "no",
    "name": "Avenue de Lautagne",
    "oneway": "yes",
    "sidewalk": "none",
    "surface": "asphalt"
  }
},
{
  "type": "way",
  "id": 7988060,
  "nodes": [
    21645524,
    1187403648,
    1187403797,
    1233910978,
    21645525,
    1187403730,
    1235072543,
    1235072201,
    21645526,
    1235072308
  ],
  "tags": {
    "cycleway:right": "lane",
    "highway": "residential",
    "name": "Avenue de Combe de Vallaurie",
    "source": "cadastre-dgi-fr source : Direction Générale des Finances Publiques - Cadastre. Mise à jour : 2017"
  }
},
{
  "type": "way",
  "id": 7988208,
  "nodes": [
    16464618,
    1038057354,
    16464619,
    8753585115,
    16464621,
    530779585
  ],
  "tags": {
    "cycleway:left": "opposite_lane",
    "cycleway:right": "lane",
    "highway": "primary",
    "maxspeed": "30",
    "name": "Avenue Sadi Carnot",
    "oneway": "yes"
  }
},
{
  "type": "way",
  "id": 7988251,
  "nodes": [
    16464611,
    6186431762,
    6478943836,
    21639042
  ],
  "tags": {
    "cycleway:right": "lane",
    "highway": "primary",
    "maxspeed": "30",
    "name": "Avenue Sadi Carnot",
    "oneway": "yes",
    "surface": "asphalt"
  }
},
{
  "type": "way",
  "id": 24475064,
  "nodes": [
    25757352,
    4200402519,
    2503404510,
    1163410162,
    21639069
  ],
  "tags": {
    "cycleway:left": "opposite",
    "cycleway:right": "lane",
    "highway": "tertiary",
    "maxspeed": "30",
    "name": "Avenue du Champ de Mars",
    "oneway": "yes",
    "surface": "asphalt"
  }
},
{
  "type": "way",
  "id": 30196112,
  "nodes": [
    5848138874,
    5848138867,
    5848138866,
    5848138865,
    3733274493,
    5848138882,
    5848138883,
    332732065
  ],
  "tags": {
    "cycleway:right": "lane",
    "highway": "secondary",
    "maxspeed": "50",
    "name": "Avenue de Gascogne",
    "oneway": "yes"
  }
},
{
  "type": "way",
  "id": 41584890,
  "nodes": [
    21639148,
    4419343676,
    4410413309,
    1177429490,
    33041034
  ],
  "tags": {
    "cycleway:right": "lane",
    "highway": "secondary",
    "lanes": "1",
    "maxspeed": "30",
    "name": "Rue Faventines",
    "oneway": "yes",
    "surface": "asphalt",
    "zone:maxspeed": "FR:30"
  }
},
{
  "type": "way",
  "id": 42505997,
  "nodes": [
    6164450088,
    6164450128,
    1161671194
  ],
  "tags": {
    "cycleway:right": "lane",
    "highway": "residential",
    "maxspeed": "30",
    "name": "Rue Jérôme Quiot",
    "oneway": "yes"
  }
},
{
  "type": "way",
  "id": 45461045,
  "nodes": [
    946800806,
    1197128052,
    578589074
  ],
  "tags": {
    "cycleway:right": "lane",
    "highway": "tertiary",
    "name": "Rue Emmanuel Chabrier",
    "oneway": "yes",
    "source": "cadastre-dgi-fr source : Direction Générale des Finances Publiques - Cadastre. Mise à jour : 2017"
  }
},
{
  "type": "way",
  "id": 48394111,
  "nodes": [
    614632119,
    5885224411,
    6288487430
  ],
  "tags": {
    "cycleway:right": "lane",
    "highway": "unclassified",
    "lanes": "2",
    "name": "Rue Barthélemy de Laffemas",
    "oneway": "no",
    "source": "cadastre-dgi-fr source : Direction Générale des Finances Publiques - Cadastre. Mise à jour : 2017",
    "surface": "asphalt"
  }
},
{
  "type": "way",
  "id": 97571571,
  "nodes": [
    28931279,
    1137669703,
    4193469031,
    4470597931,
    28931280
  ],
  "tags": {
    "bicycle": "yes",
    "cycleway": "opposite",
    "cycleway:right": "lane",
    "highway": "residential",
    "lit": "yes",
    "maxspeed": "30",
    "name": "Rue Mirabel Chambaud",
    "oneway": "yes",
    "oneway:bicycle": "no",
    "surface": "asphalt"
  }
},
{
  "type": "way",
  "id": 101990384,
  "nodes": [
    21639146,
    21639148
  ],
  "tags": {
    "cycleway:right": "lane",
    "highway": "secondary",
    "lanes": "2",
    "maxspeed": "30",
    "name": "Rue Faventines",
    "source": "cadastre-dgi-fr source : Direction Générale des Finances Publiques - Cadastre. Mise à jour : 2017",
    "surface": "asphalt",
    "zone:maxspeed": "FR:30"
  }
},
{
  "type": "way",
  "id": 101990394,
  "nodes": [
    21639146,
    7947600921,
    21639138
  ],
  "tags": {
    "cycleway:right": "lane",
    "highway": "secondary",
    "lanes": "1",
    "name": "Rue Faventines",
    "oneway": "yes",
    "source": "cadastre-dgi-fr source : Direction Générale des Finances Publiques - Cadastre. Mise à jour : 2017",
    "surface": "asphalt"
  }
},
{
  "type": "way",
  "id": 103333428,
  "nodes": [
    729828019,
    729827965,
    729828064,
    729828030,
    729827993,
    729828075
  ],
  "tags": {
    "cycleway:right": "lane",
    "highway": "tertiary",
    "name": "Rue Arthuro Toscanini",
    "source": "cadastre-dgi-fr source : Direction Générale des Finances Publiques - Cadastre. Mise à jour : 2017"
  }
},
{
  "type": "way",
  "id": 103690419,
  "nodes": [
    578589074,
    578589075,
    1197127919,
    1197127766,
    578589076,
    1172809308,
    1172809790,
    578589079,
    578589077,
    578589055,
    1193322782,
    1324722659
  ],
  "tags": {
    "cycleway:right": "lane",
    "highway": "tertiary",
    "name": "Rue Emmanuel Chabrier",
    "source": "cadastre-dgi-fr source : Direction Générale des Finances Publiques - Cadastre. Mise à jour : 2017"
  }
},
{
  "type": "way",
  "id": 105781614,
  "nodes": [
    1218043545,
    171701,
    1677207636
  ],
  "tags": {
    "cycleway:right": "lane",
    "highway": "primary",
    "maxspeed": "50",
    "name": "Boulevard Gustave André",
    "oneway": "yes",
    "surface": "asphalt"
  }
},
{
  "type": "way",
  "id": 107431452,
  "nodes": [
    1234713944,
    1234713947
  ],
  "tags": {
    "cycleway:right": "lane",
    "cycleway:right:lane": "advisory",
    "highway": "primary",
    "name": "Avenue de Romans",
    "name:oc": "Avenguá de Romans",
    "oneway": "yes",
    "source:name:oc": "ieo-bdtopoc",
    "surface": "asphalt"
  }
},
{
  "type": "way",
  "id": 107468541,
  "nodes": [
    1235072308,
    21645527,
    1235072363,
    21645528,
    21645529,
    1187403463,
    16465771
  ],
  "tags": {
    "cycleway:right": "lane",
    "highway": "residential",
    "name": "Avenue de Combe-Vallaurie",
    "ref:FR:FANTOIR": "263622125B"
  }
},
{
  "type": "way",
  "id": 109577058,
  "nodes": [
    1254034598,
    245439805
  ],
  "tags": {
    "cycleway:right": "lane",
    "highway": "secondary",
    "maxspeed": "30",
    "name": "Rue Faventines",
    "oneway": "yes",
    "source": "cadastre-dgi-fr source : Direction Générale des Finances Publiques - Cadastre. Mise à jour : 2017",
    "surface": "asphalt",
    "zone:maxspeed": "FR:30"
  }
},
{
  "type": "way",
  "id": 109577070,
  "nodes": [
    245439805,
    245439804,
    1177327320,
    21639160,
    4197385664,
    1145670148,
    21639161,
    4409739827,
    8750573016,
    21639056
  ],
  "tags": {
    "cycleway:right": "lane",
    "highway": "secondary",
    "maxspeed": "30",
    "name": "Rue Faventines",
    "oneway": "yes",
    "source": "cadastre-dgi-fr source : Direction Générale des Finances Publiques - Cadastre. Mise à jour : 2017",
    "surface": "asphalt",
    "zone:maxspeed": "FR:30"
  }
},
{
  "type": "way",
  "id": 111827956,
  "nodes": [
    1161671194,
    1161671268
  ],
  "tags": {
    "cycleway:right": "lane",
    "highway": "unclassified",
    "maxspeed": "30",
    "name": "Rue Jérôme Quiot",
    "oneway": "yes"
  }
},
{
  "type": "way",
  "id": 111827957,
  "nodes": [
    1273181642,
    6478943837,
    6186431770,
    6186431771
  ],
  "tags": {
    "cycleway:right": "lane",
    "highway": "unclassified",
    "maxspeed": "30",
    "name": "Rue Jérôme Quiot",
    "oneway": "yes",
    "source": "cadastre-dgi-fr source : Direction Générale des Finances Publiques - Cadastre. Mise à jour : 2017"
  }
},
{
  "type": "way",
  "id": 111827958,
  "nodes": [
    1161671230,
    8736103483,
    1161671279,
    1161671249
  ],
  "tags": {
    "cycleway:right": "lane",
    "highway": "unclassified",
    "maxspeed": "30",
    "name": "Rue Jérôme Quiot",
    "oneway": "yes",
    "source": "cadastre-dgi-fr source : Direction Générale des Finances Publiques - Cadastre. Mise à jour : 2017"
  }
},
{
  "type": "way",
  "id": 111827961,
  "nodes": [
    1161671249,
    1273181642
  ],
  "tags": {
    "cycleway:right": "lane",
    "highway": "unclassified",
    "maxspeed": "30",
    "name": "Rue Jérôme Quiot",
    "oneway": "yes",
    "source": "cadastre-dgi-fr source : Direction Générale des Finances Publiques - Cadastre. Mise à jour : 2017"
  }
},
{
  "type": "way",
  "id": 117624346,
  "nodes": [
    729828043,
    729828007,
    729828086,
    729828053,
    729828015,
    729827957,
    729828059
  ],
  "tags": {
    "cycleway:right": "lane",
    "highway": "tertiary",
    "name": "Rue Emmanuel Chabrier",
    "source": "cadastre-dgi-fr source : Direction Générale des Finances Publiques - Cadastre. Mise à jour : 2017"
  }
},
{
  "type": "way",
  "id": 117624374,
  "nodes": [
    1193322763,
    729828072,
    729828036,
    729827999,
    729828080,
    6288758436,
    729828046
  ],
  "tags": {
    "cycleway:right": "lane",
    "highway": "tertiary",
    "name": "Rue Arthuro Toscanini",
    "oneway": "no",
    "source": "cadastre-dgi-fr source : Direction Générale des Finances Publiques - Cadastre. Mise à jour : 2017"
  }
},
{
  "type": "way",
  "id": 117624384,
  "nodes": [
    1324722659,
    578589057,
    1172809513
  ],
  "tags": {
    "cycleway:right": "lane",
    "highway": "tertiary",
    "name": "Rue Emmanuel Chabrier",
    "source": "cadastre-dgi-fr source : Direction Générale des Finances Publiques - Cadastre. Mise à jour : 2017"
  }
},
{
  "type": "way",
  "id": 131341064,
  "nodes": [
    245439816,
    4409739825,
    33041069,
    4409739822,
    8750608950,
    21639153
  ],
  "tags": {
    "cycleway:right": "lane",
    "cycleway:right:lane": "advisory",
    "highway": "secondary",
    "lanes": "1",
    "lit": "yes",
    "maxspeed": "30",
    "name": "Rue des Alpes",
    "oneway": "yes",
    "sidewalk": "both",
    "surface": "asphalt",
    "zone:maxspeed": "FR:30"
  }
},
{
  "type": "way",
  "id": 140395077,
  "nodes": [
    33041017,
    1177496233
  ],
  "tags": {
    "cycleway:right": "lane",
    "highway": "secondary",
    "name": "Avenue de Chabeuil",
    "name:oc": "Avenguá de Chabuelh",
    "oneway": "yes",
    "source:name:oc": "ieo-bdtopoc"
  }
},
{
  "type": "way",
  "id": 140395086,
  "nodes": [
    33041014,
    3210641343,
    1177327347,
    3210641346,
    1038067351,
    8753594141,
    33041016,
    8750581206,
    33041017
  ],
  "tags": {
    "cycleway:right": "lane",
    "highway": "tertiary",
    "maxspeed:type": "FR:urban",
    "name": "Rue Jean Jaurès",
    "oneway": "yes",
    "oneway:bicycle": "yes",
    "surface": "asphalt"
  }
},
{
  "type": "way",
  "id": 140486583,
  "nodes": [
    21645498,
    8750627437,
    3164773646,
    1977686339
  ],
  "tags": {
    "cycleway:right": "lane",
    "cycleway:right:lane": "advisory",
    "highway": "tertiary",
    "lanes": "2",
    "maxspeed": "50",
    "name": "Rue Sevigné",
    "oneway": "yes",
    "source:maxspeed": "FR:urban",
    "surface": "asphalt"
  }
},
{
  "type": "way",
  "id": 140486598,
  "nodes": [
    21645585,
    1038072609,
    21645584
  ],
  "tags": {
    "cycleway:right": "lane",
    "highway": "unclassified",
    "junction": "roundabout",
    "surface": "asphalt"
  }
},
{
  "type": "way",
  "id": 140486604,
  "nodes": [
    21645584,
    1038072607,
    1038072610,
    1038072608,
    21645588,
    1038072601,
    1038072604,
    1038072600,
    21645587,
    1038072602,
    21645586,
    1038072605,
    1038072599,
    1038072606,
    21645589
  ],
  "tags": {
    "cycleway:right": "lane",
    "highway": "unclassified",
    "junction": "roundabout",
    "surface": "asphalt"
  }
},
{
  "type": "way",
  "id": 140654812,
  "nodes": [
    1172809589,
    729828040,
    729828003,
    1193322763
  ],
  "tags": {
    "cycleway:right": "lane",
    "highway": "tertiary",
    "name": "Rue Arthuro Toscanini",
    "source": "cadastre-dgi-fr source : Direction Générale des Finances Publiques - Cadastre. Mise à jour : 2017"
  }
},
{
  "type": "way",
  "id": 140654819,
  "nodes": [
    729828075,
    1172809589
  ],
  "tags": {
    "cycleway:right": "lane",
    "highway": "tertiary",
    "name": "Rue Arthuro Toscanini",
    "source": "cadastre-dgi-fr source : Direction Générale des Finances Publiques - Cadastre. Mise à jour : 2017"
  }
},
{
  "type": "way",
  "id": 140657832,
  "nodes": [
    21639153,
    21639162,
    8750624498,
    21639159,
    702178463,
    702178462,
    8750604243,
    245439803,
    8750597859,
    1229573577,
    4410413307,
    33041033,
    4419343673,
    21639148
  ],
  "tags": {
    "cycleway:right": "lane",
    "highway": "secondary",
    "maxspeed": "30",
    "name": "Rue des Alpes",
    "oneway": "yes",
    "surface": "asphalt",
    "zone:maxspeed": "FR:30"
  }
},
{
  "type": "way",
  "id": 147992062,
  "nodes": [
    1172809513,
    729828043
  ],
  "tags": {
    "cycleway:right": "lane",
    "highway": "tertiary",
    "name": "Rue Emmanuel Chabrier",
    "source": "cadastre-dgi-fr source : Direction Générale des Finances Publiques - Cadastre. Mise à jour : 2017"
  }
},
{
  "type": "way",
  "id": 148175950,
  "nodes": [
    33041036,
    33041035,
    4410413310,
    33041034
  ],
  "tags": {
    "cycleway:right": "lane",
    "highway": "tertiary",
    "lanes": "1",
    "maxspeed": "30",
    "name": "Rue de Coulmiers",
    "oneway": "yes",
    "surface": "asphalt",
    "zone:maxspeed": "FR:30"
  }
},
{
  "type": "way",
  "id": 148175951,
  "nodes": [
    33041034,
    1254034598
  ],
  "tags": {
    "cycleway:right": "lane",
    "highway": "secondary",
    "lanes": "1",
    "maxspeed": "30",
    "name": "Rue Faventines",
    "oneway": "yes",
    "surface": "asphalt",
    "zone:maxspeed": "FR:30"
  }
},
{
  "type": "way",
  "id": 148179087,
  "nodes": [
    8004712479,
    8004712478,
    21645515
  ],
  "tags": {
    "cycleway:right": "lane",
    "highway": "secondary",
    "name": "Avenue de Chabeuil",
    "name:oc": "Avenguá de Chabuelh",
    "oneway": "yes",
    "source:name:oc": "ieo-bdtopoc"
  }
},
{
  "type": "way",
  "id": 155319621,
  "nodes": [
    1677207636,
    1218043551
  ],
  "tags": {
    "cycleway:right": "lane",
    "highway": "primary",
    "maxspeed": "50",
    "name": "Boulevard Gustave André",
    "oneway": "yes",
    "source": "cadastre-dgi-fr source : Direction Générale des Finances Publiques - Cadastre. Mise à jour : 2017"
  }
},
{
  "type": "way",
  "id": 161467178,
  "nodes": [
    1734316816,
    1172809411
  ],
  "tags": {
    "cycleway:left": "shared_lane",
    "cycleway:left:lane": "pictogram",
    "cycleway:right": "lane",
    "cycleway:right:lane": "advisory",
    "highway": "secondary",
    "name": "Route de Montélier",
    "name:oc": "Rota de Montelher",
    "source:name:oc": "ieo-bdtopoc",
    "surface": "asphalt"
  }
},
{
  "type": "way",
  "id": 161982188,
  "nodes": [
    78475204,
    1149012051,
    78475209,
    78475211,
    78475215,
    2273877190
  ],
  "tags": {
    "cycleway:right": "lane",
    "cycleway:right:lane": "exclusive",
    "highway": "tertiary",
    "lane_markings": "no",
    "maxspeed": "30",
    "name": "Rue Georges Bonnet",
    "oneway": "yes",
    "source": "cadastre-dgi-fr source : Direction Générale des Finances Publiques - Cadastre. Mise à jour : 2017",
    "surface": "asphalt",
    "zone:maxspeed": "FR:30"
  }
},
{
  "type": "way",
  "id": 162002690,
  "nodes": [
    1177496233,
    1612815979
  ],
  "tags": {
    "cycleway:right": "lane",
    "highway": "secondary",
    "name": "Avenue de Chabeuil",
    "name:oc": "Avenguá de Chabuelh",
    "oneway": "yes",
    "source": "cadastre-dgi-fr source : Direction Générale des Finances Publiques - Cadastre. Mise à jour : 2017",
    "source:name:oc": "ieo-bdtopoc"
  }
},
{
  "type": "way",
  "id": 162002705,
  "nodes": [
    1739468573,
    33041013,
    8753575211,
    33041039
  ],
  "tags": {
    "cycleway": "lane",
    "cycleway:right": "lane",
    "highway": "tertiary",
    "name": "Rue Jean Jaurès",
    "oneway": "yes",
    "oneway:bicycle": "yes",
    "source": "cadastre-dgi-fr source : Direction Générale des Finances Publiques - Cadastre. Mise à jour : 2017"
  }
},
{
  "type": "way",
  "id": 162002706,
  "nodes": [
    33041039,
    8753577921,
    1238263957,
    33041014
  ],
  "tags": {
    "cycleway": "lane",
    "cycleway:right": "lane",
    "highway": "tertiary",
    "name": "Rue Jean Jaurès",
    "oneway": "yes",
    "oneway:bicycle": "yes",
    "source": "cadastre-dgi-fr source : Direction Générale des Finances Publiques - Cadastre. Mise à jour : 2017"
  }
},
{
  "type": "way",
  "id": 184044456,
  "nodes": [
    413770682,
    1944745275
  ],
  "tags": {
    "cycleway:right": "lane",
    "highway": "residential",
    "name": "Rue Antoine Barnave",
    "short_name": "Rue Barnave"
  }
},
{
  "type": "way",
  "id": 236013839,
  "nodes": [
    4745810695,
    16464663
  ],
  "tags": {
    "bridge": "yes",
    "cycleway:right": "lane",
    "highway": "primary",
    "lanes": "2",
    "layer": "2",
    "lit": "yes",
    "maxspeed": "50",
    "name": "Pont Frédéric Mistral",
    "oneway": "yes",
    "ref": "D 533",
    "surface": "asphalt"
  }
},
{
  "type": "way",
  "id": 236013840,
  "nodes": [
    4745810693,
    16464662
  ],
  "tags": {
    "bridge": "yes",
    "cycleway:right": "lane",
    "highway": "primary",
    "lanes": "2",
    "layer": "2",
    "lit": "yes",
    "maxspeed": "50",
    "name": "Pont Frédéric Mistral",
    "oneway": "yes",
    "ref": "D 533N",
    "surface": "asphalt"
  }
},
{
  "type": "way",
  "id": 243518910,
  "nodes": [
    1977686339,
    4410406036,
    1163485848,
    6867281771,
    6186431775
  ],
  "tags": {
    "cycleway:right": "lane",
    "cycleway:right:lane": "advisory",
    "highway": "tertiary",
    "lanes": "2",
    "lit": "yes",
    "maxspeed": "50",
    "name": "Rue Sevigné",
    "oneway": "yes",
    "sidewalk": "both",
    "source:maxspeed": "FR:urban",
    "surface": "asphalt"
  }
},
{
  "type": "way",
  "id": 244563371,
  "nodes": [
    32959213,
    529070790,
    9349453142,
    2503404527,
    9349453141,
    32959214,
    9349453140,
    32959215
  ],
  "tags": {
    "cycleway:right": "lane",
    "highway": "tertiary",
    "name": "Boulevard du Cire",
    "source": "cadastre-dgi-fr source : Direction Générale des Finances Publiques - Cadastre. Mise à jour : 2017"
  }
},
{
  "type": "way",
  "id": 483092478,
  "nodes": [
    4758473490,
    4758473488,
    4758473489
  ],
  "tags": {
    "cycleway:right": "lane",
    "cycleway:right:lane": "exclusive",
    "highway": "secondary",
    "lane_markings": "no",
    "lit": "yes",
    "maxspeed": "30",
    "name": "Place Championnet",
    "oneway": "yes",
    "sidewalk": "right",
    "surface": "asphalt",
    "traffic_calming": "table"
  }
},
{
  "type": "way",
  "id": 483092479,
  "nodes": [
    4758473491,
    4413681551,
    4200402543,
    1153024429
  ],
  "tags": {
    "cycleway:right": "lane",
    "cycleway:right:lane": "exclusive",
    "highway": "secondary",
    "lanes": "2",
    "lit": "yes",
    "maxspeed": "30",
    "name": "Place Championnet",
    "oneway": "yes",
    "sidewalk": "right",
    "source": "cadastre-dgi-fr source : Direction Générale des Finances Publiques - Cadastre. Mise à jour : 2017",
    "surface": "asphalt"
  }
},
{
  "type": "way",
  "id": 483092480,
  "nodes": [
    4758473492,
    4758473491
  ],
  "tags": {
    "cycleway:right": "lane",
    "cycleway:right:lane": "exclusive",
    "highway": "secondary",
    "lanes": "2",
    "lit": "yes",
    "maxspeed": "30",
    "name": "Place Championnet",
    "oneway": "yes",
    "sidewalk": "right",
    "source": "cadastre-dgi-fr source : Direction Générale des Finances Publiques - Cadastre. Mise à jour : 2017",
    "surface": "asphalt",
    "traffic_calming": "table"
  }
},
{
  "type": "way",
  "id": 618749944,
  "nodes": [
    5848139494,
    5848139486,
    5848139487,
    5848139488,
    3360056217
  ],
  "tags": {
    "cycleway:right": "lane",
    "highway": "secondary",
    "maxspeed": "50",
    "oneway": "yes"
  }
},
{
  "type": "way",
  "id": 618749945,
  "nodes": [
    332732481,
    5848139494
  ],
  "tags": {
    "cycleway:right": "lane",
    "highway": "secondary",
    "maxspeed": "50"
  }
},
{
  "type": "way",
  "id": 671579337,
  "nodes": [
    1176052083,
    8750509372,
    33040980
  ],
  "tags": {
    "cycleway:right": "lane",
    "highway": "secondary",
    "name": "Avenue de la Libération",
    "oneway": "no",
    "surface": "asphalt"
  }
},
{
  "type": "way",
  "id": 671590875,
  "nodes": [
    6289159737,
    1248472983
  ],
  "tags": {
    "cycleway:right": "lane",
    "highway": "unclassified",
    "lanes": "2",
    "maxspeed": "50",
    "name": "Rue Denis Papin",
    "source:maxspeed": "sign",
    "surface": "asphalt"
  }
},
{
  "type": "way",
  "id": 672032140,
  "nodes": [
    530779585,
    413770695,
    1161671287,
    16464622,
    961991
  ],
  "tags": {
    "cycleway:right": "lane",
    "highway": "primary",
    "maxspeed": "30",
    "name": "Avenue Sadi Carnot",
    "oneway": "yes"
  }
},
{
  "type": "way",
  "id": 672032141,
  "nodes": [
    16464616,
    1038057323,
    16464618
  ],
  "tags": {
    "cycleway:left": "opposite",
    "cycleway:right": "lane",
    "highway": "primary",
    "maxspeed": "30",
    "name": "Avenue Sadi Carnot",
    "oneway": "yes"
  }
},
{
  "type": "way",
  "id": 687934030,
  "nodes": [
    21639067,
    1153024484,
    2143410988
  ],
  "tags": {
    "cycleway:right": "lane",
    "cycleway:right:lane": "advisory",
    "highway": "secondary",
    "junction": "roundabout",
    "lane_markings": "no",
    "lit": "yes",
    "maxspeed": "30",
    "sidewalk": "no",
    "source": "cadastre-dgi-fr source : Direction Générale des Finances Publiques - Cadastre. Mise à jour : 2017",
    "surface": "asphalt"
  }
},
{
  "type": "way",
  "id": 852173569,
  "nodes": [
    4413681549,
    4758473490
  ],
  "tags": {
    "cycleway:right": "lane",
    "cycleway:right:lane": "exclusive",
    "highway": "secondary",
    "lane_markings": "no",
    "lit": "yes",
    "maxspeed": "30",
    "name": "Place Championnet",
    "oneway": "yes",
    "sidewalk": "right",
    "surface": "asphalt"
  }
},
{
  "type": "way",
  "id": 858697909,
  "nodes": [
    1612815979,
    8004712479
  ],
  "tags": {
    "cycleway:right": "lane",
    "highway": "secondary",
    "name": "Avenue de Chabeuil",
    "name:oc": "Avenguá de Chabuelh",
    "oneway": "yes",
    "source:name:oc": "ieo-bdtopoc"
  }
},
{
  "type": "area",
  "id": 3600037586,
  "tags": {
    "addr:postcode": "26000",
    "admin_level": "8",
    "alt_name": "Valence-sur-Rhône",
    "boundary": "administrative",
    "name": "Valence",
    "name:ar": "فالانس",
    "name:be": "Валанс",
    "name:br": "Valença",
    "name:ca": "Valença",
    "name:es": "Valencia de Francia",
    "name:fa": "ولانس",
    "name:fr": "Valence",
    "name:hi": "वलांस",
    "name:hy": "Վալանս",
    "name:ja": "ヴァランス",
    "name:ko": "발랑스",
    "name:la": "Valentia",
    "name:lt": "Valansas",
    "name:lv": "Valansa",
    "name:mzn": "ولانس",
    "name:oc": "Valença",
    "name:ru": "Валанс",
    "name:sr": "Валанс",
    "name:uk": "Валанс",
    "name:zh": "瓦朗斯",
    "population": "64749",
    "population:date": "2019",
    "postal_code": "26000",
    "ref:INSEE": "26362",
    "source:addr:postcode": "source of postcode is from osm nodes",
    "source:name:oc": "ieo-bdtopoc",
    "source:population": "INSEE 2022",
    "source:postal_code": "La Poste - 12/2014",
    "type": "boundary",
    "website": "http://www.mairie-valence.com/",
    "wikidata": "Q8848",
    "wikipedia": "fr:Valence (Drôme)"
  }
},
{
  "type": "area",
  "id": 3600136394,
  "tags": {
    "admin_level": "8",
    "boundary": "administrative",
    "name": "Valence",
    "name:oc": "Valença d'Agen",
    "population": "5205",
    "population:date": "2019",
    "postal_code": "82400",
    "ref:INSEE": "82186",
    "source:name:oc": "ieo-bdtopoc",
    "source:population": "INSEE 2022",
    "type": "boundary",
    "wikidata": "Q1467944",
    "wikipedia": "fr:Valence (Tarn-et-Garonne)"
  }
},
{
  "type": "area",
  "id": 3601268200,
  "tags": {
    "admin_level": "8",
    "boundary": "administrative",
    "name": "Valence",
    "name:oc": "Valença",
    "population": "189",
    "population:date": "2019",
    "postal_code": "16460",
    "ref:INSEE": "16392",
    "source:name:oc": "ieo-bdtopoc",
    "source:population": "INSEE 2022",
    "source:postal_code": "La Poste - 11/2014",
    "type": "boundary",
    "wikidata": "Q1361868",
    "wikipedia": "fr:Valence (Charente)",
    "wikipedia:oc": "oc:Valença"
  }
},
{
  "type": "node",
  "id": 5848138865,
  "lat": 44.1011273,
  "lon": 0.8912243
},
{
  "type": "node",
  "id": 5848138866,
  "lat": 44.1010338,
  "lon": 0.8909306
},
{
  "type": "node",
  "id": 5848138867,
  "lat": 44.1009443,
  "lon": 0.8906979
},
{
  "type": "node",
  "id": 5848138874,
  "lat": 44.1009124,
  "lon": 0.8906410
},
{
  "type": "node",
  "id": 332732065,
  "lat": 44.1015284,
  "lon": 0.8924696
},
{
  "type": "node",
  "id": 3360056217,
  "lat": 44.1017840,
  "lon": 0.8925221
},
{
  "type": "node",
  "id": 3733274493,
  "lat": 44.1012910,
  "lon": 0.8917487
},
{
  "type": "node",
  "id": 5848138882,
  "lat": 44.1013974,
  "lon": 0.8920678
},
{
  "type": "node",
  "id": 5848138883,
  "lat": 44.1014797,
  "lon": 0.8922978
},
{
  "type": "node",
  "id": 5848139486,
  "lat": 44.1020951,
  "lon": 0.8925802
},
{
  "type": "node",
  "id": 5848139487,
  "lat": 44.1019834,
  "lon": 0.8925721
},
{
  "type": "node",
  "id": 5848139488,
  "lat": 44.1018428,
  "lon": 0.8925453
},
{
  "type": "node",
  "id": 5848139494,
  "lat": 44.1021952,
  "lon": 0.8925958
},
{
  "type": "node",
  "id": 332732481,
  "lat": 44.1026583,
  "lon": 0.8926034
},
{
  "type": "node",
  "id": 33040980,
  "lat": 44.9122864,
  "lon": 4.8885469
},
{
  "type": "node",
  "id": 1176052083,
  "lat": 44.9118246,
  "lon": 4.8883661
},
{
  "type": "node",
  "id": 8750509372,
  "lat": 44.9121514,
  "lon": 4.8884940
},
{
  "type": "node",
  "id": 21645584,
  "lat": 44.9053949,
  "lon": 4.9062923
},
{
  "type": "node",
  "id": 21645585,
  "lat": 44.9052412,
  "lon": 4.9062201
},
{
  "type": "node",
  "id": 21645586,
  "lat": 44.9053652,
  "lon": 4.9056243
},
{
  "type": "node",
  "id": 21645587,
  "lat": 44.9055351,
  "lon": 4.9056933
},
{
  "type": "node",
  "id": 21645588,
  "lat": 44.9056225,
  "lon": 4.9060213
},
{
  "type": "node",
  "id": 21645589,
  "lat": 44.9051612,
  "lon": 4.9058600
},
{
  "type": "node",
  "id": 1038072598,
  "lat": 44.9051807,
  "lon": 4.9061198
},
{
  "type": "node",
  "id": 1038072599,
  "lat": 44.9052296,
  "lon": 4.9057086
},
{
  "type": "node",
  "id": 1038072600,
  "lat": 44.9055659,
  "lon": 4.9057337
},
{
  "type": "node",
  "id": 1038072601,
  "lat": 44.9056267,
  "lon": 4.9059474
},
{
  "type": "node",
  "id": 1038072602,
  "lat": 44.9054620,
  "lon": 4.9056388
},
{
  "type": "node",
  "id": 1038072603,
  "lat": 44.9051538,
  "lon": 4.9060100
},
{
  "type": "node",
  "id": 1038072604,
  "lat": 44.9056098,
  "lon": 4.9058329
},
{
  "type": "node",
  "id": 1038072605,
  "lat": 44.9052995,
  "lon": 4.9056472
},
{
  "type": "node",
  "id": 1038072606,
  "lat": 44.9051788,
  "lon": 4.9058001
},
{
  "type": "node",
  "id": 1038072607,
  "lat": 44.9054757,
  "lon": 4.9062693
},
{
  "type": "node",
  "id": 1038072608,
  "lat": 44.9055979,
  "lon": 4.9061175
},
{
  "type": "node",
  "id": 1038072609,
  "lat": 44.9053136,
  "lon": 4.9062752
},
{
  "type": "node",
  "id": 1038072610,
  "lat": 44.9055463,
  "lon": 4.9062087
},
{
  "type": "node",
  "id": 1117963379,
  "lat": 44.9053507,
  "lon": 4.9064670
},
{
  "type": "node",
  "id": 1117963459,
  "lat": 44.9052587,
  "lon": 4.9064498
},
{
  "type": "node",
  "id": 1223374036,
  "lat": 44.9052346,
  "lon": 4.9071377
},
{
  "type": "node",
  "id": 1223374145,
  "lat": 44.9051455,
  "lon": 4.9071033
},
{
  "type": "node",
  "id": 4837047441,
  "lat": 44.9052601,
  "lon": 4.9069906
},
{
  "type": "node",
  "id": 4837047442,
  "lat": 44.9051713,
  "lon": 4.9069546
},
{
  "type": "node",
  "id": 4837047443,
  "lat": 44.9051218,
  "lon": 4.9072335
},
{
  "type": "node",
  "id": 4837047444,
  "lat": 44.9052124,
  "lon": 4.9072608
},
{
  "type": "node",
  "id": 21645581,
  "lat": 44.9046091,
  "lon": 4.9102566
},
{
  "type": "node",
  "id": 21645582,
  "lat": 44.9047379,
  "lon": 4.9098983
},
{
  "type": "node",
  "id": 21645583,
  "lat": 44.9046393,
  "lon": 4.9098851
},
{
  "type": "node",
  "id": 16645442,
  "lat": 44.9117857,
  "lon": 4.9057837
},
{
  "type": "node",
  "id": 16645443,
  "lat": 44.9116720,
  "lon": 4.9058241
},
{
  "type": "node",
  "id": 16645445,
  "lat": 44.9116889,
  "lon": 4.9055168
},
{
  "type": "node",
  "id": 6138692191,
  "lat": 44.9117337,
  "lon": 4.9056950
},
{
  "type": "node",
  "id": 7260555571,
  "lat": 44.9116851,
  "lon": 4.9056758
},
{
  "type": "node",
  "id": 614632119,
  "lat": 44.9177754,
  "lon": 4.9161005
},
{
  "type": "node",
  "id": 5885224411,
  "lat": 44.9178562,
  "lon": 4.9161647
},
{
  "type": "node",
  "id": 6288487430,
  "lat": 44.9179931,
  "lon": 4.9162665
},
{
  "type": "node",
  "id": 21639069,
  "lat": 44.9276927,
  "lon": 4.8884660
},
{
  "type": "node",
  "id": 16464663,
  "lat": 44.9326741,
  "lon": 4.8810581
},
{
  "type": "node",
  "id": 16464664,
  "lat": 44.9326089,
  "lon": 4.8809766
},
{
  "type": "node",
  "id": 16464661,
  "lat": 44.9313696,
  "lon": 4.8850206
},
{
  "type": "node",
  "id": 16464662,
  "lat": 44.9313044,
  "lon": 4.8849554
},
{
  "type": "node",
  "id": 28931279,
  "lat": 44.9315819,
  "lon": 4.8882730
},
{
  "type": "node",
  "id": 28931280,
  "lat": 44.9309007,
  "lon": 4.8877031
},
{
  "type": "node",
  "id": 1137669703,
  "lat": 44.9313417,
  "lon": 4.8880765
},
{
  "type": "node",
  "id": 1163410162,
  "lat": 44.9282233,
  "lon": 4.8887688
},
{
  "type": "node",
  "id": 2503404510,
  "lat": 44.9285236,
  "lon": 4.8889418
},
{
  "type": "node",
  "id": 4193469031,
  "lat": 44.9310125,
  "lon": 4.8877978
},
{
  "type": "node",
  "id": 4470597931,
  "lat": 44.9309276,
  "lon": 4.8877259
},
{
  "type": "node",
  "id": 4745810693,
  "lat": 44.9319419,
  "lon": 4.8830125
},
{
  "type": "node",
  "id": 4745810695,
  "lat": 44.9320078,
  "lon": 4.8830810
},
{
  "type": "node",
  "id": 1248472983,
  "lat": 44.9230618,
  "lon": 4.8909924
},
{
  "type": "node",
  "id": 6289159737,
  "lat": 44.9234783,
  "lon": 4.8910635
},
{
  "type": "node",
  "id": 33041033,
  "lat": 44.9262199,
  "lon": 4.9012858
},
{
  "type": "node",
  "id": 33041034,
  "lat": 44.9264390,
  "lon": 4.9015458
},
{
  "type": "node",
  "id": 33041035,
  "lat": 44.9268585,
  "lon": 4.9020059
},
{
  "type": "node",
  "id": 245439803,
  "lat": 44.9271297,
  "lon": 4.8997867
},
{
  "type": "node",
  "id": 245439804,
  "lat": 44.9275677,
  "lon": 4.9003120
},
{
  "type": "node",
  "id": 245439805,
  "lat": 44.9273994,
  "lon": 4.9004990
},
{
  "type": "node",
  "id": 702178462,
  "lat": 44.9276433,
  "lon": 4.8989438
},
{
  "type": "node",
  "id": 702178463,
  "lat": 44.9280449,
  "lon": 4.8982651
},
{
  "type": "node",
  "id": 1177327320,
  "lat": 44.9278422,
  "lon": 4.9000246
},
{
  "type": "node",
  "id": 1177429490,
  "lat": 44.9263652,
  "lon": 4.9016231
},
{
  "type": "node",
  "id": 1229573577,
  "lat": 44.9265931,
  "lon": 4.9006709
},
{
  "type": "node",
  "id": 1254034598,
  "lat": 44.9270320,
  "lon": 4.9008995
},
{
  "type": "node",
  "id": 4410413307,
  "lat": 44.9262548,
  "lon": 4.9012284
},
{
  "type": "node",
  "id": 4410413309,
  "lat": 44.9263412,
  "lon": 4.9016483
},
{
  "type": "node",
  "id": 4410413310,
  "lat": 44.9265196,
  "lon": 4.9016342
},
{
  "type": "node",
  "id": 8750597859,
  "lat": 44.9270985,
  "lon": 4.8998381
},
{
  "type": "node",
  "id": 8750604243,
  "lat": 44.9271619,
  "lon": 4.8997339
},
{
  "type": "node",
  "id": 21639065,
  "lat": 44.9304467,
  "lon": 4.8900005
},
{
  "type": "node",
  "id": 21639067,
  "lat": 44.9290916,
  "lon": 4.8892736
},
{
  "type": "node",
  "id": 21645498,
  "lat": 44.9290044,
  "lon": 4.8942536
},
{
  "type": "node",
  "id": 25757352,
  "lat": 44.9290374,
  "lon": 4.8892288
},
{
  "type": "node",
  "id": 1153024429,
  "lat": 44.9304430,
  "lon": 4.8901301
},
{
  "type": "node",
  "id": 1153024484,
  "lat": 44.9290822,
  "lon": 4.8892531
},
{
  "type": "node",
  "id": 1163485848,
  "lat": 44.9301096,
  "lon": 4.8947151
},
{
  "type": "node",
  "id": 1273271168,
  "lat": 44.9301577,
  "lon": 4.8948076
},
{
  "type": "node",
  "id": 1977686339,
  "lat": 44.9294804,
  "lon": 4.8944524
},
{
  "type": "node",
  "id": 2143410988,
  "lat": 44.9290686,
  "lon": 4.8892380
},
{
  "type": "node",
  "id": 3164773646,
  "lat": 44.9291004,
  "lon": 4.8942937
},
{
  "type": "node",
  "id": 4200402519,
  "lat": 44.9289408,
  "lon": 4.8891785
},
{
  "type": "node",
  "id": 4200402543,
  "lat": 44.9303317,
  "lon": 4.8900652
},
{
  "type": "node",
  "id": 4200402544,
  "lat": 44.9303610,
  "lon": 4.8899479
},
{
  "type": "node",
  "id": 4410406036,
  "lat": 44.9300776,
  "lon": 4.8947018
},
{
  "type": "node",
  "id": 4413681549,
  "lat": 44.9301883,
  "lon": 4.8898584
},
{
  "type": "node",
  "id": 4413681551,
  "lat": 44.9302765,
  "lon": 4.8900350
},
{
  "type": "node",
  "id": 4758473488,
  "lat": 44.9299807,
  "lon": 4.8897435
},
{
  "type": "node",
  "id": 4758473489,
  "lat": 44.9299480,
  "lon": 4.8897266
},
{
  "type": "node",
  "id": 4758473490,
  "lat": 44.9300182,
  "lon": 4.8897648
},
{
  "type": "node",
  "id": 4758473491,
  "lat": 44.9299513,
  "lon": 4.8898574
},
{
  "type": "node",
  "id": 4758473492,
  "lat": 44.9299076,
  "lon": 4.8898345
},
{
  "type": "node",
  "id": 6186431775,
  "lat": 44.9302070,
  "lon": 4.8947617
},
{
  "type": "node",
  "id": 6867281771,
  "lat": 44.9301282,
  "lon": 4.8947240
},
{
  "type": "node",
  "id": 8750627437,
  "lat": 44.9290575,
  "lon": 4.8942758
},
{
  "type": "node",
  "id": 16464611,
  "lat": 44.9336973,
  "lon": 4.8967050
},
{
  "type": "node",
  "id": 16464616,
  "lat": 44.9342334,
  "lon": 4.8972006
},
{
  "type": "node",
  "id": 16464618,
  "lat": 44.9346106,
  "lon": 4.8974057
},
{
  "type": "node",
  "id": 21639042,
  "lat": 44.9339336,
  "lon": 4.8969429
},
{
  "type": "node",
  "id": 21639056,
  "lat": 44.9301440,
  "lon": 4.8975048
},
{
  "type": "node",
  "id": 21639153,
  "lat": 44.9291659,
  "lon": 4.8964429
},
{
  "type": "node",
  "id": 21639159,
  "lat": 44.9284123,
  "lon": 4.8976868
},
{
  "type": "node",
  "id": 21639160,
  "lat": 44.9291174,
  "lon": 4.8986668
},
{
  "type": "node",
  "id": 21639161,
  "lat": 44.9296683,
  "lon": 4.8980419
},
{
  "type": "node",
  "id": 21639162,
  "lat": 44.9289065,
  "lon": 4.8968643
},
{
  "type": "node",
  "id": 33041069,
  "lat": 44.9294954,
  "lon": 4.8958897
},
{
  "type": "node",
  "id": 245439816,
  "lat": 44.9296088,
  "lon": 4.8957057
},
{
  "type": "node",
  "id": 1038057323,
  "lat": 44.9344259,
  "lon": 4.8973383
},
{
  "type": "node",
  "id": 1038057354,
  "lat": 44.9347545,
  "lon": 4.8974254
},
{
  "type": "node",
  "id": 1145670148,
  "lat": 44.9295883,
  "lon": 4.8981322
},
{
  "type": "node",
  "id": 1273181642,
  "lat": 44.9344037,
  "lon": 4.8971345
},
{
  "type": "node",
  "id": 4197385664,
  "lat": 44.9293717,
  "lon": 4.8983781
},
{
  "type": "node",
  "id": 4409739822,
  "lat": 44.9292111,
  "lon": 4.8963670
},
{
  "type": "node",
  "id": 4409739825,
  "lat": 44.9295390,
  "lon": 4.8958190
},
{
  "type": "node",
  "id": 4409739827,
  "lat": 44.9300728,
  "lon": 4.8975852
},
{
  "type": "node",
  "id": 6186431752,
  "lat": 44.9340841,
  "lon": 4.8970690
},
{
  "type": "node",
  "id": 6186431762,
  "lat": 44.9337311,
  "lon": 4.8967392
},
{
  "type": "node",
  "id": 6186431770,
  "lat": 44.9342869,
  "lon": 4.8971323
},
{
  "type": "node",
  "id": 6186431771,
  "lat": 44.9342111,
  "lon": 4.8970967
},
{
  "type": "node",
  "id": 6478943836,
  "lat": 44.9339043,
  "lon": 4.8969157
},
{
  "type": "node",
  "id": 6478943837,
  "lat": 44.9343391,
  "lon": 4.8971370
},
{
  "type": "node",
  "id": 8274997434,
  "lat": 44.9296110,
  "lon": 4.8957021
},
{
  "type": "node",
  "id": 8750573016,
  "lat": 44.9300957,
  "lon": 4.8975594
},
{
  "type": "node",
  "id": 8750608950,
  "lat": 44.9292016,
  "lon": 4.8963829
},
{
  "type": "node",
  "id": 8750624498,
  "lat": 44.9288873,
  "lon": 4.8968962
},
{
  "type": "node",
  "id": 32959213,
  "lat": 44.9373339,
  "lon": 4.8933125
},
{
  "type": "node",
  "id": 32959214,
  "lat": 44.9369666,
  "lon": 4.8933749
},
{
  "type": "node",
  "id": 32959215,
  "lat": 44.9367729,
  "lon": 4.8933089
},
{
  "type": "node",
  "id": 529070790,
  "lat": 44.9372075,
  "lon": 4.8933669
},
{
  "type": "node",
  "id": 2503404527,
  "lat": 44.9371480,
  "lon": 4.8933720
},
{
  "type": "node",
  "id": 9349453140,
  "lat": 44.9368642,
  "lon": 4.8933540
},
{
  "type": "node",
  "id": 9349453141,
  "lat": 44.9370655,
  "lon": 4.8933747
},
{
  "type": "node",
  "id": 9349453142,
  "lat": 44.9371763,
  "lon": 4.8933682
},
{
  "type": "node",
  "id": 961991,
  "lat": 44.9374019,
  "lon": 4.8965946
},
{
  "type": "node",
  "id": 16464619,
  "lat": 44.9348898,
  "lon": 4.8974017
},
{
  "type": "node",
  "id": 16464621,
  "lat": 44.9355335,
  "lon": 4.8971798
},
{
  "type": "node",
  "id": 16464622,
  "lat": 44.9373037,
  "lon": 4.8965694
},
{
  "type": "node",
  "id": 413770695,
  "lat": 44.9361495,
  "lon": 4.8969674
},
{
  "type": "node",
  "id": 530779585,
  "lat": 44.9360319,
  "lon": 4.8970079
},
{
  "type": "node",
  "id": 1161671194,
  "lat": 44.9364338,
  "lon": 4.8960364
},
{
  "type": "node",
  "id": 1161671230,
  "lat": 44.9357815,
  "lon": 4.8964467
},
{
  "type": "node",
  "id": 1161671249,
  "lat": 44.9353632,
  "lon": 4.8966555
},
{
  "type": "node",
  "id": 1161671268,
  "lat": 44.9359781,
  "lon": 4.8961919
},
{
  "type": "node",
  "id": 1161671279,
  "lat": 44.9355110,
  "lon": 4.8965677
},
{
  "type": "node",
  "id": 1161671287,
  "lat": 44.9361757,
  "lon": 4.8969576
},
{
  "type": "node",
  "id": 6164450088,
  "lat": 44.9367798,
  "lon": 4.8958514
},
{
  "type": "node",
  "id": 6164450128,
  "lat": 44.9366429,
  "lon": 4.8959621
},
{
  "type": "node",
  "id": 8736103483,
  "lat": 44.9356726,
  "lon": 4.8965010
},
{
  "type": "node",
  "id": 8753585115,
  "lat": 44.9354153,
  "lon": 4.8972205
},
{
  "type": "node",
  "id": 21639138,
  "lat": 44.9245078,
  "lon": 4.9034154
},
{
  "type": "node",
  "id": 21639139,
  "lat": 44.9245237,
  "lon": 4.9035395
},
{
  "type": "node",
  "id": 21639146,
  "lat": 44.9246759,
  "lon": 4.9034214
},
{
  "type": "node",
  "id": 21639148,
  "lat": 44.9253695,
  "lon": 4.9026661
},
{
  "type": "node",
  "id": 33041010,
  "lat": 44.9244190,
  "lon": 4.9036659
},
{
  "type": "node",
  "id": 33041011,
  "lat": 44.9244763,
  "lon": 4.9038231
},
{
  "type": "node",
  "id": 33041012,
  "lat": 44.9256603,
  "lon": 4.9050424
},
{
  "type": "node",
  "id": 33041013,
  "lat": 44.9261567,
  "lon": 4.9053884
},
{
  "type": "node",
  "id": 33041014,
  "lat": 44.9274083,
  "lon": 4.9059822
},
{
  "type": "node",
  "id": 33041024,
  "lat": 44.9280050,
  "lon": 4.9033376
},
{
  "type": "node",
  "id": 33041029,
  "lat": 44.9276919,
  "lon": 4.9047251
},
{
  "type": "node",
  "id": 33041036,
  "lat": 44.9274031,
  "lon": 4.9026099
},
{
  "type": "node",
  "id": 33041039,
  "lat": 44.9264345,
  "lon": 4.9055651
},
{
  "type": "node",
  "id": 1177327347,
  "lat": 44.9277904,
  "lon": 4.9061373
},
{
  "type": "node",
  "id": 1177429468,
  "lat": 44.9251233,
  "lon": 4.9045035
},
{
  "type": "node",
  "id": 1235158126,
  "lat": 44.9251429,
  "lon": 4.9045231
},
{
  "type": "node",
  "id": 1238263957,
  "lat": 44.9271183,
  "lon": 4.9058580
},
{
  "type": "node",
  "id": 1739468573,
  "lat": 44.9260973,
  "lon": 4.9053470
},
{
  "type": "node",
  "id": 3210641343,
  "lat": 44.9277512,
  "lon": 4.9061214
},
{
  "type": "node",
  "id": 4419343673,
  "lat": 44.9256810,
  "lon": 4.9021558
},
{
  "type": "node",
  "id": 4419343676,
  "lat": 44.9257493,
  "lon": 4.9022738
},
{
  "type": "node",
  "id": 7947600920,
  "lat": 44.9246009,
  "lon": 4.9035110
},
{
  "type": "node",
  "id": 7947600921,
  "lat": 44.9245877,
  "lon": 4.9034422
},
{
  "type": "node",
  "id": 8753559944,
  "lat": 44.9257098,
  "lon": 4.9050769
},
{
  "type": "node",
  "id": 8753562845,
  "lat": 44.9256347,
  "lon": 4.9050167
},
{
  "type": "node",
  "id": 8753575211,
  "lat": 44.9263929,
  "lon": 4.9055386
},
{
  "type": "node",
  "id": 8753577921,
  "lat": 44.9264879,
  "lon": 4.9055880
},
{
  "type": "node",
  "id": 8753579980,
  "lat": 44.9279722,
  "lon": 4.9034831
},
{
  "type": "node",
  "id": 16465771,
  "lat": 44.9272829,
  "lon": 4.9149863
},
{
  "type": "node",
  "id": 21645524,
  "lat": 44.9238335,
  "lon": 4.9100917
},
{
  "type": "node",
  "id": 21645525,
  "lat": 44.9237360,
  "lon": 4.9108682
},
{
  "type": "node",
  "id": 21645526,
  "lat": 44.9243712,
  "lon": 4.9125509
},
{
  "type": "node",
  "id": 21645527,
  "lat": 44.9255513,
  "lon": 4.9138801
},
{
  "type": "node",
  "id": 21645528,
  "lat": 44.9259600,
  "lon": 4.9143503
},
{
  "type": "node",
  "id": 21645529,
  "lat": 44.9263806,
  "lon": 4.9145885
},
{
  "type": "node",
  "id": 1187403463,
  "lat": 44.9267510,
  "lon": 4.9147580
},
{
  "type": "node",
  "id": 1187403648,
  "lat": 44.9237501,
  "lon": 4.9105026
},
{
  "type": "node",
  "id": 1187403730,
  "lat": 44.9241920,
  "lon": 4.9121020
},
{
  "type": "node",
  "id": 1187403797,
  "lat": 44.9237211,
  "lon": 4.9107251
},
{
  "type": "node",
  "id": 1233910978,
  "lat": 44.9237168,
  "lon": 4.9108106
},
{
  "type": "node",
  "id": 1235072201,
  "lat": 44.9243178,
  "lon": 4.9124423
},
{
  "type": "node",
  "id": 1235072308,
  "lat": 44.9255076,
  "lon": 4.9138309
},
{
  "type": "node",
  "id": 1235072363,
  "lat": 44.9258407,
  "lon": 4.9142049
},
{
  "type": "node",
  "id": 1235072543,
  "lat": 44.9242284,
  "lon": 4.9122005
},
{
  "type": "node",
  "id": 21645515,
  "lat": 44.9293720,
  "lon": 4.9081622
},
{
  "type": "node",
  "id": 33041016,
  "lat": 44.9290051,
  "lon": 4.9066303
},
{
  "type": "node",
  "id": 33041017,
  "lat": 44.9297730,
  "lon": 4.9069410
},
{
  "type": "node",
  "id": 1038067351,
  "lat": 44.9287190,
  "lon": 4.9065141
},
{
  "type": "node",
  "id": 1177496233,
  "lat": 44.9295366,
  "lon": 4.9076763
},
{
  "type": "node",
  "id": 1612815979,
  "lat": 44.9294853,
  "lon": 4.9078406
},
{
  "type": "node",
  "id": 3210641346,
  "lat": 44.9282396,
  "lon": 4.9063196
},
{
  "type": "node",
  "id": 8004712478,
  "lat": 44.9293906,
  "lon": 4.9080219
},
{
  "type": "node",
  "id": 8004712479,
  "lat": 44.9294729,
  "lon": 4.9078829
},
{
  "type": "node",
  "id": 8750581206,
  "lat": 44.9297160,
  "lon": 4.9069180
},
{
  "type": "node",
  "id": 8753594141,
  "lat": 44.9289392,
  "lon": 4.9066035
},
{
  "type": "node",
  "id": 729827999,
  "lat": 44.9325156,
  "lon": 4.9280918
},
{
  "type": "node",
  "id": 729828003,
  "lat": 44.9331028,
  "lon": 4.9281580
},
{
  "type": "node",
  "id": 729828036,
  "lat": 44.9326409,
  "lon": 4.9280920
},
{
  "type": "node",
  "id": 729828040,
  "lat": 44.9332904,
  "lon": 4.9282087
},
{
  "type": "node",
  "id": 729828046,
  "lat": 44.9319925,
  "lon": 4.9281021
},
{
  "type": "node",
  "id": 729828072,
  "lat": 44.9328447,
  "lon": 4.9281090
},
{
  "type": "node",
  "id": 729828080,
  "lat": 44.9320828,
  "lon": 4.9281051
},
{
  "type": "node",
  "id": 1172809589,
  "lat": 44.9334979,
  "lon": 4.9282882
},
{
  "type": "node",
  "id": 1193322763,
  "lat": 44.9330507,
  "lon": 4.9281481
},
{
  "type": "node",
  "id": 6288758436,
  "lat": 44.9320643,
  "lon": 4.9281045
},
{
  "type": "node",
  "id": 29595486,
  "lat": 44.9402097,
  "lon": 4.9066664
},
{
  "type": "node",
  "id": 29595490,
  "lat": 44.9399823,
  "lon": 4.9066055
},
{
  "type": "node",
  "id": 29595494,
  "lat": 44.9401149,
  "lon": 4.9065982
},
{
  "type": "node",
  "id": 29595498,
  "lat": 44.9402407,
  "lon": 4.9067394
},
{
  "type": "node",
  "id": 29595506,
  "lat": 44.9404160,
  "lon": 4.9077391
},
{
  "type": "node",
  "id": 1944745263,
  "lat": 44.9400546,
  "lon": 4.9065933
},
{
  "type": "node",
  "id": 1944745265,
  "lat": 44.9401666,
  "lon": 4.9066225
},
{
  "type": "node",
  "id": 1944745268,
  "lat": 44.9405004,
  "lon": 4.9082204
},
{
  "type": "node",
  "id": 7203573058,
  "lat": 44.9397459,
  "lon": 4.9066411
},
{
  "type": "node",
  "id": 171701,
  "lat": 44.9406343,
  "lon": 4.9119819
},
{
  "type": "node",
  "id": 655773,
  "lat": 44.9409432,
  "lon": 4.9134504
},
{
  "type": "node",
  "id": 29595510,
  "lat": 44.9406626,
  "lon": 4.9094116
},
{
  "type": "node",
  "id": 78475204,
  "lat": 44.9354469,
  "lon": 4.9094552
},
{
  "type": "node",
  "id": 78475209,
  "lat": 44.9354530,
  "lon": 4.9096760
},
{
  "type": "node",
  "id": 78475211,
  "lat": 44.9355808,
  "lon": 4.9103892
},
{
  "type": "node",
  "id": 78475215,
  "lat": 44.9355915,
  "lon": 4.9105864
},
{
  "type": "node",
  "id": 78482931,
  "lat": 44.9407206,
  "lon": 4.9096155
},
{
  "type": "node",
  "id": 413770682,
  "lat": 44.9407793,
  "lon": 4.9097258
},
{
  "type": "node",
  "id": 1149012051,
  "lat": 44.9354452,
  "lon": 4.9095738
},
{
  "type": "node",
  "id": 1218043533,
  "lat": 44.9405832,
  "lon": 4.9088987
},
{
  "type": "node",
  "id": 1218043545,
  "lat": 44.9406465,
  "lon": 4.9120617
},
{
  "type": "node",
  "id": 1218043551,
  "lat": 44.9404734,
  "lon": 4.9108929
},
{
  "type": "node",
  "id": 1221359363,
  "lat": 44.9408797,
  "lon": 4.9132775
},
{
  "type": "node",
  "id": 1221359388,
  "lat": 44.9407329,
  "lon": 4.9125651
},
{
  "type": "node",
  "id": 1677207636,
  "lat": 44.9405723,
  "lon": 4.9115626
},
{
  "type": "node",
  "id": 1944745275,
  "lat": 44.9408267,
  "lon": 4.9097992
},
{
  "type": "node",
  "id": 2273877190,
  "lat": 44.9355751,
  "lon": 4.9113111
},
{
  "type": "node",
  "id": 7203573074,
  "lat": 44.9405776,
  "lon": 4.9088525
},
{
  "type": "node",
  "id": 8994326114,
  "lat": 44.9408250,
  "lon": 4.9129084
},
{
  "type": "node",
  "id": 1234713947,
  "lat": 44.9412763,
  "lon": 4.9168541
},
{
  "type": "node",
  "id": 1234713944,
  "lat": 44.9420202,
  "lon": 4.9177319
},
{
  "type": "node",
  "id": 729827965,
  "lat": 44.9343393,
  "lon": 4.9287257
},
{
  "type": "node",
  "id": 729827993,
  "lat": 44.9337818,
  "lon": 4.9284009
},
{
  "type": "node",
  "id": 729828019,
  "lat": 44.9345330,
  "lon": 4.9288932
},
{
  "type": "node",
  "id": 729828030,
  "lat": 44.9339651,
  "lon": 4.9284936
},
{
  "type": "node",
  "id": 729828064,
  "lat": 44.9341352,
  "lon": 4.9285916
},
{
  "type": "node",
  "id": 729828075,
  "lat": 44.9336293,
  "lon": 4.9283390
},
{
  "type": "node",
  "id": 578589055,
  "lat": 44.9366780,
  "lon": 4.9306074
},
{
  "type": "node",
  "id": 578589057,
  "lat": 44.9363162,
  "lon": 4.9301452
},
{
  "type": "node",
  "id": 578589074,
  "lat": 44.9380784,
  "lon": 4.9320364
},
{
  "type": "node",
  "id": 578589075,
  "lat": 44.9379586,
  "lon": 4.9320456
},
{
  "type": "node",
  "id": 578589076,
  "lat": 44.9375294,
  "lon": 4.9319054
},
{
  "type": "node",
  "id": 578589077,
  "lat": 44.9371023,
  "lon": 4.9313745
},
{
  "type": "node",
  "id": 578589079,
  "lat": 44.9372736,
  "lon": 4.9316407
},
{
  "type": "node",
  "id": 729827957,
  "lat": 44.9351229,
  "lon": 4.9292832
},
{
  "type": "node",
  "id": 729828007,
  "lat": 44.9357451,
  "lon": 4.9296323
},
{
  "type": "node",
  "id": 729828015,
  "lat": 44.9352808,
  "lon": 4.9293606
},
{
  "type": "node",
  "id": 729828043,
  "lat": 44.9360022,
  "lon": 4.9298460
},
{
  "type": "node",
  "id": 729828053,
  "lat": 44.9354329,
  "lon": 4.9294372
},
{
  "type": "node",
  "id": 729828059,
  "lat": 44.9350104,
  "lon": 4.9292394
},
{
  "type": "node",
  "id": 729828086,
  "lat": 44.9355984,
  "lon": 4.9295408
},
{
  "type": "node",
  "id": 946800806,
  "lat": 44.9383727,
  "lon": 4.9318558
},
{
  "type": "node",
  "id": 1172809308,
  "lat": 44.9374073,
  "lon": 4.9318125
},
{
  "type": "node",
  "id": 1172809411,
  "lat": 44.9380363,
  "lon": 4.9296363
},
{
  "type": "node",
  "id": 1172809513,
  "lat": 44.9361069,
  "lon": 4.9299445
},
{
  "type": "node",
  "id": 1172809790,
  "lat": 44.9373015,
  "lon": 4.9316840
},
{
  "type": "node",
  "id": 1193322782,
  "lat": 44.9364982,
  "lon": 4.9303630
},
{
  "type": "node",
  "id": 1197127766,
  "lat": 44.9376741,
  "lon": 4.9319845
},
{
  "type": "node",
  "id": 1197127919,
  "lat": 44.9378160,
  "lon": 4.9320326
},
{
  "type": "node",
  "id": 1197128052,
  "lat": 44.9382761,
  "lon": 4.9319195
},
{
  "type": "node",
  "id": 1324722659,
  "lat": 44.9364096,
  "lon": 4.9302569
},
{
  "type": "node",
  "id": 1734316816,
  "lat": 44.9380584,
  "lon": 4.9297286
}

  ]
}
