{
  "version": 0.6,
  "generator": "Overpass API 0.7.57.1 74a55df1",
  "osm3s": {
    "timestamp_osm_base": "2022-02-13T13:28:39Z",
    "timestamp_areas_base": "2022-02-13T06:29:09Z",
    "copyright": "The data included in this document is from www.openstreetmap.org. The data is made available under ODbL."
  },
  "elements": [

{
  "type": "way",
  "id": 4324851,
  "nodes": [
    1574737543,
    27245185,
    4753504412,
    27245189,
    6717908157,
    1670630441,
    27245194,
    6717908161,
    27245197,
    27245204,
    8349822361,
    8349803092,
    27245217,
    8349803085,
    1577297847
  ],
  "tags": {
    "cycleway:right": "lane",
    "cycleway:width": "1",
    "highway": "secondary",
    "name": "Avenue Georges Pompidou",
    "name:br": "Bali Georges Pompidou",
    "oneway": "yes",
    "source:name": "FANTOIR",
    "source:name:br": "proper translation",
    "surface": "asphalt"
  }
},
{
  "type": "way",
  "id": 4324852,
  "nodes": [
    26288971,
    1967108534,
    8270596014,
    8270596015,
    5908017769,
    26288973
  ],
  "tags": {
    "cycleway:right": "lane",
    "highway": "secondary",
    "lanes": "1",
    "name": "Avenue Jean Monnet",
    "name:br": "Bali Jean Monnet",
    "oneway": "yes",
    "source:name:br": "proper translation",
    "surface": "asphalt"
  }
},
{
  "type": "way",
  "id": 4607211,
  "nodes": [
    26117943,
    1581757246,
    3042475017,
    324739352
  ],
  "tags": {
    "cycleway:right": "lane",
    "highway": "tertiary",
    "lit": "yes",
    "mapillary": "vX_Ik0K4aMs5Mg5vFjPbZw",
    "maxspeed": "50",
    "name": "Boulevard des Îles",
    "name:br": "Boulouard an Inizi",
    "oneway": "yes",
    "oneway:bicycle": "yes",
    "sidewalk": "both",
    "source:name:br": "ofis publik ar brezhoneg",
    "surface": "asphalt",
    "survey:date": "2019-09-15"
  }
},
{
  "type": "way",
  "id": 4607212,
  "nodes": [
    26509754,
    3042475014,
    324738711,
    3042475698,
    3042475700,
    26117943
  ],
  "tags": {
    "cycleway:right": "lane",
    "cycleway:right:lane": "exclusive",
    "highway": "tertiary",
    "lit": "yes",
    "mapillary": "tAnSInA7cQYMT1ebkVKvCQ",
    "maxspeed": "50",
    "name": "Boulevard des Îles",
    "name:br": "Boulouard an Inizi",
    "oneway": "yes",
    "sidewalk": "both",
    "source:name:br": "ofis publik ar brezhoneg",
    "surface": "asphalt",
    "survey:date": "2019-09-15"
  }
},
{
  "type": "way",
  "id": 5058862,
  "nodes": [
    26680471,
    4741688048,
    4741688047,
    3043632731,
    26189926
  ],
  "tags": {
    "boundary": "political",
    "cycleway:right": "lane",
    "highway": "secondary",
    "lanes": "2",
    "name": "Rue Jean Jaurès",
    "name:br": "Straed Jean Jaurès",
    "political_division": "canton",
    "source:name:br": "proper translation",
    "surface": "asphalt"
  }
},
{
  "type": "way",
  "id": 5407636,
  "nodes": [
    38908041,
    3281995877,
    3039429978,
    5908407699,
    4743861752,
    5908407717,
    26368318
  ],
  "tags": {
    "cycleway:right": "lane",
    "highway": "tertiary",
    "lanes": "1",
    "name": "Avenue de Tohannic",
    "name:br": "Bali Tohanig",
    "oneway": "yes",
    "source:name:br": "proper translation",
    "surface": "asphalt"
  }
},
{
  "type": "way",
  "id": 10711973,
  "nodes": [
    95087020,
    9418615907,
    8342322959,
    1790554601,
    8389620007,
    8389620005,
    95087022,
    95087023,
    8386371305,
    95087025,
    8386371306,
    1790554620,
    8414685076,
    95087027,
    8389573739,
    1790554635,
    1790554637,
    95087031,
    3043633606,
    95042557
  ],
  "tags": {
    "cycleway:right": "lane",
    "highway": "unclassified",
    "maxspeed": "30",
    "name": "Rue des 4 Frères Creach",
    "name:br": "Straed ar 4 Breur Kreac'h",
    "oneway": "yes",
    "source:name:br": "proper translation",
    "surface": "asphalt"
  }
},
{
  "type": "way",
  "id": 10711982,
  "nodes": [
    26479597,
    26479602,
    26479598,
    26479599,
    8386371296,
    26479600,
    1577299788
  ],
  "tags": {
    "cycleway:right": "lane",
    "highway": "residential",
    "name": "Avenue Saint-Symphorien",
    "name:br": "Bali Sant-Forian",
    "oneway": "yes",
    "source:name:br": "ofis publik ar brezhoneg",
    "surface": "asphalt"
  }
},
{
  "type": "way",
  "id": 37029084,
  "nodes": [
    26488870,
    2271730240,
    2271730219,
    5908862366,
    8411506351,
    2271730230
  ],
  "tags": {
    "cycleway:right": "lane",
    "highway": "residential",
    "maxspeed": "30",
    "name": "Rue de la Loi",
    "name:br": "Straed al Lezenn",
    "oneway": "yes",
    "source:name:br": "proper translation"
  }
},
{
  "type": "way",
  "id": 37684445,
  "nodes": [
    9355057582,
    9355057583,
    1768980815,
    6170703732,
    1768937394
  ],
  "tags": {
    "boundary": "political",
    "bus:lanes:backward": "|designated",
    "cycleway:left": "opposite_lane",
    "cycleway:right": "lane",
    "highway": "tertiary",
    "lanes": "3",
    "lanes:backward": "2",
    "lanes:forward": "1",
    "name": "Rue du Président Thomas Wilson",
    "name:br": "Straed ar Prezidant Thomas Wilson",
    "oneway": "no",
    "political_division": "canton",
    "ref:FR:FANTOIR": "562602920L",
    "source:name:br": "proper translation",
    "surface": "asphalt"
  }
},
{
  "type": "way",
  "id": 47701227,
  "nodes": [
    36681929,
    2501856757,
    2501856758,
    606940323,
    8390466719,
    3281995957
  ],
  "tags": {
    "cycleway:right": "lane",
    "highway": "secondary",
    "name": "Avenue du Président Édouard Herriot",
    "name:br": "Bali ar Prezidant Édouard Herriot",
    "oneway": "yes",
    "ref": "D 779B",
    "ref:FR:FANTOIR": "562602880T",
    "source:name:br": "proper translation",
    "surface": "asphalt"
  }
},
{
  "type": "way",
  "id": 117420845,
  "nodes": [
    1322840744,
    8261561027,
    1322840813,
    3043967011,
    8528054292,
    1322840820,
    1322840807
  ],
  "tags": {
    "cycleway:right": "lane",
    "cycleway:right:width": "1",
    "highway": "residential",
    "name": "Rue Emile Jourdan",
    "name:br": "Straed Emile Jourdan",
    "oneway": "yes",
    "source:name:br": "ofis publik ar brezhoneg"
  }
},
{
  "type": "way",
  "id": 143915167,
  "nodes": [
    1574737575,
    1574737574,
    1768844872,
    1574737570,
    1768844841
  ],
  "tags": {
    "cycleway:right": "lane",
    "highway": "secondary_link",
    "lit": "yes",
    "mapillary": "D34wq1o_A1_lIQ07K77qkQ",
    "oneway": "yes",
    "surface": "asphalt",
    "survey:date": "2019-03-21"
  }
},
{
  "type": "way",
  "id": 143915168,
  "nodes": [
    1682026527,
    3206277410,
    2495537090,
    1682026463
  ],
  "tags": {
    "cycleway:right": "lane",
    "cycleway:right:lane": "advisory",
    "highway": "primary",
    "lanes": "1",
    "lit": "yes",
    "mapillary": "7kl0zTABZNlMnxy3JSV1wg",
    "oneway": "yes",
    "ref": "D 767",
    "survey:date": "2017-06-09"
  }
},
{
  "type": "way",
  "id": 155832838,
  "nodes": [
    26288977,
    1681903926,
    8379926615,
    5908017772,
    95087268
  ],
  "tags": {
    "cycleway:right": "lane",
    "cycleway:width": "1",
    "highway": "secondary",
    "lanes": "1",
    "name": "Rue Capitaine Jude",
    "name:br": "Straed ar C'habiten Jude",
    "oneway": "yes",
    "source:name:br": "proper translation",
    "surface": "asphalt"
  }
},
{
  "type": "way",
  "id": 155847887,
  "nodes": [
    1682026470,
    1682026521,
    3206277407,
    1682026527
  ],
  "tags": {
    "cycleway:right": "lane",
    "cycleway:right:lane": "advisory",
    "highway": "primary",
    "lanes": "1",
    "lit": "yes",
    "mapillary": "FWptgXknaQA0CgLdIfQWjg",
    "oneway": "yes",
    "ref": "D 767",
    "sidewalk": "none",
    "source": "Bing",
    "surface": "asphalt",
    "survey:date": "2017-06-09"
  }
},
{
  "type": "way",
  "id": 157761918,
  "nodes": [
    1700173714,
    1700173716,
    6169268657,
    4743861728,
    5794287344,
    8381087598,
    2523483725,
    7364651559,
    7364651569,
    6169265611,
    26587516
  ],
  "tags": {
    "cycleway:right": "lane",
    "highway": "secondary",
    "name": "Avenue de la Marne",
    "name:br": "Bali ar Marn",
    "oneway": "yes",
    "source:name:br": "proper translation",
    "surface": "asphalt"
  }
},
{
  "type": "way",
  "id": 157765382,
  "nodes": [
    1700211988,
    1700211976,
    26407623
  ],
  "tags": {
    "cycleway:right": "lane",
    "highway": "secondary",
    "lanes": "1",
    "maxspeed": "50",
    "maxspeed:type": "sign",
    "name": "Route de Sainte-Anne",
    "name:br": "Hent Santez Anna",
    "oneway": "yes",
    "ref": "D 779",
    "source:name:br": "proper translation",
    "surface": "asphalt"
  }
},
{
  "type": "way",
  "id": 157765383,
  "nodes": [
    1700212011,
    1700212000,
    1700211998
  ],
  "tags": {
    "cycleway:right": "lane",
    "cycleway:width": "1",
    "highway": "secondary",
    "lanes": "2",
    "maxspeed": "50",
    "maxspeed:type": "sign",
    "name": "Route de Sainte-Anne",
    "name:br": "Hent Santez Anna",
    "oneway": "yes",
    "ref": "D 779",
    "source:name:br": "proper translation",
    "surface": "asphalt"
  }
},
{
  "type": "way",
  "id": 157765384,
  "nodes": [
    1700212001,
    1700212002,
    1700212011
  ],
  "tags": {
    "cycleway:right": "lane",
    "cycleway:width": "1",
    "highway": "secondary",
    "lanes": "1",
    "maxspeed": "50",
    "maxspeed:type": "sign",
    "name": "Route de Sainte-Anne",
    "name:br": "Hent Santez Anna",
    "oneway": "yes",
    "ref": "D 779",
    "source:name:br": "proper translation",
    "surface": "asphalt"
  }
},
{
  "type": "way",
  "id": 157765385,
  "nodes": [
    26407623,
    1700211991,
    1700211996
  ],
  "tags": {
    "cycleway:right": "lane",
    "highway": "secondary",
    "lanes": "2",
    "maxspeed": "50",
    "maxspeed:type": "sign",
    "name": "Route de Sainte-Anne",
    "name:br": "Hent Santez Anna",
    "oneway": "yes",
    "ref": "D 779",
    "source:name:br": "proper translation",
    "surface": "asphalt"
  }
},
{
  "type": "way",
  "id": 157792848,
  "nodes": [
    1596035857,
    1700495008,
    4756203624,
    1700495013
  ],
  "tags": {
    "cycleway:right": "lane",
    "highway": "primary",
    "lanes": "1",
    "oneway": "yes",
    "ref": "D 779E",
    "surface": "asphalt"
  }
},
{
  "type": "way",
  "id": 157792851,
  "nodes": [
    1700495013,
    4756203623,
    1700495007,
    1596035840
  ],
  "tags": {
    "cycleway:right": "lane",
    "highway": "primary",
    "lanes": "1",
    "oneway": "yes",
    "ref": "D 779E",
    "surface": "asphalt"
  }
},
{
  "type": "way",
  "id": 162691734,
  "nodes": [
    1589803187,
    3043064903,
    1745419565,
    3043062286,
    1589803183
  ],
  "tags": {
    "cycleway:right": "lane",
    "highway": "tertiary",
    "lanes": "2",
    "oneway": "yes"
  }
},
{
  "type": "way",
  "id": 162691739,
  "nodes": [
    289811986,
    3043065793,
    1745419572,
    3043064904,
    1589803187
  ],
  "tags": {
    "cycleway:right": "lane",
    "highway": "tertiary",
    "lanes": "2",
    "noname": "yes",
    "note": "Please add name/ref.",
    "oneway": "yes"
  }
},
{
  "type": "way",
  "id": 162691742,
  "nodes": [
    1589803206,
    3043070112,
    1745419575,
    1589803192
  ],
  "tags": {
    "cycleway:right": "lane",
    "highway": "tertiary",
    "lanes": "2",
    "oneway": "yes"
  }
},
{
  "type": "way",
  "id": 165337457,
  "nodes": [
    1768891739,
    1790321048,
    1768891742,
    1768891743,
    1768891745
  ],
  "tags": {
    "cycleway:right": "lane",
    "cycleway:width": "1",
    "highway": "tertiary",
    "lanes": "1",
    "lit": "yes",
    "mapillary": "IeT-m6tn0QpxuUE3550P6A",
    "maxspeed": "50",
    "name": "Boulevard du Général Guillaudot",
    "name:br": "Boulouard Jeneral Guillaudot",
    "oneway": "yes",
    "ref:FR:FANTOIR": "562601253Z",
    "source:maxspeed": "FR:urban",
    "source:name:br": "proper translation",
    "surface": "asphalt",
    "survey:date": "2017-07-24"
  }
},
{
  "type": "way",
  "id": 165337458,
  "nodes": [
    134394149,
    1768909062,
    1768891765,
    1768891762,
    1768891747,
    1768891746,
    1768891744
  ],
  "tags": {
    "cycleway:right": "lane",
    "cycleway:width": "1",
    "highway": "tertiary",
    "lanes": "1",
    "maxspeed": "50",
    "name": "Boulevard du Général Guillaudot",
    "name:br": "Boulouard Jeneral Guillaudot",
    "oneway": "yes",
    "ref:FR:FANTOIR": "562601253Z",
    "source:maxspeed": "FR:urban",
    "source:name:br": "proper translation"
  }
},
{
  "type": "way",
  "id": 165342323,
  "nodes": [
    1768937394,
    4742900256,
    1768944668,
    6170704489,
    4742900255,
    1768937423
  ],
  "tags": {
    "boundary": "political",
    "bus:lanes:backward": "|designated",
    "cycleway:left": "opposite_lane",
    "cycleway:right": "lane",
    "highway": "tertiary",
    "lanes": "3",
    "lanes:backward": "2",
    "lanes:forward": "1",
    "maxspeed": "30",
    "name": "Rue du Président Thomas Wilson",
    "name:br": "Straed ar Prezidant Thomas Wilson",
    "oneway": "no",
    "political_division": "canton",
    "ref:FR:FANTOIR": "562602920L",
    "source:maxspeed": "sign",
    "source:name:br": "proper translation",
    "surface": "asphalt"
  }
},
{
  "type": "way",
  "id": 186013498,
  "nodes": [
    95087272,
    5908017770,
    1681903920,
    26288971
  ],
  "tags": {
    "cycleway:right": "lane",
    "highway": "secondary",
    "lanes": "1",
    "name": "Avenue Jean Monnet",
    "name:br": "Bali Jean Monnet",
    "oneway": "yes",
    "source:name:br": "proper translation",
    "surface": "asphalt"
  }
},
{
  "type": "way",
  "id": 186013502,
  "nodes": [
    26288975,
    5908017773,
    5908017774,
    26288976,
    5908017771,
    26288977
  ],
  "tags": {
    "cycleway:right": "lane",
    "cycleway:width": "1",
    "highway": "secondary",
    "lanes": "1",
    "name": "Rue Capitaine Jude",
    "name:br": "Straed ar C'habiten Jude",
    "oneway": "yes",
    "source:name:br": "proper translation",
    "surface": "asphalt"
  }
},
{
  "type": "way",
  "id": 220439495,
  "nodes": [
    2295597011,
    2779822850,
    2295597013,
    2779822848,
    363457713
  ],
  "tags": {
    "cycleway:right": "lane",
    "highway": "tertiary",
    "lit": "yes",
    "mapillary": "uqZZyWq29AFpRZGXpKck_A",
    "name": "Avenue du Général Delestraint",
    "name:br": "Bali ar Jeneral Delestraint",
    "oneway": "yes",
    "source:name:br": "proper translation",
    "survey:date": "2019-05-21"
  }
},
{
  "type": "way",
  "id": 273081847,
  "nodes": [
    2076890552,
    2779822851,
    3376319175,
    2295597016
  ],
  "tags": {
    "cycleway:right": "lane",
    "highway": "tertiary",
    "name": "Avenue du Général Delestraint",
    "name:br": "Bali ar Jeneral Delestraint",
    "oneway": "yes",
    "source:name:br": "proper translation",
    "surface": "asphalt"
  }
},
{
  "type": "way",
  "id": 273081848,
  "nodes": [
    2295597016,
    2779822847,
    3376319177,
    2076890556
  ],
  "tags": {
    "cycleway:right": "lane",
    "highway": "tertiary",
    "name": "Avenue du Général Delestraint",
    "name:br": "Bali ar Jeneral Delestraint",
    "oneway": "yes",
    "source:name:br": "proper translation",
    "surface": "asphalt"
  }
},
{
  "type": "way",
  "id": 300143813,
  "nodes": [
    1589803192,
    1745419576,
    3043070001,
    1589803212
  ],
  "tags": {
    "cycleway:right": "lane",
    "highway": "tertiary",
    "lanes": "2",
    "noname": "yes",
    "note": "Please add name/ref.",
    "oneway": "yes"
  }
},
{
  "type": "way",
  "id": 300267035,
  "nodes": [
    612814516,
    26021784
  ],
  "tags": {
    "cycleway:right": "lane",
    "highway": "secondary",
    "name": "Boulevard de la Paix",
    "name:br": "Boulouard ar Peoc'h",
    "oneway": "yes",
    "ref": "D 779B",
    "source": "cadastre-dgi-fr source : Direction Générale des Impôts - Cadastre. Mise à jour : 2010",
    "surface": "asphalt"
  }
},
{
  "type": "way",
  "id": 318344539,
  "nodes": [
    1768891744,
    1790321049,
    1768891741
  ],
  "tags": {
    "cycleway:right": "lane",
    "cycleway:width": "1",
    "highway": "tertiary",
    "lanes": "1",
    "lit": "yes",
    "mapillary": "desnLWfvV_Xuz8slAk5bzw",
    "maxspeed": "50",
    "name": "Boulevard du Général Guillaudot",
    "name:br": "Boulouard Jeneral Guillaudot",
    "oneway": "yes",
    "ref:FR:FANTOIR": "562601253Z",
    "source:maxspeed": "FR:urban",
    "source:name:br": "proper translation",
    "surface": "asphalt",
    "survey:date": "2017-07-24"
  }
},
{
  "type": "way",
  "id": 318345633,
  "nodes": [
    1768891745,
    1768891748,
    134394149
  ],
  "tags": {
    "cycleway:right": "lane",
    "highway": "tertiary",
    "lanes": "1",
    "maxspeed": "50",
    "name": "Boulevard du Général Guillaudot",
    "name:br": "Boulouard Jeneral Guillaudot",
    "oneway": "yes",
    "ref:FR:FANTOIR": "562601253Z",
    "source:maxspeed": "FR:urban",
    "source:name:br": "proper translation"
  }
},
{
  "type": "way",
  "id": 321457371,
  "nodes": [
    3281995957,
    612814536,
    57566818
  ],
  "tags": {
    "cycleway:right": "lane",
    "highway": "secondary",
    "name": "Avenue du Président Édouard Herriot",
    "name:br": "Bali ar Prezidant Édouard Herriot",
    "oneway": "yes",
    "ref": "D 779B",
    "ref:FR:FANTOIR": "562602880T",
    "source:name:br": "proper translation",
    "surface": "asphalt"
  }
},
{
  "type": "way",
  "id": 336048578,
  "nodes": [
    4743861727,
    1589903904,
    3043070082,
    27389762
  ],
  "tags": {
    "cycleway:right": "lane",
    "highway": "secondary",
    "name": "Avenue de la Marne",
    "name:br": "Bali ar Marn",
    "oneway": "yes",
    "source:name:br": "proper translation",
    "surface": "asphalt"
  }
},
{
  "type": "way",
  "id": 336276106,
  "nodes": [
    1004495127,
    30320038,
    1004495131,
    38908110,
    9310928473,
    1004495138,
    36681929,
    1004495149,
    57566818,
    3039429998,
    1004495152,
    3098643014,
    612814538,
    1004495154,
    3098643013,
    36681928,
    1004495160,
    1398474541,
    1004495165,
    30295532,
    1004495118,
    612814543,
    1004495127
  ],
  "tags": {
    "cycleway:right": "lane",
    "highway": "secondary",
    "junction": "roundabout",
    "lanes": "2",
    "name": "Giratoire Édouard Herriot",
    "name:br": "Kroashent-tro Edouard Herriot",
    "source": "GéoBretagne 2010",
    "source:name:br": "proper translation",
    "surface": "asphalt"
  }
},
{
  "type": "way",
  "id": 336294860,
  "nodes": [
    1791670226,
    5794368115,
    3043633341,
    612814516
  ],
  "tags": {
    "boundary": "political",
    "cycleway:right": "lane",
    "highway": "secondary",
    "lit": "yes",
    "mapillary": "KV1r9e_-nJF4eCziIrbZxQ",
    "name": "Boulevard de la Paix",
    "name:br": "Boulouard ar Peoc'h",
    "oneway": "yes",
    "political_division": "canton",
    "ref": "D 779B",
    "source": "cadastre-dgi-fr source : Direction Générale des Impôts - Cadastre. Mise à jour : 2010",
    "surface": "asphalt",
    "survey:date": "2017-04-26"
  }
},
{
  "type": "way",
  "id": 336414707,
  "nodes": [
    26587516,
    3043064911,
    7364651494,
    7364651485,
    3043070098,
    6810089638,
    7364651584,
    3043065800
  ],
  "tags": {
    "cycleway:right": "lane",
    "highway": "secondary",
    "name": "Avenue de la Marne",
    "name:br": "Bali ar Marn",
    "oneway": "yes",
    "source:name:br": "proper translation",
    "surface": "asphalt"
  }
},
{
  "type": "way",
  "id": 443679479,
  "nodes": [
    1967108565,
    1967108566,
    8380034266,
    5908017761,
    26288975,
    1967108555,
    5908017767,
    5908017760,
    1967108550,
    95087268,
    1967108541,
    5908017759,
    5908017762,
    95087272,
    1967108538,
    5908017758,
    5908017763,
    26288973,
    1967108543,
    5908017757,
    5908017764,
    1967108545,
    1967108552,
    5908017756,
    5908017765,
    1967108557,
    1967108565
  ],
  "tags": {
    "cycleway:right": "lane",
    "highway": "secondary",
    "junction": "roundabout",
    "name": "Giratoire François René de Châteaubriand",
    "name:br": "Kroashent-tro François-René de Chateaubriand",
    "source": "survey",
    "source:geometry": "Bing",
    "source:name:br": "proper translation",
    "surface": "asphalt"
  }
},
{
  "type": "way",
  "id": 482044988,
  "nodes": [
    1700495024,
    5115964229,
    4749180630,
    4749180631
  ],
  "tags": {
    "cycleway:right": "lane",
    "highway": "primary",
    "oneway": "yes",
    "ref": "D 779E",
    "surface": "asphalt"
  }
},
{
  "type": "way",
  "id": 482044989,
  "nodes": [
    1700495017,
    4749180639
  ],
  "tags": {
    "cycleway:right": "lane",
    "highway": "primary",
    "oneway": "yes",
    "ref": "D 779E",
    "surface": "asphalt"
  }
},
{
  "type": "way",
  "id": 482831035,
  "nodes": [
    4749180631,
    5115964222,
    5115964223
  ],
  "tags": {
    "cycleway:right": "lane",
    "highway": "primary",
    "oneway": "yes",
    "ref": "D 779E",
    "surface": "asphalt"
  }
},
{
  "type": "way",
  "id": 482831036,
  "nodes": [
    4749180641,
    4749180638,
    4749180637
  ],
  "tags": {
    "cycleway:right": "lane",
    "highway": "primary",
    "oneway": "yes",
    "ref": "D 779E",
    "surface": "asphalt"
  }
},
{
  "type": "way",
  "id": 484338337,
  "nodes": [
    9357546567,
    8342677288
  ],
  "tags": {
    "cycleway:right": "lane",
    "highway": "residential",
    "maxspeed": "30",
    "name": "Avenue Paul Cézanne",
    "name:br": "Bali Paul Cézanne",
    "source:name:br": "proper translation"
  }
},
{
  "type": "way",
  "id": 488865595,
  "nodes": [
    1322840775,
    5120359536,
    5236315130,
    9357546565
  ],
  "tags": {
    "cycleway:right": "lane",
    "highway": "residential",
    "maxspeed": "30",
    "name": "Rue Emile Jourdan",
    "name:br": "Straed Emile Jourdan",
    "oneway": "yes",
    "source:name:br": "ofis publik ar brezhoneg",
    "surface": "asphalt"
  }
},
{
  "type": "way",
  "id": 494994880,
  "nodes": [
    1670601005,
    26117977,
    6166902092,
    26612760,
    26117979,
    4867745065,
    26117980,
    4867744887
  ],
  "tags": {
    "cycleway:right": "lane",
    "highway": "secondary",
    "maxspeed": "50",
    "maxspeed:type": "sign",
    "name": "Rue Jean Gougaud",
    "name:br": "Straed Jean Gougaud",
    "oneway": "yes",
    "source:name:br": "proper translation",
    "surface": "asphalt"
  }
},
{
  "type": "way",
  "id": 525986839,
  "nodes": [
    5115964223,
    5115964221,
    4749180632
  ],
  "tags": {
    "cycleway:right": "lane",
    "highway": "primary",
    "oneway": "yes",
    "ref": "D 779E"
  }
},
{
  "type": "way",
  "id": 525986840,
  "nodes": [
    4749180639,
    5115964224,
    4749180641
  ],
  "tags": {
    "cycleway:right": "lane",
    "highway": "primary",
    "oneway": "yes",
    "ref": "D 779E",
    "surface": "asphalt"
  }
},
{
  "type": "way",
  "id": 768452016,
  "nodes": [
    7174319711,
    448946087,
    4416374005,
    4742900250,
    8342677308,
    4742900249,
    2501856777,
    448946089,
    448946090,
    7174319712
  ],
  "tags": {
    "cycleway:right": "lane",
    "highway": "residential",
    "name": "Avenue Edgar Degas",
    "name:br": "Bali Edgar Degas",
    "source:name:br": "proper translation"
  }
},
{
  "type": "way",
  "id": 768452018,
  "nodes": [
    448946077,
    448946081,
    4742900247,
    448946084,
    448946085,
    448946086,
    1323346386
  ],
  "tags": {
    "cycleway:right": "lane",
    "highway": "residential",
    "name": "Avenue Edgar Degas",
    "name:br": "Bali Edgar Degas",
    "source:name:br": "proper translation"
  }
},
{
  "type": "way",
  "id": 768452020,
  "nodes": [
    9357546574,
    3556150724,
    9357546573
  ],
  "tags": {
    "cycleway:right": "lane",
    "highway": "residential",
    "maxspeed": "30",
    "name": "Avenue Edgar Degas",
    "name:br": "Bali Edgar Degas",
    "source:name:br": "proper translation"
  }
},
{
  "type": "way",
  "id": 768453723,
  "nodes": [
    7174336717,
    4416380208
  ],
  "tags": {
    "cycleway:right": "lane",
    "highway": "residential",
    "maxspeed": "30",
    "name": "Avenue Edgar Degas",
    "name:br": "Bali Edgar Degas",
    "source:name:br": "proper translation"
  }
},
{
  "type": "way",
  "id": 781386357,
  "nodes": [
    7295150704,
    5120359543,
    8261561017,
    1682026454,
    465733951
  ],
  "tags": {
    "cycleway:right": "lane",
    "highway": "residential",
    "name": "Rue Eugène Delacroix",
    "name:br": "Straed Eugène Delacroix",
    "oneway": "yes",
    "source:name:br": "proper translation"
  }
},
{
  "type": "way",
  "id": 890090926,
  "nodes": [
    9461448734,
    9461448735,
    9461448736,
    1768918848,
    9461448737
  ],
  "tags": {
    "cycleway:right": "lane",
    "highway": "tertiary",
    "maxspeed": "50",
    "name": "Boulevard du Général Guillaudot",
    "name:br": "Boulouard Jeneral Guillaudot",
    "oneway": "no",
    "ref:FR:FANTOIR": "562601253Z",
    "source:maxspeed": "FR:urban",
    "source:name:br": "proper translation",
    "surface": "asphalt"
  }
},
{
  "type": "way",
  "id": 905794781,
  "nodes": [
    1574737560,
    27245176,
    3350780736,
    1670630652,
    1574737550,
    3350780737,
    27245181,
    1574737548,
    3350780738,
    27247170,
    3350780739,
    27247171,
    1574737561,
    1768844821,
    27247172,
    27245174,
    3350780740,
    1574737563,
    3350780741,
    324748812,
    27245175,
    1574737562,
    3350780735,
    1574737560
  ],
  "tags": {
    "cycleway:right": "lane",
    "highway": "secondary",
    "junction": "roundabout",
    "lanes": "2",
    "lit": "yes",
    "mapillary": "Pjh1CWUxKS3kBmrnPQx6Sg;_j3BerM-hHAULx1K37iQyg",
    "name": "Giratoire Pompidou",
    "name:br": "Kroashent-tro Pompidou",
    "source:name:br": "proper translation",
    "survey:date": "2019-03-21"
  }
},
{
  "type": "way",
  "id": 1002706390,
  "nodes": [
    1737559051,
    26189925,
    3043632730,
    5121508964,
    3043632729
  ],
  "tags": {
    "boundary": "political",
    "cycleway:right": "lane",
    "highway": "secondary",
    "lanes": "2",
    "maxspeed": "50",
    "name": "Rue Jean Jaurès",
    "name:br": "Straed Jean Jaurès",
    "political_division": "canton",
    "source:name:br": "proper translation",
    "surface": "asphalt"
  }
},
{
  "type": "way",
  "id": 1002706391,
  "nodes": [
    26189926,
    1737559051
  ],
  "tags": {
    "boundary": "political",
    "cycleway:right": "lane",
    "highway": "secondary",
    "lanes": "2",
    "maxspeed": "50",
    "name": "Rue Jean Jaurès",
    "name:br": "Straed Jean Jaurès",
    "political_division": "canton",
    "source:name:br": "proper translation",
    "surface": "asphalt"
  }
},
{
  "type": "way",
  "id": 1009132867,
  "nodes": [
    9310928477,
    9310928476
  ],
  "tags": {
    "admin_level": "10",
    "boundary": "administrative",
    "cycleway:right": "lane",
    "highway": "secondary",
    "lanes": "2",
    "name": "Rue Jean Martin",
    "name:br": "Straed Jean Martin",
    "political_division": "canton",
    "source:name:br": "proper translation",
    "surface": "asphalt"
  }
},
{
  "type": "way",
  "id": 1009330217,
  "nodes": [
    1768891736,
    1768891737,
    1768891739
  ],
  "tags": {
    "cycleway:right": "lane",
    "highway": "tertiary",
    "lanes": "1",
    "lit": "yes",
    "mapillary": "IeT-m6tn0QpxuUE3550P6A",
    "maxspeed": "50",
    "name": "Boulevard du Général Guillaudot",
    "name:br": "Boulouard Jeneral Guillaudot",
    "oneway": "yes",
    "ref:FR:FANTOIR": "562601253Z",
    "source:maxspeed": "FR:urban",
    "source:name:br": "proper translation",
    "surface": "asphalt",
    "survey:date": "2017-07-24"
  }
},
{
  "type": "way",
  "id": 1009330218,
  "nodes": [
    1768891741,
    1768891738,
    1768891736
  ],
  "tags": {
    "cycleway:right": "lane",
    "highway": "tertiary",
    "lanes": "1",
    "lit": "yes",
    "mapillary": "desnLWfvV_Xuz8slAk5bzw",
    "maxspeed": "50",
    "name": "Boulevard du Général Guillaudot",
    "name:br": "Boulouard Jeneral Guillaudot",
    "oneway": "yes",
    "ref:FR:FANTOIR": "562601253Z",
    "source:maxspeed": "FR:urban",
    "source:name:br": "proper translation",
    "surface": "asphalt",
    "survey:date": "2017-07-24"
  }
},
{
  "type": "way",
  "id": 1009330220,
  "nodes": [
    134394132,
    9312682324
  ],
  "tags": {
    "cycleway:right": "lane",
    "highway": "secondary",
    "name": "Avenue de Verdun",
    "name:br": "Bali Verdun",
    "source:name:br": "proper translation",
    "surface": "asphalt"
  }
},
{
  "type": "way",
  "id": 1009330224,
  "nodes": [
    3043633393,
    3043633392,
    26021786
  ],
  "tags": {
    "admin_level": "10",
    "boundary": "administrative",
    "cycleway:right": "lane",
    "cycleway:right:width": "1",
    "cycleway:width": "1",
    "highway": "secondary",
    "name": "Avenue de Verdun",
    "name:br": "Bali Verdun",
    "political_division": "canton",
    "surface": "asphalt"
  }
},
{
  "type": "way",
  "id": 1009330226,
  "nodes": [
    57566800,
    612814517,
    3043633339,
    612814529,
    9312682327
  ],
  "tags": {
    "cycleway:right": "lane",
    "highway": "secondary",
    "lit": "yes",
    "mapillary": "y2zMturw-EL1NEWlEjTN8g",
    "name": "Boulevard de la Paix",
    "name:br": "Boulouard ar Peoc'h",
    "oneway": "yes",
    "ref": "D 779B",
    "surface": "asphalt",
    "survey:date": "2017-08-19"
  }
},
{
  "type": "way",
  "id": 1009338286,
  "nodes": [
    2368930878,
    1829968622,
    9312713245
  ],
  "tags": {
    "cycleway:right": "lane",
    "highway": "tertiary",
    "oneway": "no",
    "ref": "D 126 B",
    "surface": "asphalt"
  }
},
{
  "type": "way",
  "id": 1014265012,
  "nodes": [
    1322840807,
    8349825787,
    8825298521,
    5120359545,
    1322840775
  ],
  "tags": {
    "cycleway:right": "lane",
    "highway": "residential",
    "name": "Rue Emile Jourdan",
    "name:br": "Straed Emile Jourdan",
    "oneway": "yes",
    "source:name:br": "ofis publik ar brezhoneg"
  }
},
{
  "type": "way",
  "id": 1014265017,
  "nodes": [
    9357546570,
    9357546569
  ],
  "tags": {
    "cycleway:left": "track",
    "cycleway:right": "lane",
    "highway": "residential",
    "maxspeed": "30",
    "name": "Avenue Paul Cézanne",
    "name:br": "Bali Paul Cézanne",
    "source:name:br": "proper translation"
  }
},
{
  "type": "way",
  "id": 1014265020,
  "nodes": [
    9357546571,
    9357546572
  ],
  "tags": {
    "cycleway:left": "track",
    "cycleway:right": "lane",
    "highway": "residential",
    "maxspeed": "30",
    "name": "Avenue Paul Cézanne",
    "name:br": "Bali Paul Cézanne",
    "source:name:br": "proper translation"
  }
},
{
  "type": "way",
  "id": 1014265025,
  "nodes": [
    448942894,
    2501856778,
    9357546576
  ],
  "tags": {
    "admin_level": "10",
    "boundary": "administrative",
    "cycleway:right": "lane",
    "cycleway:width": "1",
    "highway": "tertiary",
    "name": "Avenue du 4 Août 1944",
    "name:br": "Bali ar 4 a viz Eost 1944",
    "political_division": "canton",
    "source:name:br": "proper translation",
    "surface": "asphalt"
  }
},
{
  "type": "way",
  "id": 1014632872,
  "nodes": [
    26310675,
    8342462212,
    1670699109,
    1670699123
  ],
  "tags": {
    "cycleway:left:width": "1",
    "cycleway:right": "lane",
    "highway": "secondary",
    "lit": "yes",
    "mapillary": "mFSC9ouFggUNgXjjsWlGMg",
    "maxspeed": "50",
    "maxspeed:type": "sign",
    "name": "Avenue de la Marne",
    "name:br": "Bali ar Marn",
    "source:name:br": "proper translation",
    "surface": "asphalt",
    "survey:date": "2017-04-26"
  }
},
{
  "type": "way",
  "id": 1016241424,
  "nodes": [
    9373534020,
    9373534021
  ],
  "tags": {
    "cycleway:right": "lane",
    "highway": "tertiary",
    "lit": "yes",
    "mapillary": "TkCzje1eZ_hfvkiMVfQviQ",
    "maxspeed": "50",
    "name": "Rue du Général Weygand",
    "name:br": "Straed ar Jeneral Weygand",
    "ref:FR:FANTOIR": "562601260G",
    "source:name": "FANTOIR",
    "source:name:br": "proper translation",
    "survey:date": "2017-08-19"
  }
},
{
  "type": "way",
  "id": 1026199164,
  "nodes": [
    9461429720,
    9461429723,
    6169313125,
    7823702137
  ],
  "tags": {
    "cycleway:right": "lane",
    "cycleway:width": "1",
    "highway": "tertiary",
    "name": "Rue du 18 Juin 1940",
    "name:br": "Straed an Driwec'h a viz Mezheven 1940",
    "oneway": "no",
    "source:name:br": "proper translation"
  }
},
{
  "type": "way",
  "id": 1026199165,
  "nodes": [
    7823702137,
    9461429719,
    9461429718,
    9461429717,
    9461418516
  ],
  "tags": {
    "cycleway:right": "lane",
    "cycleway:width": "1",
    "highway": "tertiary",
    "name": "Rue du 18 Juin 1940",
    "name:br": "Straed an Driwec'h a viz Mezheven 1940",
    "oneway": "no",
    "source:name:br": "proper translation"
  }
},
{
  "type": "way",
  "id": 1026201513,
  "nodes": [
    9461448737,
    9461448733,
    9461448732,
    9461448731,
    1581051133
  ],
  "tags": {
    "cycleway:right": "lane",
    "highway": "tertiary",
    "maxspeed": "50",
    "name": "Boulevard du Général Guillaudot",
    "name:br": "Boulouard Jeneral Guillaudot",
    "oneway": "no",
    "ref:FR:FANTOIR": "562601253Z",
    "source:maxspeed": "FR:urban",
    "source:name:br": "proper translation",
    "surface": "asphalt"
  }
},
{
  "type": "area",
  "id": 3600192306,
  "tags": {
    "admin_level": "8",
    "boundary": "administrative",
    "capital": "6",
    "label:FR:history": "VAH",
    "name": "Vannes",
    "name:br": "Gwened",
    "name:fr": "Vannes",
    "name:fr-x-gallo": "Vann",
    "name:ja": "ヴァンヌ",
    "name:la": "Darioritum",
    "name:ru": "Ванн",
    "population": "53719",
    "population:date": "2019",
    "postal_code": "56000",
    "ref:FR:SIREN": "215602608",
    "ref:INSEE": "56260",
    "reg_name": "Gwened",
    "source:population": "INSEE 2022",
    "source:postal_code": "La Poste - 12/2014",
    "type": "boundary",
    "website": "http://www.mairie-vannes.fr/",
    "wikidata": "Q6593",
    "wikipedia": "fr:Vannes"
  }
},
{
  "type": "node",
  "id": 289811986,
  "lat": 47.6595599,
  "lon": -2.7945202
},
{
  "type": "node",
  "id": 1589803183,
  "lat": 47.6594166,
  "lon": -2.7945768
},
{
  "type": "node",
  "id": 1589803187,
  "lat": 47.6596067,
  "lon": -2.7950516
},
{
  "type": "node",
  "id": 1589803192,
  "lat": 47.6600712,
  "lon": -2.7958452
},
{
  "type": "node",
  "id": 1589803206,
  "lat": 47.6602472,
  "lon": -2.7962378
},
{
  "type": "node",
  "id": 1589803212,
  "lat": 47.6603473,
  "lon": -2.7960101
},
{
  "type": "node",
  "id": 1745419565,
  "lat": 47.6594777,
  "lon": -2.7947115
},
{
  "type": "node",
  "id": 1745419572,
  "lat": 47.6595632,
  "lon": -2.7946777
},
{
  "type": "node",
  "id": 1745419575,
  "lat": 47.6601963,
  "lon": -2.7960662
},
{
  "type": "node",
  "id": 1745419576,
  "lat": 47.6602493,
  "lon": -2.7959647
},
{
  "type": "node",
  "id": 3043062286,
  "lat": 47.6594459,
  "lon": -2.7946215
},
{
  "type": "node",
  "id": 3043064903,
  "lat": 47.6595337,
  "lon": -2.7948774
},
{
  "type": "node",
  "id": 3043064904,
  "lat": 47.6595888,
  "lon": -2.7948440
},
{
  "type": "node",
  "id": 3043065793,
  "lat": 47.6595585,
  "lon": -2.7945796
},
{
  "type": "node",
  "id": 3043070001,
  "lat": 47.6603056,
  "lon": -2.7959971
},
{
  "type": "node",
  "id": 3043070112,
  "lat": 47.6602266,
  "lon": -2.7961444
},
{
  "type": "node",
  "id": 26117943,
  "lat": 47.6532279,
  "lon": -2.7826653
},
{
  "type": "node",
  "id": 26509754,
  "lat": 47.6530300,
  "lon": -2.7834020
},
{
  "type": "node",
  "id": 324738711,
  "lat": 47.6530869,
  "lon": -2.7832668
},
{
  "type": "node",
  "id": 324739352,
  "lat": 47.6531811,
  "lon": -2.7832648
},
{
  "type": "node",
  "id": 1581757246,
  "lat": 47.6531867,
  "lon": -2.7830275
},
{
  "type": "node",
  "id": 3042475014,
  "lat": 47.6530541,
  "lon": -2.7833612
},
{
  "type": "node",
  "id": 3042475017,
  "lat": 47.6531817,
  "lon": -2.7831531
},
{
  "type": "node",
  "id": 3042475698,
  "lat": 47.6531087,
  "lon": -2.7831632
},
{
  "type": "node",
  "id": 3042475700,
  "lat": 47.6531345,
  "lon": -2.7830102
},
{
  "type": "node",
  "id": 26587516,
  "lat": 47.6600020,
  "lon": -2.7869571
},
{
  "type": "node",
  "id": 27389762,
  "lat": 47.6599170,
  "lon": -2.7869747
},
{
  "type": "node",
  "id": 1589903904,
  "lat": 47.6600521,
  "lon": -2.7884807
},
{
  "type": "node",
  "id": 3043064911,
  "lat": 47.6600154,
  "lon": -2.7871974
},
{
  "type": "node",
  "id": 3043065800,
  "lat": 47.6601375,
  "lon": -2.7893394
},
{
  "type": "node",
  "id": 3043070082,
  "lat": 47.6599401,
  "lon": -2.7872137
},
{
  "type": "node",
  "id": 3043070098,
  "lat": 47.6600989,
  "lon": -2.7884817
},
{
  "type": "node",
  "id": 4743861727,
  "lat": 47.6600754,
  "lon": -2.7889329
},
{
  "type": "node",
  "id": 6169265611,
  "lat": 47.6599860,
  "lon": -2.7866838
},
{
  "type": "node",
  "id": 6810089638,
  "lat": 47.6601054,
  "lon": -2.7886264
},
{
  "type": "node",
  "id": 7364651485,
  "lat": 47.6600647,
  "lon": -2.7879552
},
{
  "type": "node",
  "id": 7364651494,
  "lat": 47.6600297,
  "lon": -2.7874170
},
{
  "type": "node",
  "id": 7364651559,
  "lat": 47.6599440,
  "lon": -2.7859685
},
{
  "type": "node",
  "id": 7364651569,
  "lat": 47.6599684,
  "lon": -2.7863843
},
{
  "type": "node",
  "id": 7364651584,
  "lat": 47.6601281,
  "lon": -2.7891299
},
{
  "type": "node",
  "id": 26310675,
  "lat": 47.6596225,
  "lon": -2.7806193
},
{
  "type": "node",
  "id": 1670699109,
  "lat": 47.6595774,
  "lon": -2.7801789
},
{
  "type": "node",
  "id": 1670699123,
  "lat": 47.6595754,
  "lon": -2.7801471
},
{
  "type": "node",
  "id": 1700173714,
  "lat": 47.6597192,
  "lon": -2.7825609
},
{
  "type": "node",
  "id": 1700173716,
  "lat": 47.6597578,
  "lon": -2.7827972
},
{
  "type": "node",
  "id": 2523483725,
  "lat": 47.6598548,
  "lon": -2.7844494
},
{
  "type": "node",
  "id": 4743861728,
  "lat": 47.6597801,
  "lon": -2.7831769
},
{
  "type": "node",
  "id": 5794287344,
  "lat": 47.6598445,
  "lon": -2.7842504
},
{
  "type": "node",
  "id": 6169268657,
  "lat": 47.6597684,
  "lon": -2.7829775
},
{
  "type": "node",
  "id": 8342462212,
  "lat": 47.6596075,
  "lon": -2.7804726
},
{
  "type": "node",
  "id": 8381087598,
  "lat": 47.6598462,
  "lon": -2.7842825
},
{
  "type": "node",
  "id": 1596035840,
  "lat": 47.6653986,
  "lon": -2.7949200
},
{
  "type": "node",
  "id": 1596035857,
  "lat": 47.6654833,
  "lon": -2.7945031
},
{
  "type": "node",
  "id": 1700495007,
  "lat": 47.6656261,
  "lon": -2.7948449
},
{
  "type": "node",
  "id": 1700495008,
  "lat": 47.6656337,
  "lon": -2.7946594
},
{
  "type": "node",
  "id": 1700495013,
  "lat": 47.6660436,
  "lon": -2.7948886
},
{
  "type": "node",
  "id": 1700495017,
  "lat": 47.6671957,
  "lon": -2.7956523
},
{
  "type": "node",
  "id": 1700495024,
  "lat": 47.6674232,
  "lon": -2.7957275
},
{
  "type": "node",
  "id": 4749180630,
  "lat": 47.6674008,
  "lon": -2.7959945
},
{
  "type": "node",
  "id": 4749180631,
  "lat": 47.6674468,
  "lon": -2.7961661
},
{
  "type": "node",
  "id": 4749180632,
  "lat": 47.6672602,
  "lon": -2.7957328
},
{
  "type": "node",
  "id": 4749180637,
  "lat": 47.6671520,
  "lon": -2.7955036
},
{
  "type": "node",
  "id": 4749180638,
  "lat": 47.6669503,
  "lon": -2.7955977
},
{
  "type": "node",
  "id": 4749180639,
  "lat": 47.6669738,
  "lon": -2.7957076
},
{
  "type": "node",
  "id": 4749180641,
  "lat": 47.6667782,
  "lon": -2.7955836
},
{
  "type": "node",
  "id": 4756203623,
  "lat": 47.6658273,
  "lon": -2.7948530
},
{
  "type": "node",
  "id": 4756203624,
  "lat": 47.6658924,
  "lon": -2.7948055
},
{
  "type": "node",
  "id": 5115964221,
  "lat": 47.6672978,
  "lon": -2.7958617
},
{
  "type": "node",
  "id": 5115964222,
  "lat": 47.6673717,
  "lon": -2.7960533
},
{
  "type": "node",
  "id": 5115964223,
  "lat": 47.6673327,
  "lon": -2.7959555
},
{
  "type": "node",
  "id": 5115964224,
  "lat": 47.6668739,
  "lon": -2.7956731
},
{
  "type": "node",
  "id": 5115964229,
  "lat": 47.6673887,
  "lon": -2.7958376
},
{
  "type": "node",
  "id": 26407623,
  "lat": 47.6666038,
  "lon": -2.7841676
},
{
  "type": "node",
  "id": 1700211976,
  "lat": 47.6667201,
  "lon": -2.7844728
},
{
  "type": "node",
  "id": 1700211988,
  "lat": 47.6667508,
  "lon": -2.7846603
},
{
  "type": "node",
  "id": 1700211991,
  "lat": 47.6667781,
  "lon": -2.7844116
},
{
  "type": "node",
  "id": 1700211996,
  "lat": 47.6668619,
  "lon": -2.7845649
},
{
  "type": "node",
  "id": 1700211998,
  "lat": 47.6669136,
  "lon": -2.7849685
},
{
  "type": "node",
  "id": 1700212000,
  "lat": 47.6670146,
  "lon": -2.7850462
},
{
  "type": "node",
  "id": 1700212001,
  "lat": 47.6670043,
  "lon": -2.7848206
},
{
  "type": "node",
  "id": 1700212002,
  "lat": 47.6670589,
  "lon": -2.7849859
},
{
  "type": "node",
  "id": 1700212011,
  "lat": 47.6671213,
  "lon": -2.7851546
},
{
  "type": "node",
  "id": 26189925,
  "lat": 47.6465420,
  "lon": -2.7535994
},
{
  "type": "node",
  "id": 26189926,
  "lat": 47.6468971,
  "lon": -2.7536749
},
{
  "type": "node",
  "id": 26680471,
  "lat": 47.6472442,
  "lon": -2.7538119
},
{
  "type": "node",
  "id": 1737559051,
  "lat": 47.6467256,
  "lon": -2.7536294
},
{
  "type": "node",
  "id": 3043632729,
  "lat": 47.6463160,
  "lon": -2.7535716
},
{
  "type": "node",
  "id": 3043632730,
  "lat": 47.6464197,
  "lon": -2.7535829
},
{
  "type": "node",
  "id": 3043632731,
  "lat": 47.6469184,
  "lon": -2.7536813
},
{
  "type": "node",
  "id": 4741688047,
  "lat": 47.6470577,
  "lon": -2.7537385
},
{
  "type": "node",
  "id": 4741688048,
  "lat": 47.6471055,
  "lon": -2.7537563
},
{
  "type": "node",
  "id": 5121508964,
  "lat": 47.6463782,
  "lon": -2.7535773
},
{
  "type": "node",
  "id": 26117977,
  "lat": 47.6588055,
  "lon": -2.7710233
},
{
  "type": "node",
  "id": 26117979,
  "lat": 47.6586096,
  "lon": -2.7697144
},
{
  "type": "node",
  "id": 26117980,
  "lat": 47.6585193,
  "lon": -2.7691238
},
{
  "type": "node",
  "id": 26612760,
  "lat": 47.6586832,
  "lon": -2.7702017
},
{
  "type": "node",
  "id": 1670601005,
  "lat": 47.6588959,
  "lon": -2.7716621
},
{
  "type": "node",
  "id": 4867744887,
  "lat": 47.6583672,
  "lon": -2.7682386
},
{
  "type": "node",
  "id": 4867745065,
  "lat": 47.6585697,
  "lon": -2.7694537
},
{
  "type": "node",
  "id": 6166902092,
  "lat": 47.6586984,
  "lon": -2.7703042
},
{
  "type": "node",
  "id": 26488870,
  "lat": 47.6581017,
  "lon": -2.7641079
},
{
  "type": "node",
  "id": 2271730219,
  "lat": 47.6580216,
  "lon": -2.7635812
},
{
  "type": "node",
  "id": 2271730230,
  "lat": 47.6579003,
  "lon": -2.7626060
},
{
  "type": "node",
  "id": 2271730240,
  "lat": 47.6580719,
  "lon": -2.7639657
},
{
  "type": "node",
  "id": 5908862366,
  "lat": 47.6579501,
  "lon": -2.7630883
},
{
  "type": "node",
  "id": 8411506351,
  "lat": 47.6579277,
  "lon": -2.7628717
},
{
  "type": "node",
  "id": 95087020,
  "lat": 47.6609024,
  "lon": -2.7544963
},
{
  "type": "node",
  "id": 8342322959,
  "lat": 47.6609562,
  "lon": -2.7543879
},
{
  "type": "node",
  "id": 9418615907,
  "lat": 47.6609172,
  "lon": -2.7544664
},
{
  "type": "node",
  "id": 27245174,
  "lat": 47.6662261,
  "lon": -2.7702575
},
{
  "type": "node",
  "id": 27245175,
  "lat": 47.6662151,
  "lon": -2.7706075
},
{
  "type": "node",
  "id": 27245176,
  "lat": 47.6660120,
  "lon": -2.7707060
},
{
  "type": "node",
  "id": 27245181,
  "lat": 47.6658649,
  "lon": -2.7704515
},
{
  "type": "node",
  "id": 27245185,
  "lat": 47.6653077,
  "lon": -2.7701476
},
{
  "type": "node",
  "id": 27245189,
  "lat": 47.6648989,
  "lon": -2.7698518
},
{
  "type": "node",
  "id": 27245194,
  "lat": 47.6643652,
  "lon": -2.7692343
},
{
  "type": "node",
  "id": 27245197,
  "lat": 47.6640685,
  "lon": -2.7685536
},
{
  "type": "node",
  "id": 27245204,
  "lat": 47.6638823,
  "lon": -2.7677915
},
{
  "type": "node",
  "id": 27245217,
  "lat": 47.6635096,
  "lon": -2.7657785
},
{
  "type": "node",
  "id": 27247170,
  "lat": 47.6659168,
  "lon": -2.7702213
},
{
  "type": "node",
  "id": 27247171,
  "lat": 47.6660101,
  "lon": -2.7701378
},
{
  "type": "node",
  "id": 27247172,
  "lat": 47.6661928,
  "lon": -2.7702012
},
{
  "type": "node",
  "id": 324748812,
  "lat": 47.6662466,
  "lon": -2.7705268
},
{
  "type": "node",
  "id": 1574737543,
  "lat": 47.6657092,
  "lon": -2.7703366
},
{
  "type": "node",
  "id": 1574737548,
  "lat": 47.6658671,
  "lon": -2.7703684
},
{
  "type": "node",
  "id": 1574737550,
  "lat": 47.6658954,
  "lon": -2.7705807
},
{
  "type": "node",
  "id": 1574737560,
  "lat": 47.6660618,
  "lon": -2.7707155
},
{
  "type": "node",
  "id": 1574737561,
  "lat": 47.6660747,
  "lon": -2.7701282
},
{
  "type": "node",
  "id": 1574737562,
  "lat": 47.6661720,
  "lon": -2.7706657
},
{
  "type": "node",
  "id": 1574737563,
  "lat": 47.6662591,
  "lon": -2.7703977
},
{
  "type": "node",
  "id": 1574737570,
  "lat": 47.6664193,
  "lon": -2.7704850
},
{
  "type": "node",
  "id": 1574737574,
  "lat": 47.6665371,
  "lon": -2.7702424
},
{
  "type": "node",
  "id": 1574737575,
  "lat": 47.6666234,
  "lon": -2.7701446
},
{
  "type": "node",
  "id": 1670630441,
  "lat": 47.6645664,
  "lon": -2.7694941
},
{
  "type": "node",
  "id": 1670630652,
  "lat": 47.6659250,
  "lon": -2.7706339
},
{
  "type": "node",
  "id": 1768844821,
  "lat": 47.6661378,
  "lon": -2.7701501
},
{
  "type": "node",
  "id": 1768844841,
  "lat": 47.6663693,
  "lon": -2.7706427
},
{
  "type": "node",
  "id": 1768844872,
  "lat": 47.6664979,
  "lon": -2.7703110
},
{
  "type": "node",
  "id": 3350780735,
  "lat": 47.6661194,
  "lon": -2.7707027
},
{
  "type": "node",
  "id": 3350780736,
  "lat": 47.6659654,
  "lon": -2.7706782
},
{
  "type": "node",
  "id": 3350780737,
  "lat": 47.6658750,
  "lon": -2.7705188
},
{
  "type": "node",
  "id": 3350780738,
  "lat": 47.6658849,
  "lon": -2.7702896
},
{
  "type": "node",
  "id": 3350780739,
  "lat": 47.6659595,
  "lon": -2.7701698
},
{
  "type": "node",
  "id": 3350780740,
  "lat": 47.6662487,
  "lon": -2.7703244
},
{
  "type": "node",
  "id": 3350780741,
  "lat": 47.6662578,
  "lon": -2.7704633
},
{
  "type": "node",
  "id": 4753504412,
  "lat": 47.6651276,
  "lon": -2.7700283
},
{
  "type": "node",
  "id": 6717908157,
  "lat": 47.6647326,
  "lon": -2.7696730
},
{
  "type": "node",
  "id": 6717908161,
  "lat": 47.6642006,
  "lon": -2.7688940
},
{
  "type": "node",
  "id": 8349803092,
  "lat": 47.6635820,
  "lon": -2.7661694
},
{
  "type": "node",
  "id": 8349822361,
  "lat": 47.6637262,
  "lon": -2.7669481
},
{
  "type": "node",
  "id": 1682026463,
  "lat": 47.6722553,
  "lon": -2.7727472
},
{
  "type": "node",
  "id": 1682026521,
  "lat": 47.6726512,
  "lon": -2.7731011
},
{
  "type": "node",
  "id": 1682026527,
  "lat": 47.6731905,
  "lon": -2.7736934
},
{
  "type": "node",
  "id": 2495537090,
  "lat": 47.6726302,
  "lon": -2.7731914
},
{
  "type": "node",
  "id": 3206277407,
  "lat": 47.6728447,
  "lon": -2.7733286
},
{
  "type": "node",
  "id": 3206277410,
  "lat": 47.6728237,
  "lon": -2.7733775
},
{
  "type": "node",
  "id": 465733951,
  "lat": 47.6707608,
  "lon": -2.7707779
},
{
  "type": "node",
  "id": 1322840744,
  "lat": 47.6699674,
  "lon": -2.7695212
},
{
  "type": "node",
  "id": 1322840775,
  "lat": 47.6710344,
  "lon": -2.7683702
},
{
  "type": "node",
  "id": 1322840807,
  "lat": 47.6703754,
  "lon": -2.7693577
},
{
  "type": "node",
  "id": 1322840813,
  "lat": 47.6701606,
  "lon": -2.7694908
},
{
  "type": "node",
  "id": 1322840820,
  "lat": 47.6703170,
  "lon": -2.7694135
},
{
  "type": "node",
  "id": 1682026454,
  "lat": 47.6708215,
  "lon": -2.7706841
},
{
  "type": "node",
  "id": 1682026470,
  "lat": 47.6719239,
  "lon": -2.7721696
},
{
  "type": "node",
  "id": 3043967011,
  "lat": 47.6702429,
  "lon": -2.7694624
},
{
  "type": "node",
  "id": 5120359536,
  "lat": 47.6710500,
  "lon": -2.7683466
},
{
  "type": "node",
  "id": 5120359543,
  "lat": 47.6714697,
  "lon": -2.7697167
},
{
  "type": "node",
  "id": 5120359545,
  "lat": 47.6707856,
  "lon": -2.7687587
},
{
  "type": "node",
  "id": 5236315130,
  "lat": 47.6711690,
  "lon": -2.7681665
},
{
  "type": "node",
  "id": 7295150704,
  "lat": 47.6716499,
  "lon": -2.7694478
},
{
  "type": "node",
  "id": 8261561017,
  "lat": 47.6708949,
  "lon": -2.7705745
},
{
  "type": "node",
  "id": 8261561027,
  "lat": 47.6700582,
  "lon": -2.7695069
},
{
  "type": "node",
  "id": 8342677288,
  "lat": 47.6726665,
  "lon": -2.7675444
},
{
  "type": "node",
  "id": 8349825787,
  "lat": 47.6706878,
  "lon": -2.7689015
},
{
  "type": "node",
  "id": 8528054292,
  "lat": 47.6702844,
  "lon": -2.7694360
},
{
  "type": "node",
  "id": 8825298521,
  "lat": 47.6707298,
  "lon": -2.7688402
},
{
  "type": "node",
  "id": 9357546565,
  "lat": 47.6714582,
  "lon": -2.7677286
},
{
  "type": "node",
  "id": 9357546567,
  "lat": 47.6726779,
  "lon": -2.7675621
},
{
  "type": "node",
  "id": 9357546569,
  "lat": 47.6723350,
  "lon": -2.7670775
},
{
  "type": "node",
  "id": 9357546570,
  "lat": 47.6725625,
  "lon": -2.7673979
},
{
  "type": "node",
  "id": 9357546571,
  "lat": 47.6718495,
  "lon": -2.7663884
},
{
  "type": "node",
  "id": 9357546572,
  "lat": 47.6716590,
  "lon": -2.7661161
},
{
  "type": "node",
  "id": 26288971,
  "lat": 47.6624590,
  "lon": -2.7621080
},
{
  "type": "node",
  "id": 26288973,
  "lat": 47.6626771,
  "lon": -2.7621019
},
{
  "type": "node",
  "id": 26288975,
  "lat": 47.6628783,
  "lon": -2.7622694
},
{
  "type": "node",
  "id": 26288976,
  "lat": 47.6629537,
  "lon": -2.7625615
},
{
  "type": "node",
  "id": 26288977,
  "lat": 47.6630001,
  "lon": -2.7628472
},
{
  "type": "node",
  "id": 95087268,
  "lat": 47.6627467,
  "lon": -2.7623603
},
{
  "type": "node",
  "id": 95087272,
  "lat": 47.6626686,
  "lon": -2.7622622
},
{
  "type": "node",
  "id": 1577297847,
  "lat": 47.6634180,
  "lon": -2.7653262
},
{
  "type": "node",
  "id": 1681903920,
  "lat": 47.6625656,
  "lon": -2.7622002
},
{
  "type": "node",
  "id": 1681903926,
  "lat": 47.6628867,
  "lon": -2.7626278
},
{
  "type": "node",
  "id": 1967108534,
  "lat": 47.6625657,
  "lon": -2.7621039
},
{
  "type": "node",
  "id": 1967108538,
  "lat": 47.6626606,
  "lon": -2.7622222
},
{
  "type": "node",
  "id": 1967108541,
  "lat": 47.6627219,
  "lon": -2.7623466
},
{
  "type": "node",
  "id": 1967108543,
  "lat": 47.6626916,
  "lon": -2.7620746
},
{
  "type": "node",
  "id": 1967108545,
  "lat": 47.6627526,
  "lon": -2.7620256
},
{
  "type": "node",
  "id": 1967108550,
  "lat": 47.6627778,
  "lon": -2.7623653
},
{
  "type": "node",
  "id": 1967108552,
  "lat": 47.6627859,
  "lon": -2.7620233
},
{
  "type": "node",
  "id": 1967108555,
  "lat": 47.6628608,
  "lon": -2.7623080
},
{
  "type": "node",
  "id": 1967108557,
  "lat": 47.6628698,
  "lon": -2.7620970
},
{
  "type": "node",
  "id": 1967108565,
  "lat": 47.6628845,
  "lon": -2.7621415
},
{
  "type": "node",
  "id": 1967108566,
  "lat": 47.6628899,
  "lon": -2.7621845
},
{
  "type": "node",
  "id": 5908017756,
  "lat": 47.6628184,
  "lon": -2.7620352
},
{
  "type": "node",
  "id": 5908017757,
  "lat": 47.6627095,
  "lon": -2.7620522
},
{
  "type": "node",
  "id": 5908017758,
  "lat": 47.6626594,
  "lon": -2.7621805
},
{
  "type": "node",
  "id": 5908017759,
  "lat": 47.6626999,
  "lon": -2.7623248
},
{
  "type": "node",
  "id": 5908017760,
  "lat": 47.6628087,
  "lon": -2.7623578
},
{
  "type": "node",
  "id": 5908017761,
  "lat": 47.6628877,
  "lon": -2.7622280
},
{
  "type": "node",
  "id": 5908017762,
  "lat": 47.6626818,
  "lon": -2.7622962
},
{
  "type": "node",
  "id": 5908017763,
  "lat": 47.6626650,
  "lon": -2.7621396
},
{
  "type": "node",
  "id": 5908017764,
  "lat": 47.6627301,
  "lon": -2.7620356
},
{
  "type": "node",
  "id": 5908017765,
  "lat": 47.6628471,
  "lon": -2.7620605
},
{
  "type": "node",
  "id": 5908017767,
  "lat": 47.6628370,
  "lon": -2.7623382
},
{
  "type": "node",
  "id": 5908017769,
  "lat": 47.6626484,
  "lon": -2.7621013
},
{
  "type": "node",
  "id": 5908017770,
  "lat": 47.6626385,
  "lon": -2.7622401
},
{
  "type": "node",
  "id": 5908017771,
  "lat": 47.6629826,
  "lon": -2.7627001
},
{
  "type": "node",
  "id": 5908017772,
  "lat": 47.6627809,
  "lon": -2.7624054
},
{
  "type": "node",
  "id": 5908017773,
  "lat": 47.6628900,
  "lon": -2.7623232
},
{
  "type": "node",
  "id": 5908017774,
  "lat": 47.6629277,
  "lon": -2.7624480
},
{
  "type": "node",
  "id": 8270596014,
  "lat": 47.6626023,
  "lon": -2.7621027
},
{
  "type": "node",
  "id": 8270596015,
  "lat": 47.6626048,
  "lon": -2.7621027
},
{
  "type": "node",
  "id": 8349803085,
  "lat": 47.6634585,
  "lon": -2.7655263
},
{
  "type": "node",
  "id": 8379926615,
  "lat": 47.6628525,
  "lon": -2.7625559
},
{
  "type": "node",
  "id": 8380034266,
  "lat": 47.6628891,
  "lon": -2.7622012
},
{
  "type": "node",
  "id": 26479597,
  "lat": 47.6616827,
  "lon": -2.7549740
},
{
  "type": "node",
  "id": 26479598,
  "lat": 47.6622171,
  "lon": -2.7552515
},
{
  "type": "node",
  "id": 26479599,
  "lat": 47.6628491,
  "lon": -2.7554923
},
{
  "type": "node",
  "id": 26479600,
  "lat": 47.6634747,
  "lon": -2.7556621
},
{
  "type": "node",
  "id": 26479602,
  "lat": 47.6618099,
  "lon": -2.7550383
},
{
  "type": "node",
  "id": 95087022,
  "lat": 47.6614326,
  "lon": -2.7535411
},
{
  "type": "node",
  "id": 95087023,
  "lat": 47.6617471,
  "lon": -2.7530461
},
{
  "type": "node",
  "id": 1577299788,
  "lat": 47.6636567,
  "lon": -2.7557040
},
{
  "type": "node",
  "id": 1768937394,
  "lat": 47.6660130,
  "lon": -2.7564134
},
{
  "type": "node",
  "id": 1768937423,
  "lat": 47.6670606,
  "lon": -2.7567299
},
{
  "type": "node",
  "id": 1768944668,
  "lat": 47.6663559,
  "lon": -2.7565173
},
{
  "type": "node",
  "id": 1768980815,
  "lat": 47.6654582,
  "lon": -2.7562555
},
{
  "type": "node",
  "id": 1790554601,
  "lat": 47.6611418,
  "lon": -2.7540137
},
{
  "type": "node",
  "id": 4742900255,
  "lat": 47.6665924,
  "lon": -2.7565880
},
{
  "type": "node",
  "id": 4742900256,
  "lat": 47.6661803,
  "lon": -2.7564636
},
{
  "type": "node",
  "id": 6170703732,
  "lat": 47.6659640,
  "lon": -2.7563994
},
{
  "type": "node",
  "id": 6170704489,
  "lat": 47.6664973,
  "lon": -2.7565596
},
{
  "type": "node",
  "id": 8386371296,
  "lat": 47.6630297,
  "lon": -2.7555413
},
{
  "type": "node",
  "id": 8389620005,
  "lat": 47.6613107,
  "lon": -2.7537392
},
{
  "type": "node",
  "id": 8389620007,
  "lat": 47.6611986,
  "lon": -2.7539214
},
{
  "type": "node",
  "id": 9355057582,
  "lat": 47.6651467,
  "lon": -2.7561549
},
{
  "type": "node",
  "id": 9355057583,
  "lat": 47.6651802,
  "lon": -2.7561657
},
{
  "type": "node",
  "id": 448946077,
  "lat": 47.6734359,
  "lon": -2.7629474
},
{
  "type": "node",
  "id": 448946081,
  "lat": 47.6734991,
  "lon": -2.7628122
},
{
  "type": "node",
  "id": 448946084,
  "lat": 47.6735508,
  "lon": -2.7626481
},
{
  "type": "node",
  "id": 448946085,
  "lat": 47.6735787,
  "lon": -2.7624652
},
{
  "type": "node",
  "id": 448946086,
  "lat": 47.6735811,
  "lon": -2.7621690
},
{
  "type": "node",
  "id": 448946087,
  "lat": 47.6732657,
  "lon": -2.7601019
},
{
  "type": "node",
  "id": 1323346386,
  "lat": 47.6735446,
  "lon": -2.7618754
},
{
  "type": "node",
  "id": 2501856777,
  "lat": 47.6731183,
  "lon": -2.7591309
},
{
  "type": "node",
  "id": 3556150724,
  "lat": 47.6720255,
  "lon": -2.7651923
},
{
  "type": "node",
  "id": 4416374005,
  "lat": 47.6732454,
  "lon": -2.7599889
},
{
  "type": "node",
  "id": 4416380208,
  "lat": 47.6722016,
  "lon": -2.7649214
},
{
  "type": "node",
  "id": 4742900247,
  "lat": 47.6735195,
  "lon": -2.7627475
},
{
  "type": "node",
  "id": 4742900249,
  "lat": 47.6731446,
  "lon": -2.7593128
},
{
  "type": "node",
  "id": 4742900250,
  "lat": 47.6732106,
  "lon": -2.7597685
},
{
  "type": "node",
  "id": 7174319711,
  "lat": 47.6734401,
  "lon": -2.7611934
},
{
  "type": "node",
  "id": 7174336717,
  "lat": 47.6721061,
  "lon": -2.7650683
},
{
  "type": "node",
  "id": 8342677308,
  "lat": 47.6731654,
  "lon": -2.7594566
},
{
  "type": "node",
  "id": 9357546573,
  "lat": 47.6720533,
  "lon": -2.7651496
},
{
  "type": "node",
  "id": 9357546574,
  "lat": 47.6719628,
  "lon": -2.7652887
},
{
  "type": "node",
  "id": 448942894,
  "lat": 47.6733196,
  "lon": -2.7583071
},
{
  "type": "node",
  "id": 448946089,
  "lat": 47.6731224,
  "lon": -2.7589541
},
{
  "type": "node",
  "id": 448946090,
  "lat": 47.6731470,
  "lon": -2.7588018
},
{
  "type": "node",
  "id": 2501856778,
  "lat": 47.6732446,
  "lon": -2.7582580
},
{
  "type": "node",
  "id": 7174319712,
  "lat": 47.6732433,
  "lon": -2.7585284
},
{
  "type": "node",
  "id": 9357546576,
  "lat": 47.6727212,
  "lon": -2.7578726
},
{
  "type": "node",
  "id": 9310928476,
  "lat": 47.6541051,
  "lon": -2.7461518
},
{
  "type": "node",
  "id": 26368318,
  "lat": 47.6534828,
  "lon": -2.7411758
},
{
  "type": "node",
  "id": 38908041,
  "lat": 47.6538612,
  "lon": -2.7406713
},
{
  "type": "node",
  "id": 3039429978,
  "lat": 47.6535945,
  "lon": -2.7410289
},
{
  "type": "node",
  "id": 3281995877,
  "lat": 47.6537852,
  "lon": -2.7408037
},
{
  "type": "node",
  "id": 4743861752,
  "lat": 47.6535381,
  "lon": -2.7410990
},
{
  "type": "node",
  "id": 5908407699,
  "lat": 47.6535709,
  "lon": -2.7410582
},
{
  "type": "node",
  "id": 5908407717,
  "lat": 47.6535051,
  "lon": -2.7411445
},
{
  "type": "node",
  "id": 9310928477,
  "lat": 47.6541849,
  "lon": -2.7458193
},
{
  "type": "node",
  "id": 26021784,
  "lat": 47.6587138,
  "lon": -2.7482340
},
{
  "type": "node",
  "id": 26021786,
  "lat": 47.6596753,
  "lon": -2.7460075
},
{
  "type": "node",
  "id": 57566800,
  "lat": 47.6586589,
  "lon": -2.7484651
},
{
  "type": "node",
  "id": 612814516,
  "lat": 47.6586343,
  "lon": -2.7480283
},
{
  "type": "node",
  "id": 612814517,
  "lat": 47.6585489,
  "lon": -2.7481826
},
{
  "type": "node",
  "id": 612814529,
  "lat": 47.6583725,
  "lon": -2.7477320
},
{
  "type": "node",
  "id": 1791670226,
  "lat": 47.6583672,
  "lon": -2.7474786
},
{
  "type": "node",
  "id": 3043633339,
  "lat": 47.6584793,
  "lon": -2.7480048
},
{
  "type": "node",
  "id": 3043633341,
  "lat": 47.6585759,
  "lon": -2.7479081
},
{
  "type": "node",
  "id": 5794368115,
  "lat": 47.6585426,
  "lon": -2.7478396
},
{
  "type": "node",
  "id": 9312682327,
  "lat": 47.6583149,
  "lon": -2.7475745
},
{
  "type": "node",
  "id": 30295532,
  "lat": 47.6549920,
  "lon": -2.7394380
},
{
  "type": "node",
  "id": 30320038,
  "lat": 47.6551342,
  "lon": -2.7394794
},
{
  "type": "node",
  "id": 36681928,
  "lat": 47.6549051,
  "lon": -2.7395792
},
{
  "type": "node",
  "id": 36681929,
  "lat": 47.6551269,
  "lon": -2.7397857
},
{
  "type": "node",
  "id": 38908110,
  "lat": 47.6551750,
  "lon": -2.7396463
},
{
  "type": "node",
  "id": 57566818,
  "lat": 47.6550376,
  "lon": -2.7398341
},
{
  "type": "node",
  "id": 606940323,
  "lat": 47.6551533,
  "lon": -2.7400400
},
{
  "type": "node",
  "id": 612814536,
  "lat": 47.6550836,
  "lon": -2.7399936
},
{
  "type": "node",
  "id": 612814538,
  "lat": 47.6549373,
  "lon": -2.7397688
},
{
  "type": "node",
  "id": 612814543,
  "lat": 47.6550590,
  "lon": -2.7394286
},
{
  "type": "node",
  "id": 1004495118,
  "lat": 47.6550251,
  "lon": -2.7394271
},
{
  "type": "node",
  "id": 1004495127,
  "lat": 47.6550916,
  "lon": -2.7394423
},
{
  "type": "node",
  "id": 1004495131,
  "lat": 47.6551686,
  "lon": -2.7395667
},
{
  "type": "node",
  "id": 1004495138,
  "lat": 47.6551584,
  "lon": -2.7397285
},
{
  "type": "node",
  "id": 1004495149,
  "lat": 47.6550852,
  "lon": -2.7398217
},
{
  "type": "node",
  "id": 1004495152,
  "lat": 47.6549734,
  "lon": -2.7398101
},
{
  "type": "node",
  "id": 1004495154,
  "lat": 47.6549123,
  "lon": -2.7397123
},
{
  "type": "node",
  "id": 1004495160,
  "lat": 47.6549171,
  "lon": -2.7395336
},
{
  "type": "node",
  "id": 1004495165,
  "lat": 47.6549617,
  "lon": -2.7394606
},
{
  "type": "node",
  "id": 1398474541,
  "lat": 47.6549361,
  "lon": -2.7394935
},
{
  "type": "node",
  "id": 2501856757,
  "lat": 47.6551471,
  "lon": -2.7399584
},
{
  "type": "node",
  "id": 2501856758,
  "lat": 47.6551479,
  "lon": -2.7399646
},
{
  "type": "node",
  "id": 3039429998,
  "lat": 47.6550167,
  "lon": -2.7398316
},
{
  "type": "node",
  "id": 3043633392,
  "lat": 47.6598975,
  "lon": -2.7454589
},
{
  "type": "node",
  "id": 3043633393,
  "lat": 47.6599054,
  "lon": -2.7454376
},
{
  "type": "node",
  "id": 3098643013,
  "lat": 47.6549012,
  "lon": -2.7396467
},
{
  "type": "node",
  "id": 3098643014,
  "lat": 47.6549499,
  "lon": -2.7397832
},
{
  "type": "node",
  "id": 3281995957,
  "lat": 47.6551720,
  "lon": -2.7402337
},
{
  "type": "node",
  "id": 8390466719,
  "lat": 47.6551590,
  "lon": -2.7400992
},
{
  "type": "node",
  "id": 9310928473,
  "lat": 47.6551649,
  "lon": -2.7396963
},
{
  "type": "node",
  "id": 95042557,
  "lat": 47.6630321,
  "lon": -2.7513479
},
{
  "type": "node",
  "id": 95087025,
  "lat": 47.6622086,
  "lon": -2.7522957
},
{
  "type": "node",
  "id": 95087027,
  "lat": 47.6625523,
  "lon": -2.7518411
},
{
  "type": "node",
  "id": 95087031,
  "lat": 47.6629920,
  "lon": -2.7514563
},
{
  "type": "node",
  "id": 1581051133,
  "lat": 47.6660399,
  "lon": -2.7488087
},
{
  "type": "node",
  "id": 1768891736,
  "lat": 47.6667016,
  "lon": -2.7467210
},
{
  "type": "node",
  "id": 1768891737,
  "lat": 47.6667159,
  "lon": -2.7465826
},
{
  "type": "node",
  "id": 1768891738,
  "lat": 47.6667696,
  "lon": -2.7466054
},
{
  "type": "node",
  "id": 1768891739,
  "lat": 47.6668277,
  "lon": -2.7461154
},
{
  "type": "node",
  "id": 1768891741,
  "lat": 47.6668803,
  "lon": -2.7461430
},
{
  "type": "node",
  "id": 1768918848,
  "lat": 47.6660807,
  "lon": -2.7485359
},
{
  "type": "node",
  "id": 1790321048,
  "lat": 47.6668529,
  "lon": -2.7459590
},
{
  "type": "node",
  "id": 1790321049,
  "lat": 47.6668912,
  "lon": -2.7460857
},
{
  "type": "node",
  "id": 1790554620,
  "lat": 47.6624541,
  "lon": -2.7519414
},
{
  "type": "node",
  "id": 1790554635,
  "lat": 47.6627806,
  "lon": -2.7516518
},
{
  "type": "node",
  "id": 1790554637,
  "lat": 47.6629475,
  "lon": -2.7515219
},
{
  "type": "node",
  "id": 3043633606,
  "lat": 47.6630193,
  "lon": -2.7513876
},
{
  "type": "node",
  "id": 8386371305,
  "lat": 47.6621387,
  "lon": -2.7524093
},
{
  "type": "node",
  "id": 8386371306,
  "lat": 47.6622899,
  "lon": -2.7521784
},
{
  "type": "node",
  "id": 8389573739,
  "lat": 47.6626263,
  "lon": -2.7517798
},
{
  "type": "node",
  "id": 8414685076,
  "lat": 47.6625001,
  "lon": -2.7518944
},
{
  "type": "node",
  "id": 9461448731,
  "lat": 47.6660521,
  "lon": -2.7487171
},
{
  "type": "node",
  "id": 9461448732,
  "lat": 47.6660600,
  "lon": -2.7486820
},
{
  "type": "node",
  "id": 9461448733,
  "lat": 47.6660831,
  "lon": -2.7486158
},
{
  "type": "node",
  "id": 9461448734,
  "lat": 47.6659431,
  "lon": -2.7486475
},
{
  "type": "node",
  "id": 9461448735,
  "lat": 47.6660042,
  "lon": -2.7486058
},
{
  "type": "node",
  "id": 9461448736,
  "lat": 47.6660408,
  "lon": -2.7485765
},
{
  "type": "node",
  "id": 9461448737,
  "lat": 47.6661122,
  "lon": -2.7485159
},
{
  "type": "node",
  "id": 134394149,
  "lat": 47.6670780,
  "lon": -2.7438820
},
{
  "type": "node",
  "id": 1768891742,
  "lat": 47.6668902,
  "lon": -2.7457279
},
{
  "type": "node",
  "id": 1768891743,
  "lat": 47.6669264,
  "lon": -2.7453909
},
{
  "type": "node",
  "id": 1768891744,
  "lat": 47.6669563,
  "lon": -2.7457444
},
{
  "type": "node",
  "id": 1768891745,
  "lat": 47.6669768,
  "lon": -2.7448814
},
{
  "type": "node",
  "id": 1768891746,
  "lat": 47.6669871,
  "lon": -2.7455004
},
{
  "type": "node",
  "id": 1768891747,
  "lat": 47.6670218,
  "lon": -2.7452249
},
{
  "type": "node",
  "id": 1768891748,
  "lat": 47.6670240,
  "lon": -2.7443653
},
{
  "type": "node",
  "id": 1768891762,
  "lat": 47.6670539,
  "lon": -2.7448094
},
{
  "type": "node",
  "id": 1768891765,
  "lat": 47.6670710,
  "lon": -2.7445885
},
{
  "type": "node",
  "id": 1768909062,
  "lat": 47.6670801,
  "lon": -2.7443791
},
{
  "type": "node",
  "id": 6169313125,
  "lat": 47.6668794,
  "lon": -2.7424121
},
{
  "type": "node",
  "id": 7823702137,
  "lat": 47.6667521,
  "lon": -2.7423167
},
{
  "type": "node",
  "id": 9461418516,
  "lat": 47.6669981,
  "lon": -2.7422672
},
{
  "type": "node",
  "id": 9461429717,
  "lat": 47.6669444,
  "lon": -2.7422892
},
{
  "type": "node",
  "id": 9461429718,
  "lat": 47.6668794,
  "lon": -2.7423039
},
{
  "type": "node",
  "id": 9461429719,
  "lat": 47.6668460,
  "lon": -2.7423133
},
{
  "type": "node",
  "id": 9461429720,
  "lat": 47.6669907,
  "lon": -2.7424831
},
{
  "type": "node",
  "id": 9461429723,
  "lat": 47.6669201,
  "lon": -2.7424327
},
{
  "type": "node",
  "id": 1829968622,
  "lat": 47.6707378,
  "lon": -2.7454176
},
{
  "type": "node",
  "id": 2368930878,
  "lat": 47.6708791,
  "lon": -2.7454343
},
{
  "type": "node",
  "id": 9312713245,
  "lat": 47.6706774,
  "lon": -2.7453999
},
{
  "type": "node",
  "id": 134394132,
  "lat": 47.6647540,
  "lon": -2.7373969
},
{
  "type": "node",
  "id": 9312682324,
  "lat": 47.6648458,
  "lon": -2.7373266
},
{
  "type": "node",
  "id": 363457713,
  "lat": 47.6634093,
  "lon": -2.7263279
},
{
  "type": "node",
  "id": 2295597011,
  "lat": 47.6634787,
  "lon": -2.7265924
},
{
  "type": "node",
  "id": 2295597013,
  "lat": 47.6632120,
  "lon": -2.7265751
},
{
  "type": "node",
  "id": 2779822848,
  "lat": 47.6633302,
  "lon": -2.7264766
},
{
  "type": "node",
  "id": 2779822850,
  "lat": 47.6633295,
  "lon": -2.7265718
},
{
  "type": "node",
  "id": 9373534020,
  "lat": 47.6632064,
  "lon": -2.7299812
},
{
  "type": "node",
  "id": 9373534021,
  "lat": 47.6631176,
  "lon": -2.7297460
},
{
  "type": "node",
  "id": 2076890552,
  "lat": 47.6618400,
  "lon": -2.7256309
},
{
  "type": "node",
  "id": 2076890556,
  "lat": 47.6619288,
  "lon": -2.7258811
},
{
  "type": "node",
  "id": 2295597016,
  "lat": 47.6622496,
  "lon": -2.7256404
},
{
  "type": "node",
  "id": 2779822847,
  "lat": 47.6620903,
  "lon": -2.7257327
},
{
  "type": "node",
  "id": 2779822851,
  "lat": 47.6619723,
  "lon": -2.7256593
},
{
  "type": "node",
  "id": 3376319175,
  "lat": 47.6619927,
  "lon": -2.7256579
},
{
  "type": "node",
  "id": 3376319177,
  "lat": 47.6620189,
  "lon": -2.7257990
}

  ]
}
