{
  "version": 0.6,
  "generator": "Overpass API 0.7.57.1 74a55df1",
  "osm3s": {
    "timestamp_osm_base": "2022-02-13T13:18:30Z",
    "timestamp_areas_base": "2022-02-13T02:36:10Z",
    "copyright": "The data included in this document is from www.openstreetmap.org. The data is made available under ODbL."
  },
  "elements": [

{
  "type": "way",
  "id": 13253934,
  "nodes": [
    6004898046,
    6207583989,
    250114830,
    5425591589,
    122363290,
    262147032,
    2680165945,
    122363275,
    5425591587,
    2680165871,
    5425591588,
    122363283,
    2680165924,
    260963689,
    2680165882,
    2680165937,
    122363257,
    6207583990,
    5425591590,
    5640234345,
    122363261,
    6207583991,
    2680165927,
    122363266,
    2680165914,
    2680165908,
    6004898046
  ],
  "tags": {
    "cycleway:right": "lane",
    "highway": "secondary",
    "junction": "roundabout",
    "maxspeed": "30",
    "name": "Rond-Point de Ty-Lann",
    "name:br": "Kroashent-tro Ti Lann",
    "source:maxspeed": "FR:zone30",
    "source:name:br": "ofis publik ar brezhoneg",
    "surface": "asphalt",
    "zone:maxspeed": "FR:30"
  }
},
{
  "type": "way",
  "id": 23152344,
  "nodes": [
    250117422,
    2664288316,
    2664288298,
    2664288255,
    2664288235,
    250117421
  ],
  "tags": {
    "cycleway:right": "lane",
    "highway": "secondary",
    "maxspeed": "50",
    "name": "Boulevard Yves Demaine",
    "name:br": "Boulouard Yves Demaine",
    "oneway": "yes",
    "source": "yahoo;cadastre-dgi-fr source : Direction Générale des Impôts - Cadastre. Mise à jour : 2006 (nom)",
    "source:name:br": "proper translation",
    "surface": "asphalt"
  }
},
{
  "type": "way",
  "id": 23152422,
  "nodes": [
    250117132,
    618684971,
    250117139,
    618684972,
    250117101,
    618684960,
    618684962,
    251351450,
    618684965,
    618684966,
    250117110,
    1839503296,
    618684967,
    250117114,
    250117119,
    262147076
  ],
  "tags": {
    "cycleway:right": "lane",
    "highway": "secondary",
    "junction": "roundabout",
    "maxspeed": "50",
    "name": "Place de Kernitra",
    "name:br": "Plasenn Kernitra",
    "source": "yahoo;cadastre-dgi-fr source : Direction Générale des Impôts - Cadastre. Mise à jour : 2006 (nom)",
    "source:name:br": "ofis publik ar brezhoneg",
    "surface": "paved"
  }
},
{
  "type": "way",
  "id": 23232817,
  "nodes": [
    250117417,
    2664288218,
    2664288232,
    250117424,
    2664288290,
    2664288321,
    250117422
  ],
  "tags": {
    "cycleway:right": "lane",
    "highway": "secondary",
    "maxspeed": "50",
    "name": "Boulevard Yves Demaine",
    "name:br": "Boulouard Yves Demaine",
    "oneway": "yes",
    "source": "yahoo;cadastre-dgi-fr source : Direction Générale des Impôts - Cadastre. Mise à jour : 2006 (nom)",
    "source:name:br": "proper translation",
    "surface": "asphalt"
  }
},
{
  "type": "way",
  "id": 23232842,
  "nodes": [
    250117412,
    2664288159,
    250117433,
    2664288094,
    2664288084,
    251351629
  ],
  "tags": {
    "cycleway:right": "lane",
    "highway": "tertiary",
    "maxspeed": "50",
    "name": "Boulevard Yves Demaine",
    "name:br": "Boulouard Yves Demaine",
    "oneway": "yes",
    "source": "yahoo;cadastre-dgi-fr source : Direction Générale des Impôts - Cadastre. Mise à jour : 2006 (nom)",
    "source:name:br": "proper translation",
    "surface": "asphalt"
  }
},
{
  "type": "way",
  "id": 23232942,
  "nodes": [
    250117233,
    5417356019,
    5417356018,
    251351676,
    1911708354,
    1911708355,
    251351394,
    5422586121,
    251351391,
    836221399,
    2899308754,
    8367934577,
    2899308759
  ],
  "tags": {
    "cycleway:left": "opposite",
    "cycleway:right": "lane",
    "highway": "residential",
    "maxspeed": "30",
    "name": "Rue du Pleneno",
    "name:br": "Straed ar Plaenennoù",
    "oneway": "yes",
    "oneway:bicycle": "no",
    "sidewalk": "both",
    "source": "yahoo;cadastre-dgi-fr source : Direction Générale des Impôts - Cadastre. Mise à jour : 2006 (nom)",
    "source:maxspeed": "FR:zone30",
    "source:name:br": "proper translation",
    "surface": "asphalt",
    "zone:maxspeed": "FR:30"
  }
},
{
  "type": "way",
  "id": 23233022,
  "nodes": [
    250117834,
    2664288335,
    618684939,
    250117835,
    2664288327,
    618684940,
    250117836,
    618684941,
    2664288304,
    250117837,
    618684944,
    250117838,
    250117839,
    2664288264
  ],
  "tags": {
    "cycleway:right": "lane",
    "highway": "secondary",
    "junction": "roundabout",
    "maxspeed": "30",
    "name": "Rond-Point de la Convention",
    "name:br": "Kroashent-tro ar C'henemglev",
    "source": "yahoo;cadastre-dgi-fr source : Direction Générale des Impôts - Cadastre. Mise à jour : 2006 (nom)",
    "source:maxspeed": "FR:zone30",
    "source:name:br": "proper translation",
    "surface": "asphalt",
    "zone:maxspeed": "FR:30"
  }
},
{
  "type": "way",
  "id": 23627655,
  "nodes": [
    255947515,
    836221410,
    3046268941,
    3046268942,
    3046268944,
    255947520,
    3046269080,
    255947521,
    3046269089,
    255947522,
    3046269092,
    264377779,
    3046269087,
    255947516,
    3046268952,
    3046268947,
    255947517,
    255947518,
    3046268940,
    3046269078,
    255947519,
    255947515
  ],
  "tags": {
    "cycleway:right": "lane",
    "highway": "secondary",
    "junction": "roundabout",
    "maxspeed": "30",
    "name": "Rond-Point de l'Australie",
    "name:br": "Kroashent-tro Aostralia",
    "source:maxspeed": "FR:zone30",
    "source:name:br": "proper translation",
    "surface": "asphalt",
    "zone:maxspeed": "FR:30"
  }
},
{
  "type": "way",
  "id": 23627656,
  "nodes": [
    255947516,
    3046269082,
    3046269084,
    6637698933,
    3046269088,
    3046269093,
    3046268963,
    3046268965,
    3046268386,
    6637703325,
    3046268396,
    3046268406,
    3046268416,
    3046269100,
    3046269102,
    3046524100
  ],
  "tags": {
    "cycleway:right": "lane",
    "highway": "secondary",
    "maxspeed": "30",
    "maxspeed:type": "FR:urban",
    "name": "Boulevard Emmanuel Svob",
    "name:br": "Boulouard Emmanuel Svob",
    "oneway": "yes",
    "source:maxspeed": "FR:zone30",
    "surface": "asphalt",
    "zone:maxspeed": "FR:30"
  }
},
{
  "type": "way",
  "id": 23698034,
  "nodes": [
    256600594,
    256600599,
    1923381870,
    5640234332,
    255947552
  ],
  "tags": {
    "cycleway:right": "lane",
    "highway": "secondary",
    "maxspeed": "30",
    "name": "Boulevard de Normandie",
    "name:br": "Boulouard Normandi",
    "oneway": "yes",
    "ref": "D 724",
    "source": "Yahoo;cadastre-dgi-fr source : Direction Générale des Impôts - Cadastre. Mise à jour : 2006 (nom)",
    "source:maxspeed": "FR:zone30",
    "source:name:br": "proper translation",
    "surface": "asphalt",
    "zone:maxspeed": "FR:30"
  }
},
{
  "type": "way",
  "id": 24061230,
  "nodes": [
    261024754,
    2657498355,
    261024755,
    2657498358,
    261024756,
    2657498360,
    261024757,
    2657498362,
    261024758,
    2358413108,
    2657498364,
    261024759,
    2657498363,
    261024751,
    2657498361,
    261024752
  ],
  "tags": {
    "cycleway:right": "lane",
    "highway": "tertiary",
    "junction": "roundabout",
    "maxspeed": "30",
    "name": "Rond-Point de Saint-Armel",
    "name:br": "Kroashent-tro Sant-Armael",
    "source": "yahoo",
    "source:maxspeed": "FR:zone30",
    "source:name:br": "ofis publik ar brezhoneg",
    "surface": "asphalt",
    "zone:maxspeed": "FR:30"
  }
},
{
  "type": "way",
  "id": 24062983,
  "nodes": [
    261024757,
    261043513,
    5423517863,
    261043580,
    5423517864,
    261043515,
    9489044331,
    261043516
  ],
  "tags": {
    "cycleway:right": "lane",
    "highway": "tertiary",
    "maxspeed": "30",
    "name": "Rue Jean Cavaillès",
    "name:br": "Straed Jean Cavaillès",
    "source": "yahoo;cadastre-dgi-fr source : Direction Générale des Impôts - Cadastre. Mise à jour : 2006 (nom)",
    "source:name:br": "proper translation",
    "zone:maxspeed": "FR:30"
  }
},
{
  "type": "way",
  "id": 24154635,
  "nodes": [
    2664289890,
    261043556,
    4782966163,
    2664289958
  ],
  "tags": {
    "cycleway:right": "lane",
    "highway": "tertiary",
    "lanes": "1",
    "maxspeed": "30",
    "oneway": "yes",
    "source": "yahoo;cadastre-dgi-fr source : Direction Générale des Impôts - Cadastre. Mise à jour : 2006 (nom)",
    "zone:maxspeed": "FR:30"
  }
},
{
  "type": "way",
  "id": 24154636,
  "nodes": [
    261653470,
    261653473,
    261653474
  ],
  "tags": {
    "cycleway:right": "lane",
    "highway": "tertiary",
    "maxspeed": "30",
    "name": "Rue du Bois du Château",
    "name:br": "Straed Koad ar C'hastell",
    "oneway": "yes",
    "source": "yahoo;cadastre-dgi-fr source : Direction Générale des Impôts - Cadastre. Mise à jour : 2006 (nom)",
    "source:maxspeed": "FR:zone30",
    "source:name:br": "proper translation",
    "zone:maxspeed": "FR:30"
  }
},
{
  "type": "way",
  "id": 24154637,
  "nodes": [
    260039385,
    5424878149,
    261653475,
    5424878154,
    261653469
  ],
  "tags": {
    "cycleway:right": "lane",
    "highway": "tertiary",
    "maxspeed": "30",
    "name": "Rue du Bois du Château",
    "name:br": "Straed Koad ar C'hastell",
    "oneway": "yes",
    "source": "yahoo;cadastre-dgi-fr source : Direction Générale des Impôts - Cadastre. Mise à jour : 2006 (nom)",
    "source:maxspeed": "FR:zone30",
    "source:name:br": "proper translation",
    "zone:maxspeed": "FR:30"
  }
},
{
  "type": "way",
  "id": 24154638,
  "nodes": [
    261653469,
    5424878150,
    5424878156,
    261653470
  ],
  "tags": {
    "cycleway:right": "lane",
    "highway": "tertiary",
    "maxspeed": "30",
    "name": "Rue du Bois du Château",
    "name:br": "Straed Koad ar C'hastell",
    "oneway": "yes",
    "source": "yahoo;cadastre-dgi-fr source : Direction Générale des Impôts - Cadastre. Mise à jour : 2006 (nom)",
    "source:maxspeed": "FR:zone30",
    "source:name:br": "ofis publik ar brezhoneg",
    "zone:maxspeed": "FR:30"
  }
},
{
  "type": "way",
  "id": 24154639,
  "nodes": [
    261653474,
    5424878153,
    5424878155,
    5424878151,
    261653469
  ],
  "tags": {
    "cycleway:right": "lane",
    "highway": "residential",
    "maxspeed": "30",
    "name": "Rue du Bois du Château",
    "name:br": "Straed Koad ar C'hastell",
    "oneway": "yes",
    "source": "yahoo;cadastre-dgi-fr source : Direction Générale des Impôts - Cadastre. Mise à jour : 2006 (nom)",
    "source:maxspeed": "FR:zone30",
    "source:name:br": "ofis publik ar brezhoneg",
    "zone:maxspeed": "FR:30"
  }
},
{
  "type": "way",
  "id": 24154647,
  "nodes": [
    2664289837,
    261043554,
    2664289822,
    2664289789,
    5423516413,
    261653517,
    261653622
  ],
  "tags": {
    "cycleway:right": "lane",
    "highway": "residential",
    "lanes": "1",
    "maxspeed": "30",
    "name": "Rue Hector Berlioz",
    "name:br": "Straed Hector Berlioz",
    "oneway": "yes",
    "source": "yahoo;cadastre-dgi-fr source : Direction Générale des Impôts - Cadastre. Mise à jour : 2006 (nom)",
    "source:name:br": "ofis publik ar brezhoneg",
    "zone:maxspeed": "FR:30"
  }
},
{
  "type": "way",
  "id": 24156550,
  "nodes": [
    5421294071,
    261669119,
    5421294070,
    261669127
  ],
  "tags": {
    "cycleway:right": "lane",
    "highway": "service",
    "motor_vehicle": "no",
    "name": "Rue Pierre Costard",
    "name:br": "Straed Pierre Costard",
    "oneway": "no",
    "service": "driveway",
    "source": "yahoo;cadastre-dgi-fr source : Direction Générale des Impôts - Cadastre. Mise à jour : 2006 (nom)",
    "source:name:br": "proper translation",
    "surface": "asphalt"
  }
},
{
  "type": "way",
  "id": 24156562,
  "nodes": [
    255947533,
    261669144,
    6752915128
  ],
  "tags": {
    "cycleway:right": "lane",
    "highway": "secondary",
    "lanes": "2",
    "maxspeed": "30",
    "name": "Boulevard d'Oradour-sur-Glane",
    "name:br": "Boulouard Orador de Glana",
    "oneway": "yes",
    "source:maxspeed": "FR:zone30",
    "source:name:br": "proper translation",
    "zone:maxspeed": "FR:30"
  }
},
{
  "type": "way",
  "id": 24156564,
  "nodes": [
    4683640332,
    4683640320,
    4683640321,
    261669150,
    261669155,
    4683640330,
    6752926983
  ],
  "tags": {
    "cycleway:right": "lane",
    "highway": "secondary",
    "lanes": "2",
    "maxspeed": "30",
    "name": "Boulevard de Normandie",
    "name:br": "Boulouard Normandi",
    "oneway": "yes",
    "source:maxspeed": "FR:zone30",
    "source:name:br": "proper translation",
    "zone:maxspeed": "FR:30"
  }
},
{
  "type": "way",
  "id": 24211362,
  "nodes": [
    250117853,
    1538286630,
    2664288091,
    2664287986,
    262154018
  ],
  "tags": {
    "busway": "opposite_lane",
    "cycleway:left": "share_busway",
    "cycleway:right": "lane",
    "highway": "secondary",
    "maxspeed": "30",
    "name": "Rue du Général de la Bollardière",
    "name:br": "Straed ar Jeneral de la Bollardière",
    "oneway": "yes",
    "oneway:bicycle": "no",
    "source": "yahoo;cadastre-dgi-fr source : Direction Générale des Impôts - Cadastre. Mise à jour : 2006 (nom)",
    "source:maxspeed": "FR:zone30",
    "source:name:br": "proper translation",
    "zone:maxspeed": "FR:30"
  }
},
{
  "type": "way",
  "id": 24235906,
  "nodes": [
    250117445,
    3292239786
  ],
  "tags": {
    "cycleway:left": "track",
    "cycleway:right": "lane",
    "highway": "tertiary",
    "lanes": "4",
    "lanes:backward": "2",
    "lanes:forward": "2",
    "maxspeed": "50",
    "name": "Boulevard Yves Demaine",
    "name:br": "Boulouard Yves Demaine",
    "source": "yahoo;cadastre-dgi-fr source : Direction Générale des Impôts - Cadastre. Mise à jour : 2006 (nom)",
    "source:name:br": "proper translation",
    "surface": "asphalt"
  }
},
{
  "type": "way",
  "id": 24247348,
  "nodes": [
    262526910,
    3046523979,
    3046268423,
    3046268424,
    262526912
  ],
  "tags": {
    "cycleway:right": "lane",
    "highway": "residential",
    "maxspeed": "30",
    "name": "Rue Jenner",
    "name:br": "Straed Jenner",
    "source": "Yahoo;cadastre-dgi-fr source : Direction Générale des Impôts - Cadastre. Mise à jour : 2006 (nom)",
    "source:maxspeed": "FR:zone30",
    "source:name:br": "proper translation",
    "zone:maxspeed": "FR:30"
  }
},
{
  "type": "way",
  "id": 24272637,
  "nodes": [
    3315179411,
    3315179412,
    3315179413,
    264984114,
    3315179399,
    3315179400,
    3315179401,
    3315179402,
    262812446,
    3315179403,
    3315179404,
    3315179405,
    3315179406,
    3315179407,
    262812451,
    3315179408,
    3315179409,
    3315179410,
    262812455,
    3315179411
  ],
  "tags": {
    "cycleway:right": "lane",
    "highway": "tertiary",
    "junction": "roundabout",
    "maxspeed": "30",
    "source": "yahoo;cadastre-dgi-fr source : Direction Générale des Impôts - Cadastre. Mise à jour : 2006 (nom)",
    "source:maxspeed": "FR:zone30",
    "zone:maxspeed": "FR:30"
  }
},
{
  "type": "way",
  "id": 24272726,
  "nodes": [
    628997563,
    262812583
  ],
  "tags": {
    "cycleway:left": "track",
    "cycleway:right": "lane",
    "highway": "tertiary",
    "maxspeed": "30",
    "name": "Rue de Kervénanec",
    "name:br": "Straed Kerwenaneg",
    "ref": "D 185",
    "source": "cadastre-dgi-fr source : Direction Générale des Impôts - Cadastre;Conseil Général du Morbihan",
    "source:maxspeed": "sign;markings",
    "source:name:br": "proper translation",
    "surface": "asphalt",
    "website": "https://www.morbihan.fr/services/chantiers-routiers.aspx",
    "zone:maxspeed": "FR:30"
  }
},
{
  "type": "way",
  "id": 24273733,
  "nodes": [
    262823884,
    2619173319,
    2619173349,
    262823885,
    2619173289,
    2619173339,
    262823886,
    2619173323,
    262823887,
    262823889,
    2619173324,
    262823890,
    2619173262,
    2619173338,
    2619173249,
    262823892,
    2619173331,
    262823884
  ],
  "tags": {
    "cycleway:right": "lane",
    "highway": "residential",
    "junction": "roundabout",
    "maxspeed": "30",
    "source": "yahoo;cadastre-dgi-fr source : Direction Générale des Impôts - Cadastre. Mise à jour : 2006 (nom)",
    "source:maxspeed": "FR:zone30",
    "surface": "asphalt",
    "zone:maxspeed": "FR:30"
  }
},
{
  "type": "way",
  "id": 24397489,
  "nodes": [
    264788840,
    264788842,
    3268250169,
    3268250170,
    264788839,
    264788843,
    3268250163,
    3268250164,
    264788838,
    264788844,
    264788845,
    264788846,
    3268250165,
    264788841
  ],
  "tags": {
    "cycleway:right": "lane",
    "highway": "secondary",
    "junction": "roundabout",
    "lit": "yes",
    "maxspeed": "30",
    "maxspeed:type": "FR:urban",
    "source": "yahoo;cadastre-dgi-fr source : Direction Générale des Impôts - Cadastre. Mise à jour : 2006 (nom)",
    "source:maxspeed": "FR:zone30",
    "surface": "asphalt",
    "zone:maxspeed": "FR:30"
  }
},
{
  "type": "way",
  "id": 24408973,
  "nodes": [
    262812618,
    4616367173,
    262815781,
    3265925570,
    262812620,
    628997563
  ],
  "tags": {
    "cycleway:left": "track",
    "cycleway:right": "lane",
    "highway": "tertiary",
    "maxspeed": "30",
    "name": "Rue de Kervénanec",
    "name:br": "Straed Kerwenaneg",
    "ref": "D 185",
    "source": "Yahoo;cadastre-dgi-fr source : Direction Générale des Impôts - Cadastre. Mise à jour : 2006 (nom)",
    "source:maxspeed": "FR:zone30",
    "source:name:br": "proper translation",
    "surface": "asphalt",
    "zone:maxspeed": "FR:30"
  }
},
{
  "type": "way",
  "id": 48747250,
  "nodes": [
    2664289386,
    2664289359,
    2664289328,
    2664289314,
    5423517724,
    2664289180,
    2664289160,
    2664289139
  ],
  "tags": {
    "cycleway:right": "lane",
    "highway": "residential",
    "lanes": "1",
    "maxspeed": "30",
    "name": "Rue Mozart",
    "name:br": "Straed Mozart",
    "oneway": "yes",
    "source": "yahoo;cadastre-dgi-fr source : Direction Générale des Impôts - Cadastre. Mise à jour : 2006 (nom)",
    "source:name:br": "ofis publik ar brezhoneg",
    "zone:maxspeed": "FR:30"
  }
},
{
  "type": "way",
  "id": 48749216,
  "nodes": [
    261043612,
    8367948724,
    8367945216,
    2664289132,
    2664289154,
    261043662,
    261043611,
    261043664,
    261043610,
    2664289550,
    261043609,
    261043608,
    261043607,
    261043606
  ],
  "tags": {
    "cycleway:left": "opposite_lane",
    "cycleway:right": "lane",
    "highway": "residential",
    "maxspeed": "30",
    "name": "Rue de Kerulve",
    "name:br": "Straed Kerulve",
    "oneway": "yes",
    "oneway:bicycle": "no",
    "source": "yahoo;cadastre-dgi-fr source : Direction Générale des Impôts - Cadastre. Mise à jour : 2006 (nom)",
    "source:maxspeed": "FR:zone30",
    "source:name:br": "ofis publik ar brezhoneg",
    "zone:maxspeed": "FR:30"
  }
},
{
  "type": "way",
  "id": 48773006,
  "nodes": [
    4616367164,
    262812695,
    4616367165,
    262812696
  ],
  "tags": {
    "cycleway:right": "lane",
    "highway": "tertiary",
    "maxspeed": "30",
    "name": "Avenue Chenailler dit Colonel Morice",
    "name:br": "Bali Chenailler",
    "source": "yahoo;cadastre-dgi-fr source : Direction Générale des Impôts - Cadastre. Mise à jour : 2006 (nom)",
    "source:maxspeed": "FR:zone30",
    "source:name:br": "ofis publik ar brezhoneg",
    "surface": "asphalt",
    "zone:maxspeed": "FR:30"
  }
},
{
  "type": "way",
  "id": 51426795,
  "nodes": [
    3046524716,
    3046525040,
    3046524835,
    3046524103
  ],
  "tags": {
    "cycleway:right": "lane",
    "highway": "secondary",
    "maxspeed": "30",
    "maxspeed:type": "FR:urban",
    "name": "Boulevard Emmanuel Svob",
    "name:br": "Boulouard Emmanuel Svob",
    "oneway": "yes",
    "source:maxspeed": "FR:zone30",
    "source:name:br": "proper translation",
    "surface": "asphalt",
    "zone:maxspeed": "FR:30"
  }
},
{
  "type": "way",
  "id": 73545774,
  "nodes": [
    255947528,
    3046524005,
    871759855,
    3046524769,
    3046525142,
    3046524963,
    3046525087,
    3046525070,
    3046524717,
    3046525053,
    7714223341,
    3046524628,
    262526906,
    3046524111,
    3046524104
  ],
  "tags": {
    "cycleway:right": "lane",
    "highway": "secondary",
    "lanes": "1",
    "lit": "yes",
    "maxspeed": "30",
    "maxspeed:type": "FR:urban",
    "name": "Boulevard Léon Blum",
    "name:br": "Boulouard Léon Blum",
    "oneway": "yes",
    "source": "Yahoo;cadastre-dgi-fr source : Direction Générale des Impôts - Cadastre. Mise à jour : 2006 (nom)",
    "source:maxspeed": "FR:zone30",
    "source:name:br": "proper translation",
    "surface": "asphalt",
    "zone:maxspeed": "FR:30"
  }
},
{
  "type": "way",
  "id": 116455291,
  "nodes": [
    261669141,
    262111387,
    4683640301
  ],
  "tags": {
    "cycleway:right": "lane",
    "highway": "secondary",
    "maxspeed": "30",
    "name": "Boulevard de Normandie",
    "name:br": "Boulouard Normandi",
    "oneway": "yes",
    "ref": "D 724",
    "source": "yahoo;cadastre-dgi-fr source : Direction Générale des Impôts - Cadastre. Mise à jour : 2006 (nom)",
    "source:maxspeed": "FR:zone30",
    "source:name:br": "proper translation",
    "zone:maxspeed": "FR:30"
  }
},
{
  "type": "way",
  "id": 116506169,
  "nodes": [
    261669145,
    8372508445,
    4683640312,
    261669146,
    4683640311,
    4683640310,
    261669147,
    261669141
  ],
  "tags": {
    "cycleway:right": "lane",
    "highway": "secondary",
    "maxspeed": "30",
    "name": "Boulevard de Normandie",
    "name:br": "Boulouard Normandi",
    "oneway": "yes",
    "ref": "D 724",
    "source": "yahoo;cadastre-dgi-fr source : Direction Générale des Impôts - Cadastre. Mise à jour : 2006 (nom)",
    "source:maxspeed": "FR:zone30",
    "source:name:br": "proper translation",
    "zone:maxspeed": "FR:30"
  }
},
{
  "type": "way",
  "id": 173796530,
  "nodes": [
    264377870,
    2559991657,
    5430896212,
    264377875
  ],
  "tags": {
    "cycleway:left": "opposite_lane",
    "cycleway:right": "lane",
    "highway": "living_street",
    "name": "Rue Léo Le Bourgo",
    "name:br": "Straed Léo Le Bourgo",
    "oneway": "yes",
    "source": "yahoo;cadastre-dgi-fr source : Direction Générale des Impôts - Cadastre. Mise à jour : 2006 (nom)",
    "source:name:br": "proper translation",
    "surface": "paving_stones"
  }
},
{
  "type": "way",
  "id": 260854898,
  "nodes": [
    250117373,
    2664288685,
    2664288660,
    2664288644,
    250117377,
    250117379,
    250117381,
    250117405,
    2664288505,
    5637346709,
    2664288484,
    250117408
  ],
  "tags": {
    "cycleway:right": "lane",
    "highway": "secondary",
    "lanes": "2",
    "maxspeed": "50",
    "name": "Jean Le Maux",
    "name:br": "Jean Le Maux",
    "oneway": "no",
    "source": "yahoo;cadastre-dgi-fr source : Direction Générale des Impôts - Cadastre. Mise à jour : 2006 (nom)",
    "source:name:br": "proper translation",
    "surface": "asphalt"
  }
},
{
  "type": "way",
  "id": 260854899,
  "nodes": [
    2664288879,
    2664288884,
    2664288899,
    2664288912,
    2664288916,
    2664288924,
    2664288932,
    2664288934,
    2664288944,
    2664288950,
    2664288955,
    2664288952
  ],
  "tags": {
    "cycleway:right": "lane",
    "highway": "secondary",
    "junction": "roundabout",
    "lanes": "2",
    "maxspeed": "50",
    "name": "Rond-Point du Bourgneuf",
    "name:br": "Kroashent-tro ar Vourc'h Nevez",
    "source": "yahoo;cadastre-dgi-fr source : Direction Générale des Impôts - Cadastre. Mise à jour : 2006 (nom)",
    "source:name:br": "proper translation",
    "surface": "asphalt"
  }
},
{
  "type": "way",
  "id": 260854917,
  "nodes": [
    2664289141,
    2664289163,
    2664289183,
    2664289317,
    2664289336,
    2664289364,
    2664289404
  ],
  "tags": {
    "cycleway:right": "lane",
    "highway": "residential",
    "lanes": "1",
    "maxspeed": "30",
    "name": "Rue Mozart",
    "name:br": "Straed Mozart",
    "oneway": "yes",
    "source": "yahoo;cadastre-dgi-fr source : Direction Générale des Impôts - Cadastre. Mise à jour : 2006 (nom)",
    "source:name:br": "ofis publik ar brezhoneg",
    "zone:maxspeed": "FR:30"
  }
},
{
  "type": "way",
  "id": 260854930,
  "nodes": [
    2664288112,
    2664288136,
    2664288139,
    839340710,
    2664288134,
    250117853
  ],
  "tags": {
    "cycleway:left": "opposite_lane",
    "cycleway:right": "lane",
    "highway": "secondary",
    "maxspeed": "30",
    "name": "Rue de Kerforn",
    "name:br": "Straed Kerforn",
    "oneway": "yes",
    "source:maxspeed": "FR:zone30",
    "source:name:br": "proper translation",
    "zone:maxspeed": "FR:30"
  }
},
{
  "type": "way",
  "id": 260854963,
  "nodes": [
    2664289750,
    2664289739,
    2664289731,
    2664295522,
    2664289711,
    2664289697,
    2664289681,
    2664289658,
    2664295520,
    2664289644,
    2664289653,
    2664289668,
    2664289691,
    2664289700,
    2664289713,
    2664289734,
    2664289745,
    2664289760,
    2664289757,
    2664289750
  ],
  "tags": {
    "cycleway:right": "lane",
    "highway": "tertiary",
    "junction": "roundabout",
    "maxspeed": "30",
    "source": "yahoo;cadastre-dgi-fr source : Direction Générale des Impôts - Cadastre. Mise à jour : 2006 (nom)",
    "source:maxspeed": "FR:zone30",
    "zone:maxspeed": "FR:30"
  }
},
{
  "type": "way",
  "id": 260855002,
  "nodes": [
    2664289958,
    2664289927,
    2664289920
  ],
  "tags": {
    "cycleway:right": "lane",
    "highway": "tertiary",
    "lanes": "1",
    "maxspeed": "30",
    "oneway": "yes",
    "zone:maxspeed": "FR:30"
  }
},
{
  "type": "way",
  "id": 260855015,
  "nodes": [
    250117400,
    2664288854,
    2664288892,
    2664288905,
    2664288916
  ],
  "tags": {
    "cycleway:right": "lane",
    "highway": "secondary_link",
    "lanes": "2",
    "maxspeed": "50",
    "oneway": "yes",
    "surface": "asphalt"
  }
},
{
  "type": "way",
  "id": 260855021,
  "nodes": [
    2664288884,
    2664288870,
    2664288865,
    2664288859,
    2664288849,
    250117400
  ],
  "tags": {
    "cycleway:right": "lane",
    "highway": "secondary_link",
    "lanes": "2",
    "maxspeed": "50",
    "oneway": "yes",
    "source": "yahoo;cadastre-dgi-fr source : Direction Générale des Impôts - Cadastre. Mise à jour : 2006 (nom)",
    "surface": "asphalt"
  }
},
{
  "type": "way",
  "id": 260855022,
  "nodes": [
    2664290000,
    5423517924,
    2664290087,
    261043528
  ],
  "tags": {
    "cycleway:right": "lane",
    "highway": "tertiary",
    "lanes": "1",
    "maxspeed": "30",
    "name": "Rue du Président Kennedy",
    "name:br": "Straed ar Prezidant Kennedy",
    "oneway": "yes",
    "source:name:br": "ofis publik ar brezhoneg",
    "zone:maxspeed": "FR:30"
  }
},
{
  "type": "way",
  "id": 260855023,
  "nodes": [
    2664289723,
    2664289769,
    2664289818,
    2664289845,
    2664289875,
    2664289883
  ],
  "tags": {
    "cycleway:right": "lane",
    "highway": "residential",
    "lanes": "1",
    "maxspeed": "30",
    "name": "Rue Hector Berlioz",
    "name:br": "Straed Hector Berlioz",
    "oneway": "yes",
    "source": "yahoo;cadastre-dgi-fr source : Direction Générale des Impôts - Cadastre. Mise à jour : 2006 (nom)",
    "source:name:br": "ofis publik ar brezhoneg",
    "zone:maxspeed": "FR:30"
  }
},
{
  "type": "way",
  "id": 260855026,
  "nodes": [
    261043528,
    2664290090,
    2664290023
  ],
  "tags": {
    "cycleway:right": "lane",
    "highway": "tertiary",
    "lanes": "1",
    "maxspeed": "30",
    "name": "Rue du Président Kennedy",
    "name:br": "Straed ar Prezidant Kennedy",
    "oneway": "yes",
    "source": "yahoo;cadastre-dgi-fr source : Direction Générale des Impôts - Cadastre. Mise à jour : 2006 (nom)",
    "source:name:br": "ofis publik ar brezhoneg",
    "zone:maxspeed": "FR:30"
  }
},
{
  "type": "way",
  "id": 260855033,
  "nodes": [
    250117403,
    2664288704,
    2664288697,
    2664288693,
    2664288689,
    2664288687,
    2664288683,
    250117192
  ],
  "tags": {
    "cycleway:right": "lane",
    "highway": "secondary_link",
    "lanes": "1",
    "maxspeed": "50",
    "oneway": "yes",
    "source": "yahoo;cadastre-dgi-fr source : Direction Générale des Impôts - Cadastre. Mise à jour : 2006 (nom)",
    "surface": "asphalt"
  }
},
{
  "type": "way",
  "id": 260855034,
  "nodes": [
    2664288736,
    2664288726,
    2664288718,
    2664288710,
    2664288706,
    2664288712,
    2664288716,
    250117403
  ],
  "tags": {
    "cycleway:right": "lane",
    "highway": "secondary_link",
    "lanes": "1",
    "maxspeed": "50",
    "oneway": "yes",
    "surface": "asphalt"
  }
},
{
  "type": "way",
  "id": 286282666,
  "nodes": [
    2899308763,
    8367934073,
    2899308759,
    2899308757,
    2899308751,
    8372473290,
    251351670
  ],
  "tags": {
    "cycleway:right": "lane",
    "highway": "secondary",
    "lanes": "1",
    "maxspeed": "30",
    "name": "Rue de Belgique",
    "name:br": "Straed Belgia",
    "oneway": "yes",
    "ref": "D 765",
    "source:maxspeed": "FR:zone30",
    "source:name:br": "ofis publik ar brezhoneg",
    "zone:maxspeed": "FR:30"
  }
},
{
  "type": "way",
  "id": 286282668,
  "nodes": [
    251351670,
    8372473289,
    261043660,
    2899308752,
    2899308761,
    8367934074,
    2899308762,
    8367934072,
    2899308763
  ],
  "tags": {
    "cycleway:right": "lane",
    "highway": "secondary",
    "lanes": "2",
    "maxspeed": "30",
    "name": "Rue de Belgique",
    "name:br": "Straed Belgia",
    "oneway": "yes",
    "ref": "D 765",
    "source:maxspeed": "FR:zone30",
    "source:name:br": "proper translation",
    "zone:maxspeed": "FR:30"
  }
},
{
  "type": "way",
  "id": 300552294,
  "nodes": [
    3046523986,
    3046269098,
    3046269094,
    3046268411,
    8574423275,
    262539362,
    3046268390,
    2319297933,
    262539363,
    3046268961,
    3046268955,
    3046268954,
    3046268948,
    3046268946,
    3046268943,
    255947517
  ],
  "tags": {
    "cycleway:right": "lane",
    "highway": "secondary",
    "maxspeed": "30",
    "maxspeed:type": "FR:urban",
    "name": "Boulevard Emmanuel Svob",
    "name:br": "Boulouard Emmanuel Svob",
    "oneway": "yes",
    "source:maxspeed": "FR:zone30",
    "surface": "asphalt",
    "zone:maxspeed": "FR:30"
  }
},
{
  "type": "way",
  "id": 300579298,
  "nodes": [
    3046524104,
    3046524618,
    3046524704,
    3046525038,
    3046525048,
    262526907
  ],
  "tags": {
    "cycleway:right": "lane",
    "highway": "secondary",
    "maxspeed": "30",
    "maxspeed:type": "FR:urban",
    "name": "Boulevard Léon Blum",
    "name:br": "Boulouard Léon Blum",
    "oneway": "yes",
    "source": "Yahoo;cadastre-dgi-fr source : Direction Générale des Impôts - Cadastre. Mise à jour : 2006 (nom)",
    "source:maxspeed": "FR:zone30",
    "source:name:br": "proper translation",
    "surface": "asphalt",
    "zone:maxspeed": "FR:30"
  }
},
{
  "type": "way",
  "id": 300579301,
  "nodes": [
    3046524100,
    3046524102,
    3046524833,
    3046524836,
    3046524106,
    3046524108,
    3046524109,
    3046524107,
    3046524837,
    3046524834,
    3046524103,
    3046524101,
    3046524099,
    3046524739,
    3046524737,
    3046524736,
    3046523985,
    3046523986,
    3046524738,
    3046524740,
    3046524100
  ],
  "tags": {
    "cycleway:right": "lane",
    "highway": "secondary",
    "junction": "roundabout",
    "maxspeed": "30",
    "maxspeed:type": "FR:urban",
    "name": "Rond-Point de l'Irlande",
    "name:br": "Kroashent-tro Iwerzhon",
    "source:maxspeed": "FR:zone30",
    "source:name:br": "proper translation",
    "surface": "asphalt",
    "zone:maxspeed": "FR:30"
  }
},
{
  "type": "way",
  "id": 466938978,
  "nodes": [
    262815801,
    262815807,
    4616367164
  ],
  "tags": {
    "cycleway:right": "lane",
    "highway": "tertiary",
    "maxspeed": "30",
    "name": "Avenue Chenailler dit Colonel Morice",
    "name:br": "Bali Chenailler",
    "source": "yahoo;cadastre-dgi-fr source : Direction Générale des Impôts - Cadastre. Mise à jour : 2006 (nom)",
    "source:maxspeed": "FR:zone30",
    "source:name:br": "ofis publik ar brezhoneg",
    "zone:maxspeed": "FR:30"
  }
},
{
  "type": "way",
  "id": 467497041,
  "nodes": [
    4621106686,
    262812631,
    259561486
  ],
  "tags": {
    "cycleway:right": "lane",
    "highway": "tertiary",
    "maxspeed": "30",
    "name": "Boulevard Général Giraud",
    "name:br": "Boulouard Jeneral Giraud",
    "source": "Rotre500",
    "source:maxspeed": "sign;markings",
    "source:name:br": "proper translation",
    "surface": "asphalt",
    "zone:maxspeed": "FR:30"
  }
},
{
  "type": "way",
  "id": 474396878,
  "nodes": [
    4683640316,
    4683640317,
    4683640318,
    4683640319,
    4683640332
  ],
  "tags": {
    "cycleway:right": "lane",
    "highway": "secondary",
    "lanes": "1",
    "maxspeed": "30",
    "name": "Boulevard de Normandie",
    "name:br": "Boulouard Normandi",
    "oneway": "yes",
    "source:maxspeed": "FR:zone30",
    "source:name:br": "proper translation",
    "zone:maxspeed": "FR:30"
  }
},
{
  "type": "way",
  "id": 474396879,
  "nodes": [
    4683640301,
    4683640294,
    261669137
  ],
  "tags": {
    "cycleway:right": "lane",
    "highway": "secondary",
    "maxspeed": "30",
    "name": "Boulevard de Normandie",
    "name:br": "Boulouard Normandi",
    "oneway": "yes",
    "ref": "D 724",
    "source": "yahoo;cadastre-dgi-fr source : Direction Générale des Impôts - Cadastre. Mise à jour : 2006 (nom)",
    "source:maxspeed": "FR:zone30",
    "source:name:br": "proper translation",
    "zone:maxspeed": "FR:30"
  }
},
{
  "type": "way",
  "id": 474396880,
  "nodes": [
    261669137,
    4683640313,
    5424878522,
    4683640314,
    4683640315,
    4683640316
  ],
  "tags": {
    "cycleway:right": "lane",
    "highway": "secondary",
    "maxspeed": "30",
    "name": "Boulevard de Normandie",
    "name:br": "Boulouard Normandi",
    "oneway": "yes",
    "source:maxspeed": "FR:zone30",
    "source:name:br": "proper translation",
    "zone:maxspeed": "FR:30"
  }
},
{
  "type": "way",
  "id": 474396884,
  "nodes": [
    4683640308,
    5396632870,
    4683640309,
    255947533
  ],
  "tags": {
    "cycleway:right": "lane",
    "highway": "secondary",
    "lanes": "1",
    "maxspeed": "30",
    "name": "Boulevard d'Oradour-sur-Glane",
    "name:br": "Boulouard Orador de Glana",
    "oneway": "yes",
    "source:maxspeed": "FR:zone30",
    "source:name:br": "proper translation",
    "zone:maxspeed": "FR:30"
  }
},
{
  "type": "way",
  "id": 509275401,
  "nodes": [
    4868672226,
    7864006296
  ],
  "tags": {
    "access": "no",
    "bicycle": "yes",
    "bus": "yes",
    "cycleway:left": "track",
    "cycleway:right": "lane",
    "highway": "service",
    "lanes": "2",
    "name": "Rue Louis Yéquel",
    "name:br": "Straed Louis Yekel",
    "oneway": "no",
    "psv": "designated",
    "source:name:br": "proper translation",
    "surface": "asphalt"
  }
},
{
  "type": "way",
  "id": 560993591,
  "nodes": [
    5409725718,
    4683640308
  ],
  "tags": {
    "bridge": "yes",
    "cycleway:right": "lane",
    "highway": "secondary",
    "lanes": "1",
    "layer": "2",
    "maxspeed": "30",
    "name": "Boulevard d'Oradour-sur-Glane",
    "name:br": "Boulouard Orador de Glana",
    "oneway": "yes",
    "source:maxspeed": "FR:zone30",
    "source:name:br": "proper translation",
    "zone:maxspeed": "FR:30"
  }
},
{
  "type": "way",
  "id": 562597293,
  "nodes": [
    2664289404,
    2664289430,
    2664289436,
    2664289570,
    2664289723
  ],
  "tags": {
    "cycleway:right": "lane",
    "highway": "residential",
    "lanes": "1",
    "maxspeed": "30",
    "name": "Rue Hector Berlioz",
    "name:br": "Straed Hector Berlioz",
    "oneway": "yes",
    "source": "yahoo;cadastre-dgi-fr source : Direction Générale des Impôts - Cadastre. Mise à jour : 2006 (nom)",
    "source:name:br": "ofis publik ar brezhoneg",
    "zone:maxspeed": "FR:30"
  }
},
{
  "type": "way",
  "id": 562597294,
  "nodes": [
    261653622,
    261653621,
    261653516,
    2664289422,
    2664289386
  ],
  "tags": {
    "cycleway:right": "lane",
    "highway": "residential",
    "lanes": "1",
    "maxspeed": "30",
    "name": "Rue Hector Berlioz",
    "name:br": "Straed Hector Berlioz",
    "oneway": "yes",
    "source": "yahoo;cadastre-dgi-fr source : Direction Générale des Impôts - Cadastre. Mise à jour : 2006 (nom)",
    "source:name:br": "ofis publik ar brezhoneg",
    "zone:maxspeed": "FR:30"
  }
},
{
  "type": "way",
  "id": 562597328,
  "nodes": [
    261043516,
    5423517923,
    5423517922,
    5423517921,
    9489044410,
    5423517920,
    5423517919,
    5423517918,
    5423517917,
    5423517916,
    261043521
  ],
  "tags": {
    "cycleway:right": "lane",
    "highway": "tertiary",
    "maxspeed": "30",
    "name": "Rue Jean Cavaillès",
    "name:br": "Straed Jean Cavaillès",
    "oneway": "yes",
    "source": "yahoo;cadastre-dgi-fr source : Direction Générale des Impôts - Cadastre. Mise à jour : 2006 (nom)",
    "source:name:br": "proper translation",
    "zone:maxspeed": "FR:30"
  }
},
{
  "type": "way",
  "id": 562597329,
  "nodes": [
    261043519,
    5423517912,
    5423517913,
    5423517914,
    5423517911,
    261043518,
    9489044402,
    261043517,
    9489044405,
    261043516
  ],
  "tags": {
    "cycleway:right": "lane",
    "highway": "tertiary",
    "maxspeed": "30",
    "name": "Rue Jean Cavaillès",
    "name:br": "Straed Jean Cavaillès",
    "oneway": "yes",
    "source": "yahoo;cadastre-dgi-fr source : Direction Générale des Impôts - Cadastre. Mise à jour : 2006 (nom)",
    "source:name:br": "proper translation",
    "zone:maxspeed": "FR:30"
  }
},
{
  "type": "way",
  "id": 562597330,
  "nodes": [
    261043521,
    9489044408,
    261043520,
    5423517915,
    4782966180,
    261043519
  ],
  "tags": {
    "cycleway:right": "lane",
    "highway": "tertiary",
    "maxspeed": "30",
    "name": "Rue du Président Kennedy",
    "name:br": "Straed ar Prezidant Kennedy",
    "oneway": "yes",
    "source": "yahoo;cadastre-dgi-fr source : Direction Générale des Impôts - Cadastre. Mise à jour : 2006 (nom)",
    "source:name:br": "ofis publik ar brezhoneg",
    "zone:maxspeed": "FR:30"
  }
},
{
  "type": "way",
  "id": 564837141,
  "nodes": [
    3292239786,
    3345949071,
    262410344
  ],
  "tags": {
    "cycleway:left": "track",
    "cycleway:right": "lane",
    "highway": "tertiary",
    "lanes": "4",
    "lanes:backward": "1",
    "lanes:forward": "3",
    "lit": "yes",
    "maxspeed": "50",
    "name": "Boulevard Yves Demaine",
    "name:br": "Boulouard Yves Demaine",
    "source": "yahoo;cadastre-dgi-fr source : Direction Générale des Impôts - Cadastre. Mise à jour : 2006 (nom)",
    "source:name:br": "proper translation",
    "surface": "asphalt"
  }
},
{
  "type": "way",
  "id": 590839814,
  "nodes": [
    5640234331,
    5640234328,
    5640234330,
    5640234329,
    1911708353
  ],
  "tags": {
    "cycleway:right": "lane",
    "highway": "secondary",
    "maxspeed": "30",
    "name": "Boulevard de Normandie",
    "name:br": "Boulouard Normandi",
    "oneway": "yes",
    "ref": "D 724",
    "source:maxspeed": "FR:zone30",
    "source:name:br": "proper translation",
    "surface": "asphalt",
    "zone:maxspeed": "FR:30"
  }
},
{
  "type": "way",
  "id": 590839833,
  "nodes": [
    2664288897,
    2664288887,
    2664288876,
    2664288867,
    2664288879
  ],
  "tags": {
    "cycleway:right": "lane",
    "highway": "secondary",
    "junction": "roundabout",
    "lanes": "2",
    "maxspeed": "50",
    "name": "Rond-Point du Bourgneuf",
    "name:br": "Kroashent-tro ar Vourc'h Nevez",
    "source": "yahoo;cadastre-dgi-fr source : Direction Générale des Impôts - Cadastre. Mise à jour : 2006 (nom)",
    "source:name:br": "proper translation",
    "surface": "asphalt"
  }
},
{
  "type": "way",
  "id": 590839834,
  "nodes": [
    2664288930,
    2664288922,
    2664288914,
    2664288911,
    2664288903,
    2664288897
  ],
  "tags": {
    "cycleway:right": "lane",
    "highway": "secondary",
    "junction": "roundabout",
    "lanes": "2",
    "maxspeed": "50",
    "name": "Rond-Point du Bourgneuf",
    "name:br": "Kroashent-tro ar Vourc'h Nevez",
    "source": "yahoo;cadastre-dgi-fr source : Direction Générale des Impôts - Cadastre. Mise à jour : 2006 (nom)",
    "source:name:br": "proper translation",
    "surface": "asphalt"
  }
},
{
  "type": "way",
  "id": 590839835,
  "nodes": [
    2664288952,
    2664288947,
    2664288941,
    2664288930
  ],
  "tags": {
    "cycleway:right": "lane",
    "highway": "secondary",
    "junction": "roundabout",
    "lanes": "2",
    "maxspeed": "50",
    "name": "Rond-Point du Bourgneuf",
    "name:br": "Kroashent-tro ar Vourc'h Nevez",
    "source": "yahoo;cadastre-dgi-fr source : Direction Générale des Impôts - Cadastre. Mise à jour : 2006 (nom)",
    "source:name:br": "proper translation",
    "surface": "asphalt"
  }
},
{
  "type": "way",
  "id": 590839872,
  "nodes": [
    264788841,
    264788847,
    264788848,
    264788849,
    3268250166,
    3268250167,
    3268250168,
    264788840
  ],
  "tags": {
    "cycleway:right": "lane",
    "highway": "secondary",
    "junction": "roundabout",
    "lit": "yes",
    "maxspeed": "30",
    "maxspeed:type": "FR:urban",
    "source": "yahoo;cadastre-dgi-fr source : Direction Générale des Impôts - Cadastre. Mise à jour : 2006 (nom)",
    "source:maxspeed": "FR:zone30",
    "surface": "asphalt",
    "zone:maxspeed": "FR:30"
  }
},
{
  "type": "way",
  "id": 590839924,
  "nodes": [
    618684954,
    2664288330,
    2664288333,
    250117834
  ],
  "tags": {
    "cycleway:right": "lane",
    "highway": "secondary",
    "junction": "roundabout",
    "maxspeed": "30",
    "name": "Rond-Point de la Convention",
    "name:br": "Kroashent-tro ar C'henemglev",
    "source": "yahoo;cadastre-dgi-fr source : Direction Générale des Impôts - Cadastre. Mise à jour : 2006 (nom)",
    "source:maxspeed": "FR:zone30",
    "source:name:br": "proper translation",
    "surface": "asphalt",
    "zone:maxspeed": "FR:30"
  }
},
{
  "type": "way",
  "id": 590839925,
  "nodes": [
    2664288264,
    2664288261,
    250117840,
    2664288273,
    618684950,
    2664288284,
    250117841,
    2664288301,
    618684951,
    2664288310,
    250117842,
    618684954
  ],
  "tags": {
    "cycleway:right": "lane",
    "highway": "secondary",
    "junction": "roundabout",
    "maxspeed": "30",
    "name": "Rond-Point de la Convention",
    "name:br": "Kroashent-tro ar C'henemglev",
    "source": "yahoo;cadastre-dgi-fr source : Direction Générale des Impôts - Cadastre. Mise à jour : 2006 (nom)",
    "source:maxspeed": "FR:zone30",
    "source:name:br": "proper translation",
    "surface": "asphalt",
    "zone:maxspeed": "FR:30"
  }
},
{
  "type": "way",
  "id": 590839994,
  "nodes": [
    262147076,
    250117340,
    618684968,
    618684969,
    250117127,
    618684970,
    3244770526,
    250117132
  ],
  "tags": {
    "cycleway:right": "lane",
    "highway": "secondary",
    "junction": "roundabout",
    "maxspeed": "50",
    "name": "Place de Kernitra",
    "name:br": "Plasenn Kernitra",
    "source": "yahoo;cadastre-dgi-fr source : Direction Générale des Impôts - Cadastre. Mise à jour : 2006 (nom)",
    "source:name:br": "ofis publik ar brezhoneg",
    "surface": "paved"
  }
},
{
  "type": "way",
  "id": 590839999,
  "nodes": [
    261024752,
    2657498359,
    261024753,
    2657498356,
    261024754
  ],
  "tags": {
    "cycleway:right": "lane",
    "highway": "tertiary",
    "junction": "roundabout",
    "maxspeed": "30",
    "name": "Rond-Point de Saint-Armel",
    "name:br": "Kroashent-tro Sant-Armael",
    "source": "yahoo",
    "source:maxspeed": "FR:zone30",
    "source:name:br": "ofis publik ar brezhoneg",
    "surface": "asphalt",
    "zone:maxspeed": "FR:30"
  }
},
{
  "type": "way",
  "id": 663311581,
  "nodes": [
    250117373,
    2664288700,
    250117201,
    2664288728,
    261069886,
    261064705,
    2664288784,
    250117203,
    1877638286,
    250117206
  ],
  "tags": {
    "cycleway:right": "lane",
    "highway": "secondary",
    "junction": "roundabout",
    "lanes": "2",
    "maxspeed": "50",
    "maxspeed:type": "sign",
    "name": "Rond-Point du Pleneno",
    "name:br": "Kroashent-tro ar Plaenennoù",
    "source": "yahoo;cadastre-dgi-fr source : Direction Générale des Impôts - Cadastre. Mise à jour : 2006 (nom)",
    "source:name:br": "proper translation",
    "surface": "asphalt"
  }
},
{
  "type": "way",
  "id": 663311585,
  "nodes": [
    250117206,
    2664288802,
    250117184,
    2664288790,
    261064674,
    250117803,
    2664288736,
    2664288722,
    250117187,
    2664288695,
    250117192,
    261069925,
    2664288667,
    250117193,
    2664288663,
    250117197,
    8892063925,
    8892063926,
    250117373
  ],
  "tags": {
    "cycleway:right": "lane",
    "highway": "secondary",
    "junction": "roundabout",
    "lanes": "2",
    "maxspeed": "50",
    "name": "Rond-Point du Pleneno",
    "name:br": "Kroashent-tro ar Plaenennoù",
    "source": "yahoo;cadastre-dgi-fr source : Direction Générale des Impôts - Cadastre. Mise à jour : 2006 (nom)",
    "source:maxspeed": "sign",
    "source:name:br": "proper translation",
    "surface": "asphalt"
  }
},
{
  "type": "way",
  "id": 663314301,
  "nodes": [
    250117417,
    2664288215,
    250117419,
    2664288224,
    250117421,
    2664288221,
    250117409,
    2664288211,
    2664288201,
    250117411,
    2664288180,
    1839503295,
    250117412,
    2664288170,
    250117414,
    2664288176,
    250117416,
    2664288182,
    250117417
  ],
  "tags": {
    "cycleway:right": "lane",
    "highway": "secondary",
    "junction": "roundabout",
    "maxspeed": "50",
    "name": "Rond-Point Max Jacob",
    "name:br": "Kroashent-tro Max Jacob",
    "source": "yahoo;cadastre-dgi-fr source : Direction Générale des Impôts - Cadastre. Mise à jour : 2006 (nom)",
    "source:maxspeed": "sign",
    "source:name:br": "proper translation",
    "surface": "asphalt"
  }
},
{
  "type": "way",
  "id": 719306187,
  "nodes": [
    6752915128,
    5753287932,
    261669145
  ],
  "tags": {
    "cycleway": "asl",
    "cycleway:right": "lane",
    "highway": "secondary",
    "lanes": "2",
    "maxspeed": "30",
    "name": "Boulevard d'Oradour-sur-Glane",
    "name:br": "Boulouard Orador de Glana",
    "oneway": "yes",
    "source:maxspeed": "FR:zone30",
    "source:name:br": "proper translation",
    "zone:maxspeed": "FR:30"
  }
},
{
  "type": "way",
  "id": 719306671,
  "nodes": [
    6752926983,
    261669152,
    261669142
  ],
  "tags": {
    "cycleway": "asl",
    "cycleway:right": "lane",
    "highway": "secondary",
    "lanes": "2",
    "maxspeed": "30",
    "name": "Boulevard de Normandie",
    "name:br": "Boulouard Normandi",
    "oneway": "yes",
    "source:maxspeed": "FR:zone30",
    "source:name:br": "proper translation",
    "zone:maxspeed": "FR:30"
  }
},
{
  "type": "way",
  "id": 833476419,
  "nodes": [
    262410246,
    7780553491
  ],
  "tags": {
    "cycleway:right": "lane",
    "highway": "secondary",
    "maxspeed": "30",
    "name": "Boulevard Édouard Herriot",
    "name:br": "Boulouard Edouard Herriot",
    "oneway": "yes",
    "source:maxspeed": "FR:zone30",
    "source:name:br": "proper translation",
    "surface": "asphalt",
    "zone:maxspeed": "FR:30"
  }
},
{
  "type": "way",
  "id": 833476420,
  "nodes": [
    7780553491,
    7780553492,
    7780553493
  ],
  "tags": {
    "cycleway:right": "lane",
    "highway": "secondary",
    "lanes": "2",
    "maxspeed": "30",
    "name": "Boulevard Édouard Herriot",
    "name:br": "Boulouard Edouard Herriot",
    "oneway": "yes",
    "source:maxspeed": "FR:zone30",
    "source:name:br": "proper translation",
    "surface": "asphalt",
    "zone:maxspeed": "FR:30"
  }
},
{
  "type": "way",
  "id": 833476428,
  "nodes": [
    7780553493,
    7780553496
  ],
  "tags": {
    "cycleway:right": "lane",
    "highway": "secondary",
    "lanes": "2",
    "maxspeed": "30",
    "name": "Boulevard Édouard Herriot",
    "name:br": "Boulouard Edouard Herriot",
    "oneway": "yes",
    "source:maxspeed": "FR:zone30",
    "source:name:br": "proper translation",
    "surface": "asphalt",
    "zone:maxspeed": "FR:30"
  }
},
{
  "type": "way",
  "id": 842986873,
  "nodes": [
    7864006296,
    7864006298,
    7864006299,
    4868672227
  ],
  "tags": {
    "access": "no",
    "bicycle": "yes",
    "bus": "yes",
    "cycleway:left": "track",
    "cycleway:right": "lane",
    "embankment": "yes",
    "highway": "service",
    "lanes": "2",
    "name": "Rue Louis Yéquel",
    "name:br": "Straed Louis Yekel",
    "oneway": "no",
    "psv": "designated",
    "source:name:br": "proper translation",
    "surface": "asphalt"
  }
},
{
  "type": "way",
  "id": 938773266,
  "nodes": [
    5640234331,
    261669118,
    5421294071
  ],
  "tags": {
    "cycleway:right": "lane",
    "highway": "footway",
    "motor_vehicle": "no",
    "name": "Rue Pierre Costard",
    "name:br": "Straed Pierre Costard",
    "source": "yahoo;cadastre-dgi-fr source : Direction Générale des Impôts - Cadastre. Mise à jour : 2006 (nom)",
    "source:name:br": "proper translation",
    "surface": "asphalt"
  }
},
{
  "type": "way",
  "id": 954624353,
  "nodes": [
    261653470,
    5424878148,
    261653471,
    261653472
  ],
  "tags": {
    "cycleway:right": "lane",
    "highway": "residential",
    "maxspeed": "30",
    "name": "Rue du Bois du Château",
    "name:br": "Straed Koad ar C'hastell",
    "oneway": "yes",
    "source": "yahoo;cadastre-dgi-fr source : Direction Générale des Impôts - Cadastre. Mise à jour : 2006 (nom)",
    "source:maxspeed": "FR:zone30",
    "source:name:br": "ofis publik ar brezhoneg",
    "zone:maxspeed": "FR:30"
  }
},
{
  "type": "way",
  "id": 957540693,
  "nodes": [
    4868672227,
    4868672228,
    7864006300,
    5396632918
  ],
  "tags": {
    "access": "no",
    "bicycle": "yes",
    "bridge": "yes",
    "bus": "yes",
    "cycleway:left": "track",
    "cycleway:right": "lane",
    "embankment": "yes",
    "highway": "service",
    "lanes": "2",
    "layer": "1",
    "name": "Rue Louis Yéquel",
    "name:br": "Straed Louis Yekel",
    "oneway": "no",
    "psv": "designated",
    "source:name:br": "proper translation",
    "surface": "asphalt"
  }
},
{
  "type": "way",
  "id": 979815368,
  "nodes": [
    9064044305,
    9064083080,
    9064082931,
    9064044307,
    9064044312,
    9064044306
  ],
  "tags": {
    "cycleway:right": "lane",
    "highway": "service",
    "oneway": "yes",
    "service": "driveway"
  }
},
{
  "type": "way",
  "id": 979815373,
  "nodes": [
    9064082921,
    9064082922,
    9064083052,
    9064082923,
    9064082929,
    9064082927,
    9122785826,
    9122785859,
    9064082924
  ],
  "tags": {
    "cycleway:right": "lane",
    "highway": "service",
    "oneway": "yes",
    "service": "driveway"
  }
},
{
  "type": "area",
  "id": 3600030305,
  "tags": {
    "admin_level": "8",
    "boundary": "administrative",
    "capital": "7",
    "label:FR:history": "VAH",
    "name": "Lorient",
    "name:br": "An Oriant",
    "name:el": "Λοριάν",
    "name:fr": "Lorient",
    "name:ja": "ロリアン",
    "population": "57246",
    "population:date": "2019",
    "postal_code": "56100",
    "ref:INSEE": "56121",
    "source:population": "INSEE 2022",
    "source:postal_code": "La Poste - 12/2014",
    "type": "boundary",
    "wikidata": "Q71724",
    "wikipedia": "fr:Lorient"
  }
},
{
  "type": "node",
  "id": 262812618,
  "lat": 47.7371167,
  "lon": -3.3958753
},
{
  "type": "node",
  "id": 262812583,
  "lat": 47.7380940,
  "lon": -3.3900032
},
{
  "type": "node",
  "id": 262812620,
  "lat": 47.7374957,
  "lon": -3.3919814
},
{
  "type": "node",
  "id": 262812695,
  "lat": 47.7352598,
  "lon": -3.3894049
},
{
  "type": "node",
  "id": 262812696,
  "lat": 47.7349263,
  "lon": -3.3891158
},
{
  "type": "node",
  "id": 262815781,
  "lat": 47.7373125,
  "lon": -3.3938399
},
{
  "type": "node",
  "id": 262815801,
  "lat": 47.7357937,
  "lon": -3.3897837
},
{
  "type": "node",
  "id": 262815807,
  "lat": 47.7356965,
  "lon": -3.3897094
},
{
  "type": "node",
  "id": 628997563,
  "lat": 47.7377510,
  "lon": -3.3910892
},
{
  "type": "node",
  "id": 3265925570,
  "lat": 47.7374520,
  "lon": -3.3923540
},
{
  "type": "node",
  "id": 4616367164,
  "lat": 47.7354778,
  "lon": -3.3895569
},
{
  "type": "node",
  "id": 4616367165,
  "lat": 47.7350655,
  "lon": -3.3892518
},
{
  "type": "node",
  "id": 4616367173,
  "lat": 47.7372580,
  "lon": -3.3944067
},
{
  "type": "node",
  "id": 262823884,
  "lat": 47.7361575,
  "lon": -3.3818779
},
{
  "type": "node",
  "id": 262823885,
  "lat": 47.7361062,
  "lon": -3.3819746
},
{
  "type": "node",
  "id": 262823886,
  "lat": 47.7360378,
  "lon": -3.3819592
},
{
  "type": "node",
  "id": 262823887,
  "lat": 47.7360086,
  "lon": -3.3818951
},
{
  "type": "node",
  "id": 262823889,
  "lat": 47.7360071,
  "lon": -3.3818519
},
{
  "type": "node",
  "id": 262823890,
  "lat": 47.7360359,
  "lon": -3.3817786
},
{
  "type": "node",
  "id": 262823892,
  "lat": 47.7361408,
  "lon": -3.3817968
},
{
  "type": "node",
  "id": 2619173249,
  "lat": 47.7361185,
  "lon": -3.3817691
},
{
  "type": "node",
  "id": 2619173262,
  "lat": 47.7360619,
  "lon": -3.3817593
},
{
  "type": "node",
  "id": 2619173289,
  "lat": 47.7360827,
  "lon": -3.3819805
},
{
  "type": "node",
  "id": 2619173319,
  "lat": 47.7361495,
  "lon": -3.3819194
},
{
  "type": "node",
  "id": 2619173323,
  "lat": 47.7360209,
  "lon": -3.3819342
},
{
  "type": "node",
  "id": 2619173324,
  "lat": 47.7360167,
  "lon": -3.3818111
},
{
  "type": "node",
  "id": 2619173331,
  "lat": 47.7361545,
  "lon": -3.3818349
},
{
  "type": "node",
  "id": 2619173338,
  "lat": 47.7360908,
  "lon": -3.3817560
},
{
  "type": "node",
  "id": 2619173339,
  "lat": 47.7360591,
  "lon": -3.3819752
},
{
  "type": "node",
  "id": 2619173349,
  "lat": 47.7361315,
  "lon": -3.3819533
},
{
  "type": "node",
  "id": 262812446,
  "lat": 47.7483333,
  "lon": -3.3961814
},
{
  "type": "node",
  "id": 262812451,
  "lat": 47.7484562,
  "lon": -3.3961710
},
{
  "type": "node",
  "id": 262812455,
  "lat": 47.7484530,
  "lon": -3.3962989
},
{
  "type": "node",
  "id": 264984114,
  "lat": 47.7483660,
  "lon": -3.3963286
},
{
  "type": "node",
  "id": 3315179399,
  "lat": 47.7483469,
  "lon": -3.3963090
},
{
  "type": "node",
  "id": 3315179400,
  "lat": 47.7483330,
  "lon": -3.3962814
},
{
  "type": "node",
  "id": 3315179401,
  "lat": 47.7483257,
  "lon": -3.3962486
},
{
  "type": "node",
  "id": 3315179402,
  "lat": 47.7483258,
  "lon": -3.3962140
},
{
  "type": "node",
  "id": 3315179403,
  "lat": 47.7483483,
  "lon": -3.3961526
},
{
  "type": "node",
  "id": 3315179404,
  "lat": 47.7483689,
  "lon": -3.3961330
},
{
  "type": "node",
  "id": 3315179405,
  "lat": 47.7483928,
  "lon": -3.3961248
},
{
  "type": "node",
  "id": 3315179406,
  "lat": 47.7484171,
  "lon": -3.3961290
},
{
  "type": "node",
  "id": 3315179407,
  "lat": 47.7484391,
  "lon": -3.3961450
},
{
  "type": "node",
  "id": 3315179408,
  "lat": 47.7484660,
  "lon": -3.3962018
},
{
  "type": "node",
  "id": 3315179409,
  "lat": 47.7484688,
  "lon": -3.3962357
},
{
  "type": "node",
  "id": 3315179410,
  "lat": 47.7484643,
  "lon": -3.3962692
},
{
  "type": "node",
  "id": 3315179411,
  "lat": 47.7484351,
  "lon": -3.3963226
},
{
  "type": "node",
  "id": 3315179412,
  "lat": 47.7484130,
  "lon": -3.3963362
},
{
  "type": "node",
  "id": 3315179413,
  "lat": 47.7483891,
  "lon": -3.3963383
},
{
  "type": "node",
  "id": 262154018,
  "lat": 47.7526737,
  "lon": -3.3912644
},
{
  "type": "node",
  "id": 264788838,
  "lat": 47.7496818,
  "lon": -3.3945259
},
{
  "type": "node",
  "id": 264788839,
  "lat": 47.7497775,
  "lon": -3.3945127
},
{
  "type": "node",
  "id": 264788840,
  "lat": 47.7497999,
  "lon": -3.3943861
},
{
  "type": "node",
  "id": 264788841,
  "lat": 47.7496605,
  "lon": -3.3943502
},
{
  "type": "node",
  "id": 264788842,
  "lat": 47.7498040,
  "lon": -3.3944201
},
{
  "type": "node",
  "id": 264788843,
  "lat": 47.7497560,
  "lon": -3.3945334
},
{
  "type": "node",
  "id": 264788844,
  "lat": 47.7496615,
  "lon": -3.3944995
},
{
  "type": "node",
  "id": 264788845,
  "lat": 47.7496481,
  "lon": -3.3944646
},
{
  "type": "node",
  "id": 264788846,
  "lat": 47.7496434,
  "lon": -3.3944251
},
{
  "type": "node",
  "id": 264788847,
  "lat": 47.7496785,
  "lon": -3.3943252
},
{
  "type": "node",
  "id": 264788848,
  "lat": 47.7497007,
  "lon": -3.3943095
},
{
  "type": "node",
  "id": 264788849,
  "lat": 47.7497251,
  "lon": -3.3943045
},
{
  "type": "node",
  "id": 2664287986,
  "lat": 47.7527913,
  "lon": -3.3913437
},
{
  "type": "node",
  "id": 3268250163,
  "lat": 47.7497311,
  "lon": -3.3945430
},
{
  "type": "node",
  "id": 3268250164,
  "lat": 47.7497055,
  "lon": -3.3945404
},
{
  "type": "node",
  "id": 3268250165,
  "lat": 47.7496476,
  "lon": -3.3943855
},
{
  "type": "node",
  "id": 3268250166,
  "lat": 47.7497494,
  "lon": -3.3943108
},
{
  "type": "node",
  "id": 3268250167,
  "lat": 47.7497712,
  "lon": -3.3943277
},
{
  "type": "node",
  "id": 3268250168,
  "lat": 47.7497886,
  "lon": -3.3943536
},
{
  "type": "node",
  "id": 3268250169,
  "lat": 47.7498014,
  "lon": -3.3944544
},
{
  "type": "node",
  "id": 3268250170,
  "lat": 47.7497923,
  "lon": -3.3944861
},
{
  "type": "node",
  "id": 259561486,
  "lat": 47.7390660,
  "lon": -3.3808207
},
{
  "type": "node",
  "id": 262812631,
  "lat": 47.7391467,
  "lon": -3.3809048
},
{
  "type": "node",
  "id": 4621106686,
  "lat": 47.7393092,
  "lon": -3.3810579
},
{
  "type": "node",
  "id": 262410246,
  "lat": 47.7437966,
  "lon": -3.3811098
},
{
  "type": "node",
  "id": 7780553491,
  "lat": 47.7435272,
  "lon": -3.3809665
},
{
  "type": "node",
  "id": 7780553492,
  "lat": 47.7437109,
  "lon": -3.3809858
},
{
  "type": "node",
  "id": 7780553493,
  "lat": 47.7438546,
  "lon": -3.3809774
},
{
  "type": "node",
  "id": 7780553496,
  "lat": 47.7439302,
  "lon": -3.3810020
},
{
  "type": "node",
  "id": 250117445,
  "lat": 47.7522875,
  "lon": -3.3781515
},
{
  "type": "node",
  "id": 262410344,
  "lat": 47.7525468,
  "lon": -3.3772576
},
{
  "type": "node",
  "id": 3292239786,
  "lat": 47.7524099,
  "lon": -3.3777406
},
{
  "type": "node",
  "id": 3345949071,
  "lat": 47.7524970,
  "lon": -3.3774346
},
{
  "type": "node",
  "id": 255947528,
  "lat": 47.7526387,
  "lon": -3.3708327
},
{
  "type": "node",
  "id": 262526906,
  "lat": 47.7517774,
  "lon": -3.3713320
},
{
  "type": "node",
  "id": 262526907,
  "lat": 47.7519652,
  "lon": -3.3709442
},
{
  "type": "node",
  "id": 262526910,
  "lat": 47.7514126,
  "lon": -3.3716122
},
{
  "type": "node",
  "id": 262526912,
  "lat": 47.7514106,
  "lon": -3.3707891
},
{
  "type": "node",
  "id": 262539362,
  "lat": 47.7510983,
  "lon": -3.3685982
},
{
  "type": "node",
  "id": 871759855,
  "lat": 47.7524024,
  "lon": -3.3708629
},
{
  "type": "node",
  "id": 3046268411,
  "lat": 47.7512473,
  "lon": -3.3688716
},
{
  "type": "node",
  "id": 3046268416,
  "lat": 47.7512973,
  "lon": -3.3688074
},
{
  "type": "node",
  "id": 3046268423,
  "lat": 47.7513977,
  "lon": -3.3710457
},
{
  "type": "node",
  "id": 3046268424,
  "lat": 47.7514034,
  "lon": -3.3709286
},
{
  "type": "node",
  "id": 3046269094,
  "lat": 47.7514739,
  "lon": -3.3692890
},
{
  "type": "node",
  "id": 3046269098,
  "lat": 47.7515056,
  "lon": -3.3693461
},
{
  "type": "node",
  "id": 3046269100,
  "lat": 47.7515294,
  "lon": -3.3692226
},
{
  "type": "node",
  "id": 3046269102,
  "lat": 47.7515650,
  "lon": -3.3692880
},
{
  "type": "node",
  "id": 3046523979,
  "lat": 47.7513812,
  "lon": -3.3715083
},
{
  "type": "node",
  "id": 3046523985,
  "lat": 47.7515259,
  "lon": -3.3694244
},
{
  "type": "node",
  "id": 3046523986,
  "lat": 47.7515291,
  "lon": -3.3693902
},
{
  "type": "node",
  "id": 3046524005,
  "lat": 47.7525001,
  "lon": -3.3708515
},
{
  "type": "node",
  "id": 3046524099,
  "lat": 47.7515726,
  "lon": -3.3695355
},
{
  "type": "node",
  "id": 3046524100,
  "lat": 47.7515852,
  "lon": -3.3693054
},
{
  "type": "node",
  "id": 3046524101,
  "lat": 47.7515944,
  "lon": -3.3695461
},
{
  "type": "node",
  "id": 3046524102,
  "lat": 47.7516143,
  "lon": -3.3693004
},
{
  "type": "node",
  "id": 3046524103,
  "lat": 47.7516172,
  "lon": -3.3695475
},
{
  "type": "node",
  "id": 3046524104,
  "lat": 47.7516700,
  "lon": -3.3713709
},
{
  "type": "node",
  "id": 3046524106,
  "lat": 47.7516827,
  "lon": -3.3693656
},
{
  "type": "node",
  "id": 3046524107,
  "lat": 47.7516844,
  "lon": -3.3694777
},
{
  "type": "node",
  "id": 3046524108,
  "lat": 47.7516913,
  "lon": -3.3694021
},
{
  "type": "node",
  "id": 3046524109,
  "lat": 47.7516919,
  "lon": -3.3694407
},
{
  "type": "node",
  "id": 3046524111,
  "lat": 47.7517233,
  "lon": -3.3713574
},
{
  "type": "node",
  "id": 3046524618,
  "lat": 47.7518417,
  "lon": -3.3711997
},
{
  "type": "node",
  "id": 3046524628,
  "lat": 47.7518746,
  "lon": -3.3712478
},
{
  "type": "node",
  "id": 3046524704,
  "lat": 47.7518957,
  "lon": -3.3711223
},
{
  "type": "node",
  "id": 3046524716,
  "lat": 47.7520019,
  "lon": -3.3702058
},
{
  "type": "node",
  "id": 3046524717,
  "lat": 47.7520464,
  "lon": -3.3710827
},
{
  "type": "node",
  "id": 3046524736,
  "lat": 47.7515292,
  "lon": -3.3694586
},
{
  "type": "node",
  "id": 3046524737,
  "lat": 47.7515387,
  "lon": -3.3694901
},
{
  "type": "node",
  "id": 3046524738,
  "lat": 47.7515410,
  "lon": -3.3693530
},
{
  "type": "node",
  "id": 3046524739,
  "lat": 47.7515537,
  "lon": -3.3695165
},
{
  "type": "node",
  "id": 3046524740,
  "lat": 47.7515604,
  "lon": -3.3693237
},
{
  "type": "node",
  "id": 3046524769,
  "lat": 47.7523508,
  "lon": -3.3708746
},
{
  "type": "node",
  "id": 3046524833,
  "lat": 47.7516427,
  "lon": -3.3693106
},
{
  "type": "node",
  "id": 3046524834,
  "lat": 47.7516446,
  "lon": -3.3695364
},
{
  "type": "node",
  "id": 3046524835,
  "lat": 47.7516458,
  "lon": -3.3695796
},
{
  "type": "node",
  "id": 3046524836,
  "lat": 47.7516670,
  "lon": -3.3693348
},
{
  "type": "node",
  "id": 3046524837,
  "lat": 47.7516679,
  "lon": -3.3695122
},
{
  "type": "node",
  "id": 3046524963,
  "lat": 47.7522437,
  "lon": -3.3709100
},
{
  "type": "node",
  "id": 3046525038,
  "lat": 47.7519332,
  "lon": -3.3710469
},
{
  "type": "node",
  "id": 3046525040,
  "lat": 47.7519339,
  "lon": -3.3700862
},
{
  "type": "node",
  "id": 3046525048,
  "lat": 47.7519481,
  "lon": -3.3709996
},
{
  "type": "node",
  "id": 3046525053,
  "lat": 47.7519602,
  "lon": -3.3711710
},
{
  "type": "node",
  "id": 3046525070,
  "lat": 47.7520818,
  "lon": -3.3710485
},
{
  "type": "node",
  "id": 3046525087,
  "lat": 47.7521898,
  "lon": -3.3709443
},
{
  "type": "node",
  "id": 3046525142,
  "lat": 47.7522993,
  "lon": -3.3708864
},
{
  "type": "node",
  "id": 7714223341,
  "lat": 47.7518798,
  "lon": -3.3712432
},
{
  "type": "node",
  "id": 8574423275,
  "lat": 47.7512060,
  "lon": -3.3687958
},
{
  "type": "node",
  "id": 255947515,
  "lat": 47.7499329,
  "lon": -3.3663358
},
{
  "type": "node",
  "id": 255947516,
  "lat": 47.7501042,
  "lon": -3.3665310
},
{
  "type": "node",
  "id": 255947517,
  "lat": 47.7500227,
  "lon": -3.3665604
},
{
  "type": "node",
  "id": 255947518,
  "lat": 47.7499847,
  "lon": -3.3665416
},
{
  "type": "node",
  "id": 255947519,
  "lat": 47.7499258,
  "lon": -3.3663945
},
{
  "type": "node",
  "id": 255947520,
  "lat": 47.7500732,
  "lon": -3.3662343
},
{
  "type": "node",
  "id": 255947521,
  "lat": 47.7501174,
  "lon": -3.3662738
},
{
  "type": "node",
  "id": 255947522,
  "lat": 47.7501489,
  "lon": -3.3663576
},
{
  "type": "node",
  "id": 262539363,
  "lat": 47.7503086,
  "lon": -3.3672117
},
{
  "type": "node",
  "id": 264377779,
  "lat": 47.7501444,
  "lon": -3.3664533
},
{
  "type": "node",
  "id": 264377870,
  "lat": 47.7488609,
  "lon": -3.3654574
},
{
  "type": "node",
  "id": 264377875,
  "lat": 47.7485143,
  "lon": -3.3643726
},
{
  "type": "node",
  "id": 836221410,
  "lat": 47.7499496,
  "lon": -3.3662912
},
{
  "type": "node",
  "id": 2319297933,
  "lat": 47.7507922,
  "lon": -3.3680766
},
{
  "type": "node",
  "id": 2559991657,
  "lat": 47.7488168,
  "lon": -3.3653153
},
{
  "type": "node",
  "id": 3046268386,
  "lat": 47.7508410,
  "lon": -3.3680058
},
{
  "type": "node",
  "id": 3046268390,
  "lat": 47.7509538,
  "lon": -3.3683519
},
{
  "type": "node",
  "id": 3046268396,
  "lat": 47.7510066,
  "lon": -3.3682948
},
{
  "type": "node",
  "id": 3046268406,
  "lat": 47.7511402,
  "lon": -3.3685367
},
{
  "type": "node",
  "id": 3046268940,
  "lat": 47.7499535,
  "lon": -3.3665043
},
{
  "type": "node",
  "id": 3046268941,
  "lat": 47.7499745,
  "lon": -3.3662561
},
{
  "type": "node",
  "id": 3046268942,
  "lat": 47.7500054,
  "lon": -3.3662338
},
{
  "type": "node",
  "id": 3046268943,
  "lat": 47.7500349,
  "lon": -3.3666102
},
{
  "type": "node",
  "id": 3046268944,
  "lat": 47.7500393,
  "lon": -3.3662263
},
{
  "type": "node",
  "id": 3046268946,
  "lat": 47.7500469,
  "lon": -3.3666756
},
{
  "type": "node",
  "id": 3046268947,
  "lat": 47.7500513,
  "lon": -3.3665611
},
{
  "type": "node",
  "id": 3046268948,
  "lat": 47.7500605,
  "lon": -3.3667547
},
{
  "type": "node",
  "id": 3046268952,
  "lat": 47.7500790,
  "lon": -3.3665511
},
{
  "type": "node",
  "id": 3046268954,
  "lat": 47.7500870,
  "lon": -3.3668294
},
{
  "type": "node",
  "id": 3046268955,
  "lat": 47.7501646,
  "lon": -3.3669632
},
{
  "type": "node",
  "id": 3046268961,
  "lat": 47.7502432,
  "lon": -3.3670897
},
{
  "type": "node",
  "id": 3046268963,
  "lat": 47.7502901,
  "lon": -3.3670247
},
{
  "type": "node",
  "id": 3046268965,
  "lat": 47.7503581,
  "lon": -3.3671460
},
{
  "type": "node",
  "id": 3046269078,
  "lat": 47.7499330,
  "lon": -3.3664531
},
{
  "type": "node",
  "id": 3046269080,
  "lat": 47.7500968,
  "lon": -3.3662502
},
{
  "type": "node",
  "id": 3046269082,
  "lat": 47.7501027,
  "lon": -3.3665805
},
{
  "type": "node",
  "id": 3046269084,
  "lat": 47.7501098,
  "lon": -3.3666381
},
{
  "type": "node",
  "id": 3046269087,
  "lat": 47.7501282,
  "lon": -3.3664966
},
{
  "type": "node",
  "id": 3046269088,
  "lat": 47.7501342,
  "lon": -3.3667321
},
{
  "type": "node",
  "id": 3046269089,
  "lat": 47.7501373,
  "lon": -3.3663123
},
{
  "type": "node",
  "id": 3046269092,
  "lat": 47.7501513,
  "lon": -3.3664059
},
{
  "type": "node",
  "id": 3046269093,
  "lat": 47.7501646,
  "lon": -3.3668035
},
{
  "type": "node",
  "id": 5430896212,
  "lat": 47.7485518,
  "lon": -3.3644915
},
{
  "type": "node",
  "id": 6637698933,
  "lat": 47.7501236,
  "lon": -3.3666912
},
{
  "type": "node",
  "id": 6637703325,
  "lat": 47.7509755,
  "lon": -3.3682406
},
{
  "type": "node",
  "id": 9064044306,
  "lat": 47.7499780,
  "lon": -3.3558444
},
{
  "type": "node",
  "id": 9064044312,
  "lat": 47.7499719,
  "lon": -3.3557285
},
{
  "type": "node",
  "id": 9064082921,
  "lat": 47.7497812,
  "lon": -3.3558660
},
{
  "type": "node",
  "id": 9064082922,
  "lat": 47.7497636,
  "lon": -3.3554943
},
{
  "type": "node",
  "id": 122363257,
  "lat": 47.7659151,
  "lon": -3.4006071
},
{
  "type": "node",
  "id": 122363275,
  "lat": 47.7659015,
  "lon": -3.4009284
},
{
  "type": "node",
  "id": 122363283,
  "lat": 47.7658592,
  "lon": -3.4007104
},
{
  "type": "node",
  "id": 250117101,
  "lat": 47.7623362,
  "lon": -3.3962402
},
{
  "type": "node",
  "id": 250117110,
  "lat": 47.7620519,
  "lon": -3.3963290
},
{
  "type": "node",
  "id": 250117114,
  "lat": 47.7619824,
  "lon": -3.3961191
},
{
  "type": "node",
  "id": 250117119,
  "lat": 47.7619899,
  "lon": -3.3960334
},
{
  "type": "node",
  "id": 250117127,
  "lat": 47.7622050,
  "lon": -3.3958384
},
{
  "type": "node",
  "id": 250117132,
  "lat": 47.7623447,
  "lon": -3.3960125
},
{
  "type": "node",
  "id": 250117139,
  "lat": 47.7623568,
  "lon": -3.3961277
},
{
  "type": "node",
  "id": 250117340,
  "lat": 47.7620515,
  "lon": -3.3958958
},
{
  "type": "node",
  "id": 251351450,
  "lat": 47.7622087,
  "lon": -3.3963849
},
{
  "type": "node",
  "id": 260963689,
  "lat": 47.7658756,
  "lon": -3.4006624
},
{
  "type": "node",
  "id": 262147076,
  "lat": 47.7620148,
  "lon": -3.3959553
},
{
  "type": "node",
  "id": 618684960,
  "lat": 47.7623040,
  "lon": -3.3963066
},
{
  "type": "node",
  "id": 618684962,
  "lat": 47.7622603,
  "lon": -3.3963563
},
{
  "type": "node",
  "id": 618684965,
  "lat": 47.7621517,
  "lon": -3.3963897
},
{
  "type": "node",
  "id": 618684966,
  "lat": 47.7620963,
  "lon": -3.3963687
},
{
  "type": "node",
  "id": 618684967,
  "lat": 47.7619928,
  "lon": -3.3962041
},
{
  "type": "node",
  "id": 618684968,
  "lat": 47.7620981,
  "lon": -3.3958545
},
{
  "type": "node",
  "id": 618684969,
  "lat": 47.7621508,
  "lon": -3.3958348
},
{
  "type": "node",
  "id": 618684970,
  "lat": 47.7622641,
  "lon": -3.3958714
},
{
  "type": "node",
  "id": 618684971,
  "lat": 47.7623549,
  "lon": -3.3960691
},
{
  "type": "node",
  "id": 618684972,
  "lat": 47.7623505,
  "lon": -3.3961856
},
{
  "type": "node",
  "id": 1839503296,
  "lat": 47.7620165,
  "lon": -3.3962727
},
{
  "type": "node",
  "id": 2680165871,
  "lat": 47.7658570,
  "lon": -3.4008294
},
{
  "type": "node",
  "id": 2680165882,
  "lat": 47.7658870,
  "lon": -3.4006413
},
{
  "type": "node",
  "id": 2680165924,
  "lat": 47.7658663,
  "lon": -3.4006855
},
{
  "type": "node",
  "id": 2680165937,
  "lat": 47.7659003,
  "lon": -3.4006227
},
{
  "type": "node",
  "id": 3244770526,
  "lat": 47.7623125,
  "lon": -3.3959317
},
{
  "type": "node",
  "id": 5425591587,
  "lat": 47.7658741,
  "lon": -3.4008840
},
{
  "type": "node",
  "id": 5425591588,
  "lat": 47.7658519,
  "lon": -3.4007697
},
{
  "type": "node",
  "id": 250117187,
  "lat": 47.7573475,
  "lon": -3.3882684
},
{
  "type": "node",
  "id": 250117400,
  "lat": 47.7578769,
  "lon": -3.3895517
},
{
  "type": "node",
  "id": 250117403,
  "lat": 47.7574197,
  "lon": -3.3889105
},
{
  "type": "node",
  "id": 250117803,
  "lat": 47.7574436,
  "lon": -3.3882394
},
{
  "type": "node",
  "id": 250117834,
  "lat": 47.7551448,
  "lon": -3.3918292
},
{
  "type": "node",
  "id": 250117835,
  "lat": 47.7551188,
  "lon": -3.3919905
},
{
  "type": "node",
  "id": 250117836,
  "lat": 47.7550295,
  "lon": -3.3920899
},
{
  "type": "node",
  "id": 250117837,
  "lat": 47.7549160,
  "lon": -3.3920802
},
{
  "type": "node",
  "id": 250117838,
  "lat": 47.7548529,
  "lon": -3.3920078
},
{
  "type": "node",
  "id": 250117839,
  "lat": 47.7548320,
  "lon": -3.3919567
},
{
  "type": "node",
  "id": 250117840,
  "lat": 47.7548229,
  "lon": -3.3917940
},
{
  "type": "node",
  "id": 250117841,
  "lat": 47.7549119,
  "lon": -3.3916354
},
{
  "type": "node",
  "id": 250117842,
  "lat": 47.7550457,
  "lon": -3.3916316
},
{
  "type": "node",
  "id": 250117853,
  "lat": 47.7536664,
  "lon": -3.3918045
},
{
  "type": "node",
  "id": 618684939,
  "lat": 47.7551358,
  "lon": -3.3919402
},
{
  "type": "node",
  "id": 618684940,
  "lat": 47.7550642,
  "lon": -3.3920674
},
{
  "type": "node",
  "id": 618684941,
  "lat": 47.7549923,
  "lon": -3.3921000
},
{
  "type": "node",
  "id": 618684944,
  "lat": 47.7548814,
  "lon": -3.3920498
},
{
  "type": "node",
  "id": 618684950,
  "lat": 47.7548556,
  "lon": -3.3917000
},
{
  "type": "node",
  "id": 618684951,
  "lat": 47.7549794,
  "lon": -3.3916123
},
{
  "type": "node",
  "id": 618684954,
  "lat": 47.7550931,
  "lon": -3.3916771
},
{
  "type": "node",
  "id": 839340710,
  "lat": 47.7538077,
  "lon": -3.3895500
},
{
  "type": "node",
  "id": 1538286630,
  "lat": 47.7536322,
  "lon": -3.3917930
},
{
  "type": "node",
  "id": 2664288091,
  "lat": 47.7532314,
  "lon": -3.3915813
},
{
  "type": "node",
  "id": 2664288112,
  "lat": 47.7537933,
  "lon": -3.3893283
},
{
  "type": "node",
  "id": 2664288134,
  "lat": 47.7537868,
  "lon": -3.3901177
},
{
  "type": "node",
  "id": 2664288136,
  "lat": 47.7537998,
  "lon": -3.3893815
},
{
  "type": "node",
  "id": 2664288139,
  "lat": 47.7538054,
  "lon": -3.3894591
},
{
  "type": "node",
  "id": 2664288261,
  "lat": 47.7548176,
  "lon": -3.3918466
},
{
  "type": "node",
  "id": 2664288264,
  "lat": 47.7548201,
  "lon": -3.3918997
},
{
  "type": "node",
  "id": 2664288273,
  "lat": 47.7548358,
  "lon": -3.3917444
},
{
  "type": "node",
  "id": 2664288284,
  "lat": 47.7548813,
  "lon": -3.3916631
},
{
  "type": "node",
  "id": 2664288301,
  "lat": 47.7549457,
  "lon": -3.3916182
},
{
  "type": "node",
  "id": 2664288304,
  "lat": 47.7549545,
  "lon": -3.3920972
},
{
  "type": "node",
  "id": 2664288310,
  "lat": 47.7550132,
  "lon": -3.3916168
},
{
  "type": "node",
  "id": 2664288327,
  "lat": 47.7550945,
  "lon": -3.3920337
},
{
  "type": "node",
  "id": 2664288330,
  "lat": 47.7551183,
  "lon": -3.3917212
},
{
  "type": "node",
  "id": 2664288333,
  "lat": 47.7551359,
  "lon": -3.3917728
},
{
  "type": "node",
  "id": 2664288335,
  "lat": 47.7551446,
  "lon": -3.3918855
},
{
  "type": "node",
  "id": 2664288683,
  "lat": 47.7572519,
  "lon": -3.3883114
},
{
  "type": "node",
  "id": 2664288687,
  "lat": 47.7572638,
  "lon": -3.3884435
},
{
  "type": "node",
  "id": 2664288689,
  "lat": 47.7572650,
  "lon": -3.3885157
},
{
  "type": "node",
  "id": 2664288693,
  "lat": 47.7572768,
  "lon": -3.3886020
},
{
  "type": "node",
  "id": 2664288695,
  "lat": 47.7572882,
  "lon": -3.3882529
},
{
  "type": "node",
  "id": 2664288697,
  "lat": 47.7572969,
  "lon": -3.3886830
},
{
  "type": "node",
  "id": 2664288704,
  "lat": 47.7573336,
  "lon": -3.3887799
},
{
  "type": "node",
  "id": 2664288706,
  "lat": 47.7573407,
  "lon": -3.3885844
},
{
  "type": "node",
  "id": 2664288710,
  "lat": 47.7573502,
  "lon": -3.3884628
},
{
  "type": "node",
  "id": 2664288712,
  "lat": 47.7573538,
  "lon": -3.3886742
},
{
  "type": "node",
  "id": 2664288716,
  "lat": 47.7573715,
  "lon": -3.3887693
},
{
  "type": "node",
  "id": 2664288718,
  "lat": 47.7573763,
  "lon": -3.3883906
},
{
  "type": "node",
  "id": 2664288722,
  "lat": 47.7573997,
  "lon": -3.3882613
},
{
  "type": "node",
  "id": 2664288726,
  "lat": 47.7573999,
  "lon": -3.3883325
},
{
  "type": "node",
  "id": 2664288736,
  "lat": 47.7574349,
  "lon": -3.3882438
},
{
  "type": "node",
  "id": 2664288849,
  "lat": 47.7579437,
  "lon": -3.3896634
},
{
  "type": "node",
  "id": 2664288854,
  "lat": 47.7579591,
  "lon": -3.3896440
},
{
  "type": "node",
  "id": 2664288859,
  "lat": 47.7579733,
  "lon": -3.3897338
},
{
  "type": "node",
  "id": 2664288865,
  "lat": 47.7579910,
  "lon": -3.3897902
},
{
  "type": "node",
  "id": 2664288867,
  "lat": 47.7579962,
  "lon": -3.3900749
},
{
  "type": "node",
  "id": 2664288870,
  "lat": 47.7579969,
  "lon": -3.3898695
},
{
  "type": "node",
  "id": 2664288876,
  "lat": 47.7579979,
  "lon": -3.3901454
},
{
  "type": "node",
  "id": 2664288879,
  "lat": 47.7580075,
  "lon": -3.3900063
},
{
  "type": "node",
  "id": 2664288884,
  "lat": 47.7580308,
  "lon": -3.3899449
},
{
  "type": "node",
  "id": 2664288887,
  "lat": 47.7580041,
  "lon": -3.3901880
},
{
  "type": "node",
  "id": 2664288892,
  "lat": 47.7580277,
  "lon": -3.3897250
},
{
  "type": "node",
  "id": 2664288897,
  "lat": 47.7580386,
  "lon": -3.3902714
},
{
  "type": "node",
  "id": 2664288899,
  "lat": 47.7580644,
  "lon": -3.3898951
},
{
  "type": "node",
  "id": 2664288903,
  "lat": 47.7580745,
  "lon": -3.3903175
},
{
  "type": "node",
  "id": 2664288905,
  "lat": 47.7580822,
  "lon": -3.3897902
},
{
  "type": "node",
  "id": 2664288911,
  "lat": 47.7581175,
  "lon": -3.3903474
},
{
  "type": "node",
  "id": 2664288912,
  "lat": 47.7581059,
  "lon": -3.3898608
},
{
  "type": "node",
  "id": 2664288914,
  "lat": 47.7581643,
  "lon": -3.3903588
},
{
  "type": "node",
  "id": 2664288916,
  "lat": 47.7581520,
  "lon": -3.3898444
},
{
  "type": "node",
  "id": 2664288922,
  "lat": 47.7582114,
  "lon": -3.3903509
},
{
  "type": "node",
  "id": 2664288924,
  "lat": 47.7581994,
  "lon": -3.3898473
},
{
  "type": "node",
  "id": 2664288930,
  "lat": 47.7582553,
  "lon": -3.3903244
},
{
  "type": "node",
  "id": 2664288932,
  "lat": 47.7582444,
  "lon": -3.3898692
},
{
  "type": "node",
  "id": 2664288934,
  "lat": 47.7582841,
  "lon": -3.3899087
},
{
  "type": "node",
  "id": 2664288941,
  "lat": 47.7582927,
  "lon": -3.3902811
},
{
  "type": "node",
  "id": 2664288944,
  "lat": 47.7583150,
  "lon": -3.3899629
},
{
  "type": "node",
  "id": 2664288947,
  "lat": 47.7583209,
  "lon": -3.3902243
},
{
  "type": "node",
  "id": 2664288950,
  "lat": 47.7583341,
  "lon": -3.3900243
},
{
  "type": "node",
  "id": 2664288952,
  "lat": 47.7583377,
  "lon": -3.3901583
},
{
  "type": "node",
  "id": 2664288955,
  "lat": 47.7583419,
  "lon": -3.3900909
},
{
  "type": "node",
  "id": 250117184,
  "lat": 47.7575276,
  "lon": -3.3881358
},
{
  "type": "node",
  "id": 250117192,
  "lat": 47.7572220,
  "lon": -3.3881999
},
{
  "type": "node",
  "id": 250117193,
  "lat": 47.7571489,
  "lon": -3.3880339
},
{
  "type": "node",
  "id": 250117197,
  "lat": 47.7571488,
  "lon": -3.3878709
},
{
  "type": "node",
  "id": 250117201,
  "lat": 47.7573602,
  "lon": -3.3876358
},
{
  "type": "node",
  "id": 250117203,
  "lat": 47.7575496,
  "lon": -3.3878263
},
{
  "type": "node",
  "id": 250117206,
  "lat": 47.7575666,
  "lon": -3.3879735
},
{
  "type": "node",
  "id": 250117373,
  "lat": 47.7572756,
  "lon": -3.3876584
},
{
  "type": "node",
  "id": 250117377,
  "lat": 47.7569186,
  "lon": -3.3864566
},
{
  "type": "node",
  "id": 250117379,
  "lat": 47.7567829,
  "lon": -3.3861055
},
{
  "type": "node",
  "id": 250117381,
  "lat": 47.7565624,
  "lon": -3.3855917
},
{
  "type": "node",
  "id": 250117405,
  "lat": 47.7563791,
  "lon": -3.3851743
},
{
  "type": "node",
  "id": 250117408,
  "lat": 47.7562498,
  "lon": -3.3847289
},
{
  "type": "node",
  "id": 250117409,
  "lat": 47.7544318,
  "lon": -3.3837942
},
{
  "type": "node",
  "id": 250117411,
  "lat": 47.7542944,
  "lon": -3.3838816
},
{
  "type": "node",
  "id": 250117412,
  "lat": 47.7541368,
  "lon": -3.3837449
},
{
  "type": "node",
  "id": 250117414,
  "lat": 47.7541166,
  "lon": -3.3835444
},
{
  "type": "node",
  "id": 250117416,
  "lat": 47.7541942,
  "lon": -3.3833779
},
{
  "type": "node",
  "id": 250117417,
  "lat": 47.7543404,
  "lon": -3.3833397
},
{
  "type": "node",
  "id": 250117419,
  "lat": 47.7544524,
  "lon": -3.3834589
},
{
  "type": "node",
  "id": 250117421,
  "lat": 47.7544779,
  "lon": -3.3836602
},
{
  "type": "node",
  "id": 250117422,
  "lat": 47.7551838,
  "lon": -3.3837589
},
{
  "type": "node",
  "id": 250117424,
  "lat": 47.7546731,
  "lon": -3.3833815
},
{
  "type": "node",
  "id": 250117433,
  "lat": 47.7534901,
  "lon": -3.3831143
},
{
  "type": "node",
  "id": 251351629,
  "lat": 47.7530413,
  "lon": -3.3824236
},
{
  "type": "node",
  "id": 261064674,
  "lat": 47.7574874,
  "lon": -3.3881991
},
{
  "type": "node",
  "id": 261064705,
  "lat": 47.7574760,
  "lon": -3.3876925
},
{
  "type": "node",
  "id": 261069886,
  "lat": 47.7574473,
  "lon": -3.3876675
},
{
  "type": "node",
  "id": 261069925,
  "lat": 47.7571741,
  "lon": -3.3881200
},
{
  "type": "node",
  "id": 1839503295,
  "lat": 47.7541974,
  "lon": -3.3838387
},
{
  "type": "node",
  "id": 1877638286,
  "lat": 47.7575652,
  "lon": -3.3879099
},
{
  "type": "node",
  "id": 2664288084,
  "lat": 47.7531850,
  "lon": -3.3827115
},
{
  "type": "node",
  "id": 2664288094,
  "lat": 47.7533441,
  "lon": -3.3829531
},
{
  "type": "node",
  "id": 2664288159,
  "lat": 47.7540106,
  "lon": -3.3836505
},
{
  "type": "node",
  "id": 2664288170,
  "lat": 47.7541138,
  "lon": -3.3836475
},
{
  "type": "node",
  "id": 2664288176,
  "lat": 47.7541447,
  "lon": -3.3834501
},
{
  "type": "node",
  "id": 2664288180,
  "lat": 47.7542439,
  "lon": -3.3838702
},
{
  "type": "node",
  "id": 2664288182,
  "lat": 47.7542590,
  "lon": -3.3833376
},
{
  "type": "node",
  "id": 2664288201,
  "lat": 47.7543451,
  "lon": -3.3838720
},
{
  "type": "node",
  "id": 2664288211,
  "lat": 47.7543921,
  "lon": -3.3838421
},
{
  "type": "node",
  "id": 2664288215,
  "lat": 47.7544041,
  "lon": -3.3833832
},
{
  "type": "node",
  "id": 2664288218,
  "lat": 47.7544394,
  "lon": -3.3833417
},
{
  "type": "node",
  "id": 2664288221,
  "lat": 47.7544611,
  "lon": -3.3837320
},
{
  "type": "node",
  "id": 2664288224,
  "lat": 47.7544782,
  "lon": -3.3835559
},
{
  "type": "node",
  "id": 2664288232,
  "lat": 47.7545415,
  "lon": -3.3833466
},
{
  "type": "node",
  "id": 2664288235,
  "lat": 47.7545415,
  "lon": -3.3836132
},
{
  "type": "node",
  "id": 2664288255,
  "lat": 47.7548111,
  "lon": -3.3836206
},
{
  "type": "node",
  "id": 2664288290,
  "lat": 47.7549150,
  "lon": -3.3835235
},
{
  "type": "node",
  "id": 2664288298,
  "lat": 47.7549468,
  "lon": -3.3836381
},
{
  "type": "node",
  "id": 2664288316,
  "lat": 47.7550305,
  "lon": -3.3836729
},
{
  "type": "node",
  "id": 2664288321,
  "lat": 47.7550456,
  "lon": -3.3836381
},
{
  "type": "node",
  "id": 2664288484,
  "lat": 47.7562743,
  "lon": -3.3848277
},
{
  "type": "node",
  "id": 2664288505,
  "lat": 47.7563187,
  "lon": -3.3850009
},
{
  "type": "node",
  "id": 2664288644,
  "lat": 47.7570615,
  "lon": -3.3868421
},
{
  "type": "node",
  "id": 2664288660,
  "lat": 47.7571369,
  "lon": -3.3870800
},
{
  "type": "node",
  "id": 2664288663,
  "lat": 47.7571418,
  "lon": -3.3879408
},
{
  "type": "node",
  "id": 2664288667,
  "lat": 47.7571574,
  "lon": -3.3880718
},
{
  "type": "node",
  "id": 2664288685,
  "lat": 47.7572461,
  "lon": -3.3874979
},
{
  "type": "node",
  "id": 2664288700,
  "lat": 47.7573119,
  "lon": -3.3876421
},
{
  "type": "node",
  "id": 2664288728,
  "lat": 47.7574099,
  "lon": -3.3876467
},
{
  "type": "node",
  "id": 2664288784,
  "lat": 47.7575137,
  "lon": -3.3877424
},
{
  "type": "node",
  "id": 2664288790,
  "lat": 47.7575178,
  "lon": -3.3881512
},
{
  "type": "node",
  "id": 2664288802,
  "lat": 47.7575537,
  "lon": -3.3880628
},
{
  "type": "node",
  "id": 5637346709,
  "lat": 47.7562881,
  "lon": -3.3848828
},
{
  "type": "node",
  "id": 8892063925,
  "lat": 47.7571811,
  "lon": -3.3877723
},
{
  "type": "node",
  "id": 8892063926,
  "lat": 47.7572206,
  "lon": -3.3877000
},
{
  "type": "node",
  "id": 250117233,
  "lat": 47.7602755,
  "lon": -3.3896327
},
{
  "type": "node",
  "id": 251351676,
  "lat": 47.7603586,
  "lon": -3.3887259
},
{
  "type": "node",
  "id": 261043606,
  "lat": 47.7640048,
  "lon": -3.3895984
},
{
  "type": "node",
  "id": 261043607,
  "lat": 47.7637954,
  "lon": -3.3894708
},
{
  "type": "node",
  "id": 261043608,
  "lat": 47.7633390,
  "lon": -3.3889883
},
{
  "type": "node",
  "id": 261043609,
  "lat": 47.7630506,
  "lon": -3.3886961
},
{
  "type": "node",
  "id": 261043610,
  "lat": 47.7626652,
  "lon": -3.3884046
},
{
  "type": "node",
  "id": 261043611,
  "lat": 47.7624267,
  "lon": -3.3883176
},
{
  "type": "node",
  "id": 261043612,
  "lat": 47.7616549,
  "lon": -3.3883341
},
{
  "type": "node",
  "id": 261043662,
  "lat": 47.7620724,
  "lon": -3.3882931
},
{
  "type": "node",
  "id": 261043664,
  "lat": 47.7625728,
  "lon": -3.3883624
},
{
  "type": "node",
  "id": 2664289132,
  "lat": 47.7617519,
  "lon": -3.3882771
},
{
  "type": "node",
  "id": 2664289154,
  "lat": 47.7617988,
  "lon": -3.3882696
},
{
  "type": "node",
  "id": 2664289550,
  "lat": 47.7628341,
  "lon": -3.3884972
},
{
  "type": "node",
  "id": 5417356018,
  "lat": 47.7603451,
  "lon": -3.3890975
},
{
  "type": "node",
  "id": 5417356019,
  "lat": 47.7603161,
  "lon": -3.3894282
},
{
  "type": "node",
  "id": 8367945216,
  "lat": 47.7617279,
  "lon": -3.3882912
},
{
  "type": "node",
  "id": 8367948724,
  "lat": 47.7617163,
  "lon": -3.3882980
},
{
  "type": "node",
  "id": 251351391,
  "lat": 47.7606707,
  "lon": -3.3862890
},
{
  "type": "node",
  "id": 251351394,
  "lat": 47.7605957,
  "lon": -3.3863969
},
{
  "type": "node",
  "id": 251351670,
  "lat": 47.7608079,
  "lon": -3.3853419
},
{
  "type": "node",
  "id": 261043660,
  "lat": 47.7609049,
  "lon": -3.3855874
},
{
  "type": "node",
  "id": 836221399,
  "lat": 47.7609347,
  "lon": -3.3863033
},
{
  "type": "node",
  "id": 1911708354,
  "lat": 47.7603759,
  "lon": -3.3882109
},
{
  "type": "node",
  "id": 1911708355,
  "lat": 47.7605532,
  "lon": -3.3868340
},
{
  "type": "node",
  "id": 2664289644,
  "lat": 47.7630678,
  "lon": -3.3837032
},
{
  "type": "node",
  "id": 2664289653,
  "lat": 47.7630763,
  "lon": -3.3836604
},
{
  "type": "node",
  "id": 2664289658,
  "lat": 47.7630770,
  "lon": -3.3837904
},
{
  "type": "node",
  "id": 2664289668,
  "lat": 47.7630928,
  "lon": -3.3836231
},
{
  "type": "node",
  "id": 2664289681,
  "lat": 47.7630939,
  "lon": -3.3838273
},
{
  "type": "node",
  "id": 2664289691,
  "lat": 47.7631158,
  "lon": -3.3835945
},
{
  "type": "node",
  "id": 2664289697,
  "lat": 47.7631172,
  "lon": -3.3838553
},
{
  "type": "node",
  "id": 2664289700,
  "lat": 47.7631527,
  "lon": -3.3835743
},
{
  "type": "node",
  "id": 2664289711,
  "lat": 47.7631451,
  "lon": -3.3838720
},
{
  "type": "node",
  "id": 2664289713,
  "lat": 47.7631920,
  "lon": -3.3835763
},
{
  "type": "node",
  "id": 2664289731,
  "lat": 47.7632079,
  "lon": -3.3838648
},
{
  "type": "node",
  "id": 2664289734,
  "lat": 47.7632279,
  "lon": -3.3836003
},
{
  "type": "node",
  "id": 2664289739,
  "lat": 47.7632366,
  "lon": -3.3838382
},
{
  "type": "node",
  "id": 2664289745,
  "lat": 47.7632550,
  "lon": -3.3836426
},
{
  "type": "node",
  "id": 2664289750,
  "lat": 47.7632578,
  "lon": -3.3837991
},
{
  "type": "node",
  "id": 2664289757,
  "lat": 47.7632694,
  "lon": -3.3837518
},
{
  "type": "node",
  "id": 2664289760,
  "lat": 47.7632699,
  "lon": -3.3837016
},
{
  "type": "node",
  "id": 2664295520,
  "lat": 47.7630680,
  "lon": -3.3837478
},
{
  "type": "node",
  "id": 2664295522,
  "lat": 47.7631749,
  "lon": -3.3838760
},
{
  "type": "node",
  "id": 2899308751,
  "lat": 47.7609032,
  "lon": -3.3857490
},
{
  "type": "node",
  "id": 2899308752,
  "lat": 47.7609399,
  "lon": -3.3856917
},
{
  "type": "node",
  "id": 2899308754,
  "lat": 47.7609597,
  "lon": -3.3862993
},
{
  "type": "node",
  "id": 2899308757,
  "lat": 47.7610106,
  "lon": -3.3861327
},
{
  "type": "node",
  "id": 2899308759,
  "lat": 47.7610785,
  "lon": -3.3862771
},
{
  "type": "node",
  "id": 2899308761,
  "lat": 47.7610357,
  "lon": -3.3860526
},
{
  "type": "node",
  "id": 2899308762,
  "lat": 47.7611192,
  "lon": -3.3862751
},
{
  "type": "node",
  "id": 2899308763,
  "lat": 47.7611562,
  "lon": -3.3865042
},
{
  "type": "node",
  "id": 5422586121,
  "lat": 47.7606250,
  "lon": -3.3863211
},
{
  "type": "node",
  "id": 8367934072,
  "lat": 47.7611470,
  "lon": -3.3864471
},
{
  "type": "node",
  "id": 8367934073,
  "lat": 47.7611402,
  "lon": -3.3864575
},
{
  "type": "node",
  "id": 8367934074,
  "lat": 47.7610554,
  "lon": -3.3861051
},
{
  "type": "node",
  "id": 8367934577,
  "lat": 47.7610061,
  "lon": -3.3862906
},
{
  "type": "node",
  "id": 8372473289,
  "lat": 47.7608564,
  "lon": -3.3854407
},
{
  "type": "node",
  "id": 8372473290,
  "lat": 47.7608315,
  "lon": -3.3854579
},
{
  "type": "node",
  "id": 122363261,
  "lat": 47.7660378,
  "lon": -3.4005954
},
{
  "type": "node",
  "id": 122363266,
  "lat": 47.7661086,
  "lon": -3.4007099
},
{
  "type": "node",
  "id": 122363290,
  "lat": 47.7659993,
  "lon": -3.4009700
},
{
  "type": "node",
  "id": 250114830,
  "lat": 47.7660638,
  "lon": -3.4009313
},
{
  "type": "node",
  "id": 262147032,
  "lat": 47.7659646,
  "lon": -3.4009692
},
{
  "type": "node",
  "id": 2680165908,
  "lat": 47.7661118,
  "lon": -3.4008239
},
{
  "type": "node",
  "id": 2680165914,
  "lat": 47.7661159,
  "lon": -3.4007666
},
{
  "type": "node",
  "id": 2680165927,
  "lat": 47.7660951,
  "lon": -3.4006686
},
{
  "type": "node",
  "id": 2680165945,
  "lat": 47.7659313,
  "lon": -3.4009550
},
{
  "type": "node",
  "id": 5425591589,
  "lat": 47.7660329,
  "lon": -3.4009573
},
{
  "type": "node",
  "id": 5425591590,
  "lat": 47.7659628,
  "lon": -3.4005808
},
{
  "type": "node",
  "id": 5640234345,
  "lat": 47.7660010,
  "lon": -3.4005800
},
{
  "type": "node",
  "id": 6004898046,
  "lat": 47.7660967,
  "lon": -3.4008771
},
{
  "type": "node",
  "id": 6207583989,
  "lat": 47.7660820,
  "lon": -3.4009065
},
{
  "type": "node",
  "id": 6207583990,
  "lat": 47.7659381,
  "lon": -3.4005905
},
{
  "type": "node",
  "id": 6207583991,
  "lat": 47.7660700,
  "lon": -3.4006258
},
{
  "type": "node",
  "id": 261024751,
  "lat": 47.7669016,
  "lon": -3.3839529
},
{
  "type": "node",
  "id": 261024752,
  "lat": 47.7668375,
  "lon": -3.3839744
},
{
  "type": "node",
  "id": 261024753,
  "lat": 47.7667839,
  "lon": -3.3839199
},
{
  "type": "node",
  "id": 261024754,
  "lat": 47.7667738,
  "lon": -3.3838246
},
{
  "type": "node",
  "id": 261024755,
  "lat": 47.7667935,
  "lon": -3.3837714
},
{
  "type": "node",
  "id": 261024756,
  "lat": 47.7668280,
  "lon": -3.3837390
},
{
  "type": "node",
  "id": 261024757,
  "lat": 47.7668688,
  "lon": -3.3837354
},
{
  "type": "node",
  "id": 261024758,
  "lat": 47.7669110,
  "lon": -3.3837689
},
{
  "type": "node",
  "id": 261024759,
  "lat": 47.7669344,
  "lon": -3.3838678
},
{
  "type": "node",
  "id": 261043513,
  "lat": 47.7668762,
  "lon": -3.3836287
},
{
  "type": "node",
  "id": 261043515,
  "lat": 47.7671760,
  "lon": -3.3821897
},
{
  "type": "node",
  "id": 261043516,
  "lat": 47.7671840,
  "lon": -3.3818481
},
{
  "type": "node",
  "id": 261043580,
  "lat": 47.7670242,
  "lon": -3.3828297
},
{
  "type": "node",
  "id": 2358413108,
  "lat": 47.7669254,
  "lon": -3.3837979
},
{
  "type": "node",
  "id": 2657498355,
  "lat": 47.7667814,
  "lon": -3.3837961
},
{
  "type": "node",
  "id": 2657498356,
  "lat": 47.7667722,
  "lon": -3.3838738
},
{
  "type": "node",
  "id": 2657498358,
  "lat": 47.7668094,
  "lon": -3.3837519
},
{
  "type": "node",
  "id": 2657498359,
  "lat": 47.7668069,
  "lon": -3.3839554
},
{
  "type": "node",
  "id": 2657498360,
  "lat": 47.7668483,
  "lon": -3.3837333
},
{
  "type": "node",
  "id": 2657498361,
  "lat": 47.7668710,
  "lon": -3.3839736
},
{
  "type": "node",
  "id": 2657498362,
  "lat": 47.7668916,
  "lon": -3.3837475
},
{
  "type": "node",
  "id": 2657498363,
  "lat": 47.7669240,
  "lon": -3.3839155
},
{
  "type": "node",
  "id": 2657498364,
  "lat": 47.7669334,
  "lon": -3.3838318
},
{
  "type": "node",
  "id": 5423517863,
  "lat": 47.7669033,
  "lon": -3.3834821
},
{
  "type": "node",
  "id": 5423517864,
  "lat": 47.7671227,
  "lon": -3.3824389
},
{
  "type": "node",
  "id": 9489044331,
  "lat": 47.7671780,
  "lon": -3.3821045
},
{
  "type": "node",
  "id": 9489044405,
  "lat": 47.7671751,
  "lon": -3.3817304
},
{
  "type": "node",
  "id": 255947533,
  "lat": 47.7568234,
  "lon": -3.3717424
},
{
  "type": "node",
  "id": 261669137,
  "lat": 47.7591307,
  "lon": -3.3686620
},
{
  "type": "node",
  "id": 261669141,
  "lat": 47.7580289,
  "lon": -3.3711071
},
{
  "type": "node",
  "id": 261669142,
  "lat": 47.7575632,
  "lon": -3.3717825
},
{
  "type": "node",
  "id": 261669144,
  "lat": 47.7570447,
  "lon": -3.3716690
},
{
  "type": "node",
  "id": 261669145,
  "lat": 47.7575388,
  "lon": -3.3715493
},
{
  "type": "node",
  "id": 261669146,
  "lat": 47.7578078,
  "lon": -3.3714760
},
{
  "type": "node",
  "id": 261669147,
  "lat": 47.7579697,
  "lon": -3.3712410
},
{
  "type": "node",
  "id": 261669150,
  "lat": 47.7579562,
  "lon": -3.3715037
},
{
  "type": "node",
  "id": 261669152,
  "lat": 47.7577492,
  "lon": -3.3717021
},
{
  "type": "node",
  "id": 261669155,
  "lat": 47.7579081,
  "lon": -3.3715684
},
{
  "type": "node",
  "id": 262111387,
  "lat": 47.7580877,
  "lon": -3.3709644
},
{
  "type": "node",
  "id": 4683640294,
  "lat": 47.7590629,
  "lon": -3.3687436
},
{
  "type": "node",
  "id": 4683640301,
  "lat": 47.7586071,
  "lon": -3.3697937
},
{
  "type": "node",
  "id": 4683640308,
  "lat": 47.7563015,
  "lon": -3.3717230
},
{
  "type": "node",
  "id": 4683640309,
  "lat": 47.7565418,
  "lon": -3.3717584
},
{
  "type": "node",
  "id": 4683640310,
  "lat": 47.7579104,
  "lon": -3.3713505
},
{
  "type": "node",
  "id": 4683640311,
  "lat": 47.7578598,
  "lon": -3.3714256
},
{
  "type": "node",
  "id": 4683640312,
  "lat": 47.7577549,
  "lon": -3.3715006
},
{
  "type": "node",
  "id": 4683640313,
  "lat": 47.7590657,
  "lon": -3.3689109
},
{
  "type": "node",
  "id": 4683640314,
  "lat": 47.7588712,
  "lon": -3.3693729
},
{
  "type": "node",
  "id": 4683640315,
  "lat": 47.7587219,
  "lon": -3.3697046
},
{
  "type": "node",
  "id": 4683640316,
  "lat": 47.7586086,
  "lon": -3.3699788
},
{
  "type": "node",
  "id": 4683640317,
  "lat": 47.7584860,
  "lon": -3.3702695
},
{
  "type": "node",
  "id": 4683640318,
  "lat": 47.7583616,
  "lon": -3.3705697
},
{
  "type": "node",
  "id": 4683640319,
  "lat": 47.7582132,
  "lon": -3.3709152
},
{
  "type": "node",
  "id": 4683640320,
  "lat": 47.7580897,
  "lon": -3.3712387
},
{
  "type": "node",
  "id": 4683640321,
  "lat": 47.7580123,
  "lon": -3.3714075
},
{
  "type": "node",
  "id": 4683640330,
  "lat": 47.7578205,
  "lon": -3.3716500
},
{
  "type": "node",
  "id": 4683640332,
  "lat": 47.7581190,
  "lon": -3.3711587
},
{
  "type": "node",
  "id": 4868672227,
  "lat": 47.7542311,
  "lon": -3.3709647
},
{
  "type": "node",
  "id": 4868672228,
  "lat": 47.7542369,
  "lon": -3.3710599
},
{
  "type": "node",
  "id": 5396632870,
  "lat": 47.7563511,
  "lon": -3.3717303
},
{
  "type": "node",
  "id": 5396632918,
  "lat": 47.7542511,
  "lon": -3.3711366
},
{
  "type": "node",
  "id": 5409725718,
  "lat": 47.7561794,
  "lon": -3.3716921
},
{
  "type": "node",
  "id": 5424878522,
  "lat": 47.7589239,
  "lon": -3.3692478
},
{
  "type": "node",
  "id": 5753287932,
  "lat": 47.7572822,
  "lon": -3.3716115
},
{
  "type": "node",
  "id": 6752915128,
  "lat": 47.7572285,
  "lon": -3.3716232
},
{
  "type": "node",
  "id": 6752926983,
  "lat": 47.7577923,
  "lon": -3.3716693
},
{
  "type": "node",
  "id": 7864006296,
  "lat": 47.7545412,
  "lon": -3.3689201
},
{
  "type": "node",
  "id": 7864006298,
  "lat": 47.7544344,
  "lon": -3.3696251
},
{
  "type": "node",
  "id": 7864006299,
  "lat": 47.7543168,
  "lon": -3.3704013
},
{
  "type": "node",
  "id": 7864006300,
  "lat": 47.7542460,
  "lon": -3.3711091
},
{
  "type": "node",
  "id": 8372508445,
  "lat": 47.7576999,
  "lon": -3.3715130
},
{
  "type": "node",
  "id": 261043528,
  "lat": 47.7647613,
  "lon": -3.3805081
},
{
  "type": "node",
  "id": 261043554,
  "lat": 47.7636004,
  "lon": -3.3792486
},
{
  "type": "node",
  "id": 261043556,
  "lat": 47.7638885,
  "lon": -3.3792744
},
{
  "type": "node",
  "id": 261653516,
  "lat": 47.7625855,
  "lon": -3.3762088
},
{
  "type": "node",
  "id": 261653517,
  "lat": 47.7633229,
  "lon": -3.3783825
},
{
  "type": "node",
  "id": 261653621,
  "lat": 47.7628364,
  "lon": -3.3769377
},
{
  "type": "node",
  "id": 261653622,
  "lat": 47.7631664,
  "lon": -3.3779209
},
{
  "type": "node",
  "id": 2664289139,
  "lat": 47.7617627,
  "lon": -3.3760435
},
{
  "type": "node",
  "id": 2664289141,
  "lat": 47.7617678,
  "lon": -3.3759065
},
{
  "type": "node",
  "id": 2664289160,
  "lat": 47.7618305,
  "lon": -3.3760256
},
{
  "type": "node",
  "id": 2664289163,
  "lat": 47.7618352,
  "lon": -3.3759393
},
{
  "type": "node",
  "id": 2664289180,
  "lat": 47.7618885,
  "lon": -3.3760213
},
{
  "type": "node",
  "id": 2664289183,
  "lat": 47.7618902,
  "lon": -3.3759545
},
{
  "type": "node",
  "id": 2664289314,
  "lat": 47.7621774,
  "lon": -3.3760371
},
{
  "type": "node",
  "id": 2664289317,
  "lat": 47.7621799,
  "lon": -3.3759704
},
{
  "type": "node",
  "id": 2664289328,
  "lat": 47.7623231,
  "lon": -3.3760530
},
{
  "type": "node",
  "id": 2664289336,
  "lat": 47.7623271,
  "lon": -3.3759864
},
{
  "type": "node",
  "id": 2664289359,
  "lat": 47.7624450,
  "lon": -3.3760724
},
{
  "type": "node",
  "id": 2664289364,
  "lat": 47.7624531,
  "lon": -3.3760064
},
{
  "type": "node",
  "id": 2664289386,
  "lat": 47.7625042,
  "lon": -3.3760952
},
{
  "type": "node",
  "id": 2664289404,
  "lat": 47.7625212,
  "lon": -3.3760328
},
{
  "type": "node",
  "id": 2664289422,
  "lat": 47.7625480,
  "lon": -3.3761322
},
{
  "type": "node",
  "id": 2664289430,
  "lat": 47.7625786,
  "lon": -3.3760812
},
{
  "type": "node",
  "id": 2664289436,
  "lat": 47.7626255,
  "lon": -3.3761784
},
{
  "type": "node",
  "id": 2664289570,
  "lat": 47.7628765,
  "lon": -3.3769076
},
{
  "type": "node",
  "id": 2664289723,
  "lat": 47.7632066,
  "lon": -3.3778909
},
{
  "type": "node",
  "id": 2664289769,
  "lat": 47.7633629,
  "lon": -3.3783522
},
{
  "type": "node",
  "id": 2664289789,
  "lat": 47.7635082,
  "lon": -3.3789186
},
{
  "type": "node",
  "id": 2664289818,
  "lat": 47.7635489,
  "lon": -3.3788904
},
{
  "type": "node",
  "id": 2664289822,
  "lat": 47.7635757,
  "lon": -3.3791582
},
{
  "type": "node",
  "id": 2664289837,
  "lat": 47.7636222,
  "lon": -3.3794062
},
{
  "type": "node",
  "id": 2664289845,
  "lat": 47.7636325,
  "lon": -3.3791212
},
{
  "type": "node",
  "id": 2664289875,
  "lat": 47.7637036,
  "lon": -3.3792533
},
{
  "type": "node",
  "id": 2664289883,
  "lat": 47.7637427,
  "lon": -3.3793125
},
{
  "type": "node",
  "id": 2664289890,
  "lat": 47.7637655,
  "lon": -3.3793200
},
{
  "type": "node",
  "id": 2664289920,
  "lat": 47.7638487,
  "lon": -3.3794871
},
{
  "type": "node",
  "id": 2664289927,
  "lat": 47.7639367,
  "lon": -3.3793582
},
{
  "type": "node",
  "id": 2664289958,
  "lat": 47.7641356,
  "lon": -3.3791363
},
{
  "type": "node",
  "id": 2664290000,
  "lat": 47.7642479,
  "lon": -3.3807497
},
{
  "type": "node",
  "id": 2664290023,
  "lat": 47.7642873,
  "lon": -3.3808661
},
{
  "type": "node",
  "id": 2664290087,
  "lat": 47.7646180,
  "lon": -3.3805396
},
{
  "type": "node",
  "id": 2664290090,
  "lat": 47.7646138,
  "lon": -3.3805841
},
{
  "type": "node",
  "id": 4782966163,
  "lat": 47.7639148,
  "lon": -3.3792597
},
{
  "type": "node",
  "id": 5423516413,
  "lat": 47.7634492,
  "lon": -3.3787478
},
{
  "type": "node",
  "id": 5423517724,
  "lat": 47.7619761,
  "lon": -3.3760261
},
{
  "type": "node",
  "id": 5423517924,
  "lat": 47.7643568,
  "lon": -3.3807040
},
{
  "type": "node",
  "id": 4868672226,
  "lat": 47.7546368,
  "lon": -3.3682861
},
{
  "type": "node",
  "id": 255947552,
  "lat": 47.7607040,
  "lon": -3.3650803
},
{
  "type": "node",
  "id": 256600594,
  "lat": 47.7599816,
  "lon": -3.3659438
},
{
  "type": "node",
  "id": 256600599,
  "lat": 47.7600796,
  "lon": -3.3657371
},
{
  "type": "node",
  "id": 261669118,
  "lat": 47.7604768,
  "lon": -3.3654646
},
{
  "type": "node",
  "id": 261669119,
  "lat": 47.7604349,
  "lon": -3.3657194
},
{
  "type": "node",
  "id": 261669127,
  "lat": 47.7604502,
  "lon": -3.3659119
},
{
  "type": "node",
  "id": 1911708353,
  "lat": 47.7600705,
  "lon": -3.3659816
},
{
  "type": "node",
  "id": 1923381870,
  "lat": 47.7603176,
  "lon": -3.3654601
},
{
  "type": "node",
  "id": 5421294070,
  "lat": 47.7604434,
  "lon": -3.3657841
},
{
  "type": "node",
  "id": 5421294071,
  "lat": 47.7604541,
  "lon": -3.3655621
},
{
  "type": "node",
  "id": 5640234328,
  "lat": 47.7604127,
  "lon": -3.3654629
},
{
  "type": "node",
  "id": 5640234329,
  "lat": 47.7600755,
  "lon": -3.3659081
},
{
  "type": "node",
  "id": 5640234330,
  "lat": 47.7601350,
  "lon": -3.3657747
},
{
  "type": "node",
  "id": 5640234331,
  "lat": 47.7605205,
  "lon": -3.3653498
},
{
  "type": "node",
  "id": 5640234332,
  "lat": 47.7604880,
  "lon": -3.3652717
},
{
  "type": "node",
  "id": 261043517,
  "lat": 47.7671540,
  "lon": -3.3814535
},
{
  "type": "node",
  "id": 261043518,
  "lat": 47.7671320,
  "lon": -3.3812437
},
{
  "type": "node",
  "id": 261043519,
  "lat": 47.7670390,
  "lon": -3.3807445
},
{
  "type": "node",
  "id": 261043520,
  "lat": 47.7667456,
  "lon": -3.3806439
},
{
  "type": "node",
  "id": 261043521,
  "lat": 47.7665167,
  "lon": -3.3808011
},
{
  "type": "node",
  "id": 4782966180,
  "lat": 47.7669002,
  "lon": -3.3806295
},
{
  "type": "node",
  "id": 5423517911,
  "lat": 47.7671158,
  "lon": -3.3811630
},
{
  "type": "node",
  "id": 5423517912,
  "lat": 47.7670778,
  "lon": -3.3808206
},
{
  "type": "node",
  "id": 5423517913,
  "lat": 47.7671090,
  "lon": -3.3809205
},
{
  "type": "node",
  "id": 5423517914,
  "lat": 47.7671110,
  "lon": -3.3810465
},
{
  "type": "node",
  "id": 5423517915,
  "lat": 47.7668240,
  "lon": -3.3806239
},
{
  "type": "node",
  "id": 5423517916,
  "lat": 47.7665951,
  "lon": -3.3808091
},
{
  "type": "node",
  "id": 5423517917,
  "lat": 47.7667411,
  "lon": -3.3807783
},
{
  "type": "node",
  "id": 5423517918,
  "lat": 47.7668114,
  "lon": -3.3807756
},
{
  "type": "node",
  "id": 5423517919,
  "lat": 47.7668718,
  "lon": -3.3807944
},
{
  "type": "node",
  "id": 5423517920,
  "lat": 47.7669394,
  "lon": -3.3808440
},
{
  "type": "node",
  "id": 5423517921,
  "lat": 47.7670025,
  "lon": -3.3809312
},
{
  "type": "node",
  "id": 5423517922,
  "lat": 47.7670494,
  "lon": -3.3810478
},
{
  "type": "node",
  "id": 5423517923,
  "lat": 47.7670764,
  "lon": -3.3812182
},
{
  "type": "node",
  "id": 9489044402,
  "lat": 47.7671379,
  "lon": -3.3813003
},
{
  "type": "node",
  "id": 9489044408,
  "lat": 47.7667159,
  "lon": -3.3806643
},
{
  "type": "node",
  "id": 9489044410,
  "lat": 47.7669618,
  "lon": -3.3808750
},
{
  "type": "node",
  "id": 260039385,
  "lat": 47.7698555,
  "lon": -3.3741486
},
{
  "type": "node",
  "id": 261653469,
  "lat": 47.7693670,
  "lon": -3.3743564
},
{
  "type": "node",
  "id": 261653470,
  "lat": 47.7694175,
  "lon": -3.3739659
},
{
  "type": "node",
  "id": 261653471,
  "lat": 47.7693715,
  "lon": -3.3735991
},
{
  "type": "node",
  "id": 261653472,
  "lat": 47.7693059,
  "lon": -3.3733932
},
{
  "type": "node",
  "id": 261653473,
  "lat": 47.7694826,
  "lon": -3.3738801
},
{
  "type": "node",
  "id": 261653474,
  "lat": 47.7695654,
  "lon": -3.3738165
},
{
  "type": "node",
  "id": 261653475,
  "lat": 47.7695958,
  "lon": -3.3741506
},
{
  "type": "node",
  "id": 5424878148,
  "lat": 47.7694002,
  "lon": -3.3737711
},
{
  "type": "node",
  "id": 5424878149,
  "lat": 47.7696926,
  "lon": -3.3741303
},
{
  "type": "node",
  "id": 5424878150,
  "lat": 47.7694018,
  "lon": -3.3742220
},
{
  "type": "node",
  "id": 5424878151,
  "lat": 47.7694977,
  "lon": -3.3741581
},
{
  "type": "node",
  "id": 5424878153,
  "lat": 47.7695473,
  "lon": -3.3739884
},
{
  "type": "node",
  "id": 5424878154,
  "lat": 47.7695396,
  "lon": -3.3741744
},
{
  "type": "node",
  "id": 5424878155,
  "lat": 47.7695254,
  "lon": -3.3741012
},
{
  "type": "node",
  "id": 5424878156,
  "lat": 47.7694117,
  "lon": -3.3741178
},
{
  "type": "node",
  "id": 9064044305,
  "lat": 47.7498901,
  "lon": -3.3541750
},
{
  "type": "node",
  "id": 9064044307,
  "lat": 47.7499563,
  "lon": -3.3554335
},
{
  "type": "node",
  "id": 9064082923,
  "lat": 47.7496246,
  "lon": -3.3551944
},
{
  "type": "node",
  "id": 9064082924,
  "lat": 47.7495669,
  "lon": -3.3542084
},
{
  "type": "node",
  "id": 9064082927,
  "lat": 47.7495913,
  "lon": -3.3546253
},
{
  "type": "node",
  "id": 9064082929,
  "lat": 47.7496161,
  "lon": -3.3550485
},
{
  "type": "node",
  "id": 9064082931,
  "lat": 47.7499343,
  "lon": -3.3550143
},
{
  "type": "node",
  "id": 9064083052,
  "lat": 47.7497159,
  "lon": -3.3553913
},
{
  "type": "node",
  "id": 9064083080,
  "lat": 47.7498940,
  "lon": -3.3542487
},
{
  "type": "node",
  "id": 9122785826,
  "lat": 47.7495756,
  "lon": -3.3543577
},
{
  "type": "node",
  "id": 9122785859,
  "lat": 47.7495709,
  "lon": -3.3542769
}

  ]
}
