{
  "version": 0.6,
  "generator": "Overpass API 0.7.57 93a4d346",
  "osm3s": {
    "timestamp_osm_base": "2022-02-13T13:29:38Z",
    "timestamp_areas_base": "2022-02-13T06:31:57Z",
    "copyright": "The data included in this document is from www.openstreetmap.org. The data is made available under ODbL."
  },
  "elements": [

{
  "type": "node",
  "id": 76988549,
  "lat": 43.6617541,
  "lon": 4.6178982,
  "tags": {
    "bus": "yes",
    "highway": "bus_stop",
    "name": "Barriol",
    "public_transport": "stop_position"
  }
},
{
  "type": "node",
  "id": 76988555,
  "lat": 43.6630050,
  "lon": 4.6181950,
  "tags": {
    "bus": "yes",
    "highway": "bus_stop",
    "name": "Barriol",
    "public_transport": "stop_position"
  }
},
{
  "type": "node",
  "id": 300676467,
  "lat": 43.6787335,
  "lon": 4.5987909,
  "tags": {
    "bus": "yes",
    "highway": "bus_stop",
    "name": "Gimeaux",
    "public_transport": "stop_position"
  }
},
{
  "type": "node",
  "id": 332191998,
  "lat": 43.6810827,
  "lon": 4.6193086,
  "tags": {
    "bus": "yes",
    "highway": "bus_stop",
    "name": "Brossolette",
    "public_transport": "stop_position"
  }
},
{
  "type": "node",
  "id": 365191074,
  "lat": 43.7081385,
  "lon": 4.6343644,
  "tags": {
    "bus": "yes",
    "highway": "bus_stop",
    "name": "Parc de Loisirs",
    "public_transport": "stop_position"
  }
},
{
  "type": "node",
  "id": 412209628,
  "lat": 43.6270321,
  "lon": 4.5298018,
  "tags": {
    "bus": "yes",
    "highway": "bus_stop",
    "name": "Pont de Rousty",
    "public_transport": "stop_position"
  }
},
{
  "type": "node",
  "id": 636991427,
  "lat": 43.6805090,
  "lon": 4.6341488,
  "tags": {
    "bus": "yes",
    "highway": "bus_stop",
    "name": "Brissy",
    "public_transport": "stop_position"
  }
},
{
  "type": "node",
  "id": 1039328280,
  "lat": 43.6743155,
  "lon": 4.6389129,
  "tags": {
    "bus": "yes",
    "highway": "bus_stop",
    "name": "Révolution",
    "public_transport": "stop_position"
  }
},
{
  "type": "node",
  "id": 1650837387,
  "lat": 43.6091597,
  "lon": 4.6099023,
  "tags": {
    "bus": "yes",
    "highway": "bus_stop",
    "name": "Gageron",
    "public_transport": "stop_position"
  }
},
{
  "type": "node",
  "id": 1650967018,
  "lat": 43.4274728,
  "lon": 4.7193041,
  "tags": {
    "bus": "yes",
    "highway": "bus_stop",
    "name": "Chamoine",
    "public_transport": "stop_position"
  }
},
{
  "type": "node",
  "id": 1651020568,
  "lat": 43.4420023,
  "lon": 4.7242958,
  "tags": {
    "bus": "yes",
    "highway": "bus_stop",
    "name": "Mas de l'Amérique",
    "public_transport": "stop_position"
  }
},
{
  "type": "node",
  "id": 1651020781,
  "lat": 43.5040936,
  "lon": 4.7077159,
  "tags": {
    "bus": "yes",
    "highway": "bus_stop",
    "name": "Mas de Peint",
    "public_transport": "stop_position"
  }
},
{
  "type": "node",
  "id": 1651020828,
  "lat": 43.5253976,
  "lon": 4.7063591,
  "tags": {
    "bus": "yes",
    "highway": "bus_stop",
    "name": "Le Sambuc",
    "public_transport": "stop_position"
  }
},
{
  "type": "node",
  "id": 1651020960,
  "lat": 43.5782208,
  "lon": 4.6606708,
  "tags": {
    "bus": "yes",
    "highway": "bus_stop",
    "name": "Mas Beaulieu",
    "public_transport": "stop_position"
  }
},
{
  "type": "node",
  "id": 1651020962,
  "lat": 43.5783472,
  "lon": 4.6604864,
  "tags": {
    "bus": "yes",
    "highway": "bus_stop",
    "name": "Mas Beaulieu",
    "public_transport": "stop_position"
  }
},
{
  "type": "node",
  "id": 1651021388,
  "lat": 43.6663383,
  "lon": 4.5908139,
  "tags": {
    "bus": "yes",
    "highway": "bus_stop",
    "name": "Les Passerons",
    "public_transport": "stop_position"
  }
},
{
  "type": "node",
  "id": 1651021399,
  "lat": 43.6690638,
  "lon": 4.5999220,
  "tags": {
    "bus": "yes",
    "highway": "bus_stop",
    "name": "Mas Pilier",
    "public_transport": "stop_position"
  }
},
{
  "type": "node",
  "id": 1651065984,
  "lat": 43.6737380,
  "lon": 4.6071787,
  "tags": {
    "bus": "yes",
    "highway": "bus_stop",
    "name": "Gimeaux",
    "public_transport": "stop_position"
  }
},
{
  "type": "node",
  "id": 1653844037,
  "lat": 43.5311715,
  "lon": 4.7343906,
  "tags": {
    "bus": "yes",
    "highway": "bus_stop",
    "name": "Lou Cassaire",
    "public_transport": "stop_position"
  }
},
{
  "type": "node",
  "id": 1653844120,
  "lat": 43.5673975,
  "lon": 4.7136049,
  "tags": {
    "bus": "yes",
    "highway": "bus_stop",
    "name": "Champtercier",
    "public_transport": "stop_position"
  }
},
{
  "type": "node",
  "id": 1653844473,
  "lat": 43.6582725,
  "lon": 4.6359294,
  "tags": {
    "bus": "yes",
    "highway": "bus_stop",
    "name": "Plateau",
    "public_transport": "stop_position"
  }
},
{
  "type": "node",
  "id": 1655437708,
  "lat": 43.6390765,
  "lon": 4.7401399,
  "tags": {
    "bus": "yes",
    "highway": "bus_stop",
    "name": "Relais du Gardian",
    "public_transport": "stop_position"
  }
},
{
  "type": "node",
  "id": 1655437760,
  "lat": 43.6482555,
  "lon": 4.6952930,
  "tags": {
    "bus": "yes",
    "highway": "bus_stop",
    "name": "Balarin",
    "public_transport": "stop_position"
  }
},
{
  "type": "node",
  "id": 1661709334,
  "lat": 43.6657339,
  "lon": 4.6187022,
  "tags": {
    "bus": "yes",
    "highway": "bus_stop",
    "name": "Vissac",
    "public_transport": "stop_position"
  }
},
{
  "type": "node",
  "id": 1661709497,
  "lat": 43.6702014,
  "lon": 4.6211891,
  "tags": {
    "bus": "yes",
    "highway": "bus_stop",
    "name": "Langlois",
    "public_transport": "stop_position"
  }
},
{
  "type": "node",
  "id": 1674812067,
  "lat": 43.6728635,
  "lon": 4.6449651,
  "tags": {
    "bus": "yes",
    "highway": "bus_stop",
    "name": "La Genouillade",
    "public_transport": "stop_position"
  }
},
{
  "type": "node",
  "id": 1674812068,
  "lat": 43.6730557,
  "lon": 4.6448225,
  "tags": {
    "bus": "yes",
    "highway": "bus_stop",
    "name": "La Genouillade",
    "public_transport": "stop_position"
  }
},
{
  "type": "node",
  "id": 1675167832,
  "lat": 43.6737957,
  "lon": 4.6251702,
  "tags": {
    "bus": "yes",
    "highway": "bus_stop",
    "name": "Gabriel Péri",
    "public_transport": "stop_position"
  }
},
{
  "type": "node",
  "id": 1675167881,
  "lat": 43.6746091,
  "lon": 4.6228385,
  "tags": {
    "bus": "yes",
    "highway": "bus_stop",
    "name": "La Roquette",
    "public_transport": "stop_position"
  }
},
{
  "type": "node",
  "id": 1855785769,
  "lat": 43.6576909,
  "lon": 4.6326638,
  "tags": {
    "bus": "yes",
    "highway": "bus_stop",
    "name": "Hôpital",
    "public_transport": "stop_position"
  }
},
{
  "type": "node",
  "id": 1856828198,
  "lat": 43.6118581,
  "lon": 4.4749761,
  "tags": {
    "highway": "bus_stop",
    "name": "Albaron École",
    "source": "OpenData ACCM"
  }
},
{
  "type": "node",
  "id": 1856828303,
  "lat": 43.6447440,
  "lon": 4.7235006,
  "tags": {
    "advertising": "yes",
    "bench": "yes",
    "check_date:shelter": "2021-01-09",
    "highway": "bus_stop",
    "name": "Avenue de Provence",
    "operator": "ACCM",
    "shelter": "yes",
    "source": "OpenData ACCM",
    "tactile_paving": "no"
  }
},
{
  "type": "node",
  "id": 1856828320,
  "lat": 43.6723896,
  "lon": 4.5915015,
  "tags": {
    "highway": "bus_stop",
    "name": "Avergues",
    "source": "OpenData ACCM"
  }
},
{
  "type": "node",
  "id": 1856828381,
  "lat": 43.6813022,
  "lon": 4.6029486,
  "tags": {
    "highway": "bus_stop",
    "name": "Boysset",
    "source": "OpenData ACCM"
  }
},
{
  "type": "node",
  "id": 1856828427,
  "lat": 43.6631741,
  "lon": 4.6874024,
  "tags": {
    "bench": "yes",
    "bus": "yes",
    "covered": "yes",
    "highway": "bus_stop",
    "name": "Cabane de la Lune",
    "operator": "ACCM",
    "public_transport": "platform",
    "shelter": "yes",
    "source": "OpenData ACCM"
  }
},
{
  "type": "node",
  "id": 1856828480,
  "lat": 43.6784020,
  "lon": 4.5929028,
  "tags": {
    "bench": "yes",
    "bus": "yes",
    "departures_board": "no",
    "description": "Il est nécessaire de réserver le bus pour qu'il passe à cet arrêt.",
    "highway": "bus_stop",
    "name": "Caseneuve",
    "network": "Envia",
    "operator": "ACCM",
    "public_transport": "platform",
    "shelter": "no",
    "source": "OpenData ACCM"
  }
},
{
  "type": "node",
  "id": 1856828524,
  "lat": 43.6614341,
  "lon": 4.6602358,
  "tags": {
    "bench": "yes",
    "bus": "yes",
    "check_date:shelter": "2021-02-22",
    "highway": "bus_stop",
    "name": "Champ de Tir",
    "operator": "ACCM",
    "public_transport": "platform",
    "shelter": "yes",
    "source": "OpenData ACCM",
    "tactile_paving": "yes"
  }
},
{
  "type": "node",
  "id": 1856828585,
  "lat": 43.6788091,
  "lon": 4.5999299,
  "tags": {
    "highway": "bus_stop",
    "name": "Cigalon",
    "source": "OpenData ACCM"
  }
},
{
  "type": "node",
  "id": 1856828693,
  "lat": 43.6703189,
  "lon": 4.5916229,
  "tags": {
    "highway": "bus_stop",
    "name": "Croix de Caseneuve",
    "source": "OpenData ACCM"
  }
},
{
  "type": "node",
  "id": 1856828695,
  "lat": 43.6703531,
  "lon": 4.5917555,
  "tags": {
    "highway": "bus_stop",
    "name": "Croix de Cazeneuve",
    "source": "OpenData ACCM"
  }
},
{
  "type": "node",
  "id": 1856828731,
  "lat": 43.6707981,
  "lon": 4.6439989,
  "tags": {
    "highway": "bus_stop",
    "name": "Dollet",
    "shelter": "no",
    "source": "OpenData ACCM"
  }
},
{
  "type": "node",
  "id": 1856828732,
  "lat": 43.6708813,
  "lon": 4.6442059,
  "tags": {
    "highway": "bus_stop",
    "name": "Dollet",
    "source": "OpenData ACCM"
  }
},
{
  "type": "node",
  "id": 1856828742,
  "lat": 43.6833399,
  "lon": 4.6218562,
  "tags": {
    "bus": "yes",
    "highway": "bus_stop",
    "name": "Dunant",
    "public_transport": "platform",
    "source": "OpenData ACCM"
  }
},
{
  "type": "node",
  "id": 1856828831,
  "lat": 43.6803666,
  "lon": 4.6154403,
  "tags": {
    "highway": "bus_stop",
    "name": "Eyglument",
    "source": "OpenData ACCM"
  }
},
{
  "type": "node",
  "id": 1856828837,
  "lat": 43.6804746,
  "lon": 4.6151542,
  "tags": {
    "highway": "bus_stop",
    "name": "Eyglument",
    "source": "OpenData ACCM"
  }
},
{
  "type": "node",
  "id": 1856828844,
  "lat": 43.6785099,
  "lon": 4.6242599,
  "tags": {
    "highway": "bus_stop",
    "name": "Fanton",
    "shelter": "no",
    "source": "OpenData ACCM"
  }
},
{
  "type": "node",
  "id": 1856828847,
  "lat": 43.4087118,
  "lon": 4.7016112,
  "tags": {
    "bus": "yes",
    "highway": "bus_stop",
    "name": "Faraman",
    "operator": "ACCM",
    "public_transport": "platform",
    "shelter": "yes",
    "source": "OpenData ACCM"
  }
},
{
  "type": "node",
  "id": 1856828932,
  "lat": 43.6639756,
  "lon": 4.7114830,
  "tags": {
    "bench": "yes",
    "covered": "yes",
    "highway": "bus_stop",
    "lit": "no",
    "name": "Ganteaume",
    "operator": "ACCM",
    "shelter": "yes",
    "source": "OpenData ACCM",
    "tactile_paving": "no"
  }
},
{
  "type": "node",
  "id": 1856828957,
  "lat": 43.6843706,
  "lon": 4.6314522,
  "tags": {
    "bus": "yes",
    "highway": "bus_stop",
    "name": "Arles - Gare SNCF",
    "public_transport": "stop_position",
    "source": "OpenData ACCM"
  }
},
{
  "type": "node",
  "id": 1856828971,
  "lat": 43.6874056,
  "lon": 4.6173791,
  "tags": {
    "bus": "yes",
    "highway": "bus_stop",
    "name": "Gondran",
    "public_transport": "platform",
    "source": "OpenData ACCM"
  }
},
{
  "type": "node",
  "id": 1856828995,
  "lat": 43.6760697,
  "lon": 4.6200095,
  "tags": {
    "highway": "bus_stop",
    "name": "Grenier",
    "source": "OpenData ACCM"
  }
},
{
  "type": "node",
  "id": 1856828996,
  "lat": 43.6466337,
  "lon": 4.7170189,
  "tags": {
    "advertising": "yes",
    "bench": "no",
    "bin": "no",
    "bus": "yes",
    "check_date:shelter": "2020-12-16",
    "highway": "bus_stop",
    "lit": "yes",
    "name": "Groupe Scolaire",
    "operator": "ACCM",
    "public_transport": "platform",
    "shelter": "no",
    "source": "OpenData ACCM",
    "tactile_paving": "no"
  }
},
{
  "type": "node",
  "id": 1856829005,
  "lat": 43.6687352,
  "lon": 4.6448111,
  "tags": {
    "bench": "yes",
    "bin": "no",
    "highway": "bus_stop",
    "lit": "no",
    "name": "Hermite",
    "shelter": "no",
    "source": "OpenData ACCM",
    "tactile_paving": "no"
  }
},
{
  "type": "node",
  "id": 1856829008,
  "lat": 43.6688906,
  "lon": 4.6448771,
  "tags": {
    "bench": "yes",
    "bin": "yes",
    "highway": "bus_stop",
    "lit": "yes",
    "name": "Hermite",
    "shelter": "yes",
    "source": "OpenData ACCM",
    "tactile_paving": "yes"
  }
},
{
  "type": "node",
  "id": 1856829064,
  "lat": 43.6857237,
  "lon": 4.6161489,
  "tags": {
    "bus": "yes",
    "highway": "bus_stop",
    "name": "Île des Sables",
    "public_transport": "platform",
    "source": "OpenData ACCM"
  }
},
{
  "type": "node",
  "id": 1856829116,
  "lat": 43.6870619,
  "lon": 4.6384669,
  "tags": {
    "highway": "bus_stop",
    "name": "Joffre",
    "source": "OpenData ACCM"
  }
},
{
  "type": "node",
  "id": 1856829119,
  "lat": 43.6871522,
  "lon": 4.6386052,
  "tags": {
    "highway": "bus_stop",
    "name": "Joffre",
    "source": "OpenData ACCM"
  }
},
{
  "type": "node",
  "id": 1856829202,
  "lat": 43.6776283,
  "lon": 4.6318452,
  "tags": {
    "highway": "bus_stop",
    "name": "La Major",
    "source": "OpenData ACCM"
  }
},
{
  "type": "node",
  "id": 1856829258,
  "lat": 43.6857166,
  "lon": 4.6203970,
  "tags": {
    "bus": "yes",
    "highway": "bus_stop",
    "name": "Laget",
    "public_transport": "platform",
    "source": "OpenData ACCM"
  }
},
{
  "type": "node",
  "id": 1856829289,
  "lat": 43.6596011,
  "lon": 4.7626481,
  "tags": {
    "bus": "yes",
    "highway": "bus_stop",
    "name": "Le Moulin",
    "operator": "CG 13",
    "public_transport": "platform",
    "shelter": "no",
    "source": "OpenData ACCM"
  }
},
{
  "type": "node",
  "id": 1856829326,
  "lat": 43.6619696,
  "lon": 4.6700744,
  "tags": {
    "bench": "yes",
    "bus": "yes",
    "check_date:shelter": "2021-02-22",
    "highway": "bus_stop",
    "name": "Le Petit Mandon",
    "operator": "ACCM",
    "public_transport": "platform",
    "shelter": "yes",
    "source": "OpenData ACCM",
    "tactile_paving": "yes"
  }
},
{
  "type": "node",
  "id": 1856829336,
  "lat": 43.6508049,
  "lon": 4.6112672,
  "tags": {
    "bus": "yes",
    "highway": "bus_stop",
    "name": "Legaresse",
    "public_transport": "platform",
    "source": "OpenData ACCM"
  }
},
{
  "type": "node",
  "id": 1856829464,
  "lat": 43.6527501,
  "lon": 4.6446895,
  "tags": {
    "bus": "yes",
    "highway": "bus_stop",
    "name": "Maeva",
    "public_transport": "platform",
    "source": "OpenData ACCM"
  }
},
{
  "type": "node",
  "id": 1856829504,
  "lat": 43.6601069,
  "lon": 4.7522726,
  "tags": {
    "bench": "no",
    "bin": "no",
    "highway": "bus_stop",
    "name": "Mas Méou",
    "operator": "CG 13",
    "shelter": "no",
    "source": "OpenData ACCM",
    "tactile_paving": "no"
  }
},
{
  "type": "node",
  "id": 1856829505,
  "lat": 43.6625612,
  "lon": 4.6805258,
  "tags": {
    "bus": "yes",
    "covered": "yes",
    "highway": "bus_stop",
    "name": "Mas Pan Blanc",
    "operator": "ACCM",
    "public_transport": "platform",
    "shelter": "yes",
    "source": "OpenData ACCM"
  }
},
{
  "type": "node",
  "id": 1856829530,
  "lat": 43.6552219,
  "lon": 4.6100000,
  "tags": {
    "bus": "yes",
    "highway": "bus_stop",
    "name": "Mas Saint-Michel",
    "public_transport": "platform",
    "source": "OpenData ACCM"
  }
},
{
  "type": "node",
  "id": 1856829540,
  "lat": 43.6200750,
  "lon": 4.6282473,
  "tags": {
    "highway": "bus_stop",
    "name": "Mas de l'Ange",
    "source": "OpenData ACCM"
  }
},
{
  "type": "node",
  "id": 1856829543,
  "lat": 43.6202186,
  "lon": 4.6282771,
  "tags": {
    "covered": "yes",
    "highway": "bus_stop",
    "name": "Mas de l'Ange",
    "operator": "CG 13",
    "source": "OpenData ACCM"
  }
},
{
  "type": "node",
  "id": 1856829564,
  "lat": 43.6573144,
  "lon": 4.6116835,
  "tags": {
    "bus": "yes",
    "highway": "bus_stop",
    "name": "Mas des Dentelles",
    "public_transport": "platform",
    "source": "OpenData ACCM"
  }
},
{
  "type": "node",
  "id": 1856829609,
  "lat": 43.6631553,
  "lon": 4.6135767,
  "tags": {
    "bus": "yes",
    "highway": "bus_stop",
    "name": "Montcaldette",
    "public_transport": "platform",
    "source": "OpenData ACCM"
  }
},
{
  "type": "node",
  "id": 1856829638,
  "lat": 43.6624722,
  "lon": 4.6781728,
  "tags": {
    "bench": "yes",
    "bus": "yes",
    "check_date:shelter": "2021-02-17",
    "highway": "bus_stop",
    "name": "Moulin de Magnan",
    "operator": "ACCM",
    "public_transport": "platform",
    "shelter": "yes",
    "source": "OpenData ACCM",
    "tactile_paving": "yes"
  }
},
{
  "type": "node",
  "id": 1856829660,
  "lat": 43.6746345,
  "lon": 4.6253053,
  "tags": {
    "highway": "bus_stop",
    "name": "Parmentier",
    "source": "OpenData ACCM"
  }
},
{
  "type": "node",
  "id": 1856829668,
  "lat": 43.4048541,
  "lon": 4.7249861,
  "tags": {
    "bus": "yes",
    "highway": "bus_stop",
    "name": "Pechiney",
    "operator": "ACCM",
    "public_transport": "platform",
    "shelter": "yes",
    "source": "OpenData ACCM"
  }
},
{
  "type": "node",
  "id": 1856829670,
  "lat": 43.6600188,
  "lon": 4.7585277,
  "tags": {
    "bench": "no",
    "highway": "bus_stop",
    "name": "Petit Mandon",
    "operator": "CG 13",
    "shelter": "no",
    "source": "OpenData ACCM",
    "tactile_paving": "no"
  }
},
{
  "type": "node",
  "id": 1856829673,
  "lat": 43.6600969,
  "lon": 4.7587630,
  "tags": {
    "bench": "no",
    "highway": "bus_stop",
    "name": "Petit Mandon",
    "operator": "ACCM",
    "shelter": "no",
    "source": "OpenData ACCM",
    "tactile_paving": "no"
  }
},
{
  "type": "node",
  "id": 1856829743,
  "lat": 43.3510017,
  "lon": 4.7835166,
  "tags": {
    "bench": "no",
    "bin": "no",
    "highway": "bus_stop",
    "name": "Piémanson",
    "shelter": "no",
    "source": "OpenData ACCM",
    "tactile_paving": "no"
  }
},
{
  "type": "node",
  "id": 1856829757,
  "lat": 43.6688280,
  "lon": 4.6353343,
  "tags": {
    "highway": "bus_stop",
    "name": "Pomérat",
    "source": "OpenData ACCM"
  }
},
{
  "type": "node",
  "id": 1856829773,
  "lat": 43.6688857,
  "lon": 4.6352248,
  "tags": {
    "highway": "bus_stop",
    "name": "Pomérat",
    "source": "OpenData ACCM"
  }
},
{
  "type": "node",
  "id": 1856829774,
  "lat": 43.6580507,
  "lon": 4.6208452,
  "tags": {
    "bus": "yes",
    "highway": "bus_stop",
    "name": "Pont Van Gogh",
    "public_transport": "platform",
    "source": "OpenData ACCM"
  }
},
{
  "type": "node",
  "id": 1856829803,
  "lat": 43.6816197,
  "lon": 4.6060854,
  "tags": {
    "bus": "yes",
    "highway": "bus_stop",
    "name": "Prêcheurs",
    "public_transport": "platform",
    "source": "OpenData ACCM"
  }
},
{
  "type": "node",
  "id": 1856829847,
  "lat": 43.6447480,
  "lon": 4.7244293,
  "tags": {
    "advertising": "yes",
    "bench": "yes",
    "check_date:shelter": "2021-01-09",
    "highway": "bus_stop",
    "name": "René Blanc",
    "operator": "ACCM",
    "shelter": "yes",
    "source": "OpenData ACCM",
    "tactile_paving": "no"
  }
},
{
  "type": "node",
  "id": 1856829860,
  "lat": 43.5522505,
  "lon": 4.7297164,
  "tags": {
    "covered": "yes",
    "highway": "bus_stop",
    "name": "Robert",
    "operator": "ACCM",
    "source": "OpenData ACCM"
  }
},
{
  "type": "node",
  "id": 1856829880,
  "lat": 43.6898383,
  "lon": 4.6391984,
  "tags": {
    "highway": "bus_stop",
    "name": "Rodin",
    "source": "OpenData ACCM"
  }
},
{
  "type": "node",
  "id": 1856829881,
  "lat": 43.6899247,
  "lon": 4.6393255,
  "tags": {
    "highway": "bus_stop",
    "name": "Rodin",
    "source": "OpenData ACCM"
  }
},
{
  "type": "node",
  "id": 1856829925,
  "lat": 43.6653477,
  "lon": 4.6364588,
  "tags": {
    "highway": "bus_stop",
    "name": "Sagne",
    "source": "OpenData ACCM"
  }
},
{
  "type": "node",
  "id": 1856829947,
  "lat": 43.6656264,
  "lon": 4.6361037,
  "tags": {
    "highway": "bus_stop",
    "name": "Sagne",
    "source": "OpenData ACCM"
  }
},
{
  "type": "node",
  "id": 1856829957,
  "lat": 43.6455406,
  "lon": 4.7585603,
  "tags": {
    "covered": "yes",
    "highway": "bus_stop",
    "name": "Saint-Virgile",
    "operator": "ACCM",
    "source": "OpenData ACCM"
  }
},
{
  "type": "node",
  "id": 1856830007,
  "lat": 43.6593922,
  "lon": 4.7407884,
  "tags": {
    "bench": "no",
    "highway": "bus_stop",
    "name": "Salle Polyvalente",
    "operator": "ACCM",
    "shelter": "no",
    "source": "OpenData ACCM",
    "tactile_paving": "no"
  }
},
{
  "type": "node",
  "id": 1856830011,
  "lat": 43.6594577,
  "lon": 4.7406174,
  "tags": {
    "bench": "no",
    "highway": "bus_stop",
    "name": "Salle Polyvalente",
    "operator": "CG 13",
    "shelter": "no",
    "source": "OpenData ACCM",
    "tactile_paving": "no"
  }
},
{
  "type": "node",
  "id": 1856830019,
  "lat": 43.6842473,
  "lon": 4.6197422,
  "tags": {
    "bus": "yes",
    "highway": "bus_stop",
    "name": "Saulcy",
    "public_transport": "platform",
    "source": "OpenData ACCM"
  }
},
{
  "type": "node",
  "id": 1856830022,
  "lat": 43.6869371,
  "lon": 4.6200666,
  "tags": {
    "bus": "yes",
    "highway": "bus_stop",
    "name": "Saurel",
    "public_transport": "platform",
    "source": "OpenData ACCM"
  }
},
{
  "type": "node",
  "id": 1856830056,
  "lat": 43.6734777,
  "lon": 4.6046108,
  "tags": {
    "highway": "bus_stop",
    "name": "Sonailler",
    "source": "OpenData ACCM"
  }
},
{
  "type": "node",
  "id": 1856830083,
  "lat": 43.6850815,
  "lon": 4.6333255,
  "tags": {
    "highway": "bus_stop",
    "name": "Stalingrad",
    "shelter": "no",
    "source": "OpenData ACCM"
  }
},
{
  "type": "node",
  "id": 1856830102,
  "lat": 43.6856248,
  "lon": 4.6339504,
  "tags": {
    "highway": "bus_stop",
    "name": "Stalingrad",
    "shelter": "no",
    "source": "OpenData ACCM"
  }
},
{
  "type": "node",
  "id": 1856830113,
  "lat": 43.6787791,
  "lon": 4.5961885,
  "tags": {
    "bench": "yes",
    "bus": "yes",
    "departures_board": "no",
    "highway": "bus_stop",
    "name": "Séverin",
    "operator": "Envia",
    "public_transport": "platform",
    "shelter": "no",
    "source": "OpenData ACCM"
  }
},
{
  "type": "node",
  "id": 1856830116,
  "lat": 43.6878076,
  "lon": 4.6343497,
  "tags": {
    "highway": "bus_stop",
    "name": "Séverine",
    "source": "OpenData ACCM"
  }
},
{
  "type": "node",
  "id": 1856830125,
  "lat": 43.6882880,
  "lon": 4.6343364,
  "tags": {
    "highway": "bus_stop",
    "name": "Séverine",
    "source": "OpenData ACCM"
  }
},
{
  "type": "node",
  "id": 1856830126,
  "lat": 43.4825833,
  "lon": 4.7637004,
  "tags": {
    "bench": "no",
    "bin": "no",
    "covered": "yes",
    "highway": "bus_stop",
    "name": "Tour Parade",
    "operator": "ACCM",
    "source": "OpenData ACCM",
    "tactile_paving": "no"
  }
},
{
  "type": "node",
  "id": 1856830130,
  "lat": 43.4831010,
  "lon": 4.7634382,
  "tags": {
    "bench": "no",
    "bin": "no",
    "covered": "yes",
    "highway": "bus_stop",
    "name": "Tour Parade",
    "operator": "ACCM",
    "source": "OpenData ACCM",
    "tactile_paving": "no"
  }
},
{
  "type": "node",
  "id": 1856830201,
  "lat": 43.6752827,
  "lon": 4.6322372,
  "tags": {
    "bench": "yes",
    "bin": "no",
    "bus": "yes",
    "highway": "bus_stop",
    "name": "Vauban",
    "public_transport": "platform",
    "shelter": "no",
    "source": "OpenData ACCM"
  }
},
{
  "type": "node",
  "id": 1856830341,
  "lat": 43.6649642,
  "lon": 4.6244051,
  "tags": {
    "highway": "bus_stop",
    "name": "ZI Sud",
    "source": "OpenData ACCM"
  }
},
{
  "type": "node",
  "id": 2591817575,
  "lat": 43.6696162,
  "lon": 4.6159720,
  "tags": {
    "bus": "yes",
    "highway": "bus_stop",
    "name": "Allende",
    "public_transport": "stop_position"
  }
},
{
  "type": "node",
  "id": 3180375151,
  "lat": 43.6844037,
  "lon": 4.6309897,
  "tags": {
    "bus": "yes",
    "highway": "bus_stop",
    "name": "Arles - Gare Routière",
    "public_transport": "stop_position"
  }
},
{
  "type": "node",
  "id": 3180375152,
  "lat": 43.6844273,
  "lon": 4.6311740,
  "tags": {
    "bus": "yes",
    "highway": "bus_stop",
    "name": "Arles - Gare Routière",
    "public_transport": "stop_position"
  }
},
{
  "type": "node",
  "id": 3180375153,
  "lat": 43.6844442,
  "lon": 4.6309785,
  "tags": {
    "bus": "yes",
    "highway": "bus_stop",
    "name": "Arles - Gare Routière",
    "public_transport": "stop_position"
  }
},
{
  "type": "node",
  "id": 3180375154,
  "lat": 43.6844664,
  "lon": 4.6311631,
  "tags": {
    "bus": "yes",
    "highway": "bus_stop",
    "name": "Arles - Gare Routière",
    "public_transport": "stop_position"
  }
},
{
  "type": "node",
  "id": 3180375155,
  "lat": 43.6844937,
  "lon": 4.6309674,
  "tags": {
    "bus": "yes",
    "highway": "bus_stop",
    "name": "Arles - Gare Routière",
    "public_transport": "stop_position"
  }
},
{
  "type": "node",
  "id": 3180375156,
  "lat": 43.6845172,
  "lon": 4.6311503,
  "tags": {
    "bus": "yes",
    "highway": "bus_stop",
    "name": "Arles - Gare Routière",
    "public_transport": "stop_position"
  }
},
{
  "type": "node",
  "id": 3180375157,
  "lat": 43.6846064,
  "lon": 4.6318004,
  "tags": {
    "bench": "yes",
    "bus": "yes",
    "highway": "bus_stop",
    "name": "Gare d'Arles",
    "public_transport": "stop_position",
    "shelter": "no",
    "wheelchair": "yes"
  }
},
{
  "type": "node",
  "id": 3236787731,
  "lat": 43.6216020,
  "lon": 4.5058020,
  "tags": {
    "bus": "yes",
    "highway": "bus_stop",
    "name": "L'Oustalet",
    "public_transport": "stop_position"
  }
},
{
  "type": "node",
  "id": 3236797244,
  "lat": 43.6378511,
  "lon": 4.5550763,
  "tags": {
    "bus": "yes",
    "highway": "bus_stop",
    "name": "Mas de la Butte",
    "public_transport": "stop_position"
  }
},
{
  "type": "node",
  "id": 6262093057,
  "lat": 43.6750685,
  "lon": 4.6257203,
  "tags": {
    "bus": "yes",
    "highway": "bus_stop",
    "name": "Georges Clemenceau",
    "public_transport": "stop_position"
  }
},
{
  "type": "node",
  "id": 6311298609,
  "lat": 43.4109034,
  "lon": 4.7276859,
  "tags": {
    "bus": "yes",
    "highway": "bus_stop",
    "name": "Salin-de-Giraud - Camargue",
    "public_transport": "stop_position"
  }
},
{
  "type": "node",
  "id": 6311298610,
  "lat": 43.4110792,
  "lon": 4.7277746,
  "tags": {
    "bus": "yes",
    "highway": "bus_stop",
    "name": "Salin-de-Giraud - Camargue",
    "public_transport": "stop_position"
  }
},
{
  "type": "node",
  "id": 6311356696,
  "lat": 43.6967497,
  "lon": 4.6414416,
  "tags": {
    "bus": "yes",
    "highway": "bus_stop",
    "name": "Lycée Montmajour",
    "public_transport": "stop_position"
  }
},
{
  "type": "node",
  "id": 6312648027,
  "lat": 43.6971591,
  "lon": 4.6419667,
  "tags": {
    "bus": "yes",
    "highway": "bus_stop",
    "name": "Lycée Montmajour",
    "public_transport": "stop_position"
  }
},
{
  "type": "node",
  "id": 6313759249,
  "lat": 43.7062611,
  "lon": 4.6420921,
  "tags": {
    "bus": "yes",
    "highway": "bus_stop",
    "name": "Centre Commercial La Plaine de Montmajour (Leclerc)",
    "public_transport": "stop_position"
  }
},
{
  "type": "node",
  "id": 6313849408,
  "lat": 43.6720066,
  "lon": 4.6171440,
  "tags": {
    "bus": "yes",
    "highway": "bus_stop",
    "name": "Musée Antique",
    "public_transport": "stop_position"
  }
},
{
  "type": "node",
  "id": 6318702844,
  "lat": 43.6786386,
  "lon": 4.6027114,
  "tags": {
    "bus": "yes",
    "highway": "bus_stop",
    "name": "CFA",
    "public_transport": "stop_position"
  }
},
{
  "type": "node",
  "id": 6318736262,
  "lat": 43.6615250,
  "lon": 4.6523817,
  "tags": {
    "bus": "yes",
    "highway": "bus_stop",
    "name": "La Crau",
    "public_transport": "stop_position"
  }
},
{
  "type": "node",
  "id": 6321483701,
  "lat": 43.6861928,
  "lon": 4.6112360,
  "tags": {
    "bus": "yes",
    "highway": "bus_stop",
    "name": "Tournesol",
    "public_transport": "stop_position"
  }
},
{
  "type": "node",
  "id": 6323244753,
  "lat": 43.6817542,
  "lon": 4.6258007,
  "tags": {
    "bus": "yes",
    "highway": "bus_stop",
    "name": "Saint-Pierre",
    "public_transport": "stop_position"
  }
},
{
  "type": "node",
  "id": 6573859298,
  "lat": 43.6283607,
  "lon": 4.6147497,
  "tags": {
    "bus": "yes",
    "highway": "bus_stop",
    "public_transport": "platform"
  }
},
{
  "type": "node",
  "id": 6616195140,
  "lat": 43.6163210,
  "lon": 4.7229168,
  "tags": {
    "bus": "yes",
    "highway": "bus_stop",
    "public_transport": "platform"
  }
},
{
  "type": "node",
  "id": 7286433186,
  "lat": 43.6845141,
  "lon": 4.7388464,
  "tags": {
    "bench": "no",
    "bus": "yes",
    "departures_board": "no",
    "highway": "bus_stop",
    "name": "Goudègues",
    "network": "ENVIA",
    "public_transport": "platform",
    "route_ref": "Envia scolaire",
    "shelter": "no",
    "tactile_paving": "no",
    "wheelchair": "no"
  }
},
{
  "type": "node",
  "id": 7286438585,
  "lat": 43.6799913,
  "lon": 4.7500233,
  "tags": {
    "bench": "no",
    "bus": "yes",
    "departures_board": "no",
    "highway": "bus_stop",
    "name": "L'Illon",
    "network": "ENVIA",
    "public_transport": "platform",
    "route_ref": "Envia scolaire",
    "shelter": "no",
    "tactile_paving": "no",
    "wheelchair": "no"
  }
},
{
  "type": "node",
  "id": 7286438586,
  "lat": 43.6845842,
  "lon": 4.7419523,
  "tags": {
    "bench": "no",
    "bus": "yes",
    "departures_board": "no",
    "highway": "bus_stop",
    "name": "Serrailler",
    "network": "ENVIA",
    "public_transport": "platform",
    "route_ref": "Envia scolaire",
    "shelter": "no",
    "tactile_paving": "no",
    "wheelchair": "no"
  }
},
{
  "type": "node",
  "id": 7286438587,
  "lat": 43.6844197,
  "lon": 4.7320059,
  "tags": {
    "bench": "no",
    "bus": "yes",
    "departures_board": "no",
    "highway": "bus_stop",
    "name": "Simon Bon",
    "network": "ENVIA",
    "public_transport": "platform",
    "route_ref": "Envia scolaire",
    "shelter": "no",
    "wheelchair": "no"
  }
},
{
  "type": "node",
  "id": 8120628183,
  "lat": 43.6912598,
  "lon": 4.6387512,
  "tags": {
    "bus": "yes",
    "highway": "bus_stop",
    "name": "Truchet",
    "public_transport": "stop_position"
  }
},
{
  "type": "node",
  "id": 8637193263,
  "lat": 43.5803314,
  "lon": 4.7007237,
  "tags": {
    "bus": "yes",
    "highway": "bus_stop",
    "name": "Beynes",
    "public_transport": "stop_position"
  }
},
{
  "type": "node",
  "id": 8672654618,
  "lat": 43.6747822,
  "lon": 4.6199272,
  "tags": {
    "bus": "yes",
    "highway": "bus_stop",
    "name": "Tour",
    "public_transport": "stop_position"
  }
},
{
  "type": "node",
  "id": 8680383534,
  "lat": 43.6758513,
  "lon": 4.6328297,
  "tags": {
    "bus": "yes",
    "highway": "bus_stop",
    "name": "Croisière",
    "public_transport": "stop_position"
  }
},
{
  "type": "node",
  "id": 8680383535,
  "lat": 43.6759751,
  "lon": 4.6328773,
  "tags": {
    "bus": "yes",
    "highway": "bus_stop",
    "name": "Croisière",
    "public_transport": "stop_position"
  }
},
{
  "type": "node",
  "id": 8680383536,
  "lat": 43.6796732,
  "lon": 4.6339771,
  "tags": {
    "bus": "yes",
    "highway": "bus_stop",
    "name": "Emile Combes",
    "network": "Envia;Zou !",
    "network:wikidata": "Q17640157",
    "network:wikipedia": "fr:Transports en commun de l'agglomération d'Arles",
    "operator": "Transdev Arles",
    "public_transport": "stop_position"
  }
},
{
  "type": "node",
  "id": 8680383538,
  "lat": 43.6820380,
  "lon": 4.6312776,
  "tags": {
    "bus": "yes",
    "highway": "bus_stop",
    "name": "Gorodiche",
    "public_transport": "stop_position"
  }
},
{
  "type": "node",
  "id": 8680383539,
  "lat": 43.6861750,
  "lon": 4.6346319,
  "tags": {
    "bus": "yes",
    "highway": "bus_stop",
    "name": "Monplaisir",
    "public_transport": "stop_position"
  }
},
{
  "type": "node",
  "id": 8680383540,
  "lat": 43.6938395,
  "lon": 4.6396711,
  "tags": {
    "bus": "yes",
    "highway": "bus_stop",
    "name": "Le Trébon",
    "public_transport": "stop_position"
  }
},
{
  "type": "node",
  "id": 8680383541,
  "lat": 43.6932843,
  "lon": 4.6393073,
  "tags": {
    "bus": "yes",
    "highway": "bus_stop",
    "name": "Le Trébon",
    "public_transport": "stop_position"
  }
},
{
  "type": "node",
  "id": 8680383542,
  "lat": 43.7060551,
  "lon": 4.6645908,
  "tags": {
    "bus": "yes",
    "highway": "bus_stop",
    "name": "Abbaye de Montmajour",
    "public_transport": "stop_position"
  }
},
{
  "type": "node",
  "id": 8680383543,
  "lat": 43.7064578,
  "lon": 4.6664658,
  "tags": {
    "bus": "yes",
    "highway": "bus_stop",
    "name": "Abbaye de Montmajour",
    "public_transport": "stop_position"
  }
},
{
  "type": "node",
  "id": 8680584187,
  "lat": 43.6886375,
  "lon": 4.6362448,
  "tags": {
    "bus": "yes",
    "highway": "bus_stop",
    "name": "Saxy",
    "public_transport": "stop_position"
  }
},
{
  "type": "node",
  "id": 8680584188,
  "lat": 43.6910167,
  "lon": 4.6378143,
  "tags": {
    "bus": "yes",
    "highway": "bus_stop",
    "name": "Laennec",
    "public_transport": "stop_position"
  }
},
{
  "type": "node",
  "id": 8680584189,
  "lat": 43.6913263,
  "lon": 4.6386433,
  "tags": {
    "bus": "yes",
    "highway": "bus_stop",
    "name": "Truchet",
    "public_transport": "stop_position"
  }
},
{
  "type": "node",
  "id": 8680584191,
  "lat": 43.6853197,
  "lon": 4.6340661,
  "tags": {
    "bus": "yes",
    "highway": "bus_stop",
    "name": "Stalingrad",
    "public_transport": "stop_position"
  }
},
{
  "type": "node",
  "id": 8680584192,
  "lat": 43.6852100,
  "lon": 4.6339928,
  "tags": {
    "bus": "yes",
    "highway": "bus_stop",
    "name": "Stalingrad",
    "public_transport": "stop_position"
  }
},
{
  "type": "node",
  "id": 8680584193,
  "lat": 43.6812903,
  "lon": 4.6327492,
  "tags": {
    "bus": "yes",
    "highway": "bus_stop",
    "name": "Lamartine",
    "public_transport": "stop_position"
  }
},
{
  "type": "node",
  "id": 8680584194,
  "lat": 43.6813506,
  "lon": 4.6325798,
  "tags": {
    "bus": "yes",
    "highway": "bus_stop",
    "name": "Lamartine",
    "public_transport": "stop_position"
  }
},
{
  "type": "node",
  "id": 8680598343,
  "lat": 43.6926323,
  "lon": 4.6388821,
  "tags": {
    "bus": "yes",
    "highway": "bus_stop",
    "name": "Lamour",
    "public_transport": "stop_position"
  }
},
{
  "type": "node",
  "id": 8680598344,
  "lat": 43.6950104,
  "lon": 4.6404346,
  "tags": {
    "bus": "yes",
    "highway": "bus_stop",
    "name": "Jou",
    "public_transport": "stop_position"
  }
},
{
  "type": "node",
  "id": 8680598345,
  "lat": 43.6951927,
  "lon": 4.6405552,
  "tags": {
    "bus": "yes",
    "highway": "bus_stop",
    "name": "Jou",
    "public_transport": "stop_position"
  }
},
{
  "type": "node",
  "id": 8680909314,
  "lat": 43.6750298,
  "lon": 4.6261561,
  "tags": {
    "bus": "yes",
    "highway": "bus_stop",
    "name": "Georges Clemenceau",
    "public_transport": "stop_position"
  }
},
{
  "type": "node",
  "id": 8684767269,
  "lat": 43.5043876,
  "lon": 4.7530220,
  "tags": {
    "bus": "yes",
    "highway": "bus_stop",
    "name": "Domaine Boisviel",
    "public_transport": "stop_position"
  }
},
{
  "type": "node",
  "id": 8684767270,
  "lat": 43.5050009,
  "lon": 4.7523407,
  "tags": {
    "bus": "yes",
    "highway": "bus_stop",
    "name": "Domaine Boisviel",
    "public_transport": "stop_position"
  }
},
{
  "type": "node",
  "id": 8684767271,
  "lat": 43.5105679,
  "lon": 4.7489919,
  "tags": {
    "bus": "yes",
    "highway": "bus_stop",
    "name": "Boisviel Saint-Pierre",
    "public_transport": "stop_position"
  }
},
{
  "type": "node",
  "id": 8684767272,
  "lat": 43.5192365,
  "lon": 4.7432768,
  "tags": {
    "bus": "yes",
    "highway": "bus_stop",
    "name": "La Forêt",
    "public_transport": "stop_position"
  }
},
{
  "type": "node",
  "id": 8684767273,
  "lat": 43.5193505,
  "lon": 4.7431634,
  "tags": {
    "bus": "yes",
    "highway": "bus_stop",
    "name": "La Forêt",
    "public_transport": "stop_position"
  }
},
{
  "type": "node",
  "id": 8684767274,
  "lat": 43.5309318,
  "lon": 4.7345407,
  "tags": {
    "bus": "yes",
    "highway": "bus_stop",
    "name": "Lou Cassaire",
    "public_transport": "stop_position"
  }
},
{
  "type": "node",
  "id": 8684767275,
  "lat": 43.5390497,
  "lon": 4.7320159,
  "tags": {
    "bus": "yes",
    "highway": "bus_stop",
    "name": "Les Rompides",
    "public_transport": "stop_position"
  }
},
{
  "type": "node",
  "id": 8684767276,
  "lat": 43.5469802,
  "lon": 4.7306489,
  "tags": {
    "bus": "yes",
    "highway": "bus_stop",
    "name": "Frustier",
    "public_transport": "stop_position"
  }
},
{
  "type": "node",
  "id": 8684767277,
  "lat": 43.5468618,
  "lon": 4.7306601,
  "tags": {
    "bus": "yes",
    "highway": "bus_stop",
    "name": "Frustier",
    "public_transport": "stop_position"
  }
},
{
  "type": "node",
  "id": 8684767278,
  "lat": 43.5583260,
  "lon": 4.7282473,
  "tags": {
    "bus": "yes",
    "highway": "bus_stop",
    "name": "Mas Thibert Centre",
    "public_transport": "stop_position"
  }
},
{
  "type": "node",
  "id": 8684767280,
  "lat": 43.5585664,
  "lon": 4.7246743,
  "tags": {
    "bus": "yes",
    "highway": "bus_stop",
    "name": "Mas Thibert Le Pont",
    "public_transport": "stop_position"
  }
},
{
  "type": "node",
  "id": 8684767281,
  "lat": 43.5675215,
  "lon": 4.7134301,
  "tags": {
    "bus": "yes",
    "highway": "bus_stop",
    "name": "Champtercier",
    "public_transport": "stop_position"
  }
},
{
  "type": "node",
  "id": 8684767282,
  "lat": 43.5824045,
  "lon": 4.6943765,
  "tags": {
    "bus": "yes",
    "highway": "bus_stop",
    "name": "Beynes",
    "public_transport": "stop_position"
  }
},
{
  "type": "node",
  "id": 8684767283,
  "lat": 43.5855522,
  "lon": 4.6814750,
  "tags": {
    "bus": "yes",
    "highway": "bus_stop",
    "name": "Les Entorches",
    "public_transport": "stop_position"
  }
},
{
  "type": "node",
  "id": 8684767284,
  "lat": 43.5852305,
  "lon": 4.6818864,
  "tags": {
    "bus": "yes",
    "highway": "bus_stop",
    "name": "Les Entorches",
    "public_transport": "stop_position"
  }
},
{
  "type": "node",
  "id": 8684767285,
  "lat": 43.6659924,
  "lon": 4.6187731,
  "tags": {
    "bus": "yes",
    "highway": "bus_stop",
    "name": "Vissac",
    "public_transport": "stop_position"
  }
},
{
  "type": "node",
  "id": 8684767286,
  "lat": 43.6722110,
  "lon": 4.6275707,
  "tags": {
    "bus": "yes",
    "highway": "bus_stop",
    "name": "Victor Basch",
    "public_transport": "stop_position"
  }
},
{
  "type": "node",
  "id": 8684941555,
  "lat": 43.6697577,
  "lon": 4.6209136,
  "tags": {
    "bus": "yes",
    "highway": "bus_stop",
    "name": "Langlois",
    "public_transport": "stop_position"
  }
},
{
  "type": "node",
  "id": 9038616039,
  "lat": 43.4143071,
  "lon": 4.7312874,
  "tags": {
    "bus": "yes",
    "highway": "bus_stop",
    "name": "Salin-de-Giraud - Centre",
    "public_transport": "stop_position"
  }
},
{
  "type": "node",
  "id": 9038616040,
  "lat": 43.4141090,
  "lon": 4.7308860,
  "tags": {
    "bus": "yes",
    "highway": "bus_stop",
    "name": "Salin-de-Giraud - Centre",
    "public_transport": "stop_position"
  }
},
{
  "type": "node",
  "id": 9038616041,
  "lat": 43.4142551,
  "lon": 4.7356645,
  "tags": {
    "bus": "yes",
    "highway": "bus_stop",
    "name": "Bar des Sports",
    "public_transport": "stop_position"
  }
},
{
  "type": "node",
  "id": 9038616042,
  "lat": 43.4141922,
  "lon": 4.7355395,
  "tags": {
    "bus": "yes",
    "highway": "bus_stop",
    "name": "Bar des Sports",
    "public_transport": "stop_position"
  }
},
{
  "type": "node",
  "id": 9038616043,
  "lat": 43.4197909,
  "lon": 4.7334555,
  "tags": {
    "bus": "yes",
    "highway": "bus_stop",
    "name": "Barcarin",
    "public_transport": "stop_position"
  }
},
{
  "type": "node",
  "id": 9038616044,
  "lat": 43.4278767,
  "lon": 4.7187378,
  "tags": {
    "bus": "yes",
    "highway": "bus_stop",
    "name": "Chamoine",
    "public_transport": "stop_position"
  }
},
{
  "type": "node",
  "id": 9038616045,
  "lat": 43.4417904,
  "lon": 4.7241833,
  "tags": {
    "bus": "yes",
    "highway": "bus_stop",
    "name": "Mas de l'Amérique",
    "public_transport": "stop_position"
  }
},
{
  "type": "node",
  "id": 9038616046,
  "lat": 43.4713153,
  "lon": 4.7065496,
  "tags": {
    "bus": "yes",
    "highway": "bus_stop",
    "name": "Peaudure",
    "public_transport": "stop_position"
  }
},
{
  "type": "node",
  "id": 9038616048,
  "lat": 43.4704085,
  "lon": 4.7065834,
  "tags": {
    "bus": "yes",
    "highway": "bus_stop",
    "name": "Peaudure",
    "public_transport": "stop_position"
  }
},
{
  "type": "node",
  "id": 9038616049,
  "lat": 43.5038946,
  "lon": 4.7077487,
  "tags": {
    "bus": "yes",
    "highway": "bus_stop",
    "name": "Mas de Peint",
    "public_transport": "stop_position"
  }
},
{
  "type": "node",
  "id": 9038616050,
  "lat": 43.5246169,
  "lon": 4.7063480,
  "tags": {
    "bus": "yes",
    "highway": "bus_stop",
    "name": "Le Sambuc",
    "public_transport": "stop_position"
  }
},
{
  "type": "node",
  "id": 9038616051,
  "lat": 43.5685086,
  "lon": 4.6681448,
  "tags": {
    "bus": "yes",
    "highway": "bus_stop",
    "name": "Armellière",
    "public_transport": "stop_position"
  }
},
{
  "type": "node",
  "id": 9038616052,
  "lat": 43.5682616,
  "lon": 4.6682254,
  "tags": {
    "bus": "yes",
    "highway": "bus_stop",
    "name": "Armellière",
    "public_transport": "stop_position"
  }
},
{
  "type": "node",
  "id": 9038616053,
  "lat": 43.5737850,
  "lon": 4.6239008,
  "tags": {
    "bus": "yes",
    "highway": "bus_stop",
    "name": "Villeneuve",
    "public_transport": "stop_position"
  }
},
{
  "type": "node",
  "id": 9038616054,
  "lat": 43.6346903,
  "lon": 4.6068202,
  "tags": {
    "bus": "yes",
    "highway": "bus_stop",
    "name": "Montlong",
    "public_transport": "stop_position"
  }
},
{
  "type": "node",
  "id": 9038616055,
  "lat": 43.6661954,
  "lon": 4.5904965,
  "tags": {
    "bus": "yes",
    "highway": "bus_stop",
    "name": "Les Passerons",
    "public_transport": "stop_position"
  }
},
{
  "type": "node",
  "id": 9038616056,
  "lat": 43.6690274,
  "lon": 4.5994954,
  "tags": {
    "bus": "yes",
    "highway": "bus_stop",
    "name": "Mas Pilier",
    "public_transport": "stop_position"
  }
},
{
  "type": "node",
  "id": 9038616057,
  "lat": 43.6736683,
  "lon": 4.6071650,
  "tags": {
    "bus": "yes",
    "highway": "bus_stop",
    "name": "Gimeaux",
    "public_transport": "stop_position"
  }
},
{
  "type": "node",
  "id": 9038616058,
  "lat": 43.6754257,
  "lon": 4.6127354,
  "tags": {
    "bus": "yes",
    "highway": "bus_stop",
    "name": "Mas du Puit",
    "public_transport": "stop_position"
  }
},
{
  "type": "node",
  "id": 9038616059,
  "lat": 43.6773071,
  "lon": 4.6162532,
  "tags": {
    "bus": "yes",
    "highway": "bus_stop",
    "name": "Gabelle",
    "public_transport": "stop_position"
  }
},
{
  "type": "node",
  "id": 9038616060,
  "lat": 43.6796553,
  "lon": 4.6198385,
  "tags": {
    "bus": "yes",
    "highway": "bus_stop",
    "name": "Benoit",
    "public_transport": "stop_position"
  }
},
{
  "type": "node",
  "id": 9038616061,
  "lat": 43.6795651,
  "lon": 4.6194194,
  "tags": {
    "bus": "yes",
    "highway": "bus_stop",
    "name": "Benoit",
    "public_transport": "stop_position"
  }
},
{
  "type": "node",
  "id": 9038616062,
  "lat": 43.6803545,
  "lon": 4.6208064,
  "tags": {
    "bus": "yes",
    "highway": "bus_stop",
    "name": "Camargue",
    "public_transport": "stop_position"
  }
},
{
  "type": "node",
  "id": 9038616063,
  "lat": 43.6805637,
  "lon": 4.6207901,
  "tags": {
    "bus": "yes",
    "highway": "bus_stop",
    "name": "Camargue",
    "public_transport": "stop_position"
  }
},
{
  "type": "node",
  "id": 9038616064,
  "lat": 43.6771618,
  "lon": 4.6245344,
  "tags": {
    "bus": "yes",
    "highway": "bus_stop",
    "name": "Antonelle",
    "public_transport": "stop_position"
  }
},
{
  "type": "node",
  "id": 9038616065,
  "lat": 43.6767872,
  "lon": 4.6247562,
  "tags": {
    "bus": "yes",
    "highway": "bus_stop",
    "name": "Antonelle",
    "public_transport": "stop_position"
  }
},
{
  "type": "node",
  "id": 9038616066,
  "lat": 43.6751177,
  "lon": 4.6262282,
  "tags": {
    "bus": "yes",
    "highway": "bus_stop",
    "name": "Georges Clemenceau",
    "public_transport": "stop_position"
  }
},
{
  "type": "node",
  "id": 9038616067,
  "lat": 43.6751861,
  "lon": 4.6256520,
  "tags": {
    "bus": "yes",
    "highway": "bus_stop",
    "name": "Georges Clemenceau",
    "public_transport": "stop_position"
  }
},
{
  "type": "node",
  "id": 9038616068,
  "lat": 43.6751889,
  "lon": 4.6259528,
  "tags": {
    "bus": "yes",
    "highway": "bus_stop",
    "name": "Georges Clemenceau",
    "public_transport": "stop_position"
  }
},
{
  "type": "node",
  "id": 9038616069,
  "lat": 43.6752297,
  "lon": 4.6304207,
  "tags": {
    "bus": "yes",
    "highway": "bus_stop",
    "name": "Lices",
    "public_transport": "stop_position"
  }
},
{
  "type": "node",
  "id": 9038616070,
  "lat": 43.6752427,
  "lon": 4.6302407,
  "tags": {
    "bus": "yes",
    "highway": "bus_stop",
    "name": "Lices",
    "public_transport": "stop_position"
  }
},
{
  "type": "node",
  "id": 9038616071,
  "lat": 43.6777626,
  "lon": 4.6335524,
  "tags": {
    "bus": "yes",
    "highway": "bus_stop",
    "name": "Portagnel",
    "public_transport": "stop_position"
  }
},
{
  "type": "node",
  "id": 9038616072,
  "lat": 43.6779415,
  "lon": 4.6336193,
  "tags": {
    "bus": "yes",
    "highway": "bus_stop",
    "name": "Portagnel",
    "public_transport": "stop_position"
  }
},
{
  "type": "node",
  "id": 9038648745,
  "lat": 43.7033225,
  "lon": 4.6410473,
  "tags": {
    "bus": "yes",
    "highway": "bus_stop",
    "name": "Signoret",
    "public_transport": "stop_position"
  }
},
{
  "type": "node",
  "id": 9038648746,
  "lat": 43.7030151,
  "lon": 4.6411566,
  "tags": {
    "bus": "yes",
    "highway": "bus_stop",
    "name": "Signoret",
    "public_transport": "stop_position"
  }
},
{
  "type": "node",
  "id": 9038648747,
  "lat": 43.7002257,
  "lon": 4.6421272,
  "tags": {
    "bus": "yes",
    "highway": "bus_stop",
    "name": "Libération",
    "public_transport": "stop_position"
  }
},
{
  "type": "node",
  "id": 9038648748,
  "lat": 43.6999789,
  "lon": 4.6422171,
  "tags": {
    "bus": "yes",
    "highway": "bus_stop",
    "name": "Libération",
    "public_transport": "stop_position"
  }
},
{
  "type": "node",
  "id": 9041490442,
  "lat": 43.6697001,
  "lon": 4.6298701,
  "tags": {
    "bus": "yes",
    "highway": "bus_stop",
    "name": "Bigot",
    "public_transport": "stop_position"
  }
},
{
  "type": "node",
  "id": 9041490443,
  "lat": 43.6697954,
  "lon": 4.6298342,
  "tags": {
    "bus": "yes",
    "highway": "bus_stop",
    "name": "Bigot",
    "public_transport": "stop_position"
  }
},
{
  "type": "node",
  "id": 9041490444,
  "lat": 43.6687079,
  "lon": 4.6338080,
  "tags": {
    "bus": "yes",
    "highway": "bus_stop",
    "name": "Lesseps",
    "public_transport": "stop_position"
  }
},
{
  "type": "node",
  "id": 9041490445,
  "lat": 43.6667199,
  "lon": 4.6355890,
  "tags": {
    "bus": "yes",
    "highway": "bus_stop",
    "name": "CC L'Aurélienne",
    "public_transport": "stop_position"
  }
},
{
  "type": "node",
  "id": 9041490446,
  "lat": 43.6669926,
  "lon": 4.6354413,
  "tags": {
    "bus": "yes",
    "highway": "bus_stop",
    "name": "CC L'Aurélienne",
    "public_transport": "stop_position"
  }
},
{
  "type": "node",
  "id": 9041490447,
  "lat": 43.6651128,
  "lon": 4.6377341,
  "tags": {
    "bus": "yes",
    "highway": "bus_stop",
    "name": "Vigueirat",
    "public_transport": "stop_position"
  }
},
{
  "type": "node",
  "id": 9041490449,
  "lat": 43.6650469,
  "lon": 4.6372330,
  "tags": {
    "bus": "yes",
    "highway": "bus_stop",
    "name": "Vigueirat",
    "public_transport": "stop_position"
  }
},
{
  "type": "node",
  "id": 9041490462,
  "lat": 43.6639092,
  "lon": 4.6395116,
  "tags": {
    "bus": "yes",
    "highway": "bus_stop",
    "name": "Avenue des Arches",
    "public_transport": "stop_position"
  }
},
{
  "type": "node",
  "id": 9041490463,
  "lat": 43.6639856,
  "lon": 4.6397129,
  "tags": {
    "bus": "yes",
    "highway": "bus_stop",
    "name": "Avenue des Arches",
    "public_transport": "stop_position"
  }
},
{
  "type": "node",
  "id": 9041490464,
  "lat": 43.6634367,
  "lon": 4.6489060,
  "tags": {
    "bus": "yes",
    "highway": "bus_stop",
    "name": "Arcades",
    "public_transport": "stop_position"
  }
},
{
  "type": "node",
  "id": 9041490465,
  "lat": 43.6630223,
  "lon": 4.6493713,
  "tags": {
    "bus": "yes",
    "highway": "bus_stop",
    "name": "Arcades",
    "public_transport": "stop_position"
  }
},
{
  "type": "node",
  "id": 9041490466,
  "lat": 43.6617280,
  "lon": 4.6519058,
  "tags": {
    "bus": "yes",
    "highway": "bus_stop",
    "name": "La Crau",
    "public_transport": "stop_position"
  }
},
{
  "type": "node",
  "id": 9041490468,
  "lat": 43.6602191,
  "lon": 4.6544946,
  "tags": {
    "bus": "yes",
    "highway": "bus_stop",
    "name": "Vert Village",
    "public_transport": "stop_position"
  }
},
{
  "type": "node",
  "id": 9041490470,
  "lat": 43.6539908,
  "lon": 4.6696290,
  "tags": {
    "bus": "yes",
    "highway": "bus_stop",
    "name": "Villevieille",
    "public_transport": "stop_position"
  }
},
{
  "type": "node",
  "id": 9041490471,
  "lat": 43.6541950,
  "lon": 4.6692174,
  "tags": {
    "bus": "yes",
    "highway": "bus_stop",
    "name": "Villevieille",
    "public_transport": "stop_position"
  }
},
{
  "type": "node",
  "id": 9041490472,
  "lat": 43.6481623,
  "lon": 4.7047562,
  "tags": {
    "bus": "yes",
    "highway": "bus_stop",
    "name": "La Bienheureuse",
    "public_transport": "stop_position"
  }
},
{
  "type": "node",
  "id": 9041490473,
  "lat": 43.6457527,
  "lon": 4.7129964,
  "tags": {
    "bus": "yes",
    "highway": "bus_stop",
    "name": "Raphèle Église",
    "public_transport": "stop_position"
  }
},
{
  "type": "node",
  "id": 9041490474,
  "lat": 43.6448863,
  "lon": 4.7176465,
  "tags": {
    "bus": "yes",
    "highway": "bus_stop",
    "name": "Raphèle Centre",
    "public_transport": "stop_position"
  }
},
{
  "type": "node",
  "id": 9041490475,
  "lat": 43.6447610,
  "lon": 4.7183280,
  "tags": {
    "bus": "yes",
    "highway": "bus_stop",
    "name": "Raphèle Centre",
    "public_transport": "stop_position"
  }
},
{
  "type": "node",
  "id": 9041490476,
  "lat": 43.6438336,
  "lon": 4.7234604,
  "tags": {
    "bus": "yes",
    "highway": "bus_stop",
    "name": "Vert Pré",
    "public_transport": "stop_position"
  }
},
{
  "type": "node",
  "id": 9041490477,
  "lat": 43.6438124,
  "lon": 4.7233883,
  "tags": {
    "bus": "yes",
    "highway": "bus_stop",
    "name": "Vert Pré",
    "public_transport": "stop_position"
  }
},
{
  "type": "node",
  "id": 9041490478,
  "lat": 43.6430942,
  "lon": 4.7281949,
  "tags": {
    "bus": "yes",
    "highway": "bus_stop",
    "name": "Belombre",
    "public_transport": "stop_position"
  }
},
{
  "type": "node",
  "id": 9041490480,
  "lat": 43.6557980,
  "lon": 4.7400424,
  "tags": {
    "bus": "yes",
    "highway": "bus_stop",
    "name": "Moulès Église",
    "public_transport": "stop_position"
  }
},
{
  "type": "node",
  "id": 9041490481,
  "lat": 43.6370858,
  "lon": 4.7455239,
  "tags": {
    "bus": "yes",
    "highway": "bus_stop",
    "name": "Saunier",
    "public_transport": "stop_position"
  }
},
{
  "type": "node",
  "id": 9041490482,
  "lat": 43.6358701,
  "lon": 4.7531150,
  "tags": {
    "bus": "yes",
    "highway": "bus_stop",
    "name": "Saint-Hippolyte",
    "public_transport": "stop_position"
  }
},
{
  "type": "node",
  "id": 9041584133,
  "lat": 43.6565730,
  "lon": 4.6354155,
  "tags": {
    "bus": "yes",
    "highway": "bus_stop",
    "name": "Le Lac",
    "public_transport": "stop_position"
  }
},
{
  "type": "node",
  "id": 9041597423,
  "lat": 43.6566859,
  "lon": 4.6359378,
  "tags": {
    "bus": "yes",
    "highway": "bus_stop",
    "name": "Le Lac",
    "public_transport": "stop_position"
  }
},
{
  "type": "node",
  "id": 9041597424,
  "lat": 43.6585781,
  "lon": 4.6359420,
  "tags": {
    "bus": "yes",
    "highway": "bus_stop",
    "name": "Plateau",
    "public_transport": "stop_position"
  }
},
{
  "type": "node",
  "id": 9041597425,
  "lat": 43.6634731,
  "lon": 4.6318140,
  "tags": {
    "bus": "yes",
    "highway": "bus_stop",
    "name": "Aire d'Accueil",
    "public_transport": "stop_position"
  }
},
{
  "type": "node",
  "id": 9041597426,
  "lat": 43.6657744,
  "lon": 4.6340775,
  "tags": {
    "bus": "yes",
    "highway": "bus_stop",
    "name": "Jerez",
    "public_transport": "stop_position"
  }
},
{
  "type": "node",
  "id": 9041597427,
  "lat": 43.6657957,
  "lon": 4.6344625,
  "tags": {
    "bus": "yes",
    "highway": "bus_stop",
    "name": "Jerez",
    "public_transport": "stop_position"
  }
},
{
  "type": "node",
  "id": 9041597428,
  "lat": 43.6925097,
  "lon": 4.6377063,
  "tags": {
    "bus": "yes",
    "highway": "bus_stop",
    "name": "Coty",
    "public_transport": "stop_position"
  }
},
{
  "type": "node",
  "id": 9041597429,
  "lat": 43.6926585,
  "lon": 4.6370479,
  "tags": {
    "bus": "yes",
    "highway": "bus_stop",
    "name": "Coty",
    "public_transport": "stop_position"
  }
},
{
  "type": "node",
  "id": 9041597430,
  "lat": 43.6936762,
  "lon": 4.6347967,
  "tags": {
    "bus": "yes",
    "highway": "bus_stop",
    "name": "Jean Bouin",
    "public_transport": "stop_position"
  }
},
{
  "type": "node",
  "id": 9041597431,
  "lat": 43.6938670,
  "lon": 4.6348394,
  "tags": {
    "bus": "yes",
    "highway": "bus_stop",
    "name": "Jean Bouin",
    "public_transport": "stop_position"
  }
},
{
  "type": "node",
  "id": 9041597433,
  "lat": 43.6961132,
  "lon": 4.6353480,
  "tags": {
    "bus": "yes",
    "highway": "bus_stop",
    "name": "Ravel",
    "public_transport": "stop_position"
  }
},
{
  "type": "node",
  "id": 9041597434,
  "lat": 43.6964517,
  "lon": 4.6354025,
  "tags": {
    "bus": "yes",
    "highway": "bus_stop",
    "name": "Ravel",
    "public_transport": "stop_position"
  }
},
{
  "type": "node",
  "id": 9041597435,
  "lat": 43.6978390,
  "lon": 4.6396948,
  "tags": {
    "bus": "yes",
    "highway": "bus_stop",
    "name": "Moines",
    "public_transport": "stop_position"
  }
},
{
  "type": "node",
  "id": 9041597436,
  "lat": 43.6978197,
  "lon": 4.6393813,
  "tags": {
    "bus": "yes",
    "highway": "bus_stop",
    "name": "Moines",
    "public_transport": "stop_position"
  }
},
{
  "type": "node",
  "id": 9043766697,
  "lat": 43.6657527,
  "lon": 4.6172137,
  "tags": {
    "bus": "yes",
    "highway": "bus_stop",
    "name": "Flamants",
    "public_transport": "stop_position"
  }
},
{
  "type": "node",
  "id": 9043766698,
  "lat": 43.6659378,
  "lon": 4.6174923,
  "tags": {
    "bus": "yes",
    "highway": "bus_stop",
    "name": "Flamants",
    "public_transport": "stop_position"
  }
},
{
  "type": "node",
  "id": 9043766699,
  "lat": 43.6660960,
  "lon": 4.6142471,
  "tags": {
    "bus": "yes",
    "highway": "bus_stop",
    "name": "Fauvettes",
    "public_transport": "stop_position"
  }
},
{
  "type": "node",
  "id": 9043766700,
  "lat": 43.6661597,
  "lon": 4.6139908,
  "tags": {
    "bus": "yes",
    "highway": "bus_stop",
    "name": "Fauvettes",
    "public_transport": "stop_position"
  }
},
{
  "type": "node",
  "id": 9043766701,
  "lat": 43.6683649,
  "lon": 4.6137377,
  "tags": {
    "bus": "yes",
    "highway": "bus_stop",
    "name": "Roseaux",
    "public_transport": "stop_position"
  }
},
{
  "type": "node",
  "id": 9043766702,
  "lat": 43.6683313,
  "lon": 4.6134610,
  "tags": {
    "bus": "yes",
    "highway": "bus_stop",
    "name": "Roseaux",
    "public_transport": "stop_position"
  }
},
{
  "type": "node",
  "id": 9043766709,
  "lat": 43.6692949,
  "lon": 4.6151957,
  "tags": {
    "bus": "yes",
    "highway": "bus_stop",
    "name": "Allende",
    "public_transport": "stop_position"
  }
},
{
  "type": "node",
  "id": 9043766712,
  "lat": 43.6698914,
  "lon": 4.6187546,
  "tags": {
    "bus": "yes",
    "highway": "bus_stop",
    "name": "Palais des Congrès",
    "public_transport": "stop_position"
  }
},
{
  "type": "node",
  "id": 9043766713,
  "lat": 43.6698689,
  "lon": 4.6191287,
  "tags": {
    "bus": "yes",
    "highway": "bus_stop",
    "name": "Palais des Congrès",
    "public_transport": "stop_position"
  }
},
{
  "type": "node",
  "id": 9043766714,
  "lat": 43.6749234,
  "lon": 4.6341010,
  "tags": {
    "bus": "yes",
    "highway": "bus_stop",
    "name": "Victor Hugo",
    "network": "Envia",
    "network:wikidata": "Q17640157",
    "network:wikipedia": "fr:Transports en commun de l'agglomération d'Arles",
    "operator": "Transdev Arles",
    "public_transport": "stop_position"
  }
},
{
  "type": "node",
  "id": 9043766715,
  "lat": 43.6745252,
  "lon": 4.6383980,
  "tags": {
    "bus": "yes",
    "highway": "bus_stop",
    "name": "Révolution",
    "public_transport": "stop_position"
  }
},
{
  "type": "node",
  "id": 9043766716,
  "lat": 43.6737518,
  "lon": 4.6396024,
  "tags": {
    "bus": "yes",
    "highway": "bus_stop",
    "name": "Hoche",
    "public_transport": "stop_position"
  }
},
{
  "type": "node",
  "id": 9043779517,
  "lat": 43.6710472,
  "lon": 4.6429019,
  "tags": {
    "bus": "yes",
    "highway": "bus_stop",
    "name": "Minimes",
    "network": "Envia",
    "network:wikidata": "Q17640157",
    "network:wikipedia": "fr:Transports en commun de l'agglomération d'Arles",
    "operator": "Transdev Arles",
    "public_transport": "stop_position"
  }
},
{
  "type": "node",
  "id": 9043779518,
  "lat": 43.6741383,
  "lon": 4.6438236,
  "tags": {
    "bus": "yes",
    "highway": "bus_stop",
    "name": "Wisbech",
    "public_transport": "stop_position"
  }
},
{
  "type": "node",
  "id": 9043779519,
  "lat": 43.6757169,
  "lon": 4.6423590,
  "tags": {
    "bus": "yes",
    "highway": "bus_stop",
    "name": "Vallès",
    "public_transport": "stop_position"
  }
},
{
  "type": "node",
  "id": 9043779520,
  "lat": 43.6755577,
  "lon": 4.6425088,
  "tags": {
    "bus": "yes",
    "highway": "bus_stop",
    "name": "Vallès",
    "public_transport": "stop_position"
  }
},
{
  "type": "node",
  "id": 9043779521,
  "lat": 43.6771522,
  "lon": 4.6410447,
  "tags": {
    "bus": "yes",
    "highway": "bus_stop",
    "name": "Auriol",
    "public_transport": "stop_position"
  }
},
{
  "type": "node",
  "id": 9043779522,
  "lat": 43.6782036,
  "lon": 4.6392647,
  "tags": {
    "bus": "yes",
    "highway": "bus_stop",
    "name": "Sautet",
    "public_transport": "stop_position"
  }
},
{
  "type": "node",
  "id": 9043779523,
  "lat": 43.6782760,
  "lon": 4.6390517,
  "tags": {
    "bus": "yes",
    "highway": "bus_stop",
    "name": "Sautet",
    "public_transport": "stop_position"
  }
},
{
  "type": "node",
  "id": 9043779525,
  "lat": 43.6790064,
  "lon": 4.6369212,
  "tags": {
    "bus": "yes",
    "highway": "bus_stop",
    "name": "Collège Van Gogh",
    "public_transport": "stop_position"
  }
},
{
  "type": "node",
  "id": 9043779526,
  "lat": 43.6791400,
  "lon": 4.6363226,
  "tags": {
    "bus": "yes",
    "highway": "bus_stop",
    "name": "Collège Van Gogh",
    "public_transport": "stop_position"
  }
},
{
  "type": "node",
  "id": 9043779527,
  "lat": 43.6802747,
  "lon": 4.6342946,
  "tags": {
    "bus": "yes",
    "highway": "bus_stop",
    "name": "Brissy",
    "public_transport": "stop_position"
  }
},
{
  "type": "node",
  "id": 9043790194,
  "lat": 43.6804945,
  "lon": 4.6094328,
  "tags": {
    "bus": "yes",
    "highway": "bus_stop",
    "name": "XVieme Corps",
    "public_transport": "stop_position"
  }
},
{
  "type": "node",
  "id": 9043790195,
  "lat": 43.6695873,
  "lon": 4.6375614,
  "tags": {
    "bus": "yes",
    "highway": "bus_stop",
    "name": "York",
    "public_transport": "stop_position"
  }
},
{
  "type": "node",
  "id": 9043802840,
  "lat": 43.6817889,
  "lon": 4.6098430,
  "tags": {
    "bus": "yes",
    "highway": "bus_stop",
    "name": "Saladelles",
    "public_transport": "stop_position"
  }
},
{
  "type": "node",
  "id": 9043802843,
  "lat": 43.6799354,
  "lon": 4.6123705,
  "tags": {
    "bus": "yes",
    "highway": "bus_stop",
    "name": "Galliéni",
    "public_transport": "stop_position"
  }
},
{
  "type": "node",
  "id": 9043802844,
  "lat": 43.6798911,
  "lon": 4.6121081,
  "tags": {
    "bus": "yes",
    "highway": "bus_stop",
    "name": "Galliéni",
    "public_transport": "stop_position"
  }
},
{
  "type": "node",
  "id": 9043802845,
  "lat": 43.6818226,
  "lon": 4.6159834,
  "tags": {
    "bus": "yes",
    "highway": "bus_stop",
    "name": "Dragées",
    "public_transport": "stop_position"
  }
},
{
  "type": "node",
  "id": 9043802846,
  "lat": 43.6818594,
  "lon": 4.6158329,
  "tags": {
    "bus": "yes",
    "highway": "bus_stop",
    "name": "Dragées",
    "public_transport": "stop_position"
  }
},
{
  "type": "node",
  "id": 9043802847,
  "lat": 43.6812204,
  "lon": 4.6192106,
  "tags": {
    "bus": "yes",
    "highway": "bus_stop",
    "name": "Brossolette",
    "public_transport": "stop_position"
  }
},
{
  "type": "node",
  "id": 9043802851,
  "lat": 43.6707593,
  "lon": 4.6309447,
  "tags": {
    "bus": "yes",
    "highway": "bus_stop",
    "name": "Foch",
    "public_transport": "stop_position"
  }
},
{
  "type": "node",
  "id": 9043802852,
  "lat": 43.6708428,
  "lon": 4.6312910,
  "tags": {
    "bus": "yes",
    "highway": "bus_stop",
    "name": "Foch",
    "public_transport": "stop_position"
  }
},
{
  "type": "node",
  "id": 9043802853,
  "lat": 43.6711641,
  "lon": 4.6347821,
  "tags": {
    "bus": "yes",
    "highway": "bus_stop",
    "name": "Jouhaux",
    "public_transport": "stop_position"
  }
},
{
  "type": "node",
  "id": 9043802854,
  "lat": 43.6712699,
  "lon": 4.6345956,
  "tags": {
    "bus": "yes",
    "highway": "bus_stop",
    "name": "Jouhaux",
    "public_transport": "stop_position"
  }
},
{
  "type": "node",
  "id": 9043823506,
  "lat": 43.6816433,
  "lon": 4.6058649,
  "tags": {
    "bus": "yes",
    "highway": "bus_stop",
    "name": "Prêcheurs",
    "public_transport": "stop_position"
  }
},
{
  "type": "node",
  "id": 9043833847,
  "lat": 43.6846182,
  "lon": 4.6150483,
  "tags": {
    "bus": "yes",
    "highway": "bus_stop",
    "name": "Morel",
    "public_transport": "stop_position"
  }
},
{
  "type": "node",
  "id": 9043833848,
  "lat": 43.6831416,
  "lon": 4.6178585,
  "tags": {
    "bus": "yes",
    "highway": "bus_stop",
    "name": "Herriot",
    "public_transport": "stop_position"
  }
},
{
  "type": "node",
  "id": 9043833849,
  "lat": 43.6853717,
  "lon": 4.6097730,
  "tags": {
    "bus": "yes",
    "highway": "bus_stop",
    "name": "Koening",
    "public_transport": "stop_position"
  }
},
{
  "type": "node",
  "id": 9043833850,
  "lat": 43.6840919,
  "lon": 4.6120387,
  "tags": {
    "bus": "yes",
    "highway": "bus_stop",
    "name": "Erikson",
    "public_transport": "stop_position"
  }
},
{
  "type": "node",
  "id": 9044719475,
  "lat": 43.6837965,
  "lon": 4.6146785,
  "tags": {
    "bus": "yes",
    "highway": "bus_stop",
    "name": "Morel",
    "public_transport": "stop_position"
  }
},
{
  "type": "node",
  "id": 9044749210,
  "lat": 43.6915738,
  "lon": 4.6335513,
  "tags": {
    "bus": "yes",
    "highway": "bus_stop",
    "name": "Entre les 2 Gares",
    "public_transport": "stop_position"
  }
},
{
  "type": "node",
  "id": 9044749211,
  "lat": 43.6917107,
  "lon": 4.6334854,
  "tags": {
    "bus": "yes",
    "highway": "bus_stop",
    "name": "Entre les 2 Gares",
    "public_transport": "stop_position"
  }
},
{
  "type": "node",
  "id": 9044749212,
  "lat": 43.6936429,
  "lon": 4.6335812,
  "tags": {
    "bus": "yes",
    "highway": "bus_stop",
    "name": "Souleïado",
    "public_transport": "stop_position"
  }
},
{
  "type": "node",
  "id": 9044749213,
  "lat": 43.6932897,
  "lon": 4.6335714,
  "tags": {
    "bus": "yes",
    "highway": "bus_stop",
    "name": "Souleïado",
    "public_transport": "stop_position"
  }
},
{
  "type": "node",
  "id": 9044749214,
  "lat": 43.6971688,
  "lon": 4.6337177,
  "tags": {
    "bus": "yes",
    "highway": "bus_stop",
    "name": "Hongrie",
    "public_transport": "stop_position"
  }
},
{
  "type": "node",
  "id": 9044749215,
  "lat": 43.6961977,
  "lon": 4.6335907,
  "tags": {
    "bus": "yes",
    "highway": "bus_stop",
    "name": "Hongrie",
    "public_transport": "stop_position"
  }
},
{
  "type": "node",
  "id": 9044749216,
  "lat": 43.7000772,
  "lon": 4.6341060,
  "tags": {
    "bus": "yes",
    "highway": "bus_stop",
    "name": "Copernic",
    "public_transport": "stop_position"
  }
},
{
  "type": "node",
  "id": 9044794979,
  "lat": 43.6728623,
  "lon": 4.6328187,
  "tags": {
    "bus": "yes",
    "highway": "bus_stop",
    "name": "Alyscamps",
    "public_transport": "stop_position"
  }
},
{
  "type": "node",
  "id": 9044794980,
  "lat": 43.6729231,
  "lon": 4.6329141,
  "tags": {
    "bus": "yes",
    "highway": "bus_stop",
    "name": "Alyscamps",
    "public_transport": "stop_position"
  }
},
{
  "type": "node",
  "id": 9044794981,
  "lat": 43.6773345,
  "lon": 4.6391447,
  "tags": {
    "bus": "yes",
    "highway": "bus_stop",
    "name": "Saboly",
    "public_transport": "stop_position"
  }
},
{
  "type": "node",
  "id": 9044794982,
  "lat": 43.6771581,
  "lon": 4.6389383,
  "tags": {
    "bus": "yes",
    "highway": "bus_stop",
    "name": "Saboly",
    "public_transport": "stop_position"
  }
},
{
  "type": "node",
  "id": 9044801717,
  "lat": 43.7002158,
  "lon": 4.6341091,
  "tags": {
    "bus": "yes",
    "highway": "bus_stop",
    "name": "Copernic",
    "public_transport": "stop_position"
  }
},
{
  "type": "node",
  "id": 9044801718,
  "lat": 43.7083402,
  "lon": 4.6344364,
  "tags": {
    "bus": "yes",
    "highway": "bus_stop",
    "name": "Parc de Loisirs",
    "public_transport": "stop_position"
  }
},
{
  "type": "node",
  "id": 9044801719,
  "lat": 43.7091414,
  "lon": 4.6368150,
  "tags": {
    "bus": "yes",
    "highway": "bus_stop",
    "name": "Grand Rhône",
    "public_transport": "stop_position"
  }
},
{
  "type": "node",
  "id": 9044801720,
  "lat": 43.7092209,
  "lon": 4.6361654,
  "tags": {
    "bus": "yes",
    "highway": "bus_stop",
    "name": "Grand Rhône",
    "public_transport": "stop_position"
  }
},
{
  "type": "node",
  "id": 9044883703,
  "lat": 43.6812733,
  "lon": 4.6239575,
  "tags": {
    "bus": "yes",
    "highway": "bus_stop",
    "name": "Robespierre",
    "public_transport": "stop_position"
  }
},
{
  "type": "node",
  "id": 9044883704,
  "lat": 43.6811132,
  "lon": 4.6242874,
  "tags": {
    "bus": "yes",
    "highway": "bus_stop",
    "name": "Robespierre",
    "public_transport": "stop_position"
  }
},
{
  "type": "node",
  "id": 9044883705,
  "lat": 43.6813696,
  "lon": 4.6221800,
  "tags": {
    "bus": "yes",
    "highway": "bus_stop",
    "name": "Verrerie",
    "public_transport": "stop_position"
  }
},
{
  "type": "node",
  "id": 9044883706,
  "lat": 43.6814653,
  "lon": 4.6218741,
  "tags": {
    "bus": "yes",
    "highway": "bus_stop",
    "name": "Verrerie",
    "public_transport": "stop_position"
  }
},
{
  "type": "node",
  "id": 9044883707,
  "lat": 43.6856844,
  "lon": 4.6368339,
  "tags": {
    "bus": "yes",
    "highway": "bus_stop",
    "name": "De Lattre",
    "public_transport": "stop_position"
  }
},
{
  "type": "node",
  "id": 9044883708,
  "lat": 43.6856895,
  "lon": 4.6365079,
  "tags": {
    "bus": "yes",
    "highway": "bus_stop",
    "name": "De Lattre",
    "public_transport": "stop_position"
  }
},
{
  "type": "node",
  "id": 9044883709,
  "lat": 43.6853900,
  "lon": 4.6382260,
  "tags": {
    "bus": "yes",
    "highway": "bus_stop",
    "name": "Edison",
    "public_transport": "stop_position"
  }
},
{
  "type": "node",
  "id": 9044883710,
  "lat": 43.6852875,
  "lon": 4.6382232,
  "tags": {
    "bus": "yes",
    "highway": "bus_stop",
    "name": "Edison",
    "public_transport": "stop_position"
  }
},
{
  "type": "node",
  "id": 9044883711,
  "lat": 43.6826384,
  "lon": 4.6381649,
  "tags": {
    "bus": "yes",
    "highway": "bus_stop",
    "name": "Chateaubriand",
    "public_transport": "stop_position"
  }
},
{
  "type": "node",
  "id": 9044883712,
  "lat": 43.6830282,
  "lon": 4.6400368,
  "tags": {
    "bus": "yes",
    "highway": "bus_stop",
    "name": "Eboue",
    "public_transport": "stop_position"
  }
},
{
  "type": "node",
  "id": 9044883713,
  "lat": 43.6829291,
  "lon": 4.6399720,
  "tags": {
    "bus": "yes",
    "highway": "bus_stop",
    "name": "Eboue",
    "public_transport": "stop_position"
  }
},
{
  "type": "node",
  "id": 9044883714,
  "lat": 43.6848643,
  "lon": 4.6412442,
  "tags": {
    "bus": "yes",
    "highway": "bus_stop",
    "name": "Massenet",
    "public_transport": "stop_position"
  }
},
{
  "type": "node",
  "id": 9044883715,
  "lat": 43.6847679,
  "lon": 4.6411943,
  "tags": {
    "bus": "yes",
    "highway": "bus_stop",
    "name": "Massenet",
    "public_transport": "stop_position"
  }
},
{
  "type": "node",
  "id": 9044883716,
  "lat": 43.6861291,
  "lon": 4.6418859,
  "tags": {
    "bus": "yes",
    "highway": "bus_stop",
    "name": "Chemin Noir",
    "public_transport": "stop_position"
  }
},
{
  "type": "node",
  "id": 9044893717,
  "lat": 43.6864192,
  "lon": 4.6419810,
  "tags": {
    "bus": "yes",
    "highway": "bus_stop",
    "name": "Chemin Noir",
    "public_transport": "stop_position"
  }
},
{
  "type": "node",
  "id": 9044893718,
  "lat": 43.6887046,
  "lon": 4.6419365,
  "tags": {
    "bus": "yes",
    "highway": "bus_stop",
    "name": "Héritier",
    "public_transport": "stop_position"
  }
},
{
  "type": "node",
  "id": 9044893719,
  "lat": 43.6883177,
  "lon": 4.6419570,
  "tags": {
    "bus": "yes",
    "highway": "bus_stop",
    "name": "Héritier",
    "public_transport": "stop_position"
  }
},
{
  "type": "node",
  "id": 9044893720,
  "lat": 43.6904760,
  "lon": 4.6418509,
  "tags": {
    "bus": "yes",
    "highway": "bus_stop",
    "name": "Ribot",
    "public_transport": "stop_position"
  }
},
{
  "type": "node",
  "id": 9044893721,
  "lat": 43.6901338,
  "lon": 4.6491361,
  "tags": {
    "bus": "yes",
    "highway": "bus_stop",
    "name": "9 Collines",
    "public_transport": "stop_position"
  }
},
{
  "type": "node",
  "id": 9044896221,
  "lat": 43.6745464,
  "lon": 4.6280785,
  "tags": {
    "bus": "yes",
    "highway": "bus_stop",
    "name": "Zola",
    "public_transport": "stop_position"
  }
},
{
  "type": "node",
  "id": 9048756346,
  "lat": 43.6736605,
  "lon": 4.6318173,
  "tags": {
    "bus": "yes",
    "highway": "bus_stop",
    "name": "Berthelot",
    "public_transport": "stop_position"
  }
},
{
  "type": "node",
  "id": 9051587984,
  "lat": 43.5783850,
  "lon": 4.4538410,
  "tags": {
    "bus": "yes",
    "highway": "bus_stop",
    "name": "Les Bruns",
    "public_transport": "stop_position"
  }
},
{
  "type": "node",
  "id": 9051587985,
  "lat": 43.5826969,
  "lon": 4.4648403,
  "tags": {
    "bus": "yes",
    "highway": "bus_stop",
    "name": "Paty de la Trinité",
    "public_transport": "stop_position"
  }
},
{
  "type": "node",
  "id": 9051587986,
  "lat": 43.5831209,
  "lon": 4.4652401,
  "tags": {
    "bus": "yes",
    "highway": "bus_stop",
    "name": "Paty de la Trinité",
    "public_transport": "stop_position"
  }
},
{
  "type": "node",
  "id": 9051587988,
  "lat": 43.6104071,
  "lon": 4.4777758,
  "tags": {
    "bus": "yes",
    "highway": "bus_stop",
    "name": "Albaron",
    "public_transport": "stop_position"
  }
},
{
  "type": "node",
  "id": 9051587989,
  "lat": 43.6145357,
  "lon": 4.4816181,
  "tags": {
    "bus": "yes",
    "highway": "bus_stop",
    "name": "Mas de Broglie",
    "public_transport": "stop_position"
  }
},
{
  "type": "node",
  "id": 9051587990,
  "lat": 43.6155561,
  "lon": 4.4827170,
  "tags": {
    "bus": "yes",
    "highway": "bus_stop",
    "name": "Mas de Broglie",
    "public_transport": "stop_position"
  }
},
{
  "type": "node",
  "id": 9051587991,
  "lat": 43.6217165,
  "lon": 4.5062213,
  "tags": {
    "bus": "yes",
    "highway": "bus_stop",
    "name": "L'Oustalet",
    "public_transport": "stop_position"
  }
},
{
  "type": "node",
  "id": 9051587992,
  "lat": 43.6271004,
  "lon": 4.5297430,
  "tags": {
    "bus": "yes",
    "highway": "bus_stop",
    "name": "Pont de Rousty",
    "public_transport": "stop_position"
  }
},
{
  "type": "node",
  "id": 9051587993,
  "lat": 43.6501611,
  "lon": 4.5752437,
  "tags": {
    "bus": "yes",
    "highway": "bus_stop",
    "name": "Bastières",
    "public_transport": "stop_position"
  }
},
{
  "type": "node",
  "id": 9051587994,
  "lat": 43.6499394,
  "lon": 4.5750016,
  "tags": {
    "bus": "yes",
    "highway": "bus_stop",
    "name": "Bastières",
    "public_transport": "stop_position"
  }
},
{
  "type": "node",
  "id": 9155793465,
  "lat": 43.6711237,
  "lon": 4.6416786,
  "tags": {
    "bench": "yes",
    "bin": "yes",
    "bus": "yes",
    "highway": "bus_stop",
    "lit": "yes",
    "name": "Parking des Minimes - Vi’Arelate",
    "network": "Envia",
    "network:wikidata": "Q17640157",
    "network:wikipedia": "fr:Transports en commun de l'agglomération d'Arles",
    "operator": "Transdev Arles",
    "public_transport": "platform",
    "shelter": "yes",
    "tactile_paving": "yes"
  }
}

  ]
}
