{
  "version": 0.6,
  "generator": "Overpass API 0.7.57.1 74a55df1",
  "osm3s": {
    "timestamp_osm_base": "2022-02-13T13:48:54Z",
    "timestamp_areas_base": "2022-02-13T06:29:09Z",
    "copyright": "The data included in this document is from www.openstreetmap.org. The data is made available under ODbL."
  },
  "elements": [

{
  "type": "node",
  "id": 1725690629,
  "lat": -21.1944379,
  "lon": 55.5336312,
  "tags": {
    "addr:country": "RE",
    "highway": "bus_stop",
    "shelter": "yes"
  }
},
{
  "type": "node",
  "id": 1833339330,
  "lat": -21.2485757,
  "lon": 55.4882710,
  "tags": {
    "highway": "bus_stop",
    "name:fr": "Sentier bras de la plaine"
  }
},
{
  "type": "node",
  "id": 2317891440,
  "lat": -21.2043310,
  "lon": 55.5773760,
  "tags": {
    "highway": "bus_stop",
    "operator": "casud",
    "shelter": "yes"
  }
},
{
  "type": "node",
  "id": 2317902699,
  "lat": -21.2034965,
  "lon": 55.5791778,
  "tags": {
    "highway": "bus_stop"
  }
},
{
  "type": "node",
  "id": 2317941102,
  "lat": -21.1967845,
  "lon": 55.5793771,
  "tags": {
    "highway": "bus_stop",
    "name": "Champ de Foire",
    "operator": "Car Jaune",
    "shelter": "yes"
  }
},
{
  "type": "node",
  "id": 2317957629,
  "lat": -21.2053923,
  "lon": 55.5699196,
  "tags": {
    "highway": "bus_stop"
  }
},
{
  "type": "node",
  "id": 2317957630,
  "lat": -21.2056837,
  "lon": 55.5693218,
  "tags": {
    "highway": "bus_stop"
  }
},
{
  "type": "node",
  "id": 3299994570,
  "lat": -21.2156705,
  "lon": 55.5907188,
  "tags": {
    "highway": "bus_stop",
    "operator": "CASUD"
  }
},
{
  "type": "node",
  "id": 3299994571,
  "lat": -21.2155377,
  "lon": 55.5902417,
  "tags": {
    "highway": "bus_stop",
    "operator": "CASUD",
    "shelter": "yes"
  }
},
{
  "type": "node",
  "id": 3302287708,
  "lat": -21.2232695,
  "lon": 55.5808495,
  "tags": {
    "highway": "bus_stop",
    "operator": "CASUD",
    "shelter": "yes"
  }
},
{
  "type": "node",
  "id": 3421324373,
  "lat": -21.2379964,
  "lon": 55.5645128,
  "tags": {
    "highway": "bus_stop"
  }
},
{
  "type": "node",
  "id": 3466881831,
  "lat": -21.2329251,
  "lon": 55.5450313,
  "tags": {
    "addr:country": "RE",
    "bench": "yes",
    "covered": "yes",
    "highway": "bus_stop",
    "shelter": "yes"
  }
},
{
  "type": "node",
  "id": 3483944024,
  "lat": -21.2432113,
  "lon": 55.5498756,
  "tags": {
    "highway": "bus_stop",
    "name": "Borne a Verres"
  }
},
{
  "type": "node",
  "id": 3553910394,
  "lat": -21.2233503,
  "lon": 55.5302558,
  "tags": {
    "bench": "yes",
    "covered": "yes",
    "highway": "bus_stop",
    "shelter": "yes"
  }
},
{
  "type": "node",
  "id": 3553910395,
  "lat": -21.2230140,
  "lon": 55.5307708,
  "tags": {
    "bench": "yes",
    "covered": "yes",
    "highway": "bus_stop",
    "shelter": "yes"
  }
},
{
  "type": "node",
  "id": 4174593052,
  "lat": -21.2334995,
  "lon": 55.5475305,
  "tags": {
    "highway": "bus_stop",
    "name": "Belle vue"
  }
},
{
  "type": "node",
  "id": 4174600082,
  "lat": -21.2544627,
  "lon": 55.5223842,
  "tags": {
    "highway": "bus_stop"
  }
},
{
  "type": "node",
  "id": 4174600607,
  "lat": -21.2462782,
  "lon": 55.5240177,
  "tags": {
    "highway": "bus_stop"
  }
},
{
  "type": "node",
  "id": 4174600837,
  "lat": -21.2368058,
  "lon": 55.5312865,
  "tags": {
    "highway": "bus_stop",
    "name": "Pont Naturel"
  }
},
{
  "type": "node",
  "id": 4174610890,
  "lat": -21.2395321,
  "lon": 55.5390883,
  "tags": {
    "highway": "bus_stop",
    "shelter": "yes"
  }
},
{
  "type": "node",
  "id": 4176797341,
  "lat": -21.2212317,
  "lon": 55.5595187,
  "tags": {
    "highway": "bus_stop",
    "name": "Notre Dame de la Paix"
  }
},
{
  "type": "node",
  "id": 4234394422,
  "lat": -21.2858931,
  "lon": 55.5150525,
  "tags": {
    "bench": "yes",
    "bus": "yes",
    "highway": "bus_stop",
    "name": "Les Azalées",
    "operator": "Car Jaune",
    "public_transport": "platform",
    "ref": "8842",
    "shelter": "yes"
  }
},
{
  "type": "node",
  "id": 4234394424,
  "lat": -21.2861207,
  "lon": 55.5158517,
  "tags": {
    "bench": "yes",
    "bus": "yes",
    "highway": "bus_stop",
    "name": "Les Azalées",
    "operator": "Car Jaune",
    "public_transport": "platform",
    "ref": "98842",
    "shelter": "yes"
  }
},
{
  "type": "node",
  "id": 4234394425,
  "lat": -21.2708786,
  "lon": 55.5074960,
  "tags": {
    "bus": "yes",
    "highway": "bus_stop",
    "name": "Université du Tampon",
    "operator": "Car Jaune",
    "public_transport": "platform",
    "ref": "6120;96120"
  }
},
{
  "type": "node",
  "id": 4238318549,
  "lat": -21.2206413,
  "lon": 55.5529723,
  "tags": {
    "bus": "yes",
    "highway": "bus_stop",
    "name": "Bourg du 23ème",
    "operator": "Car Jaune",
    "public_transport": "platform",
    "ref": "6150"
  }
},
{
  "type": "node",
  "id": 4238318550,
  "lat": -21.2209650,
  "lon": 55.5530270,
  "tags": {
    "bus": "yes",
    "highway": "bus_stop",
    "name": "Bourg du 23ème",
    "operator": "Car Jaune",
    "public_transport": "platform",
    "ref": "96150"
  }
},
{
  "type": "node",
  "id": 4238318552,
  "lat": -21.2380380,
  "lon": 55.5421406,
  "tags": {
    "bench": "yes",
    "bus": "yes",
    "highway": "bus_stop",
    "name": "École du 19ème",
    "operator": "Car Jaune",
    "public_transport": "platform",
    "ref": "6133",
    "shelter": "yes"
  }
},
{
  "type": "node",
  "id": 4238318555,
  "lat": -21.2384464,
  "lon": 55.5422088,
  "tags": {
    "bench": "yes",
    "bus": "yes",
    "highway": "bus_stop",
    "name": "École du 19ème",
    "operator": "Car Jaune",
    "public_transport": "platform",
    "ref": "96133",
    "shelter": "yes"
  }
},
{
  "type": "node",
  "id": 4238318557,
  "lat": -21.1742517,
  "lon": 55.5826680,
  "tags": {
    "bus": "yes",
    "highway": "bus_stop",
    "name": "GR Piton Des Neiges",
    "operator": "Car Jaune",
    "public_transport": "platform",
    "ref": "96131"
  }
},
{
  "type": "node",
  "id": 4238318558,
  "lat": -21.1743191,
  "lon": 55.5823906,
  "tags": {
    "bus": "yes",
    "highway": "bus_stop",
    "name": "GR Piton Des Neiges",
    "operator": "Car Jaune",
    "public_transport": "platform",
    "ref": "6131"
  }
},
{
  "type": "node",
  "id": 4238318561,
  "lat": -21.2026056,
  "lon": 55.5740564,
  "tags": {
    "bench": "yes",
    "bus": "yes",
    "highway": "bus_stop",
    "name": "Maison Du Volcan",
    "operator": "Car Jaune",
    "public_transport": "platform",
    "ref": "96132",
    "shelter": "yes"
  }
},
{
  "type": "node",
  "id": 4238318562,
  "lat": -21.2027056,
  "lon": 55.5737979,
  "tags": {
    "bench": "yes",
    "bus": "yes",
    "highway": "bus_stop",
    "name": "Maison Du Volcan",
    "operator": "Car Jaune",
    "public_transport": "platform",
    "ref": "6132"
  }
},
{
  "type": "node",
  "id": 4238318565,
  "lat": -21.2404526,
  "lon": 55.5284166,
  "tags": {
    "bench": "yes",
    "bus": "yes",
    "highway": "bus_stop",
    "name": "Rond Point 17ème KM",
    "operator": "Car Jaune",
    "public_transport": "platform",
    "ref": "9135",
    "shelter": "yes"
  }
},
{
  "type": "node",
  "id": 4238318566,
  "lat": -21.2409354,
  "lon": 55.5276061,
  "tags": {
    "bus": "yes",
    "highway": "bus_stop",
    "name": "Rond Point 17ème KM",
    "operator": "Car Jaune",
    "public_transport": "platform",
    "ref": "6135"
  }
},
{
  "type": "node",
  "id": 4238318567,
  "lat": -21.2508710,
  "lon": 55.5211573,
  "tags": {
    "bench": "yes",
    "bus": "yes",
    "highway": "bus_stop",
    "name": "Village Du 14ème",
    "operator": "Car Jaune",
    "public_transport": "platform",
    "ref": "96130",
    "shelter": "yes"
  }
},
{
  "type": "node",
  "id": 4238318569,
  "lat": -21.2514199,
  "lon": 55.5207408,
  "tags": {
    "bench": "yes",
    "bus": "yes",
    "highway": "bus_stop",
    "name": "Village Du 14ème",
    "operator": "Car Jaune",
    "public_transport": "platform",
    "ref": "6130",
    "shelter": "yes"
  }
},
{
  "type": "node",
  "id": 4784675616,
  "lat": -21.2743936,
  "lon": 55.5061224,
  "tags": {
    "bench": "yes",
    "bus": "yes",
    "highway": "bus_stop",
    "name": "Clinique Durieux",
    "network": "Alterneo",
    "public_transport": "platform",
    "shelter": "yes"
  }
},
{
  "type": "node",
  "id": 4784675617,
  "lat": -21.2745410,
  "lon": 55.5058915,
  "tags": {
    "bench": "no",
    "bus": "yes",
    "highway": "bus_stop",
    "name": "Clinique Durieux",
    "network": "Alterneo",
    "public_transport": "platform",
    "shelter": "no"
  }
},
{
  "type": "node",
  "id": 4784675775,
  "lat": -21.2774905,
  "lon": 55.5029596,
  "tags": {
    "bus": "yes",
    "highway": "bus_stop",
    "name": "Poste de la chatoire",
    "network": "Alterneo",
    "public_transport": "platform"
  }
},
{
  "type": "node",
  "id": 4784675776,
  "lat": -21.2775353,
  "lon": 55.5027297,
  "tags": {
    "bus": "yes",
    "highway": "bus_stop",
    "name": "Poste de la chatoire",
    "network": "Alterneo",
    "public_transport": "platform"
  }
},
{
  "type": "node",
  "id": 4840101522,
  "lat": -21.3054482,
  "lon": 55.5354388,
  "tags": {
    "bus": "yes",
    "highway": "bus_stop",
    "name": "Piton Terre Rouge",
    "public_transport": "platform",
    "ref": "96136"
  }
},
{
  "type": "node",
  "id": 4840101523,
  "lat": -21.3052320,
  "lon": 55.5352260,
  "tags": {
    "bus": "yes",
    "highway": "bus_stop",
    "name": "Piton Terre Rouge",
    "public_transport": "platform",
    "ref": "6136"
  }
},
{
  "type": "node",
  "id": 4979779522,
  "lat": -21.2079365,
  "lon": 55.5673031,
  "tags": {
    "highway": "bus_stop",
    "source": "Kaart Ground Survey 2017"
  }
},
{
  "type": "node",
  "id": 4979886012,
  "lat": -21.2303587,
  "lon": 55.5507383,
  "tags": {
    "highway": "bus_stop",
    "shelter": "yes",
    "source": "Kaart Ground Survey 2017"
  }
},
{
  "type": "node",
  "id": 4979984028,
  "lat": -21.2343210,
  "lon": 55.5482490,
  "tags": {
    "highway": "bus_stop",
    "shelter": "yes",
    "source": "Kaart Ground Survey 2017"
  }
},
{
  "type": "node",
  "id": 4979984029,
  "lat": -21.2331981,
  "lon": 55.5451713,
  "tags": {
    "highway": "bus_stop",
    "source": "Kaart Ground Survey 2017"
  }
},
{
  "type": "node",
  "id": 4979984030,
  "lat": -21.2323317,
  "lon": 55.5410323,
  "tags": {
    "highway": "bus_stop",
    "name": "Rond point Piton Hyacinthe",
    "shelter": "yes",
    "source": "Kaart Ground Survey 2017"
  }
},
{
  "type": "node",
  "id": 4980001084,
  "lat": -21.2328154,
  "lon": 55.5400805,
  "tags": {
    "highway": "bus_stop",
    "name": "Rond point Piton Hyacinthe",
    "source": "Kaart Ground Survey 2017"
  }
},
{
  "type": "node",
  "id": 4980064774,
  "lat": -21.2398137,
  "lon": 55.5387398,
  "tags": {
    "highway": "bus_stop",
    "shelter": "yes",
    "source": "Kaart Ground Survey 2017"
  }
},
{
  "type": "node",
  "id": 4980092399,
  "lat": -21.2348791,
  "lon": 55.5223212,
  "tags": {
    "highway": "bus_stop",
    "source": "Kaart Ground Survey 2017"
  }
},
{
  "type": "node",
  "id": 4980192065,
  "lat": -21.2600100,
  "lon": 55.5236086,
  "tags": {
    "highway": "bus_stop",
    "source": "Kaart Ground Survey 2017"
  }
},
{
  "type": "node",
  "id": 4980223003,
  "lat": -21.2608091,
  "lon": 55.5241220,
  "tags": {
    "highway": "bus_stop",
    "name": "Chemin Leon",
    "source": "Kaart Ground Survey 2017"
  }
},
{
  "type": "node",
  "id": 4980345197,
  "lat": -21.2641419,
  "lon": 55.5238680,
  "tags": {
    "highway": "bus_stop",
    "source": "Kaart Ground Survey 2017"
  }
},
{
  "type": "node",
  "id": 4980345198,
  "lat": -21.2667074,
  "lon": 55.5249079,
  "tags": {
    "highway": "bus_stop",
    "source": "Kaart Ground Survey 2017"
  }
},
{
  "type": "node",
  "id": 4980345200,
  "lat": -21.2703969,
  "lon": 55.5238011,
  "tags": {
    "highway": "bus_stop",
    "source": "Kaart Ground Survey 2017"
  }
},
{
  "type": "node",
  "id": 4980457991,
  "lat": -21.2827624,
  "lon": 55.5241299,
  "tags": {
    "bus": "yes",
    "highway": "bus_stop",
    "public_transport": "platform",
    "source": "Kaart Ground Survey 2017"
  }
},
{
  "type": "node",
  "id": 4980518080,
  "lat": -21.2663865,
  "lon": 55.5249341,
  "tags": {
    "highway": "bus_stop",
    "source": "Kaart Ground Survey 2017"
  }
},
{
  "type": "node",
  "id": 4980518085,
  "lat": -21.2722776,
  "lon": 55.5247062,
  "tags": {
    "highway": "bus_stop",
    "source": "Kaart Ground Survey 2017"
  }
},
{
  "type": "node",
  "id": 4980518087,
  "lat": -21.2728879,
  "lon": 55.5251552,
  "tags": {
    "highway": "bus_stop",
    "name": "Rue Jules Berthaut",
    "source": "Kaart Ground Survey 2017"
  }
},
{
  "type": "node",
  "id": 4980561940,
  "lat": -21.2829655,
  "lon": 55.5239337,
  "tags": {
    "bus": "yes",
    "highway": "bus_stop",
    "public_transport": "platform",
    "source": "Kaart Ground Survey 2017"
  }
},
{
  "type": "node",
  "id": 4981065426,
  "lat": -21.2669699,
  "lon": 55.5097708,
  "tags": {
    "bus": "yes",
    "highway": "bus_stop",
    "public_transport": "platform",
    "source": "Kaart Ground Survey 2017"
  }
},
{
  "type": "node",
  "id": 4981065430,
  "lat": -21.2655303,
  "lon": 55.5083612,
  "tags": {
    "bus": "yes",
    "highway": "bus_stop",
    "public_transport": "platform",
    "source": "Kaart Ground Survey 2017"
  }
},
{
  "type": "node",
  "id": 4983100308,
  "lat": -21.2640185,
  "lon": 55.5073617,
  "tags": {
    "bus": "yes",
    "highway": "bus_stop",
    "public_transport": "platform",
    "source": "Kaart Ground Survey 2017"
  }
},
{
  "type": "node",
  "id": 4983100311,
  "lat": -21.2715957,
  "lon": 55.5016106,
  "tags": {
    "highway": "bus_stop",
    "source": "Kaart Ground Survey 2017"
  }
},
{
  "type": "node",
  "id": 4983100312,
  "lat": -21.2716377,
  "lon": 55.5013853,
  "tags": {
    "highway": "bus_stop",
    "source": "Kaart Ground Survey 2017"
  }
},
{
  "type": "node",
  "id": 4983164043,
  "lat": -21.2750126,
  "lon": 55.5132843,
  "tags": {
    "bus": "yes",
    "highway": "bus_stop",
    "public_transport": "platform",
    "source": "Kaart Ground Survey 2017"
  }
},
{
  "type": "node",
  "id": 4983241615,
  "lat": -21.2848092,
  "lon": 55.5195649,
  "tags": {
    "highway": "bus_stop",
    "source": "Kaart Ground Survey 2017"
  }
},
{
  "type": "node",
  "id": 4983656244,
  "lat": -21.2763033,
  "lon": 55.5042385,
  "tags": {
    "bus": "yes",
    "highway": "bus_stop",
    "public_transport": "platform",
    "source": "Kaart Ground Survey 2017"
  }
},
{
  "type": "node",
  "id": 4983670824,
  "lat": -21.2764211,
  "lon": 55.5042914,
  "tags": {
    "bus": "yes",
    "highway": "bus_stop",
    "public_transport": "platform",
    "source": "Kaart Ground Survey 2017"
  }
},
{
  "type": "node",
  "id": 5619141014,
  "lat": -21.2797001,
  "lon": 55.5273059,
  "tags": {
    "bus": "yes",
    "highway": "bus_stop",
    "name": "Arrêt de bus",
    "operator": "Carsud",
    "public_transport": "platform"
  }
},
{
  "type": "node",
  "id": 5619141015,
  "lat": -21.2808754,
  "lon": 55.5274301,
  "tags": {
    "bus": "yes",
    "highway": "bus_stop",
    "public_transport": "platform"
  }
},
{
  "type": "node",
  "id": 5619141016,
  "lat": -21.2822923,
  "lon": 55.5288659,
  "tags": {
    "bus": "yes",
    "highway": "bus_stop",
    "public_transport": "platform"
  }
},
{
  "type": "node",
  "id": 5619141017,
  "lat": -21.2847541,
  "lon": 55.5280431,
  "tags": {
    "bus": "yes",
    "highway": "bus_stop",
    "public_transport": "platform"
  }
},
{
  "type": "node",
  "id": 7556240872,
  "lat": -21.2643939,
  "lon": 55.5078597,
  "tags": {
    "bus": "yes",
    "departures_board": "yes",
    "highway": "bus_stop",
    "name": "arrêt Rue Hubert Delisle",
    "public_transport": "platform",
    "shelter": "no"
  }
},
{
  "type": "node",
  "id": 8153668117,
  "lat": -21.2339955,
  "lon": 55.5000214,
  "tags": {
    "highway": "bus_stop"
  }
}

  ]
}
