{
  "version": 0.6,
  "generator": "Overpass API 0.7.57 93a4d346",
  "osm3s": {
    "timestamp_osm_base": "2022-02-13T13:29:38Z",
    "timestamp_areas_base": "2022-02-13T06:31:57Z",
    "copyright": "The data included in this document is from www.openstreetmap.org. The data is made available under ODbL."
  },
  "elements": [

{
  "type": "way",
  "id": 9520433,
  "nodes": [
    73429338,
    73429343,
    73429347,
    6396852635,
    8740474162,
    73429348,
    3571696118,
    3221014016,
    6396852634,
    73429352,
    73429353,
    73429355
  ],
  "tags": {
    "cycleway:right": "lane",
    "highway": "primary",
    "lanes": "2",
    "maxspeed": "50",
    "name": "Route de La Charité",
    "old_ref": "N 151",
    "oneway": "yes",
    "surface": "asphalt"
  }
},
{
  "type": "way",
  "id": 18765920,
  "nodes": [
    193768799,
    193770521,
    193770523,
    193769366
  ],
  "tags": {
    "cycleway:right": "lane",
    "highway": "secondary",
    "maxspeed": "50",
    "name": "Boulevard de la République",
    "oneway": "yes",
    "surface": "asphalt"
  }
},
{
  "type": "way",
  "id": 18766034,
  "nodes": [
    193772081,
    193772083,
    193772084,
    193769360
  ],
  "tags": {
    "cycleway:right": "lane",
    "highway": "secondary",
    "maxspeed": "50",
    "name": "Boulevard Gambetta",
    "old_ref": "N 151",
    "oneway": "yes",
    "surface": "asphalt"
  }
},
{
  "type": "way",
  "id": 19224127,
  "nodes": [
    193813417,
    199548390,
    7481762033
  ],
  "tags": {
    "cycleway:right": "lane",
    "highway": "primary",
    "name": "Avenue de Dun sur Auron",
    "oneway": "yes",
    "ref": "D 2076",
    "surface": "asphalt"
  }
},
{
  "type": "way",
  "id": 19387151,
  "nodes": [
    291712646,
    7627997996,
    201602542,
    370336645,
    201601290,
    201602540,
    7627997997,
    201602538,
    201602537,
    5636102743,
    199101077
  ],
  "tags": {
    "cycleway:left": "opposite_lane",
    "cycleway:right": "lane",
    "highway": "pedestrian",
    "lit": "yes",
    "maxspeed": "10",
    "name": "Rue Jean Girard",
    "oneway": "yes",
    "source": "Direction générale des finances publiques - année 2008",
    "surface": "paving_stones"
  }
},
{
  "type": "way",
  "id": 22502755,
  "nodes": [
    293847989,
    515852935,
    515852936,
    1592644773
  ],
  "tags": {
    "bridge": "yes",
    "cycleway:right": "lane",
    "highway": "secondary",
    "layer": "1",
    "maxspeed": "50",
    "name": "Avenue du 11 Novembre 1918",
    "oneway": "yes",
    "surface": "paved"
  }
},
{
  "type": "way",
  "id": 23596636,
  "nodes": [
    255539930,
    3250298348,
    8932953679,
    8932940488,
    8932941080,
    255518450,
    1835207478,
    3250298344,
    8932946678,
    255539931
  ],
  "tags": {
    "cycleway:right": "lane",
    "highway": "residential",
    "name": "Chemin de Villeneuve",
    "oneway": "yes",
    "oneway:bicycle": "no"
  }
},
{
  "type": "way",
  "id": 24965680,
  "nodes": [
    271290359,
    271290360
  ],
  "tags": {
    "bridge": "yes",
    "cycleway:right": "lane",
    "highway": "residential",
    "layer": "1",
    "name": "Rue du Champ de Foire",
    "oneway": "yes",
    "surface": "asphalt"
  }
},
{
  "type": "way",
  "id": 24965682,
  "nodes": [
    3625956855,
    7057144307,
    7057144302,
    7057144305,
    7057144299,
    271290371,
    7057144303,
    7057144298,
    7057144296,
    7057144294,
    7057144292,
    7057144290,
    271290372,
    7057144287,
    271290373
  ],
  "tags": {
    "cycleway:right": "lane",
    "highway": "residential",
    "name": "Rue du Champ de Foire",
    "oneway": "yes",
    "surface": "asphalt"
  }
},
{
  "type": "way",
  "id": 41801171,
  "nodes": [
    515852100,
    515853101,
    193768428,
    293847989
  ],
  "tags": {
    "bridge": "yes",
    "cycleway:right": "lane",
    "highway": "secondary",
    "layer": "1",
    "maxspeed": "50",
    "name": "Avenue du 11 Novembre 1918",
    "oneway": "yes",
    "surface": "asphalt"
  }
},
{
  "type": "way",
  "id": 45088678,
  "nodes": [
    271290531,
    746169825
  ],
  "tags": {
    "bridge": "yes",
    "cycleway:right": "lane",
    "highway": "residential",
    "layer": "1",
    "name": "Rue Vladimir Jankelevitch",
    "oneway": "yes",
    "sidewalk": "both",
    "surface": "asphalt"
  }
},
{
  "type": "way",
  "id": 45088682,
  "nodes": [
    271290534,
    271290533,
    2924147082,
    746169824,
    271290531
  ],
  "tags": {
    "cycleway:right": "lane",
    "highway": "residential",
    "name": "Rue Vladimir Jankelevitch",
    "oneway": "yes",
    "sidewalk": "both",
    "surface": "asphalt"
  }
},
{
  "type": "way",
  "id": 136229016,
  "nodes": [
    1494691012,
    8944099597,
    1494691017,
    5035062286,
    1494691078,
    1494691117,
    1494691137,
    3632079997,
    199101571
  ],
  "tags": {
    "cycleway:right": "lane",
    "highway": "secondary",
    "maxspeed": "50",
    "name": "Cours Anatole France",
    "oneway": "yes",
    "oneway:bicycle": "yes",
    "surface": "asphalt"
  }
},
{
  "type": "way",
  "id": 136229017,
  "nodes": [
    199101353,
    1494691149,
    202842034,
    1494691135,
    1494691113,
    204849296,
    1494691058,
    242488857,
    1494691039
  ],
  "tags": {
    "cycleway:right": "lane",
    "highway": "secondary",
    "maxspeed": "50",
    "name": "Cours Anatole France",
    "oneway": "yes",
    "oneway:bicycle": "yes",
    "surface": "asphalt"
  }
},
{
  "type": "way",
  "id": 145944451,
  "nodes": [
    1592644773,
    2963573141,
    7052595933,
    1592644772,
    1592644771,
    9104678483,
    7052595919,
    8935671607,
    1592644705,
    1592644774,
    7052595940
  ],
  "tags": {
    "cycleway:right": "lane",
    "highway": "secondary",
    "lanes": "2",
    "maxspeed": "50",
    "name": "Avenue du 11 Novembre 1918",
    "oneway": "yes",
    "ref:FR:FANTOIR": "180334273T",
    "surface": "asphalt"
  }
},
{
  "type": "way",
  "id": 237207275,
  "nodes": [
    2451521764,
    2925549437,
    2925549438
  ],
  "tags": {
    "cycleway:right": "lane",
    "highway": "residential",
    "oneway": "yes"
  }
},
{
  "type": "way",
  "id": 237207277,
  "nodes": [
    2925549438,
    2451521800
  ],
  "tags": {
    "cycleway:right": "lane",
    "highway": "residential",
    "oneway": "yes"
  }
},
{
  "type": "way",
  "id": 291540520,
  "nodes": [
    271290731,
    3563464208,
    271290368,
    271290359
  ],
  "tags": {
    "cycleway:right": "lane",
    "highway": "residential",
    "maxspeed": "50",
    "name": "Rue du Champ de Foire",
    "oneway": "yes",
    "surface": "asphalt"
  }
},
{
  "type": "way",
  "id": 292377435,
  "nodes": [
    109836651,
    109844927,
    5971837623,
    109844930,
    109844932,
    2360275552,
    2034559629,
    109844934,
    109844936,
    2034559627,
    75186827,
    75186830,
    75186831,
    2034559615,
    109844909,
    2034559624,
    109844913,
    109844916,
    109844919,
    109836643,
    2034559613,
    109836651
  ],
  "tags": {
    "cycleway:right": "lane",
    "highway": "secondary",
    "junction": "roundabout",
    "lane_markings": "no",
    "maxspeed": "50",
    "name": "Chaussée de Chappe",
    "surface": "asphalt"
  }
},
{
  "type": "way",
  "id": 314750543,
  "nodes": [
    3207954812,
    8941375648,
    839820213,
    2642940693,
    249545682,
    2642940674,
    3675020260,
    7474709985
  ],
  "tags": {
    "cycleway:right": "lane",
    "highway": "secondary",
    "maxspeed": "50",
    "name": "Rue Pasteur John Bost",
    "oneway": "yes",
    "ref": "D 151",
    "surface": "asphalt"
  }
},
{
  "type": "way",
  "id": 363352092,
  "nodes": [
    3465186201,
    4938339163,
    3465186203,
    4938339170,
    73427087,
    73427081
  ],
  "tags": {
    "cycleway:right": "lane",
    "highway": "primary",
    "maxspeed": "50",
    "name": "Route de La Charité",
    "old_ref": "N 151",
    "oneway": "yes",
    "surface": "asphalt"
  }
},
{
  "type": "way",
  "id": 381810948,
  "nodes": [
    3849773067,
    3849773070,
    3849773073,
    3849773074,
    8944004117,
    3849773077,
    3849773081,
    3849772578,
    3849773084,
    3849773086,
    3849773088,
    3849773090,
    8944016598,
    3849773092,
    3849773094
  ],
  "tags": {
    "cycleway:right": "lane",
    "highway": "primary",
    "maxspeed": "50",
    "name": "Avenue du Général Charles de Gaulle",
    "oneway": "yes",
    "ref": "D 940",
    "surface": "paved"
  }
},
{
  "type": "way",
  "id": 381810949,
  "nodes": [
    3849773069,
    3849773064,
    3849773061,
    3849773060,
    3849773058,
    3849772655
  ],
  "tags": {
    "cycleway:right": "lane",
    "highway": "primary",
    "maxspeed": "50",
    "name": "Avenue du Général Charles de Gaulle",
    "oneway": "yes",
    "ref": "D 940",
    "surface": "asphalt"
  }
},
{
  "type": "way",
  "id": 381810950,
  "nodes": [
    3849772654,
    3849773057,
    3849773059,
    3849773062,
    3849773063,
    3849773067
  ],
  "tags": {
    "cycleway:right": "lane",
    "highway": "primary",
    "maxspeed": "50",
    "name": "Avenue du Général Charles de Gaulle",
    "oneway": "yes",
    "ref": "D 940",
    "surface": "asphalt"
  }
},
{
  "type": "way",
  "id": 435733339,
  "nodes": [
    271290360,
    746169801
  ],
  "tags": {
    "cycleway:right": "lane",
    "highway": "residential",
    "name": "Rue du Champ de Foire",
    "oneway": "yes",
    "surface": "asphalt"
  }
},
{
  "type": "way",
  "id": 490515506,
  "nodes": [
    202840614,
    3625956848,
    1494691182,
    9162090769,
    199101353
  ],
  "tags": {
    "cycleway:right": "lane",
    "cycleway:right:lane": "advisory",
    "highway": "secondary",
    "maxspeed": "50",
    "name": "Cours Anatole France",
    "oneway": "yes",
    "surface": "asphalt"
  }
},
{
  "type": "way",
  "id": 503546525,
  "nodes": [
    2959307253,
    3148279251,
    3148279250,
    73377107,
    3148279249,
    73429337,
    73429338
  ],
  "tags": {
    "cycleway:right": "lane",
    "highway": "primary",
    "lanes": "2",
    "maxspeed": "50",
    "name": "Route de La Charité",
    "old_ref": "N 151",
    "oneway": "yes",
    "surface": "asphalt"
  }
},
{
  "type": "way",
  "id": 503547923,
  "nodes": [
    73427081,
    4938320791,
    4938320790,
    4938320789,
    4938320788,
    4938320787,
    4938320786,
    8453935669,
    4938320785,
    4938320770
  ],
  "tags": {
    "cycleway:right": "lane",
    "highway": "primary",
    "lanes": "1",
    "maxspeed": "50",
    "name": "Route de La Charité",
    "old_ref": "N 151",
    "oneway": "yes",
    "surface": "asphalt"
  }
},
{
  "type": "way",
  "id": 503548477,
  "nodes": [
    4938320763,
    4938325591,
    8453935670,
    3465186201
  ],
  "tags": {
    "cycleway:right": "lane",
    "highway": "primary",
    "lanes": "2",
    "maxspeed": "50",
    "name": "Route de La Charité",
    "oneway": "yes",
    "surface": "asphalt"
  }
},
{
  "type": "way",
  "id": 503548659,
  "nodes": [
    3148279245,
    4938327110,
    4938327111,
    4938327113,
    4938327116,
    4938320783
  ],
  "tags": {
    "cycleway:right": "lane",
    "highway": "primary",
    "lanes": "2",
    "maxspeed": "50",
    "name": "Route de La Charité",
    "old_ref": "N 151",
    "oneway": "yes",
    "surface": "asphalt"
  }
},
{
  "type": "way",
  "id": 503548826,
  "nodes": [
    4938320775,
    4938329612,
    4938329608,
    7251675924,
    4938329607,
    2959307253
  ],
  "tags": {
    "cycleway:right": "lane",
    "highway": "primary",
    "lanes": "2",
    "maxspeed": "50",
    "name": "Route de La Charité",
    "old_ref": "N 151",
    "oneway": "no",
    "surface": "asphalt"
  }
},
{
  "type": "way",
  "id": 517797286,
  "nodes": [
    280363010,
    6040298605,
    193805326
  ],
  "tags": {
    "cycleway:right": "lane",
    "cycleway:right:lane": "exclusive",
    "highway": "primary",
    "lanes": "1",
    "maxspeed": "50",
    "name": "Boulevard du Maréchal Foch",
    "oneway": "yes",
    "surface": "asphalt"
  }
},
{
  "type": "way",
  "id": 641357499,
  "nodes": [
    6040298602,
    6040298603,
    6040298604,
    280363010
  ],
  "tags": {
    "cycleway:right": "lane",
    "cycleway:right:lane": "exclusive",
    "highway": "primary",
    "lanes": "1",
    "maxspeed": "50",
    "name": "Boulevard du Maréchal Foch",
    "oneway": "yes",
    "surface": "asphalt"
  }
},
{
  "type": "way",
  "id": 754966344,
  "nodes": [
    2963573141,
    515852100
  ],
  "tags": {
    "cycleway:right": "lane",
    "highway": "secondary",
    "lanes": "2",
    "maxspeed": "50",
    "name": "Avenue du 11 Novembre 1918",
    "oneway": "yes",
    "ref:FR:FANTOIR": "180334273T",
    "surface": "asphalt"
  }
},
{
  "type": "way",
  "id": 754966345,
  "nodes": [
    7052595935,
    7052595939,
    193768433,
    9104678484,
    193768432,
    8935691840,
    2963573138,
    193768431,
    193768430,
    9104678480,
    7052595932,
    2963573141
  ],
  "tags": {
    "cycleway:right": "lane",
    "highway": "secondary",
    "lanes": "2",
    "maxspeed": "50",
    "name": "Avenue du 11 Novembre 1918",
    "oneway": "yes",
    "ref:FR:FANTOIR": "180334273T",
    "surface": "asphalt"
  }
},
{
  "type": "way",
  "id": 754966346,
  "nodes": [
    7052595936,
    7052595935
  ],
  "tags": {
    "cycleway:right": "lane",
    "fixme": "resurvey",
    "highway": "secondary",
    "lanes": "2",
    "maxspeed": "50",
    "name": "Avenue du 11 Novembre 1918",
    "oneway": "yes",
    "ref:FR:FANTOIR": "180334273T",
    "surface": "asphalt",
    "traffic_calming": "hump"
  }
},
{
  "type": "way",
  "id": 754966347,
  "nodes": [
    7052595937,
    7052595938,
    1592644716,
    1592644718,
    1592644769,
    1592644702,
    1592644754,
    6848937213,
    1592644713,
    293847201
  ],
  "tags": {
    "cycleway:right": "lane",
    "highway": "secondary",
    "lanes": "2",
    "maxspeed": "50",
    "name": "Avenue du 11 Novembre 1918",
    "oneway": "yes",
    "ref:FR:FANTOIR": "180334273T",
    "surface": "asphalt"
  }
},
{
  "type": "way",
  "id": 754966348,
  "nodes": [
    7052595940,
    7052595937
  ],
  "tags": {
    "cycleway:right": "lane",
    "highway": "secondary",
    "lanes": "2",
    "maxspeed": "50",
    "name": "Avenue du 11 Novembre 1918",
    "oneway": "yes",
    "ref:FR:FANTOIR": "180334273T",
    "surface": "asphalt",
    "traffic_calming": "hump"
  }
},
{
  "type": "way",
  "id": 799241100,
  "nodes": [
    7474702379,
    199091424,
    2822333977,
    2822333976,
    3729895297,
    199091425,
    199091426,
    199091427,
    199091428,
    199091430
  ],
  "tags": {
    "cycleway:right": "lane",
    "highway": "primary",
    "lanes": "2",
    "maxspeed": "90",
    "name": "Avenue du Général Charles de Gaulle",
    "oneway": "yes",
    "ref": "D 940",
    "surface": "paved"
  }
},
{
  "type": "way",
  "id": 799241103,
  "nodes": [
    2451521800,
    199089515,
    199089516,
    199089517,
    199089519,
    7474702380
  ],
  "tags": {
    "cycleway:right": "lane",
    "highway": "primary",
    "lanes": "2",
    "maxspeed": "90",
    "name": "Avenue du Général Charles de Gaulle",
    "oneway": "yes",
    "ref": "D 940",
    "surface": "paved"
  }
},
{
  "type": "way",
  "id": 799241106,
  "nodes": [
    3729895298,
    199089514,
    2451521764
  ],
  "tags": {
    "cycleway:right": "lane",
    "highway": "primary",
    "lanes": "2",
    "maxspeed": "90",
    "name": "Avenue du Général Charles de Gaulle",
    "oneway": "yes",
    "ref": "D 940",
    "surface": "paved"
  }
},
{
  "type": "way",
  "id": 799241109,
  "nodes": [
    7474702384,
    3675020259,
    2428661871,
    249545683,
    839820231,
    8941375649,
    3207954815
  ],
  "tags": {
    "cycleway:right": "lane",
    "highway": "secondary",
    "maxspeed": "50",
    "name": "Rue Pasteur John Bost",
    "oneway": "yes",
    "ref": "D 151",
    "surface": "asphalt"
  }
},
{
  "type": "way",
  "id": 799368556,
  "nodes": [
    3849773095,
    2949996129,
    8944016597,
    3849773089,
    3849773087,
    2949997233,
    3849773085,
    3849773083,
    3849773082,
    3849773078,
    8943998789,
    3849773072,
    3849773071,
    3849773069
  ],
  "tags": {
    "cycleway:right": "lane",
    "highway": "primary",
    "maxspeed": "50",
    "name": "Avenue du Général Charles de Gaulle",
    "oneway": "yes",
    "ref": "D 940",
    "surface": "paved"
  }
},
{
  "type": "way",
  "id": 800011300,
  "nodes": [
    370332454,
    4350290790,
    193768444
  ],
  "tags": {
    "cycleway:both": "yes",
    "cycleway:right": "lane",
    "highway": "secondary",
    "lanes": "3",
    "lanes:backward": "1",
    "lanes:forward": "2",
    "maxspeed": "50",
    "name": "Boulevard de la République",
    "oneway": "no",
    "source": "Direction générale des finances publiques - année 2008",
    "surface": "asphalt"
  }
},
{
  "type": "way",
  "id": 800011301,
  "nodes": [
    193768440,
    193768439,
    193768438,
    2879905413,
    193768436,
    193768435,
    7052595936
  ],
  "tags": {
    "cycleway:right": "lane",
    "highway": "secondary",
    "lanes": "2",
    "maxspeed": "50",
    "name": "Avenue du 11 Novembre 1918",
    "oneway": "yes",
    "ref:FR:FANTOIR": "180334273T",
    "surface": "asphalt"
  }
},
{
  "type": "way",
  "id": 800011314,
  "nodes": [
    7481772291,
    199548607,
    193813417
  ],
  "tags": {
    "cycleway:right": "lane",
    "highway": "primary",
    "name": "Avenue de Dun sur Auron",
    "oneway": "yes",
    "ref": "D 2076",
    "surface": "asphalt"
  }
},
{
  "type": "way",
  "id": 830928298,
  "nodes": [
    75067998,
    75067984,
    75067962,
    75067992,
    1787887242,
    1787887245,
    1787887231,
    1787887243,
    1787887241,
    1787887244,
    3148279116,
    1787887240,
    1787890328,
    3148279128,
    1787890329,
    1787890326,
    3148279235,
    1787890325,
    3148279242,
    73427085,
    3148279243,
    3148279245
  ],
  "tags": {
    "cycleway:right": "lane",
    "highway": "primary",
    "lanes": "2",
    "maxspeed": "50",
    "name": "Route de La Charité",
    "old_ref": "N 151",
    "oneway": "yes",
    "surface": "asphalt"
  }
},
{
  "type": "way",
  "id": 840330015,
  "nodes": [
    293847201,
    8935676976,
    3625956853
  ],
  "tags": {
    "cycleway:right": "lane",
    "highway": "secondary",
    "lanes": "2",
    "maxspeed": "50",
    "name": "Avenue du 11 Novembre 1918",
    "oneway": "yes",
    "ref:FR:FANTOIR": "180334273T",
    "surface": "asphalt"
  }
},
{
  "type": "way",
  "id": 840330021,
  "nodes": [
    3625956853,
    1592644759,
    193768444
  ],
  "tags": {
    "cycleway:right": "lane",
    "highway": "secondary",
    "lanes": "2",
    "maxspeed": "50",
    "name": "Avenue du 11 Novembre 1918",
    "oneway": "yes",
    "ref:FR:FANTOIR": "180334273T",
    "surface": "asphalt"
  }
},
{
  "type": "way",
  "id": 840330022,
  "nodes": [
    193768441,
    1592644748,
    193768440
  ],
  "tags": {
    "cycleway:right": "lane",
    "highway": "secondary",
    "lanes": "2",
    "maxspeed": "50",
    "name": "Avenue du 11 Novembre 1918",
    "oneway": "yes",
    "ref:FR:FANTOIR": "180334273T",
    "surface": "asphalt"
  }
},
{
  "type": "way",
  "id": 840330023,
  "nodes": [
    255539931,
    255539630
  ],
  "tags": {
    "cycleway:right": "lane",
    "highway": "residential",
    "name": "Chemin de Villeneuve"
  }
},
{
  "type": "way",
  "id": 850646771,
  "nodes": [
    7935677976,
    3849773104,
    3849773103,
    3849773099,
    3849773095
  ],
  "tags": {
    "cycleway:right": "lane",
    "highway": "primary",
    "maxspeed": "50",
    "name": "Avenue du Général Charles de Gaulle",
    "oneway": "yes",
    "ref": "D 940",
    "surface": "paved"
  }
},
{
  "type": "area",
  "id": 3600050312,
  "tags": {
    "admin_level": "8",
    "boundary": "administrative",
    "label:FR:history": "VAH",
    "name": "Bourges",
    "name:am": "ቡርዥ",
    "name:be": "Бурж",
    "name:bg": "Бурж",
    "name:el": "Μπουρζ",
    "name:fa": "بورژ",
    "name:fr": "Bourges",
    "name:ja": "ブールジュ",
    "name:ko": "부르주",
    "name:la": "Avaricum Biturigum",
    "name:lt": "Buržas",
    "name:mzn": "بورژ",
    "name:oc": "Borges",
    "name:ru": "Бурж",
    "name:sr": "Бурж",
    "name:uk": "Бурж",
    "name:zh": "布尔日",
    "population": "64541",
    "population:date": "2019",
    "postal_code": "18000",
    "ref:INSEE": "18033",
    "source:name:oc": "ieo-bdtopoc",
    "source:population": "INSEE 2022",
    "source:postal_code": "La Poste - 12/2014",
    "type": "boundary",
    "website": "https://www.ville-bourges.fr/",
    "wikidata": "Q132404",
    "wikipedia": "fr:Bourges"
  }
},
{
  "type": "node",
  "id": 255518450,
  "lat": 47.0677173,
  "lon": 2.3719343
},
{
  "type": "node",
  "id": 255539630,
  "lat": 47.0669905,
  "lon": 2.3703989
},
{
  "type": "node",
  "id": 255539931,
  "lat": 47.0671052,
  "lon": 2.3706681
},
{
  "type": "node",
  "id": 1835207478,
  "lat": 47.0675590,
  "lon": 2.3716040
},
{
  "type": "node",
  "id": 3250298344,
  "lat": 47.0674367,
  "lon": 2.3713518
},
{
  "type": "node",
  "id": 8932941080,
  "lat": 47.0677845,
  "lon": 2.3720758
},
{
  "type": "node",
  "id": 8932946678,
  "lat": 47.0671757,
  "lon": 2.3708135
},
{
  "type": "node",
  "id": 255539930,
  "lat": 47.0683128,
  "lon": 2.3731885
},
{
  "type": "node",
  "id": 3250298348,
  "lat": 47.0682377,
  "lon": 2.3730295
},
{
  "type": "node",
  "id": 8932940488,
  "lat": 47.0680781,
  "lon": 2.3726937
},
{
  "type": "node",
  "id": 8932953679,
  "lat": 47.0681751,
  "lon": 2.3728978
},
{
  "type": "node",
  "id": 271290359,
  "lat": 47.0832277,
  "lon": 2.3876169
},
{
  "type": "node",
  "id": 271290360,
  "lat": 47.0830123,
  "lon": 2.3872819
},
{
  "type": "node",
  "id": 271290368,
  "lat": 47.0832495,
  "lon": 2.3878274
},
{
  "type": "node",
  "id": 271290371,
  "lat": 47.0825855,
  "lon": 2.3866003
},
{
  "type": "node",
  "id": 271290372,
  "lat": 47.0821699,
  "lon": 2.3859861
},
{
  "type": "node",
  "id": 271290373,
  "lat": 47.0819947,
  "lon": 2.3856069
},
{
  "type": "node",
  "id": 271290531,
  "lat": 47.0819700,
  "lon": 2.3886505
},
{
  "type": "node",
  "id": 271290533,
  "lat": 47.0813551,
  "lon": 2.3876078
},
{
  "type": "node",
  "id": 271290534,
  "lat": 47.0811772,
  "lon": 2.3873007
},
{
  "type": "node",
  "id": 271290731,
  "lat": 47.0833657,
  "lon": 2.3888693
},
{
  "type": "node",
  "id": 746169801,
  "lat": 47.0829824,
  "lon": 2.3872349
},
{
  "type": "node",
  "id": 746169824,
  "lat": 47.0819290,
  "lon": 2.3885776
},
{
  "type": "node",
  "id": 746169825,
  "lat": 47.0821781,
  "lon": 2.3890140
},
{
  "type": "node",
  "id": 2924147082,
  "lat": 47.0818880,
  "lon": 2.3885083
},
{
  "type": "node",
  "id": 3563464208,
  "lat": 47.0833470,
  "lon": 2.3887328
},
{
  "type": "node",
  "id": 3625956855,
  "lat": 47.0829623,
  "lon": 2.3872018
},
{
  "type": "node",
  "id": 7057144287,
  "lat": 47.0821165,
  "lon": 2.3858705
},
{
  "type": "node",
  "id": 7057144290,
  "lat": 47.0822456,
  "lon": 2.3860980
},
{
  "type": "node",
  "id": 7057144292,
  "lat": 47.0823312,
  "lon": 2.3862245
},
{
  "type": "node",
  "id": 7057144294,
  "lat": 47.0824022,
  "lon": 2.3863294
},
{
  "type": "node",
  "id": 7057144296,
  "lat": 47.0824678,
  "lon": 2.3864263
},
{
  "type": "node",
  "id": 7057144298,
  "lat": 47.0825224,
  "lon": 2.3865070
},
{
  "type": "node",
  "id": 7057144299,
  "lat": 47.0826019,
  "lon": 2.3866265
},
{
  "type": "node",
  "id": 7057144302,
  "lat": 47.0826859,
  "lon": 2.3867606
},
{
  "type": "node",
  "id": 7057144303,
  "lat": 47.0825506,
  "lon": 2.3865487
},
{
  "type": "node",
  "id": 7057144305,
  "lat": 47.0826457,
  "lon": 2.3866964
},
{
  "type": "node",
  "id": 7057144307,
  "lat": 47.0827369,
  "lon": 2.3868420
},
{
  "type": "node",
  "id": 199101353,
  "lat": 47.0838603,
  "lon": 2.4025423
},
{
  "type": "node",
  "id": 199101571,
  "lat": 47.0838986,
  "lon": 2.4029553
},
{
  "type": "node",
  "id": 202840614,
  "lat": 47.0843493,
  "lon": 2.4026116
},
{
  "type": "node",
  "id": 202842034,
  "lat": 47.0832652,
  "lon": 2.4026190
},
{
  "type": "node",
  "id": 204849296,
  "lat": 47.0828372,
  "lon": 2.4026682
},
{
  "type": "node",
  "id": 242488857,
  "lat": 47.0818832,
  "lon": 2.4027744
},
{
  "type": "node",
  "id": 1494691012,
  "lat": 47.0814987,
  "lon": 2.4032220
},
{
  "type": "node",
  "id": 1494691017,
  "lat": 47.0815534,
  "lon": 2.4032193
},
{
  "type": "node",
  "id": 1494691039,
  "lat": 47.0816236,
  "lon": 2.4028036
},
{
  "type": "node",
  "id": 1494691058,
  "lat": 47.0819261,
  "lon": 2.4027667
},
{
  "type": "node",
  "id": 1494691078,
  "lat": 47.0824757,
  "lon": 2.4031153
},
{
  "type": "node",
  "id": 1494691113,
  "lat": 47.0828933,
  "lon": 2.4026622
},
{
  "type": "node",
  "id": 1494691117,
  "lat": 47.0829636,
  "lon": 2.4030622
},
{
  "type": "node",
  "id": 1494691135,
  "lat": 47.0831925,
  "lon": 2.4026281
},
{
  "type": "node",
  "id": 1494691137,
  "lat": 47.0831977,
  "lon": 2.4030386
},
{
  "type": "node",
  "id": 1494691149,
  "lat": 47.0833642,
  "lon": 2.4026087
},
{
  "type": "node",
  "id": 1494691182,
  "lat": 47.0840786,
  "lon": 2.4025543
},
{
  "type": "node",
  "id": 3625956848,
  "lat": 47.0841145,
  "lon": 2.4025618
},
{
  "type": "node",
  "id": 3632079997,
  "lat": 47.0837330,
  "lon": 2.4029744
},
{
  "type": "node",
  "id": 5035062286,
  "lat": 47.0816919,
  "lon": 2.4032056
},
{
  "type": "node",
  "id": 8944099597,
  "lat": 47.0815260,
  "lon": 2.4032206
},
{
  "type": "node",
  "id": 9162090769,
  "lat": 47.0838772,
  "lon": 2.4025422
},
{
  "type": "node",
  "id": 193805326,
  "lat": 47.0785263,
  "lon": 2.4093116
},
{
  "type": "node",
  "id": 280363010,
  "lat": 47.0782251,
  "lon": 2.4088927
},
{
  "type": "node",
  "id": 6040298602,
  "lat": 47.0786240,
  "lon": 2.4091969
},
{
  "type": "node",
  "id": 6040298603,
  "lat": 47.0784924,
  "lon": 2.4091547
},
{
  "type": "node",
  "id": 6040298604,
  "lat": 47.0782771,
  "lon": 2.4089060
},
{
  "type": "node",
  "id": 6040298605,
  "lat": 47.0782494,
  "lon": 2.4089643
},
{
  "type": "node",
  "id": 193768430,
  "lat": 47.0904113,
  "lon": 2.3985076
},
{
  "type": "node",
  "id": 193768431,
  "lat": 47.0901250,
  "lon": 2.3984561
},
{
  "type": "node",
  "id": 193768432,
  "lat": 47.0898387,
  "lon": 2.3984303
},
{
  "type": "node",
  "id": 193768433,
  "lat": 47.0894471,
  "lon": 2.3984647
},
{
  "type": "node",
  "id": 193768435,
  "lat": 47.0888742,
  "lon": 2.3985334
},
{
  "type": "node",
  "id": 193768436,
  "lat": 47.0886312,
  "lon": 2.3985199
},
{
  "type": "node",
  "id": 193768438,
  "lat": 47.0883602,
  "lon": 2.3984475
},
{
  "type": "node",
  "id": 193768439,
  "lat": 47.0881439,
  "lon": 2.3983531
},
{
  "type": "node",
  "id": 193768440,
  "lat": 47.0880255,
  "lon": 2.3982787
},
{
  "type": "node",
  "id": 193768441,
  "lat": 47.0877717,
  "lon": 2.3980234
},
{
  "type": "node",
  "id": 193768444,
  "lat": 47.0875771,
  "lon": 2.3975047
},
{
  "type": "node",
  "id": 193768799,
  "lat": 47.0904453,
  "lon": 2.3941710
},
{
  "type": "node",
  "id": 193769360,
  "lat": 47.0907253,
  "lon": 2.3933980
},
{
  "type": "node",
  "id": 193769366,
  "lat": 47.0907335,
  "lon": 2.3937761
},
{
  "type": "node",
  "id": 193770521,
  "lat": 47.0905505,
  "lon": 2.3940766
},
{
  "type": "node",
  "id": 193770523,
  "lat": 47.0906673,
  "lon": 2.3939564
},
{
  "type": "node",
  "id": 193772081,
  "lat": 47.0904954,
  "lon": 2.3927744
},
{
  "type": "node",
  "id": 193772083,
  "lat": 47.0906159,
  "lon": 2.3930281
},
{
  "type": "node",
  "id": 193772084,
  "lat": 47.0906824,
  "lon": 2.3931985
},
{
  "type": "node",
  "id": 201601290,
  "lat": 47.0857711,
  "lon": 2.3983549
},
{
  "type": "node",
  "id": 201602540,
  "lat": 47.0858255,
  "lon": 2.3983904
},
{
  "type": "node",
  "id": 201602542,
  "lat": 47.0856145,
  "lon": 2.3983374
},
{
  "type": "node",
  "id": 291712646,
  "lat": 47.0855118,
  "lon": 2.3983636
},
{
  "type": "node",
  "id": 293847201,
  "lat": 47.0878526,
  "lon": 2.3979241
},
{
  "type": "node",
  "id": 370332454,
  "lat": 47.0882970,
  "lon": 2.3966744
},
{
  "type": "node",
  "id": 370336645,
  "lat": 47.0857136,
  "lon": 2.3983421
},
{
  "type": "node",
  "id": 515852100,
  "lat": 47.0907810,
  "lon": 2.3986050
},
{
  "type": "node",
  "id": 515852936,
  "lat": 47.0908508,
  "lon": 2.3985277
},
{
  "type": "node",
  "id": 1592644702,
  "lat": 47.0881781,
  "lon": 2.3982665
},
{
  "type": "node",
  "id": 1592644705,
  "lat": 47.0898551,
  "lon": 2.3983392
},
{
  "type": "node",
  "id": 1592644713,
  "lat": 47.0879102,
  "lon": 2.3980156
},
{
  "type": "node",
  "id": 1592644716,
  "lat": 47.0888911,
  "lon": 2.3984251
},
{
  "type": "node",
  "id": 1592644718,
  "lat": 47.0886354,
  "lon": 2.3984048
},
{
  "type": "node",
  "id": 1592644748,
  "lat": 47.0878320,
  "lon": 2.3981041
},
{
  "type": "node",
  "id": 1592644754,
  "lat": 47.0880547,
  "lon": 2.3981722
},
{
  "type": "node",
  "id": 1592644759,
  "lat": 47.0876602,
  "lon": 2.3975841
},
{
  "type": "node",
  "id": 1592644769,
  "lat": 47.0883874,
  "lon": 2.3983578
},
{
  "type": "node",
  "id": 1592644771,
  "lat": 47.0901464,
  "lon": 2.3983655
},
{
  "type": "node",
  "id": 1592644772,
  "lat": 47.0904329,
  "lon": 2.3984170
},
{
  "type": "node",
  "id": 1592644773,
  "lat": 47.0907926,
  "lon": 2.3985047
},
{
  "type": "node",
  "id": 1592644774,
  "lat": 47.0894428,
  "lon": 2.3983643
},
{
  "type": "node",
  "id": 2879905413,
  "lat": 47.0885718,
  "lon": 2.3985118
},
{
  "type": "node",
  "id": 2963573138,
  "lat": 47.0900486,
  "lon": 2.3984492
},
{
  "type": "node",
  "id": 2963573141,
  "lat": 47.0906950,
  "lon": 2.3985301
},
{
  "type": "node",
  "id": 3625956853,
  "lat": 47.0877580,
  "lon": 2.3977540
},
{
  "type": "node",
  "id": 4350290790,
  "lat": 47.0879932,
  "lon": 2.3970267
},
{
  "type": "node",
  "id": 6848937213,
  "lat": 47.0879810,
  "lon": 2.3980954
},
{
  "type": "node",
  "id": 7052595919,
  "lat": 47.0899449,
  "lon": 2.3983453
},
{
  "type": "node",
  "id": 7052595932,
  "lat": 47.0905926,
  "lon": 2.3985508
},
{
  "type": "node",
  "id": 7052595933,
  "lat": 47.0906066,
  "lon": 2.3984494
},
{
  "type": "node",
  "id": 7052595935,
  "lat": 47.0892094,
  "lon": 2.3984932
},
{
  "type": "node",
  "id": 7052595936,
  "lat": 47.0890338,
  "lon": 2.3985131
},
{
  "type": "node",
  "id": 7052595937,
  "lat": 47.0893042,
  "lon": 2.3983784
},
{
  "type": "node",
  "id": 7052595938,
  "lat": 47.0892521,
  "lon": 2.3983843
},
{
  "type": "node",
  "id": 7052595939,
  "lat": 47.0892550,
  "lon": 2.3984877
},
{
  "type": "node",
  "id": 7052595940,
  "lat": 47.0893979,
  "lon": 2.3983689
},
{
  "type": "node",
  "id": 7627997996,
  "lat": 47.0855588,
  "lon": 2.3983435
},
{
  "type": "node",
  "id": 8935671607,
  "lat": 47.0899000,
  "lon": 2.3983422
},
{
  "type": "node",
  "id": 8935676976,
  "lat": 47.0878053,
  "lon": 2.3978391
},
{
  "type": "node",
  "id": 8935691840,
  "lat": 47.0898993,
  "lon": 2.3984358
},
{
  "type": "node",
  "id": 9104678480,
  "lat": 47.0905690,
  "lon": 2.3985452
},
{
  "type": "node",
  "id": 9104678483,
  "lat": 47.0900248,
  "lon": 2.3983533
},
{
  "type": "node",
  "id": 9104678484,
  "lat": 47.0897824,
  "lon": 2.3984352
},
{
  "type": "node",
  "id": 199101077,
  "lat": 47.0864665,
  "lon": 2.3987954
},
{
  "type": "node",
  "id": 201602537,
  "lat": 47.0863167,
  "lon": 2.3987669
},
{
  "type": "node",
  "id": 201602538,
  "lat": 47.0861506,
  "lon": 2.3986747
},
{
  "type": "node",
  "id": 515853101,
  "lat": 47.0908216,
  "lon": 2.3986221
},
{
  "type": "node",
  "id": 5636102743,
  "lat": 47.0863496,
  "lon": 2.3987720
},
{
  "type": "node",
  "id": 7627997997,
  "lat": 47.0860821,
  "lon": 2.3986251
},
{
  "type": "node",
  "id": 193768428,
  "lat": 47.0912528,
  "lon": 2.3987866
},
{
  "type": "node",
  "id": 293847989,
  "lat": 47.0913513,
  "lon": 2.3987645
},
{
  "type": "node",
  "id": 515852935,
  "lat": 47.0912690,
  "lon": 2.3986807
},
{
  "type": "node",
  "id": 199548390,
  "lat": 47.0581299,
  "lon": 2.4265427
},
{
  "type": "node",
  "id": 199548607,
  "lat": 47.0581228,
  "lon": 2.4266284
},
{
  "type": "node",
  "id": 7481762033,
  "lat": 47.0580294,
  "lon": 2.4266334
},
{
  "type": "node",
  "id": 7481772291,
  "lat": 47.0580776,
  "lon": 2.4266916
},
{
  "type": "node",
  "id": 193813417,
  "lat": 47.0584416,
  "lon": 2.4261962
},
{
  "type": "node",
  "id": 75186827,
  "lat": 47.0917775,
  "lon": 2.4216621
},
{
  "type": "node",
  "id": 75186830,
  "lat": 47.0917636,
  "lon": 2.4215838
},
{
  "type": "node",
  "id": 75186831,
  "lat": 47.0917447,
  "lon": 2.4215243
},
{
  "type": "node",
  "id": 109836643,
  "lat": 47.0914192,
  "lon": 2.4215988
},
{
  "type": "node",
  "id": 109836651,
  "lat": 47.0914154,
  "lon": 2.4217747
},
{
  "type": "node",
  "id": 109844909,
  "lat": 47.0916538,
  "lon": 2.4214371
},
{
  "type": "node",
  "id": 109844913,
  "lat": 47.0915453,
  "lon": 2.4214314
},
{
  "type": "node",
  "id": 109844916,
  "lat": 47.0914751,
  "lon": 2.4214842
},
{
  "type": "node",
  "id": 109844919,
  "lat": 47.0914414,
  "lon": 2.4215376
},
{
  "type": "node",
  "id": 109844927,
  "lat": 47.0914407,
  "lon": 2.4218511
},
{
  "type": "node",
  "id": 109844930,
  "lat": 47.0914868,
  "lon": 2.4219189
},
{
  "type": "node",
  "id": 109844932,
  "lat": 47.0915622,
  "lon": 2.4219641
},
{
  "type": "node",
  "id": 109844934,
  "lat": 47.0917043,
  "lon": 2.4219137
},
{
  "type": "node",
  "id": 109844936,
  "lat": 47.0917383,
  "lon": 2.4218653
},
{
  "type": "node",
  "id": 2034559613,
  "lat": 47.0914073,
  "lon": 2.4216920
},
{
  "type": "node",
  "id": 2034559615,
  "lat": 47.0916875,
  "lon": 2.4214600
},
{
  "type": "node",
  "id": 2034559624,
  "lat": 47.0915901,
  "lon": 2.4214222
},
{
  "type": "node",
  "id": 2034559627,
  "lat": 47.0917692,
  "lon": 2.4217821
},
{
  "type": "node",
  "id": 2034559629,
  "lat": 47.0916321,
  "lon": 2.4219619
},
{
  "type": "node",
  "id": 2360275552,
  "lat": 47.0916054,
  "lon": 2.4219627
},
{
  "type": "node",
  "id": 5971837623,
  "lat": 47.0914683,
  "lon": 2.4218916
},
{
  "type": "node",
  "id": 73429337,
  "lat": 47.0954778,
  "lon": 2.4309432
},
{
  "type": "node",
  "id": 73429338,
  "lat": 47.0954492,
  "lon": 2.4304576
},
{
  "type": "node",
  "id": 73429343,
  "lat": 47.0953025,
  "lon": 2.4283144
},
{
  "type": "node",
  "id": 73429347,
  "lat": 47.0952951,
  "lon": 2.4278826
},
{
  "type": "node",
  "id": 73429348,
  "lat": 47.0953967,
  "lon": 2.4271326
},
{
  "type": "node",
  "id": 73429352,
  "lat": 47.0954464,
  "lon": 2.4263978
},
{
  "type": "node",
  "id": 73429353,
  "lat": 47.0954077,
  "lon": 2.4258512
},
{
  "type": "node",
  "id": 73429355,
  "lat": 47.0952479,
  "lon": 2.4251219
},
{
  "type": "node",
  "id": 75067962,
  "lat": 47.0953426,
  "lon": 2.4258992
},
{
  "type": "node",
  "id": 75067984,
  "lat": 47.0952280,
  "lon": 2.4254497
},
{
  "type": "node",
  "id": 75067992,
  "lat": 47.0953856,
  "lon": 2.4263881
},
{
  "type": "node",
  "id": 75067998,
  "lat": 47.0951495,
  "lon": 2.4250323
},
{
  "type": "node",
  "id": 1787887231,
  "lat": 47.0952578,
  "lon": 2.4275921
},
{
  "type": "node",
  "id": 1787887240,
  "lat": 47.0953136,
  "lon": 2.4293703
},
{
  "type": "node",
  "id": 1787887241,
  "lat": 47.0952346,
  "lon": 2.4282396
},
{
  "type": "node",
  "id": 1787887242,
  "lat": 47.0953700,
  "lon": 2.4267369
},
{
  "type": "node",
  "id": 1787887243,
  "lat": 47.0952291,
  "lon": 2.4278855
},
{
  "type": "node",
  "id": 1787887244,
  "lat": 47.0952729,
  "lon": 2.4288350
},
{
  "type": "node",
  "id": 1787887245,
  "lat": 47.0953297,
  "lon": 2.4271207
},
{
  "type": "node",
  "id": 1787890326,
  "lat": 47.0954172,
  "lon": 2.4311176
},
{
  "type": "node",
  "id": 1787890328,
  "lat": 47.0953496,
  "lon": 2.4299991
},
{
  "type": "node",
  "id": 1787890329,
  "lat": 47.0953953,
  "lon": 2.4306857
},
{
  "type": "node",
  "id": 3148279116,
  "lat": 47.0952925,
  "lon": 2.4290926
},
{
  "type": "node",
  "id": 3148279128,
  "lat": 47.0953878,
  "lon": 2.4305730
},
{
  "type": "node",
  "id": 3221014016,
  "lat": 47.0954162,
  "lon": 2.4269326
},
{
  "type": "node",
  "id": 3571696118,
  "lat": 47.0954072,
  "lon": 2.4270244
},
{
  "type": "node",
  "id": 6396852634,
  "lat": 47.0954386,
  "lon": 2.4266692
},
{
  "type": "node",
  "id": 6396852635,
  "lat": 47.0953199,
  "lon": 2.4276096
},
{
  "type": "node",
  "id": 8740474162,
  "lat": 47.0953926,
  "lon": 2.4271581
},
{
  "type": "node",
  "id": 73377107,
  "lat": 47.0956190,
  "lon": 2.4328947
},
{
  "type": "node",
  "id": 73427081,
  "lat": 47.0959004,
  "lon": 2.4373637
},
{
  "type": "node",
  "id": 73427085,
  "lat": 47.0955099,
  "lon": 2.4328217
},
{
  "type": "node",
  "id": 73427087,
  "lat": 47.0958168,
  "lon": 2.4368538
},
{
  "type": "node",
  "id": 1787890325,
  "lat": 47.0954957,
  "lon": 2.4324748
},
{
  "type": "node",
  "id": 2959307253,
  "lat": 47.0956689,
  "lon": 2.4335904
},
{
  "type": "node",
  "id": 3148279235,
  "lat": 47.0954385,
  "lon": 2.4314851
},
{
  "type": "node",
  "id": 3148279242,
  "lat": 47.0955076,
  "lon": 2.4327572
},
{
  "type": "node",
  "id": 3148279243,
  "lat": 47.0955160,
  "lon": 2.4329047
},
{
  "type": "node",
  "id": 3148279245,
  "lat": 47.0955316,
  "lon": 2.4331187
},
{
  "type": "node",
  "id": 3148279249,
  "lat": 47.0955912,
  "lon": 2.4325216
},
{
  "type": "node",
  "id": 3148279250,
  "lat": 47.0956247,
  "lon": 2.4329743
},
{
  "type": "node",
  "id": 3148279251,
  "lat": 47.0956336,
  "lon": 2.4330944
},
{
  "type": "node",
  "id": 3465186201,
  "lat": 47.0957126,
  "lon": 2.4359426
},
{
  "type": "node",
  "id": 3465186203,
  "lat": 47.0957691,
  "lon": 2.4363987
},
{
  "type": "node",
  "id": 4938320763,
  "lat": 47.0956392,
  "lon": 2.4357690
},
{
  "type": "node",
  "id": 4938320770,
  "lat": 47.0957763,
  "lon": 2.4356785
},
{
  "type": "node",
  "id": 4938320775,
  "lat": 47.0957357,
  "lon": 2.4353307
},
{
  "type": "node",
  "id": 4938320783,
  "lat": 47.0956257,
  "lon": 2.4352963
},
{
  "type": "node",
  "id": 4938320785,
  "lat": 47.0957841,
  "lon": 2.4358171
},
{
  "type": "node",
  "id": 4938320786,
  "lat": 47.0957923,
  "lon": 2.4358951
},
{
  "type": "node",
  "id": 4938320787,
  "lat": 47.0958073,
  "lon": 2.4359878
},
{
  "type": "node",
  "id": 4938320788,
  "lat": 47.0958525,
  "lon": 2.4362943
},
{
  "type": "node",
  "id": 4938320789,
  "lat": 47.0958976,
  "lon": 2.4368223
},
{
  "type": "node",
  "id": 4938320790,
  "lat": 47.0958901,
  "lon": 2.4370624
},
{
  "type": "node",
  "id": 4938320791,
  "lat": 47.0958922,
  "lon": 2.4371795
},
{
  "type": "node",
  "id": 4938325591,
  "lat": 47.0956698,
  "lon": 2.4358273
},
{
  "type": "node",
  "id": 4938327110,
  "lat": 47.0956462,
  "lon": 2.4346328
},
{
  "type": "node",
  "id": 4938327111,
  "lat": 47.0956539,
  "lon": 2.4349995
},
{
  "type": "node",
  "id": 4938327113,
  "lat": 47.0956446,
  "lon": 2.4351236
},
{
  "type": "node",
  "id": 4938327116,
  "lat": 47.0956403,
  "lon": 2.4351684
},
{
  "type": "node",
  "id": 4938329607,
  "lat": 47.0957273,
  "lon": 2.4347361
},
{
  "type": "node",
  "id": 4938329608,
  "lat": 47.0957252,
  "lon": 2.4351799
},
{
  "type": "node",
  "id": 4938329612,
  "lat": 47.0957231,
  "lon": 2.4352407
},
{
  "type": "node",
  "id": 4938339163,
  "lat": 47.0957205,
  "lon": 2.4360008
},
{
  "type": "node",
  "id": 4938339170,
  "lat": 47.0957794,
  "lon": 2.4365637
},
{
  "type": "node",
  "id": 7251675924,
  "lat": 47.0957240,
  "lon": 2.4349677
},
{
  "type": "node",
  "id": 8453935669,
  "lat": 47.0957855,
  "lon": 2.4358494
},
{
  "type": "node",
  "id": 8453935670,
  "lat": 47.0956958,
  "lon": 2.4358974
},
{
  "type": "node",
  "id": 3849772654,
  "lat": 47.1024416,
  "lon": 2.4088729
},
{
  "type": "node",
  "id": 3849772655,
  "lat": 47.1024662,
  "lon": 2.4088039
},
{
  "type": "node",
  "id": 3849773057,
  "lat": 47.1025376,
  "lon": 2.4089404
},
{
  "type": "node",
  "id": 3849773058,
  "lat": 47.1025514,
  "lon": 2.4088642
},
{
  "type": "node",
  "id": 3849773059,
  "lat": 47.1026067,
  "lon": 2.4089890
},
{
  "type": "node",
  "id": 3849773060,
  "lat": 47.1026292,
  "lon": 2.4089192
},
{
  "type": "node",
  "id": 3849773061,
  "lat": 47.1026649,
  "lon": 2.4089444
},
{
  "type": "node",
  "id": 3849773062,
  "lat": 47.1030285,
  "lon": 2.4092847
},
{
  "type": "node",
  "id": 3849773063,
  "lat": 47.1030524,
  "lon": 2.4093018
},
{
  "type": "node",
  "id": 3849773064,
  "lat": 47.1030768,
  "lon": 2.4092364
},
{
  "type": "node",
  "id": 3849773067,
  "lat": 47.1031462,
  "lon": 2.4093702
},
{
  "type": "node",
  "id": 3849773069,
  "lat": 47.1031649,
  "lon": 2.4092985
},
{
  "type": "node",
  "id": 3849773070,
  "lat": 47.1032624,
  "lon": 2.4094549
},
{
  "type": "node",
  "id": 3849773071,
  "lat": 47.1032851,
  "lon": 2.4093819
},
{
  "type": "node",
  "id": 3849773072,
  "lat": 47.1033199,
  "lon": 2.4094069
},
{
  "type": "node",
  "id": 3849773073,
  "lat": 47.1033763,
  "lon": 2.4095379
},
{
  "type": "node",
  "id": 3849773074,
  "lat": 47.1036749,
  "lon": 2.4097450
},
{
  "type": "node",
  "id": 3849773077,
  "lat": 47.1038462,
  "lon": 2.4098644
},
{
  "type": "node",
  "id": 3849773078,
  "lat": 47.1038674,
  "lon": 2.4097812
},
{
  "type": "node",
  "id": 3849773081,
  "lat": 47.1039547,
  "lon": 2.4099373
},
{
  "type": "node",
  "id": 3849773082,
  "lat": 47.1039819,
  "lon": 2.4098611
},
{
  "type": "node",
  "id": 3849773083,
  "lat": 47.1040095,
  "lon": 2.4098804
},
{
  "type": "node",
  "id": 8943998789,
  "lat": 47.1037280,
  "lon": 2.4096859
},
{
  "type": "node",
  "id": 8944004117,
  "lat": 47.1037044,
  "lon": 2.4097656
},
{
  "type": "node",
  "id": 2949996129,
  "lat": 47.1060374,
  "lon": 2.4112771
},
{
  "type": "node",
  "id": 2949997233,
  "lat": 47.1045700,
  "lon": 2.4102666
},
{
  "type": "node",
  "id": 3849772578,
  "lat": 47.1044084,
  "lon": 2.4102432
},
{
  "type": "node",
  "id": 3849773084,
  "lat": 47.1045176,
  "lon": 2.4103184
},
{
  "type": "node",
  "id": 3849773085,
  "lat": 47.1045393,
  "lon": 2.4102467
},
{
  "type": "node",
  "id": 3849773086,
  "lat": 47.1047764,
  "lon": 2.4104960
},
{
  "type": "node",
  "id": 3849773087,
  "lat": 47.1047986,
  "lon": 2.4104244
},
{
  "type": "node",
  "id": 3849773088,
  "lat": 47.1048657,
  "lon": 2.4105582
},
{
  "type": "node",
  "id": 3849773089,
  "lat": 47.1048852,
  "lon": 2.4104863
},
{
  "type": "node",
  "id": 3849773090,
  "lat": 47.1051846,
  "lon": 2.4107779
},
{
  "type": "node",
  "id": 3849773092,
  "lat": 47.1061131,
  "lon": 2.4114178
},
{
  "type": "node",
  "id": 3849773094,
  "lat": 47.1061359,
  "lon": 2.4114360
},
{
  "type": "node",
  "id": 3849773095,
  "lat": 47.1061561,
  "lon": 2.4113614
},
{
  "type": "node",
  "id": 3849773099,
  "lat": 47.1062831,
  "lon": 2.4114495
},
{
  "type": "node",
  "id": 3849773103,
  "lat": 47.1063897,
  "lon": 2.4115232
},
{
  "type": "node",
  "id": 3849773104,
  "lat": 47.1064242,
  "lon": 2.4115472
},
{
  "type": "node",
  "id": 7935677976,
  "lat": 47.1065452,
  "lon": 2.4116308
},
{
  "type": "node",
  "id": 8944016597,
  "lat": 47.1054729,
  "lon": 2.4108897
},
{
  "type": "node",
  "id": 8944016598,
  "lat": 47.1054495,
  "lon": 2.4109605
},
{
  "type": "node",
  "id": 249545682,
  "lat": 47.1180572,
  "lon": 2.4160827
},
{
  "type": "node",
  "id": 249545683,
  "lat": 47.1181098,
  "lon": 2.4161059
},
{
  "type": "node",
  "id": 839820213,
  "lat": 47.1182198,
  "lon": 2.4157387
},
{
  "type": "node",
  "id": 839820231,
  "lat": 47.1182611,
  "lon": 2.4157812
},
{
  "type": "node",
  "id": 2428661871,
  "lat": 47.1180323,
  "lon": 2.4162753
},
{
  "type": "node",
  "id": 2642940674,
  "lat": 47.1179597,
  "lon": 2.4162856
},
{
  "type": "node",
  "id": 2642940693,
  "lat": 47.1181960,
  "lon": 2.4157872
},
{
  "type": "node",
  "id": 3207954812,
  "lat": 47.1184783,
  "lon": 2.4151761
},
{
  "type": "node",
  "id": 3207954815,
  "lat": 47.1185467,
  "lon": 2.4152382
},
{
  "type": "node",
  "id": 3675020259,
  "lat": 47.1179351,
  "lon": 2.4164713
},
{
  "type": "node",
  "id": 3675020260,
  "lat": 47.1176825,
  "lon": 2.4168758
},
{
  "type": "node",
  "id": 7474702384,
  "lat": 47.1176780,
  "lon": 2.4169965
},
{
  "type": "node",
  "id": 7474709985,
  "lat": 47.1176481,
  "lon": 2.4169555
},
{
  "type": "node",
  "id": 8941375648,
  "lat": 47.1184312,
  "lon": 2.4152928
},
{
  "type": "node",
  "id": 8941375649,
  "lat": 47.1184802,
  "lon": 2.4153409
},
{
  "type": "node",
  "id": 199089514,
  "lat": 47.1177078,
  "lon": 2.4193795
},
{
  "type": "node",
  "id": 199089515,
  "lat": 47.1192790,
  "lon": 2.4203865
},
{
  "type": "node",
  "id": 199089516,
  "lat": 47.1209524,
  "lon": 2.4215244
},
{
  "type": "node",
  "id": 199089517,
  "lat": 47.1222691,
  "lon": 2.4224317
},
{
  "type": "node",
  "id": 199089519,
  "lat": 47.1232002,
  "lon": 2.4230744
},
{
  "type": "node",
  "id": 199091424,
  "lat": 47.1235774,
  "lon": 2.4231638
},
{
  "type": "node",
  "id": 199091425,
  "lat": 47.1193297,
  "lon": 2.4202756
},
{
  "type": "node",
  "id": 199091426,
  "lat": 47.1175956,
  "lon": 2.4191633
},
{
  "type": "node",
  "id": 199091427,
  "lat": 47.1174478,
  "lon": 2.4190630
},
{
  "type": "node",
  "id": 199091428,
  "lat": 47.1173098,
  "lon": 2.4189337
},
{
  "type": "node",
  "id": 199091430,
  "lat": 47.1171776,
  "lon": 2.4188089
},
{
  "type": "node",
  "id": 2451521764,
  "lat": 47.1183592,
  "lon": 2.4198033
},
{
  "type": "node",
  "id": 2451521800,
  "lat": 47.1189601,
  "lon": 2.4201915
},
{
  "type": "node",
  "id": 2822333976,
  "lat": 47.1209922,
  "lon": 2.4213933
},
{
  "type": "node",
  "id": 2822333977,
  "lat": 47.1223191,
  "lon": 2.4223090
},
{
  "type": "node",
  "id": 2925549437,
  "lat": 47.1185448,
  "lon": 2.4202770
},
{
  "type": "node",
  "id": 2925549438,
  "lat": 47.1186178,
  "lon": 2.4203580
},
{
  "type": "node",
  "id": 3729895297,
  "lat": 47.1198665,
  "lon": 2.4206365
},
{
  "type": "node",
  "id": 3729895298,
  "lat": 47.1174662,
  "lon": 2.4191979
},
{
  "type": "node",
  "id": 7474702380,
  "lat": 47.1235873,
  "lon": 2.4233386
},
{
  "type": "node",
  "id": 7474702379,
  "lat": 47.1236897,
  "lon": 2.4232408
}

  ]
}
