{
  "version": 0.6,
  "generator": "Overpass API 0.7.57 93a4d346",
  "osm3s": {
    "timestamp_osm_base": "2022-02-13T13:29:38Z",
    "timestamp_areas_base": "2022-02-13T06:31:57Z",
    "copyright": "The data included in this document is from www.openstreetmap.org. The data is made available under ODbL."
  },
  "elements": [

{
  "type": "way",
  "id": 23160037,
  "nodes": [
    249481469,
    249482052
  ],
  "tags": {
    "cycleway:right": "lane",
    "cycleway:right:lane": "advisory",
    "highway": "secondary",
    "lanes": "1",
    "lit": "yes",
    "maxspeed": "50",
    "name": "Boulevard Rocheplatte",
    "oneway": "yes",
    "surface": "asphalt"
  }
},
{
  "type": "way",
  "id": 25606621,
  "nodes": [
    279103866,
    7902465987,
    7902465939,
    3092964135
  ],
  "tags": {
    "access": "permissive",
    "cycleway:right": "lane",
    "destination:forward": "Olivet",
    "destination:to:forward": "Vierzon",
    "highway": "tertiary",
    "lanes": "2",
    "maxspeed": "30",
    "name": "Rue des Balletières",
    "oneway": "no",
    "surface": "asphalt"
  }
},
{
  "type": "way",
  "id": 25606622,
  "nodes": [
    279103875,
    672971029,
    672971032,
    672971034,
    7902466024,
    7902466025,
    7902466026,
    7902466047,
    279103874,
    672971036,
    672971040,
    7902466021,
    7902466022,
    279103876,
    672971043,
    672971044,
    672971048,
    7902466023,
    279103877,
    672971053,
    279103875
  ],
  "tags": {
    "cycleway:right": "lane",
    "highway": "tertiary",
    "junction": "roundabout",
    "surface": "asphalt"
  }
},
{
  "type": "way",
  "id": 26258682,
  "nodes": [
    287593611,
    4235055217,
    6598025679,
    8361125450,
    1764895345,
    1764895347,
    306523154
  ],
  "tags": {
    "cycleway:right": "lane",
    "highway": "secondary",
    "name": "Avenue Dauphine",
    "old_ref": "D 920",
    "oneway": "yes"
  }
},
{
  "type": "way",
  "id": 26263085,
  "nodes": [
    7086338967,
    2152733419,
    287645723,
    287645725,
    9051065273,
    287645726,
    4242829078,
    9051084350,
    287645727,
    5736780943,
    287645728,
    4242829077,
    4242829076,
    9051006185,
    4242829075,
    287645729,
    287645731,
    287645732,
    287645703
  ],
  "tags": {
    "cycleway:left": "opposite_lane",
    "cycleway:right": "lane",
    "highway": "residential",
    "maxspeed": "30",
    "name": "Rue Greffier",
    "oneway": "yes",
    "zone:maxspeed": "FR:30"
  }
},
{
  "type": "way",
  "id": 26263105,
  "nodes": [
    287645703,
    7543835108,
    1764895349,
    2876162264,
    6227908410,
    287645704,
    287645705,
    7550928168,
    287645706,
    287645707,
    287645709,
    287645710,
    287645711,
    287645712,
    287645714,
    5875955321,
    287645715,
    287645716,
    287645717,
    287645718,
    7543831119,
    287645720,
    7550904927,
    5736673362,
    2152733413,
    287645721
  ],
  "tags": {
    "cycleway": "opposite_lane",
    "cycleway:right": "lane",
    "highway": "residential",
    "maxspeed": "30",
    "name": "Rue Monseigneur Von Galen",
    "oneway": "yes",
    "surface": "asphalt"
  }
},
{
  "type": "way",
  "id": 27434858,
  "nodes": [
    301217545,
    301217556,
    646471007,
    301217555,
    419878268,
    301217554,
    1335930049,
    301217553,
    301217552,
    6592873784,
    2267484852,
    9373083204,
    9373115009,
    301217551,
    9373115008,
    1303464769,
    385497792,
    301217550,
    385497796,
    1887445886,
    301217549,
    5736009296,
    2267485027,
    6592874185,
    300450232,
    9373083205,
    301217548,
    301217547,
    301217546,
    9373083203,
    301217545
  ],
  "tags": {
    "cycleway:right": "lane",
    "highway": "tertiary",
    "junction": "roundabout",
    "lane_markings": "no",
    "maxspeed": "50",
    "maxspeed:type": "sign",
    "name": "Place Anatole France",
    "surface": "asphalt"
  }
},
{
  "type": "way",
  "id": 30375897,
  "nodes": [
    250286553,
    1648230868
  ],
  "tags": {
    "cycleway:right": "lane",
    "highway": "primary",
    "lanes": "1",
    "lit": "yes",
    "maxspeed": "30",
    "name": "Boulevard de Verdun",
    "oneway": "yes",
    "surface": "asphalt",
    "width": "3"
  }
},
{
  "type": "way",
  "id": 30602151,
  "nodes": [
    6301309160,
    6301175320,
    6301175319,
    6301175318,
    306508374,
    1649344576,
    8196910296,
    5923838117,
    1649344582,
    6301175312
  ],
  "tags": {
    "cycleway:right": "lane",
    "highway": "primary",
    "lanes": "1",
    "lit": "yes",
    "maxspeed": "30",
    "name": "Boulevard de Verdun",
    "oneway": "yes",
    "surface": "asphalt"
  }
},
{
  "type": "way",
  "id": 33885366,
  "nodes": [
    7614509760,
    6019604875,
    6835399436,
    8197354577,
    5918273461,
    249481603
  ],
  "tags": {
    "cycleway:right": "lane",
    "highway": "secondary",
    "lanes": "1",
    "maxspeed": "50",
    "maxspeed:type": "sign",
    "name": "Rue du Faubourg Saint-Jean",
    "oneway": "yes",
    "surface": "asphalt"
  }
},
{
  "type": "way",
  "id": 34118805,
  "nodes": [
    250318733,
    7395269639,
    1920882534,
    6815635726,
    5881609108,
    6815474068,
    6884628657
  ],
  "tags": {
    "busway": "opposite_lane",
    "cycleway:right": "lane",
    "highway": "residential",
    "lit": "yes",
    "maxspeed:type": "FR:urban",
    "name": "Rue du Greffoir",
    "oneway": "yes",
    "surface": "asphalt"
  }
},
{
  "type": "way",
  "id": 38221653,
  "nodes": [
    287645824,
    3401614501,
    287645823
  ],
  "tags": {
    "cycleway:right": "lane",
    "highway": "residential",
    "oneway": "yes",
    "oneway:bicycle": "yes"
  }
},
{
  "type": "way",
  "id": 38333610,
  "nodes": [
    452638533,
    1355468586,
    6303077659,
    452639055,
    7619614537,
    279103557
  ],
  "tags": {
    "cycleway:right": "lane",
    "highway": "tertiary",
    "maxspeed": "50",
    "name": "Rue Mothiron",
    "oneway": "yes",
    "surface": "asphalt"
  }
},
{
  "type": "way",
  "id": 38592581,
  "nodes": [
    6301480652,
    5923821130,
    457172398,
    485286580,
    457172405,
    6996243715,
    5928551063,
    6996243714,
    1649782840,
    5928551062,
    4223863903
  ],
  "tags": {
    "cycleway:right": "lane",
    "cycleway:right:lane": "exclusive",
    "highway": "tertiary",
    "lanes": "2",
    "name": "Rue Albert 1er",
    "oneway": "yes",
    "ref:FR:FANTOIR": "452340179F",
    "surface": "asphalt"
  }
},
{
  "type": "way",
  "id": 40242829,
  "nodes": [
    485232998,
    7080197394,
    7080197396,
    485232995
  ],
  "tags": {
    "cycleway:right": "lane",
    "highway": "residential",
    "maxspeed": "30",
    "name": "Rue des Roses",
    "oneway": "yes"
  }
},
{
  "type": "way",
  "id": 42045225,
  "nodes": [
    301217546,
    9373114977,
    2506870515,
    9379960092,
    8046441611
  ],
  "tags": {
    "cycleway:right": "lane",
    "cycleway:right:lane": "advisory",
    "highway": "tertiary",
    "lane_markings": "no",
    "name": "Rue George Sand",
    "oneway": "yes",
    "source": "cadastre-dgi-fr source : Direction Générale des Impôts - Cadastre;mise à jour : 2009",
    "surface": "asphalt"
  }
},
{
  "type": "way",
  "id": 42045232,
  "nodes": [
    1887445886,
    9373115003,
    9373153564,
    2506870519,
    8946618713,
    1335930064,
    2323067896,
    7309697137,
    9177756365,
    5214259494
  ],
  "tags": {
    "cycleway:right": "lane",
    "highway": "tertiary",
    "maxspeed": "50",
    "name": "Rue Ambroise Paré",
    "oneway": "yes",
    "source": "cadastre-dgi-fr source : Direction Générale des Impôts - Cadastre;mise à jour : 2009",
    "surface": "asphalt"
  }
},
{
  "type": "way",
  "id": 42160479,
  "nodes": [
    524684793,
    1335930105,
    4242782388,
    1335930100,
    7309721382,
    1335930095,
    5736009271,
    5736009272,
    1648303847
  ],
  "tags": {
    "cycleway:right": "lane",
    "highway": "unclassified",
    "maxspeed": "50",
    "maxspeed:type": "sign",
    "name": "Avenue de Bolière",
    "oneway": "yes",
    "source": "cadastre-dgi-fr source : Direction Générale des Impôts - Cadastre;mise à jour : 2009",
    "surface": "asphalt"
  }
},
{
  "type": "way",
  "id": 42170967,
  "nodes": [
    525008489,
    6225453117,
    525008487,
    525008507,
    6225476800,
    525008505,
    6225476793,
    6225476792,
    6225476786,
    525008522,
    3796886754,
    6225480469,
    525008529
  ],
  "tags": {
    "cycleway:right": "lane",
    "highway": "tertiary",
    "name": "Rue Romain Rolland",
    "oneway": "yes",
    "source": "cadastre-dgi-fr source : Direction Générale des Impôts - Cadastre;mise à jour : 2009"
  }
},
{
  "type": "way",
  "id": 48764067,
  "nodes": [
    306700816,
    7319617224,
    618823589,
    1655198013,
    6855239558,
    618823606
  ],
  "tags": {
    "cycleway:right": "lane",
    "highway": "residential",
    "name": "Rue Charles le Chauve",
    "oneway": "yes",
    "source": "cadastre-dgi-fr source : Direction Générale des Impôts - Cadastre ; mise à jour : 2010"
  }
},
{
  "type": "way",
  "id": 48764069,
  "nodes": [
    618823607,
    618823605,
    1655198011,
    1655198008
  ],
  "tags": {
    "cycleway:right": "lane",
    "highway": "residential",
    "maxspeed": "30",
    "name": "Rue Charles le Chauve",
    "oneway": "yes",
    "source": "cadastre-dgi-fr source : Direction Générale des Impôts - Cadastre;mise à jour : 2010"
  }
},
{
  "type": "way",
  "id": 50228405,
  "nodes": [
    3092964135,
    5736780616,
    7902465935,
    3092964269,
    2109776227,
    7902466019,
    2109776228,
    7902466020,
    2109776231
  ],
  "tags": {
    "access": "permissive",
    "cycleway:right": "lane",
    "highway": "tertiary",
    "lanes": "2",
    "maxspeed": "50",
    "name": "Chemin du Pont Cotelle",
    "oneway": "no",
    "source": "cadastre-dgi-fr source : Direction Générale des Impôts - Cadastre. Mise à jour : 2012",
    "surface": "asphalt"
  }
},
{
  "type": "way",
  "id": 55338883,
  "nodes": [
    383654401,
    1764895355,
    695119779,
    8361125449,
    1764895340,
    3542091365,
    8361125451,
    4235055216
  ],
  "tags": {
    "cycleway:right": "lane",
    "highway": "secondary",
    "name": "Avenue Dauphine",
    "old_ref": "D 920",
    "oneway": "yes"
  }
},
{
  "type": "way",
  "id": 55954886,
  "nodes": [
    249482052,
    249482053,
    7614509761,
    7614509762,
    6019604874,
    7614509760
  ],
  "tags": {
    "cycleway:right": "lane",
    "cycleway:right:lane": "advisory",
    "highway": "secondary",
    "lanes": "2",
    "lit": "yes",
    "maxspeed": "50",
    "name": "Boulevard Rocheplatte",
    "oneway": "yes",
    "surface": "asphalt"
  }
},
{
  "type": "way",
  "id": 118841610,
  "nodes": [
    1335930049,
    9373114988,
    1335930054,
    2506870516,
    1335930061,
    2303483578,
    1335930065,
    7309721291,
    5736009301,
    1335930066,
    1933649163,
    1335930067,
    1335930068,
    8946618714,
    1335930069,
    5736009302,
    1335930070,
    1933649187
  ],
  "tags": {
    "cycleway:right": "lane",
    "cycleway:right:lane": "exclusive",
    "highway": "unclassified",
    "lane_markings": "no",
    "lit": "yes",
    "maxspeed": "50",
    "maxspeed:type": "sign",
    "name": "Avenue de Bolière",
    "oneway": "yes",
    "surface": "asphalt"
  }
},
{
  "type": "way",
  "id": 118841611,
  "nodes": [
    2216636826,
    2216636819,
    1335930110,
    6276091210,
    1335930108,
    5736009277,
    4242782492,
    301219024
  ],
  "tags": {
    "cycleway:right": "lane",
    "highway": "unclassified",
    "maxspeed": "50",
    "maxspeed:type": "sign",
    "name": "Avenue de Bolière",
    "oneway": "yes",
    "surface": "asphalt"
  }
},
{
  "type": "way",
  "id": 118841612,
  "nodes": [
    1823918139,
    4242782491,
    1335930107,
    2189634674,
    5305352009,
    1335930109,
    5736009280,
    1335930111,
    6225627192,
    2216636823
  ],
  "tags": {
    "cycleway:right": "lane",
    "highway": "unclassified",
    "maxspeed": "50",
    "maxspeed:type": "sign",
    "name": "Avenue de Bolière",
    "oneway": "yes",
    "surface": "asphalt"
  }
},
{
  "type": "way",
  "id": 118841615,
  "nodes": [
    3289929178,
    5736009256,
    7309486326,
    522018965,
    9177756369,
    5214259491
  ],
  "tags": {
    "cycleway:right": "lane",
    "highway": "tertiary",
    "maxspeed": "50",
    "name": "Rue Ambroise Paré",
    "oneway": "yes",
    "surface": "asphalt"
  }
},
{
  "type": "way",
  "id": 130545375,
  "nodes": [
    1312749140,
    5909322748,
    5909322741,
    5909322749,
    1903198339
  ],
  "tags": {
    "cycleway:right": "lane",
    "highway": "residential",
    "lanes": "2",
    "lit": "yes",
    "maxspeed": "50",
    "name": "Quai du Châtelet",
    "old_ref": "N 152",
    "oneway": "yes",
    "surface": "asphalt"
  }
},
{
  "type": "way",
  "id": 138926680,
  "nodes": [
    1520406519,
    1523017121,
    1520406745,
    1523017123,
    1520406777,
    1523017126,
    1520406349,
    1523017129,
    1520406371,
    1523017131,
    1520406525,
    1523017132,
    1520406044,
    1523017130,
    1520406075,
    1523017128,
    1520406666,
    1523017124,
    1520406357,
    1523017122,
    1520406046,
    1523017120,
    1520406262,
    1523017118,
    1520406453,
    1523017115,
    279103866,
    1523017112,
    1291461156,
    1523017111,
    279103868,
    1523017113,
    672971417,
    1523017116,
    279103869,
    1523017119,
    672971418,
    1520406519
  ],
  "tags": {
    "cycleway:right": "lane",
    "highway": "secondary",
    "junction": "roundabout",
    "source": "cadastre-dgi-fr source : Direction Générale des Impôts - Cadastre. Mise à jour : 2011",
    "surface": "asphalt"
  }
},
{
  "type": "way",
  "id": 145744207,
  "nodes": [
    1590969298,
    6022547969,
    1590969288,
    6022547970,
    1590969285,
    1590969274,
    7947644978,
    1590969239,
    6022577853,
    1590969230,
    1590969225,
    3369093260,
    7947644973,
    1590969234
  ],
  "tags": {
    "cycleway:right": "lane",
    "highway": "residential",
    "name": "Rue du Faubourg Bannier",
    "oneway": "yes",
    "ref:FR:FANTOIR": "452340492W",
    "source": "cadastre-dgi-fr source : Direction Générale des Impôts - Cadastre. Mise à jour : 2012",
    "surface": "asphalt"
  }
},
{
  "type": "way",
  "id": 151991172,
  "nodes": [
    339884990,
    9393991499,
    6301480651,
    6301480652
  ],
  "tags": {
    "cycleway:right": "lane",
    "highway": "primary",
    "lanes": "2",
    "lit": "yes",
    "maxspeed": "30",
    "name": "Boulevard Alexandre Martin",
    "oneway": "yes",
    "surface": "asphalt",
    "was:highway": "primary",
    "width": "3"
  }
},
{
  "type": "way",
  "id": 151991173,
  "nodes": [
    1648230868,
    339884990
  ],
  "tags": {
    "cycleway:right": "lane",
    "highway": "primary",
    "lanes": "2",
    "maxspeed": "30",
    "name": "Boulevard Alexandre Martin",
    "oneway": "yes",
    "surface": "asphalt",
    "tunnel": "yes",
    "was:highway": "primary",
    "width": "3"
  }
},
{
  "type": "way",
  "id": 151997929,
  "nodes": [
    8946681419,
    1648303847,
    1648303845,
    8946618716,
    1335930091,
    1648303850,
    1648303849,
    1648303851,
    5736009288,
    8946681417,
    5728878995,
    6592873781,
    8946681418,
    1335930089,
    1648303807,
    1648303812,
    1335930090,
    1648303841,
    1648303810,
    1648303843,
    5736009287,
    1648303852,
    5728878994,
    6592873761,
    8946681419
  ],
  "tags": {
    "cycleway:right": "lane",
    "highway": "unclassified",
    "junction": "roundabout",
    "maxspeed": "50",
    "maxspeed:type": "sign",
    "name": "Avenue de Bolière",
    "source": "cadastre-dgi-fr source : Direction Générale des Impôts - Cadastre;mise à jour : 2009",
    "surface": "asphalt"
  }
},
{
  "type": "way",
  "id": 151997930,
  "nodes": [
    1648303851,
    5736009268,
    1335930087,
    9177724208,
    1648308118,
    5736009262,
    5736009263,
    1648308141
  ],
  "tags": {
    "cycleway:right": "lane",
    "highway": "unclassified",
    "maxspeed": "50",
    "maxspeed:type": "sign",
    "name": "Avenue de Bolière",
    "oneway": "yes",
    "source": "cadastre-dgi-fr source : Direction Générale des Impôts - Cadastre;mise à jour : 2009",
    "surface": "asphalt"
  }
},
{
  "type": "way",
  "id": 151997931,
  "nodes": [
    1648303843,
    5736009273,
    1335930093,
    1335930098,
    7309721381,
    5736009275,
    4242782387,
    1335930103,
    524684802
  ],
  "tags": {
    "cycleway:right": "lane",
    "highway": "unclassified",
    "maxspeed": "50",
    "maxspeed:type": "sign",
    "name": "Avenue de Bolière",
    "oneway": "yes",
    "surface": "asphalt"
  }
},
{
  "type": "way",
  "id": 151998153,
  "nodes": [
    1648308133,
    7309721329,
    1335930077,
    1335930078,
    1335930084,
    1335930086,
    1335930088,
    5736009266,
    5736009267,
    1335930089
  ],
  "tags": {
    "cycleway:right": "lane",
    "highway": "unclassified",
    "maxspeed": "50",
    "maxspeed:type": "sign",
    "name": "Avenue de Bolière",
    "oneway": "yes",
    "surface": "asphalt"
  }
},
{
  "type": "way",
  "id": 151998154,
  "nodes": [
    1648308120,
    1648308122,
    5736009259,
    1648308134,
    1933649199,
    1648309591,
    9363575673,
    5736009304,
    5736009305,
    1933649159,
    5736009306,
    1933649148,
    5736009307,
    5736009308,
    1933649210
  ],
  "tags": {
    "cycleway:right": "lane",
    "cycleway:right:lane": "exclusive",
    "highway": "unclassified",
    "lane_markings": "no",
    "lit": "yes",
    "maxspeed": "50",
    "maxspeed:type": "sign",
    "name": "Avenue de Bolière",
    "oneway": "yes",
    "source": "cadastre-dgi-fr source : Direction Générale des Impôts - Cadastre ; mise à jour : 2009",
    "surface": "asphalt"
  }
},
{
  "type": "way",
  "id": 151998155,
  "nodes": [
    1648308141,
    1648308140,
    1648308125,
    1303464744,
    1648308135,
    1648308120,
    1648308131,
    5736009290,
    2267484925,
    8946618715,
    1648308129,
    1648308142,
    1648308136,
    1335930075,
    1648308119,
    1335930076,
    1648308117,
    1648308133,
    1648308123,
    5736009289,
    1648308139,
    2267484985,
    1648308138,
    1648308127,
    1648308141
  ],
  "tags": {
    "cycleway:right": "lane",
    "highway": "unclassified",
    "junction": "roundabout",
    "maxspeed": "50",
    "maxspeed:type": "sign",
    "name": "Avenue de Bolière",
    "source": "cadastre-dgi-fr source : Direction Générale des Impôts - Cadastre;mise à jour : 2009",
    "surface": "asphalt"
  }
},
{
  "type": "way",
  "id": 221577943,
  "nodes": [
    6301480659,
    457159972,
    4223863905
  ],
  "tags": {
    "cycleway:right": "lane",
    "cycleway:right:lane": "advisory",
    "highway": "tertiary",
    "lanes": "2",
    "name": "Rue Albert 1er",
    "oneway": "yes",
    "ref:FR:FANTOIR": "452340179F",
    "surface": "asphalt"
  }
},
{
  "type": "way",
  "id": 329958149,
  "nodes": [
    1590969234,
    6147249113,
    3369093261,
    6022577852,
    6022577854,
    1590969236,
    7947745685,
    984873980
  ],
  "tags": {
    "cycleway:right": "lane",
    "highway": "residential",
    "name": "Rue du Faubourg Bannier",
    "oneway": "yes",
    "ref:FR:FANTOIR": "452340492W",
    "source": "cadastre-dgi-fr source : Direction Générale des Impôts - Cadastre. Mise à jour : 2012",
    "surface": "asphalt"
  }
},
{
  "type": "way",
  "id": 422244052,
  "nodes": [
    314850310,
    1943323967,
    6937704252,
    1943323976
  ],
  "tags": {
    "cycleway:right": "lane",
    "destination": "Vierzon;St Cyr en Val",
    "highway": "tertiary",
    "lanes": "1",
    "maxspeed": "50",
    "name": "Avenue de Buffon",
    "oneway": "yes",
    "surface": "asphalt"
  }
},
{
  "type": "way",
  "id": 422641793,
  "nodes": [
    249480822,
    7640005019,
    250705095,
    7639869200,
    4223802382
  ],
  "tags": {
    "cycleway:right": "lane",
    "highway": "primary",
    "lit": "yes",
    "maxheight": "3.66",
    "maxspeed": "50",
    "name": "Avenue de Paris",
    "oneway": "yes",
    "ref": "D 2020",
    "surface": "asphalt"
  }
},
{
  "type": "way",
  "id": 422647777,
  "nodes": [
    7574474360,
    7639960680,
    7640033087,
    7640005028,
    457134289,
    249480822
  ],
  "tags": {
    "cycleway:right": "lane",
    "highway": "primary",
    "maxheight": "3.66",
    "maxspeed": "30",
    "name": "Avenue de Paris",
    "oneway": "yes",
    "ref": "D 2020",
    "surface": "asphalt"
  }
},
{
  "type": "way",
  "id": 422647781,
  "nodes": [
    6301480652,
    4223863897
  ],
  "tags": {
    "cycleway:right": "lane",
    "cycleway:right:lane": "exclusive",
    "highway": "primary",
    "lanes": "2",
    "name": "Boulevard Alexandre Martin",
    "oneway": "yes",
    "surface": "asphalt"
  }
},
{
  "type": "way",
  "id": 422786660,
  "nodes": [
    4225146015,
    5759497061,
    5759497063,
    5759497074,
    6300767289,
    5759497067,
    6300767290
  ],
  "tags": {
    "cycleway:right": "lane",
    "highway": "tertiary",
    "lanes": "2",
    "maxspeed": "50",
    "name": "Rue Eugène Vignat",
    "oneway": "no",
    "surface": "asphalt"
  }
},
{
  "type": "way",
  "id": 425082078,
  "nodes": [
    4235055216,
    8361125452
  ],
  "tags": {
    "cycleway:right": "lane",
    "highway": "secondary",
    "name": "Avenue Dauphine",
    "old_ref": "D 920",
    "oneway": "yes"
  }
},
{
  "type": "way",
  "id": 425082079,
  "nodes": [
    8361125452,
    1764895320,
    1764895335
  ],
  "tags": {
    "cycleway:right": "lane",
    "highway": "secondary",
    "name": "Route d'Olivet",
    "oneway": "yes"
  }
},
{
  "type": "way",
  "id": 425082080,
  "nodes": [
    287593700,
    8361125453,
    287593611
  ],
  "tags": {
    "cycleway:right": "lane",
    "highway": "secondary",
    "name": "Route d'Olivet",
    "oneway": "yes"
  }
},
{
  "type": "way",
  "id": 425097717,
  "nodes": [
    306700670,
    306700671
  ],
  "tags": {
    "cycleway": "opposite_lane",
    "cycleway:right": "lane",
    "highway": "residential",
    "name": "Rue des Trois Croissants",
    "oneway": "yes"
  }
},
{
  "type": "way",
  "id": 425097719,
  "nodes": [
    618823574,
    306700816
  ],
  "tags": {
    "cycleway:right": "lane",
    "highway": "residential",
    "name": "Rue Jean-Baptiste Massillon",
    "source": "cadastre-dgi-fr source : Direction Générale des Impôts - Cadastre;mise à jour : 2010"
  }
},
{
  "type": "way",
  "id": 425098885,
  "nodes": [
    306681864,
    1590969308,
    6022547968,
    7947644961,
    1590969298
  ],
  "tags": {
    "cycleway:right": "lane",
    "highway": "residential",
    "name": "Rue du Maréchal Leclerc",
    "oneway": "yes"
  }
},
{
  "type": "way",
  "id": 443342870,
  "nodes": [
    249481207,
    5262212189,
    249481436
  ],
  "tags": {
    "cycleway:right": "lane",
    "highway": "tertiary",
    "lanes": "1",
    "name": "Boulevard Jean Jaurès",
    "oneway": "yes",
    "source": "cadastre-dgi-fr source : Direction Générale des Impôts - Cadastre;mise à jour : avril 2010",
    "surface": "asphalt",
    "turn:lanes": "through|right"
  }
},
{
  "type": "way",
  "id": 476258432,
  "nodes": [
    4223863905,
    5923815533,
    6301511170,
    6301511171,
    306509736
  ],
  "tags": {
    "cycleway:right": "lane",
    "cycleway:right:lane": "advisory",
    "highway": "tertiary",
    "lanes": "2",
    "name": "Rue Albert 1er",
    "oneway": "yes",
    "ref:FR:FANTOIR": "452340179F",
    "surface": "asphalt"
  }
},
{
  "type": "way",
  "id": 538754944,
  "nodes": [
    5214259500,
    9177756372,
    635570734,
    2323107595,
    7309486325,
    635570730,
    2267485088,
    2267485031,
    5736009255,
    3289929177
  ],
  "tags": {
    "cycleway:right": "lane",
    "highway": "tertiary",
    "maxspeed": "50",
    "name": "Rue Ambroise Paré",
    "oneway": "yes",
    "source": "cadastre-dgi-fr source : Direction Générale des Impôts - Cadastre;mise à jour : 2009",
    "surface": "asphalt"
  }
},
{
  "type": "way",
  "id": 538754953,
  "nodes": [
    5214259496,
    5214259495,
    522019030,
    7309697140,
    522019034,
    385497779,
    9373114933,
    7309697161,
    2506870517,
    5736009295,
    9373114972,
    301217548
  ],
  "tags": {
    "cycleway:right": "lane",
    "highway": "tertiary",
    "maxspeed": "50",
    "name": "Rue Ambroise Paré",
    "oneway": "yes",
    "surface": "asphalt"
  }
},
{
  "type": "way",
  "id": 625532032,
  "nodes": [
    5906049149,
    2109776230,
    7902466048,
    279103874
  ],
  "tags": {
    "access": "permissive",
    "cycleway:right": "lane",
    "highway": "tertiary",
    "lanes": "2",
    "maxspeed": "50",
    "name": "Chemin du Pont Cotelle",
    "oneway": "no",
    "source": "cadastre-dgi-fr source : Direction Générale des Impôts - Cadastre. Mise à jour : 2012",
    "surface": "asphalt"
  }
},
{
  "type": "way",
  "id": 625532036,
  "nodes": [
    2109776231,
    5906049150,
    2109776229,
    5906049149
  ],
  "tags": {
    "access": "permissive",
    "cycleway:right": "lane",
    "highway": "tertiary",
    "lanes": "2",
    "maxspeed": "30",
    "name": "Chemin du Pont Cotelle",
    "oneway": "no",
    "source": "cadastre-dgi-fr source : Direction Générale des Impôts - Cadastre. Mise à jour : 2012",
    "surface": "asphalt"
  }
},
{
  "type": "way",
  "id": 627986296,
  "nodes": [
    1655198008,
    1655198002,
    605008356,
    6855866345,
    7319617223,
    6855866347,
    618823574
  ],
  "tags": {
    "cycleway:right": "lane",
    "highway": "residential",
    "name": "Rue Charles le Chauve",
    "oneway": "yes",
    "source": "cadastre-dgi-fr source : Direction Générale des Impôts - Cadastre ; mise à jour : 2010"
  }
},
{
  "type": "way",
  "id": 656202942,
  "nodes": [
    6147249108,
    6147249109
  ],
  "tags": {
    "bridge": "yes",
    "cycleway:right": "lane",
    "highway": "secondary",
    "lanes": "2",
    "layer": "1",
    "maxspeed": "50",
    "name": "Rue du Faubourg Bannier",
    "oneway": "yes",
    "surface": "asphalt"
  }
},
{
  "type": "way",
  "id": 656202945,
  "nodes": [
    6147249130,
    6147249108
  ],
  "tags": {
    "cycleway:right": "lane",
    "highway": "secondary",
    "maxspeed": "50",
    "name": "Rue du Faubourg Bannier",
    "oneway": "yes",
    "surface": "asphalt"
  }
},
{
  "type": "way",
  "id": 665116819,
  "nodes": [
    6225452440,
    6225452442,
    6225452441,
    3796886753,
    525008472,
    6225453122,
    301214112,
    6225476787,
    301214464,
    301214463,
    6225452456
  ],
  "tags": {
    "cycleway:right": "lane",
    "highway": "tertiary",
    "maxspeed": "50",
    "maxspeed:type": "sign",
    "name": "Rue de Condorcet",
    "oneway": "yes",
    "surface": "asphalt"
  }
},
{
  "type": "way",
  "id": 669118440,
  "nodes": [
    1823918136,
    6070229521,
    6070229520,
    6070229522,
    524684798
  ],
  "tags": {
    "cycleway:right": "lane",
    "highway": "unclassified",
    "junction": "roundabout",
    "maxspeed": "50",
    "maxspeed:type": "sign",
    "source": "cadastre-dgi-fr source : Direction Générale des Impôts - Cadastre ; mise à jour : 2009",
    "surface": "asphalt"
  }
},
{
  "type": "way",
  "id": 672832845,
  "nodes": [
    249481836,
    6312252594,
    6300805126,
    5759521618,
    6300805125
  ],
  "tags": {
    "busway": "lane",
    "cycleway:right": "lane",
    "highway": "primary",
    "lanes": "3",
    "name": "Boulevard Alexandre Martin",
    "oneway": "yes",
    "surface": "asphalt"
  }
},
{
  "type": "way",
  "id": 727096594,
  "nodes": [
    3761795407,
    6814121340,
    7475242065,
    6394053623,
    3761822042,
    3761822041,
    4240984752
  ],
  "tags": {
    "cycleway:right": "lane",
    "highway": "tertiary",
    "lit": "yes",
    "maxspeed:type": "FR:urban",
    "name": "Boulevard Lamartine",
    "oneway": "yes",
    "surface": "asphalt"
  }
},
{
  "type": "way",
  "id": 729689835,
  "nodes": [
    6835399442,
    6835399437,
    7614509760
  ],
  "tags": {
    "cycleway:right": "lane",
    "highway": "secondary",
    "lanes": "1",
    "maxspeed": "50",
    "name": "Rue du Faubourg Saint-Jean",
    "oneway": "yes"
  }
},
{
  "type": "way",
  "id": 777963136,
  "nodes": [
    524684802,
    1823918136
  ],
  "tags": {
    "cycleway:right": "lane",
    "highway": "unclassified",
    "junction": "roundabout",
    "maxspeed": "50",
    "maxspeed:type": "sign",
    "source": "cadastre-dgi-fr source : Direction Générale des Impôts - Cadastre ; mise à jour : 2009",
    "surface": "asphalt"
  }
},
{
  "type": "way",
  "id": 777963137,
  "nodes": [
    524684798,
    1823918139
  ],
  "tags": {
    "cycleway:right": "lane",
    "highway": "unclassified",
    "junction": "roundabout",
    "maxspeed": "50",
    "maxspeed:type": "sign",
    "source": "cadastre-dgi-fr source : Direction Générale des Impôts - Cadastre ; mise à jour : 2009",
    "surface": "asphalt"
  }
},
{
  "type": "way",
  "id": 777963499,
  "nodes": [
    1933649210,
    7309721290,
    7080167191,
    7080167195,
    1335930062,
    7309697182,
    301217930,
    2506870518,
    5736009293,
    9373115010,
    301217551
  ],
  "tags": {
    "cycleway:right": "lane",
    "cycleway:right:lane": "exclusive",
    "highway": "unclassified",
    "lane_markings": "no",
    "lit": "yes",
    "maxspeed": "50",
    "maxspeed:type": "sign",
    "name": "Avenue de Bolière",
    "oneway": "yes",
    "sidewalk": "right",
    "source": "cadastre-dgi-fr source : Direction Générale des Impôts - Cadastre ; mise à jour : 2009",
    "surface": "asphalt"
  }
},
{
  "type": "way",
  "id": 777971276,
  "nodes": [
    1933649187,
    7309721295,
    1933649150,
    1335930071,
    1335930072,
    1335930074,
    1648308126,
    5736009258,
    1335930075
  ],
  "tags": {
    "cycleway:right": "lane",
    "cycleway:right:lane": "exclusive",
    "highway": "unclassified",
    "lane_markings": "no",
    "lit": "yes",
    "maxspeed": "50",
    "maxspeed:type": "sign",
    "name": "Avenue de Bolière",
    "oneway": "yes",
    "surface": "asphalt"
  }
},
{
  "type": "way",
  "id": 781612738,
  "nodes": [
    301219024,
    1335930106
  ],
  "tags": {
    "cycleway:right": "lane",
    "highway": "unclassified",
    "junction": "roundabout",
    "maxspeed": "50",
    "maxspeed:type": "sign",
    "source": "cadastre-dgi-fr source : Direction Générale des Impôts - Cadastre;mise à jour : 2009",
    "surface": "asphalt"
  }
},
{
  "type": "way",
  "id": 781612739,
  "nodes": [
    1335930106,
    524684786,
    6070229525,
    524684793
  ],
  "tags": {
    "cycleway:right": "lane",
    "highway": "unclassified",
    "junction": "roundabout",
    "maxspeed": "50",
    "maxspeed:type": "sign",
    "source": "cadastre-dgi-fr source : Direction Générale des Impôts - Cadastre;mise à jour : 2009",
    "surface": "asphalt"
  }
},
{
  "type": "way",
  "id": 791063937,
  "nodes": [
    6884628657,
    5922587223,
    5922580578,
    3582984308,
    3582984303
  ],
  "tags": {
    "busway": "opposite_lane",
    "cycleway:right": "lane",
    "highway": "residential",
    "lit": "yes",
    "maxspeed": "30",
    "name": "Rue du Greffoir",
    "oneway": "yes",
    "surface": "asphalt"
  }
},
{
  "type": "way",
  "id": 794374979,
  "nodes": [
    414821256,
    7429983803,
    414821257,
    414821258
  ],
  "tags": {
    "cycleway:left": "shared_lane",
    "cycleway:right": "lane",
    "highway": "residential",
    "maxspeed": "20",
    "name": "Rue du Grand Champ de l'Echo",
    "source": "cadastre-dgi-fr source : Direction Générale des Impôts - Cadastre. Mise à jour : 2009",
    "surface": "asphalt"
  }
},
{
  "type": "way",
  "id": 794385452,
  "nodes": [
    414821258,
    414821259,
    414821260,
    5679658705,
    414821261,
    414821262
  ],
  "tags": {
    "cycleway:left": "shared_lane",
    "cycleway:right": "lane",
    "highway": "residential",
    "maxspeed": "30",
    "name": "Rue du Grand Champ de l'Echo",
    "source": "cadastre-dgi-fr source : Direction Générale des Impôts - Cadastre. Mise à jour : 2009",
    "surface": "asphalt"
  }
},
{
  "type": "way",
  "id": 815847428,
  "nodes": [
    7619627687,
    5680018263,
    453455027,
    458309188,
    7077418056,
    5918273428,
    5680018294,
    306504684
  ],
  "tags": {
    "cycleway:right": "lane",
    "highway": "tertiary",
    "maxspeed": "50",
    "name": "Rue Mothiron",
    "oneway": "yes"
  }
},
{
  "type": "way",
  "id": 818053951,
  "nodes": [
    4409345311,
    7640212760,
    249480931,
    249480930
  ],
  "tags": {
    "cycleway:right": "lane",
    "highway": "residential",
    "name": "Quai Saint-Laurent",
    "oneway": "yes",
    "surface": "asphalt"
  }
},
{
  "type": "way",
  "id": 888218890,
  "nodes": [
    1903198339,
    287593691
  ],
  "tags": {
    "cycleway:right": "lane",
    "highway": "residential",
    "lanes": "2",
    "maxspeed": "50",
    "name": "Quai du Châtelet",
    "old_ref": "N 152",
    "oneway": "yes",
    "surface": "asphalt"
  }
},
{
  "type": "way",
  "id": 899873217,
  "nodes": [
    8360816092,
    8360816099,
    8360816098,
    8360816086
  ],
  "tags": {
    "cycleway:right": "lane",
    "cycleway:right:lane": "advisory",
    "highway": "tertiary",
    "lanes": "1",
    "name": "Avenue de Saint-Mesmin",
    "oneway": "yes",
    "surface": "asphalt"
  }
},
{
  "type": "area",
  "id": 3600147559,
  "tags": {
    "admin_level": "8",
    "alt_name:ar": "أورليان;أليانش;أورليون",
    "boundary": "administrative",
    "label:FR:history": "VAH",
    "name": "Orléans",
    "name:ar": "أرليانش",
    "name:el": "Ορλεάνη",
    "name:eo": "Orleano",
    "name:es": "Orleans",
    "name:he": "אורליאן",
    "name:ja": "オルレアン",
    "name:la": "Cenabum",
    "name:lt": "Orleanas",
    "name:oc": "Orleans",
    "name:pl": "Orlean",
    "name:pt": "Orleães",
    "name:ru": "Орлеан",
    "name:sr": "Орлеан",
    "name:uk": "Орлеан",
    "population": "116269",
    "population:date": "2019",
    "postal_code": "45000;45100",
    "ref:INSEE": "45234",
    "source:population": "INSEE 2022",
    "type": "boundary",
    "wikidata": "Q6548",
    "wikipedia": "fr:Orléans"
  }
},
{
  "type": "node",
  "id": 300450232,
  "lat": 47.8301686,
  "lon": 1.9267356
},
{
  "type": "node",
  "id": 301217548,
  "lat": 47.8300055,
  "lon": 1.9267501
},
{
  "type": "node",
  "id": 385497779,
  "lat": 47.8303659,
  "lon": 1.9262816
},
{
  "type": "node",
  "id": 522018965,
  "lat": 47.8305106,
  "lon": 1.9221523
},
{
  "type": "node",
  "id": 522019030,
  "lat": 47.8304441,
  "lon": 1.9247099
},
{
  "type": "node",
  "id": 522019034,
  "lat": 47.8304136,
  "lon": 1.9259719
},
{
  "type": "node",
  "id": 635570730,
  "lat": 47.8306750,
  "lon": 1.9209535
},
{
  "type": "node",
  "id": 635570734,
  "lat": 47.8306407,
  "lon": 1.9220209
},
{
  "type": "node",
  "id": 1335930064,
  "lat": 47.8305300,
  "lon": 1.9261544
},
{
  "type": "node",
  "id": 2267485031,
  "lat": 47.8306764,
  "lon": 1.9207405
},
{
  "type": "node",
  "id": 2267485088,
  "lat": 47.8306741,
  "lon": 1.9208237
},
{
  "type": "node",
  "id": 2323067896,
  "lat": 47.8305649,
  "lon": 1.9249099
},
{
  "type": "node",
  "id": 2323107595,
  "lat": 47.8306563,
  "lon": 1.9214867
},
{
  "type": "node",
  "id": 2506870517,
  "lat": 47.8302088,
  "lon": 1.9265188
},
{
  "type": "node",
  "id": 2506870519,
  "lat": 47.8304079,
  "lon": 1.9266509
},
{
  "type": "node",
  "id": 3289929177,
  "lat": 47.8306889,
  "lon": 1.9202737
},
{
  "type": "node",
  "id": 3289929178,
  "lat": 47.8305822,
  "lon": 1.9203109
},
{
  "type": "node",
  "id": 5214259491,
  "lat": 47.8304885,
  "lon": 1.9230573
},
{
  "type": "node",
  "id": 5214259494,
  "lat": 47.8306075,
  "lon": 1.9232389
},
{
  "type": "node",
  "id": 5214259495,
  "lat": 47.8304833,
  "lon": 1.9233436
},
{
  "type": "node",
  "id": 5214259496,
  "lat": 47.8304777,
  "lon": 1.9232256
},
{
  "type": "node",
  "id": 5214259500,
  "lat": 47.8306105,
  "lon": 1.9230662
},
{
  "type": "node",
  "id": 5736009255,
  "lat": 47.8306843,
  "lon": 1.9204445
},
{
  "type": "node",
  "id": 5736009256,
  "lat": 47.8305724,
  "lon": 1.9204900
},
{
  "type": "node",
  "id": 5736009295,
  "lat": 47.8300874,
  "lon": 1.9266391
},
{
  "type": "node",
  "id": 7309486325,
  "lat": 47.8306615,
  "lon": 1.9211649
},
{
  "type": "node",
  "id": 7309486326,
  "lat": 47.8305429,
  "lon": 1.9211562
},
{
  "type": "node",
  "id": 7309697137,
  "lat": 47.8305663,
  "lon": 1.9247689
},
{
  "type": "node",
  "id": 7309697140,
  "lat": 47.8304406,
  "lon": 1.9248555
},
{
  "type": "node",
  "id": 7309697161,
  "lat": 47.8302965,
  "lon": 1.9264246
},
{
  "type": "node",
  "id": 8946618713,
  "lat": 47.8304931,
  "lon": 1.9263941
},
{
  "type": "node",
  "id": 9177756365,
  "lat": 47.8306047,
  "lon": 1.9233477
},
{
  "type": "node",
  "id": 9177756369,
  "lat": 47.8304922,
  "lon": 1.9229464
},
{
  "type": "node",
  "id": 9177756372,
  "lat": 47.8306140,
  "lon": 1.9229517
},
{
  "type": "node",
  "id": 9373083205,
  "lat": 47.8300865,
  "lon": 1.9267278
},
{
  "type": "node",
  "id": 9373114933,
  "lat": 47.8303332,
  "lon": 1.9263647
},
{
  "type": "node",
  "id": 9373114972,
  "lat": 47.8300699,
  "lon": 1.9266629
},
{
  "type": "node",
  "id": 9373153564,
  "lat": 47.8303927,
  "lon": 1.9267194
},
{
  "type": "node",
  "id": 301217545,
  "lat": 47.8297864,
  "lon": 1.9270768
},
{
  "type": "node",
  "id": 301217546,
  "lat": 47.8298857,
  "lon": 1.9268504
},
{
  "type": "node",
  "id": 301217547,
  "lat": 47.8299448,
  "lon": 1.9267888
},
{
  "type": "node",
  "id": 301217549,
  "lat": 47.8303369,
  "lon": 1.9268635
},
{
  "type": "node",
  "id": 301217550,
  "lat": 47.8304258,
  "lon": 1.9270729
},
{
  "type": "node",
  "id": 301217551,
  "lat": 47.8304074,
  "lon": 1.9274628
},
{
  "type": "node",
  "id": 301217552,
  "lat": 47.8301196,
  "lon": 1.9277263
},
{
  "type": "node",
  "id": 301217553,
  "lat": 47.8300399,
  "lon": 1.9277167
},
{
  "type": "node",
  "id": 301217554,
  "lat": 47.8298693,
  "lon": 1.9275804
},
{
  "type": "node",
  "id": 301217555,
  "lat": 47.8297947,
  "lon": 1.9274115
},
{
  "type": "node",
  "id": 301217556,
  "lat": 47.8297711,
  "lon": 1.9272445
},
{
  "type": "node",
  "id": 301217930,
  "lat": 47.8304052,
  "lon": 1.9278565
},
{
  "type": "node",
  "id": 385497792,
  "lat": 47.8304419,
  "lon": 1.9272122
},
{
  "type": "node",
  "id": 385497796,
  "lat": 47.8303840,
  "lon": 1.9269459
},
{
  "type": "node",
  "id": 419878268,
  "lat": 47.8298117,
  "lon": 1.9274656
},
{
  "type": "node",
  "id": 646471007,
  "lat": 47.8297794,
  "lon": 1.9273387
},
{
  "type": "node",
  "id": 1303464769,
  "lat": 47.8304313,
  "lon": 1.9273527
},
{
  "type": "node",
  "id": 1335930049,
  "lat": 47.8299639,
  "lon": 1.9276793
},
{
  "type": "node",
  "id": 1335930054,
  "lat": 47.8300692,
  "lon": 1.9279181
},
{
  "type": "node",
  "id": 1335930061,
  "lat": 47.8304151,
  "lon": 1.9281919
},
{
  "type": "node",
  "id": 1335930062,
  "lat": 47.8305061,
  "lon": 1.9280530
},
{
  "type": "node",
  "id": 1335930065,
  "lat": 47.8310658,
  "lon": 1.9286596
},
{
  "type": "node",
  "id": 1335930066,
  "lat": 47.8312524,
  "lon": 1.9288294
},
{
  "type": "node",
  "id": 1335930067,
  "lat": 47.8313776,
  "lon": 1.9290053
},
{
  "type": "node",
  "id": 1335930068,
  "lat": 47.8314586,
  "lon": 1.9291096
},
{
  "type": "node",
  "id": 1887445886,
  "lat": 47.8303632,
  "lon": 1.9269049
},
{
  "type": "node",
  "id": 1933649163,
  "lat": 47.8313276,
  "lon": 1.9289237
},
{
  "type": "node",
  "id": 1933649210,
  "lat": 47.8314117,
  "lon": 1.9287047
},
{
  "type": "node",
  "id": 2267484852,
  "lat": 47.8302304,
  "lon": 1.9276914
},
{
  "type": "node",
  "id": 2267485027,
  "lat": 47.8302757,
  "lon": 1.9267952
},
{
  "type": "node",
  "id": 2303483578,
  "lat": 47.8305834,
  "lon": 1.9283136
},
{
  "type": "node",
  "id": 2506870515,
  "lat": 47.8296956,
  "lon": 1.9269409
},
{
  "type": "node",
  "id": 2506870516,
  "lat": 47.8301378,
  "lon": 1.9279724
},
{
  "type": "node",
  "id": 2506870518,
  "lat": 47.8303828,
  "lon": 1.9277259
},
{
  "type": "node",
  "id": 5736009293,
  "lat": 47.8303846,
  "lon": 1.9276370
},
{
  "type": "node",
  "id": 5736009296,
  "lat": 47.8303076,
  "lon": 1.9268267
},
{
  "type": "node",
  "id": 5736009301,
  "lat": 47.8312360,
  "lon": 1.9288108
},
{
  "type": "node",
  "id": 5736009308,
  "lat": 47.8314556,
  "lon": 1.9287350
},
{
  "type": "node",
  "id": 6592873784,
  "lat": 47.8301986,
  "lon": 1.9277075
},
{
  "type": "node",
  "id": 6592874185,
  "lat": 47.8302470,
  "lon": 1.9267729
},
{
  "type": "node",
  "id": 7080167191,
  "lat": 47.8310398,
  "lon": 1.9284511
},
{
  "type": "node",
  "id": 7080167195,
  "lat": 47.8306630,
  "lon": 1.9281762
},
{
  "type": "node",
  "id": 7309697182,
  "lat": 47.8304396,
  "lon": 1.9279622
},
{
  "type": "node",
  "id": 7309721290,
  "lat": 47.8313177,
  "lon": 1.9286373
},
{
  "type": "node",
  "id": 7309721291,
  "lat": 47.8312184,
  "lon": 1.9287952
},
{
  "type": "node",
  "id": 8046441611,
  "lat": 47.8293658,
  "lon": 1.9272307
},
{
  "type": "node",
  "id": 9373083203,
  "lat": 47.8298164,
  "lon": 1.9269756
},
{
  "type": "node",
  "id": 9373083204,
  "lat": 47.8302892,
  "lon": 1.9276461
},
{
  "type": "node",
  "id": 9373114977,
  "lat": 47.8297823,
  "lon": 1.9268990
},
{
  "type": "node",
  "id": 9373114988,
  "lat": 47.8300151,
  "lon": 1.9277955
},
{
  "type": "node",
  "id": 9373115003,
  "lat": 47.8303773,
  "lon": 1.9268069
},
{
  "type": "node",
  "id": 9373115008,
  "lat": 47.8304171,
  "lon": 1.9274304
},
{
  "type": "node",
  "id": 9373115009,
  "lat": 47.8303668,
  "lon": 1.9275454
},
{
  "type": "node",
  "id": 9373115010,
  "lat": 47.8303892,
  "lon": 1.9276016
},
{
  "type": "node",
  "id": 9379960092,
  "lat": 47.8294575,
  "lon": 1.9271486
},
{
  "type": "node",
  "id": 314850310,
  "lat": 47.8286830,
  "lon": 1.9363904
},
{
  "type": "node",
  "id": 1943323967,
  "lat": 47.8285916,
  "lon": 1.9364128
},
{
  "type": "node",
  "id": 1943323976,
  "lat": 47.8280036,
  "lon": 1.9364754
},
{
  "type": "node",
  "id": 6937704252,
  "lat": 47.8284813,
  "lon": 1.9364353
},
{
  "type": "node",
  "id": 279103557,
  "lat": 47.8980670,
  "lon": 1.8763220
},
{
  "type": "node",
  "id": 306504684,
  "lat": 47.8992405,
  "lon": 1.8771501
},
{
  "type": "node",
  "id": 452638533,
  "lat": 47.8989857,
  "lon": 1.8758759
},
{
  "type": "node",
  "id": 452639055,
  "lat": 47.8982368,
  "lon": 1.8762988
},
{
  "type": "node",
  "id": 453455027,
  "lat": 47.8982636,
  "lon": 1.8767439
},
{
  "type": "node",
  "id": 458309188,
  "lat": 47.8989632,
  "lon": 1.8770228
},
{
  "type": "node",
  "id": 1355468586,
  "lat": 47.8989524,
  "lon": 1.8758947
},
{
  "type": "node",
  "id": 5680018263,
  "lat": 47.8980957,
  "lon": 1.8766776
},
{
  "type": "node",
  "id": 5680018294,
  "lat": 47.8991023,
  "lon": 1.8770804
},
{
  "type": "node",
  "id": 5918273428,
  "lat": 47.8990870,
  "lon": 1.8770740
},
{
  "type": "node",
  "id": 6303077659,
  "lat": 47.8989116,
  "lon": 1.8759289
},
{
  "type": "node",
  "id": 7077418056,
  "lat": 47.8990501,
  "lon": 1.8770588
},
{
  "type": "node",
  "id": 7619614537,
  "lat": 47.8981237,
  "lon": 1.8763353
},
{
  "type": "node",
  "id": 7619627687,
  "lat": 47.8980304,
  "lon": 1.8766577
},
{
  "type": "node",
  "id": 301214112,
  "lat": 47.8414838,
  "lon": 1.9250511
},
{
  "type": "node",
  "id": 301214463,
  "lat": 47.8401555,
  "lon": 1.9259754
},
{
  "type": "node",
  "id": 301214464,
  "lat": 47.8412121,
  "lon": 1.9251289
},
{
  "type": "node",
  "id": 525008472,
  "lat": 47.8421932,
  "lon": 1.9249010
},
{
  "type": "node",
  "id": 525008487,
  "lat": 47.8402863,
  "lon": 1.9260129
},
{
  "type": "node",
  "id": 525008489,
  "lat": 47.8401710,
  "lon": 1.9261891
},
{
  "type": "node",
  "id": 525008505,
  "lat": 47.8410886,
  "lon": 1.9254091
},
{
  "type": "node",
  "id": 525008507,
  "lat": 47.8409348,
  "lon": 1.9254825
},
{
  "type": "node",
  "id": 525008522,
  "lat": 47.8414792,
  "lon": 1.9254316
},
{
  "type": "node",
  "id": 525008529,
  "lat": 47.8423495,
  "lon": 1.9258408
},
{
  "type": "node",
  "id": 3796886753,
  "lat": 47.8422505,
  "lon": 1.9248915
},
{
  "type": "node",
  "id": 3796886754,
  "lat": 47.8420936,
  "lon": 1.9257232
},
{
  "type": "node",
  "id": 6225452440,
  "lat": 47.8428413,
  "lon": 1.9248962
},
{
  "type": "node",
  "id": 6225452441,
  "lat": 47.8427521,
  "lon": 1.9248334
},
{
  "type": "node",
  "id": 6225452442,
  "lat": 47.8427976,
  "lon": 1.9248658
},
{
  "type": "node",
  "id": 6225452456,
  "lat": 47.8400774,
  "lon": 1.9260564
},
{
  "type": "node",
  "id": 6225453117,
  "lat": 47.8402214,
  "lon": 1.9261102
},
{
  "type": "node",
  "id": 6225453122,
  "lat": 47.8418718,
  "lon": 1.9249676
},
{
  "type": "node",
  "id": 6225476786,
  "lat": 47.8413661,
  "lon": 1.9253978
},
{
  "type": "node",
  "id": 6225476787,
  "lat": 47.8413706,
  "lon": 1.9250835
},
{
  "type": "node",
  "id": 6225476792,
  "lat": 47.8412727,
  "lon": 1.9253831
},
{
  "type": "node",
  "id": 6225476793,
  "lat": 47.8411843,
  "lon": 1.9253904
},
{
  "type": "node",
  "id": 6225476800,
  "lat": 47.8410109,
  "lon": 1.9254386
},
{
  "type": "node",
  "id": 6225480469,
  "lat": 47.8422733,
  "lon": 1.9258162
},
{
  "type": "node",
  "id": 301219024,
  "lat": 47.8365433,
  "lon": 1.9324617
},
{
  "type": "node",
  "id": 524684786,
  "lat": 47.8364936,
  "lon": 1.9324022
},
{
  "type": "node",
  "id": 524684793,
  "lat": 47.8364331,
  "lon": 1.9323925
},
{
  "type": "node",
  "id": 524684798,
  "lat": 47.8364735,
  "lon": 1.9327181
},
{
  "type": "node",
  "id": 524684802,
  "lat": 47.8363479,
  "lon": 1.9326139
},
{
  "type": "node",
  "id": 1303464744,
  "lat": 47.8332161,
  "lon": 1.9299271
},
{
  "type": "node",
  "id": 1335930069,
  "lat": 47.8315686,
  "lon": 1.9292040
},
{
  "type": "node",
  "id": 1335930070,
  "lat": 47.8316550,
  "lon": 1.9292549
},
{
  "type": "node",
  "id": 1335930071,
  "lat": 47.8319969,
  "lon": 1.9293847
},
{
  "type": "node",
  "id": 1335930072,
  "lat": 47.8321518,
  "lon": 1.9294651
},
{
  "type": "node",
  "id": 1335930074,
  "lat": 47.8328681,
  "lon": 1.9299898
},
{
  "type": "node",
  "id": 1335930075,
  "lat": 47.8330494,
  "lon": 1.9301813
},
{
  "type": "node",
  "id": 1335930076,
  "lat": 47.8331078,
  "lon": 1.9302792
},
{
  "type": "node",
  "id": 1335930077,
  "lat": 47.8333516,
  "lon": 1.9303624
},
{
  "type": "node",
  "id": 1335930078,
  "lat": 47.8334289,
  "lon": 1.9304127
},
{
  "type": "node",
  "id": 1335930084,
  "lat": 47.8343679,
  "lon": 1.9311037
},
{
  "type": "node",
  "id": 1335930086,
  "lat": 47.8346617,
  "lon": 1.9313163
},
{
  "type": "node",
  "id": 1335930087,
  "lat": 47.8347984,
  "lon": 1.9312307
},
{
  "type": "node",
  "id": 1335930088,
  "lat": 47.8347482,
  "lon": 1.9313952
},
{
  "type": "node",
  "id": 1335930089,
  "lat": 47.8348463,
  "lon": 1.9315169
},
{
  "type": "node",
  "id": 1335930090,
  "lat": 47.8348930,
  "lon": 1.9316032
},
{
  "type": "node",
  "id": 1335930091,
  "lat": 47.8350108,
  "lon": 1.9312757
},
{
  "type": "node",
  "id": 1335930093,
  "lat": 47.8351538,
  "lon": 1.9317009
},
{
  "type": "node",
  "id": 1335930095,
  "lat": 47.8353927,
  "lon": 1.9316626
},
{
  "type": "node",
  "id": 1335930098,
  "lat": 47.8356624,
  "lon": 1.9320778
},
{
  "type": "node",
  "id": 1335930100,
  "lat": 47.8359123,
  "lon": 1.9320559
},
{
  "type": "node",
  "id": 1335930103,
  "lat": 47.8362303,
  "lon": 1.9324868
},
{
  "type": "node",
  "id": 1335930105,
  "lat": 47.8362799,
  "lon": 1.9323095
},
{
  "type": "node",
  "id": 1335930106,
  "lat": 47.8365082,
  "lon": 1.9324154
},
{
  "type": "node",
  "id": 1335930107,
  "lat": 47.8366254,
  "lon": 1.9327947
},
{
  "type": "node",
  "id": 1335930108,
  "lat": 47.8367224,
  "lon": 1.9326475
},
{
  "type": "node",
  "id": 1335930109,
  "lat": 47.8373114,
  "lon": 1.9332870
},
{
  "type": "node",
  "id": 1335930110,
  "lat": 47.8374155,
  "lon": 1.9331621
},
{
  "type": "node",
  "id": 1648303807,
  "lat": 47.8348503,
  "lon": 1.9315302
},
{
  "type": "node",
  "id": 1648303810,
  "lat": 47.8349588,
  "lon": 1.9316347
},
{
  "type": "node",
  "id": 1648303812,
  "lat": 47.8348684,
  "lon": 1.9315709
},
{
  "type": "node",
  "id": 1648303841,
  "lat": 47.8349244,
  "lon": 1.9316258
},
{
  "type": "node",
  "id": 1648303843,
  "lat": 47.8349935,
  "lon": 1.9316291
},
{
  "type": "node",
  "id": 1648303845,
  "lat": 47.8350655,
  "lon": 1.9313412
},
{
  "type": "node",
  "id": 1648303847,
  "lat": 47.8350815,
  "lon": 1.9313884
},
{
  "type": "node",
  "id": 1648303849,
  "lat": 47.8349564,
  "lon": 1.9312617
},
{
  "type": "node",
  "id": 1648303850,
  "lat": 47.8349842,
  "lon": 1.9312642
},
{
  "type": "node",
  "id": 1648303851,
  "lat": 47.8349290,
  "lon": 1.9312683
},
{
  "type": "node",
  "id": 1648303852,
  "lat": 47.8350591,
  "lon": 1.9315675
},
{
  "type": "node",
  "id": 1648308117,
  "lat": 47.8331434,
  "lon": 1.9302988
},
{
  "type": "node",
  "id": 1648308118,
  "lat": 47.8333898,
  "lon": 1.9301936
},
{
  "type": "node",
  "id": 1648308119,
  "lat": 47.8330729,
  "lon": 1.9302378
},
{
  "type": "node",
  "id": 1648308120,
  "lat": 47.8331287,
  "lon": 1.9299249
},
{
  "type": "node",
  "id": 1648308122,
  "lat": 47.8330482,
  "lon": 1.9299074
},
{
  "type": "node",
  "id": 1648308123,
  "lat": 47.8332064,
  "lon": 1.9302954
},
{
  "type": "node",
  "id": 1648308125,
  "lat": 47.8332536,
  "lon": 1.9299596
},
{
  "type": "node",
  "id": 1648308126,
  "lat": 47.8329615,
  "lon": 1.9300898
},
{
  "type": "node",
  "id": 1648308127,
  "lat": 47.8333001,
  "lon": 1.9301254
},
{
  "type": "node",
  "id": 1648308129,
  "lat": 47.8330429,
  "lon": 1.9300682
},
{
  "type": "node",
  "id": 1648308131,
  "lat": 47.8331006,
  "lon": 1.9299449
},
{
  "type": "node",
  "id": 1648308133,
  "lat": 47.8331813,
  "lon": 1.9303023
},
{
  "type": "node",
  "id": 1648308134,
  "lat": 47.8329676,
  "lon": 1.9298763
},
{
  "type": "node",
  "id": 1648308135,
  "lat": 47.8331725,
  "lon": 1.9299148
},
{
  "type": "node",
  "id": 1648308136,
  "lat": 47.8330423,
  "lon": 1.9301445
},
{
  "type": "node",
  "id": 1648308138,
  "lat": 47.8332914,
  "lon": 1.9301805
},
{
  "type": "node",
  "id": 1648308139,
  "lat": 47.8332514,
  "lon": 1.9302608
},
{
  "type": "node",
  "id": 1648308140,
  "lat": 47.8332819,
  "lon": 1.9300087
},
{
  "type": "node",
  "id": 1648308141,
  "lat": 47.8332978,
  "lon": 1.9300690
},
{
  "type": "node",
  "id": 1648308142,
  "lat": 47.8330401,
  "lon": 1.9301063
},
{
  "type": "node",
  "id": 1648309591,
  "lat": 47.8327825,
  "lon": 1.9297406
},
{
  "type": "node",
  "id": 1823918136,
  "lat": 47.8363579,
  "lon": 1.9326440
},
{
  "type": "node",
  "id": 1823918139,
  "lat": 47.8364897,
  "lon": 1.9327114
},
{
  "type": "node",
  "id": 1933649148,
  "lat": 47.8317261,
  "lon": 1.9289347
},
{
  "type": "node",
  "id": 1933649150,
  "lat": 47.8319306,
  "lon": 1.9293620
},
{
  "type": "node",
  "id": 1933649159,
  "lat": 47.8318848,
  "lon": 1.9290553
},
{
  "type": "node",
  "id": 1933649187,
  "lat": 47.8317703,
  "lon": 1.9292945
},
{
  "type": "node",
  "id": 1933649199,
  "lat": 47.8328411,
  "lon": 1.9297835
},
{
  "type": "node",
  "id": 2189634674,
  "lat": 47.8369558,
  "lon": 1.9330318
},
{
  "type": "node",
  "id": 2216636819,
  "lat": 47.8375759,
  "lon": 1.9332697
},
{
  "type": "node",
  "id": 2267484925,
  "lat": 47.8330578,
  "lon": 1.9300112
},
{
  "type": "node",
  "id": 2267484985,
  "lat": 47.8332697,
  "lon": 1.9302344
},
{
  "type": "node",
  "id": 4242782387,
  "lat": 47.8362175,
  "lon": 1.9324775
},
{
  "type": "node",
  "id": 4242782388,
  "lat": 47.8362712,
  "lon": 1.9323035
},
{
  "type": "node",
  "id": 4242782491,
  "lat": 47.8365846,
  "lon": 1.9327802
},
{
  "type": "node",
  "id": 4242782492,
  "lat": 47.8366508,
  "lon": 1.9325704
},
{
  "type": "node",
  "id": 5305352009,
  "lat": 47.8371663,
  "lon": 1.9331829
},
{
  "type": "node",
  "id": 5728878994,
  "lat": 47.8350731,
  "lon": 1.9315366
},
{
  "type": "node",
  "id": 5728878995,
  "lat": 47.8348567,
  "lon": 1.9313487
},
{
  "type": "node",
  "id": 5736009258,
  "lat": 47.8329764,
  "lon": 1.9301054
},
{
  "type": "node",
  "id": 5736009259,
  "lat": 47.8330440,
  "lon": 1.9299049
},
{
  "type": "node",
  "id": 5736009262,
  "lat": 47.8333438,
  "lon": 1.9301313
},
{
  "type": "node",
  "id": 5736009263,
  "lat": 47.8333310,
  "lon": 1.9301140
},
{
  "type": "node",
  "id": 5736009266,
  "lat": 47.8347609,
  "lon": 1.9314112
},
{
  "type": "node",
  "id": 5736009267,
  "lat": 47.8347790,
  "lon": 1.9314337
},
{
  "type": "node",
  "id": 5736009268,
  "lat": 47.8348501,
  "lon": 1.9312441
},
{
  "type": "node",
  "id": 5736009271,
  "lat": 47.8351672,
  "lon": 1.9314981
},
{
  "type": "node",
  "id": 5736009272,
  "lat": 47.8351367,
  "lon": 1.9314571
},
{
  "type": "node",
  "id": 5736009273,
  "lat": 47.8350881,
  "lon": 1.9316650
},
{
  "type": "node",
  "id": 5736009275,
  "lat": 47.8361947,
  "lon": 1.9324612
},
{
  "type": "node",
  "id": 5736009277,
  "lat": 47.8366664,
  "lon": 1.9325924
},
{
  "type": "node",
  "id": 5736009287,
  "lat": 47.8350296,
  "lon": 1.9316060
},
{
  "type": "node",
  "id": 5736009288,
  "lat": 47.8349007,
  "lon": 1.9312860
},
{
  "type": "node",
  "id": 5736009289,
  "lat": 47.8332300,
  "lon": 1.9302814
},
{
  "type": "node",
  "id": 5736009290,
  "lat": 47.8330765,
  "lon": 1.9299742
},
{
  "type": "node",
  "id": 5736009302,
  "lat": 47.8316292,
  "lon": 1.9292424
},
{
  "type": "node",
  "id": 5736009304,
  "lat": 47.8320026,
  "lon": 1.9291399
},
{
  "type": "node",
  "id": 5736009305,
  "lat": 47.8319754,
  "lon": 1.9291196
},
{
  "type": "node",
  "id": 5736009306,
  "lat": 47.8318261,
  "lon": 1.9290085
},
{
  "type": "node",
  "id": 5736009307,
  "lat": 47.8314804,
  "lon": 1.9287533
},
{
  "type": "node",
  "id": 6070229520,
  "lat": 47.8364080,
  "lon": 1.9327078
},
{
  "type": "node",
  "id": 6070229521,
  "lat": 47.8363797,
  "lon": 1.9326816
},
{
  "type": "node",
  "id": 6070229522,
  "lat": 47.8364402,
  "lon": 1.9327203
},
{
  "type": "node",
  "id": 6070229525,
  "lat": 47.8364638,
  "lon": 1.9323911
},
{
  "type": "node",
  "id": 6276091210,
  "lat": 47.8371647,
  "lon": 1.9329759
},
{
  "type": "node",
  "id": 6592873761,
  "lat": 47.8350827,
  "lon": 1.9315023
},
{
  "type": "node",
  "id": 6592873781,
  "lat": 47.8348411,
  "lon": 1.9314038
},
{
  "type": "node",
  "id": 7309721295,
  "lat": 47.8319010,
  "lon": 1.9293507
},
{
  "type": "node",
  "id": 7309721329,
  "lat": 47.8332636,
  "lon": 1.9303294
},
{
  "type": "node",
  "id": 7309721381,
  "lat": 47.8358060,
  "lon": 1.9321812
},
{
  "type": "node",
  "id": 7309721382,
  "lat": 47.8358618,
  "lon": 1.9320177
},
{
  "type": "node",
  "id": 8946618714,
  "lat": 47.8315230,
  "lon": 1.9291698
},
{
  "type": "node",
  "id": 8946618715,
  "lat": 47.8330488,
  "lon": 1.9300388
},
{
  "type": "node",
  "id": 8946618716,
  "lat": 47.8350413,
  "lon": 1.9313026
},
{
  "type": "node",
  "id": 8946681417,
  "lat": 47.8348761,
  "lon": 1.9313133
},
{
  "type": "node",
  "id": 8946681418,
  "lat": 47.8348378,
  "lon": 1.9314610
},
{
  "type": "node",
  "id": 8946681419,
  "lat": 47.8350881,
  "lon": 1.9314452
},
{
  "type": "node",
  "id": 9177724208,
  "lat": 47.8337734,
  "lon": 1.9304760
},
{
  "type": "node",
  "id": 9363575673,
  "lat": 47.8322345,
  "lon": 1.9293185
},
{
  "type": "node",
  "id": 1335930111,
  "lat": 47.8375181,
  "lon": 1.9334513
},
{
  "type": "node",
  "id": 2216636823,
  "lat": 47.8376297,
  "lon": 1.9335208
},
{
  "type": "node",
  "id": 2216636826,
  "lat": 47.8376503,
  "lon": 1.9333335
},
{
  "type": "node",
  "id": 5736009280,
  "lat": 47.8374894,
  "lon": 1.9334287
},
{
  "type": "node",
  "id": 6225627192,
  "lat": 47.8375742,
  "lon": 1.9334826
},
{
  "type": "node",
  "id": 287645823,
  "lat": 47.8731957,
  "lon": 1.9078026
},
{
  "type": "node",
  "id": 287645824,
  "lat": 47.8732624,
  "lon": 1.9071480
},
{
  "type": "node",
  "id": 3401614501,
  "lat": 47.8732015,
  "lon": 1.9077349
},
{
  "type": "node",
  "id": 287645703,
  "lat": 47.8835289,
  "lon": 1.9070095
},
{
  "type": "node",
  "id": 287645704,
  "lat": 47.8831912,
  "lon": 1.9065982
},
{
  "type": "node",
  "id": 287645705,
  "lat": 47.8831621,
  "lon": 1.9065437
},
{
  "type": "node",
  "id": 287645706,
  "lat": 47.8831476,
  "lon": 1.9064711
},
{
  "type": "node",
  "id": 287645707,
  "lat": 47.8831767,
  "lon": 1.9059190
},
{
  "type": "node",
  "id": 287645709,
  "lat": 47.8831658,
  "lon": 1.9058427
},
{
  "type": "node",
  "id": 287645710,
  "lat": 47.8830713,
  "lon": 1.9056429
},
{
  "type": "node",
  "id": 287645711,
  "lat": 47.8829696,
  "lon": 1.9054868
},
{
  "type": "node",
  "id": 287645712,
  "lat": 47.8829071,
  "lon": 1.9054294
},
{
  "type": "node",
  "id": 287645714,
  "lat": 47.8828035,
  "lon": 1.9053936
},
{
  "type": "node",
  "id": 287645715,
  "lat": 47.8826876,
  "lon": 1.9053673
},
{
  "type": "node",
  "id": 287645716,
  "lat": 47.8826319,
  "lon": 1.9052991
},
{
  "type": "node",
  "id": 287645717,
  "lat": 47.8825846,
  "lon": 1.9052127
},
{
  "type": "node",
  "id": 287645718,
  "lat": 47.8825033,
  "lon": 1.9050260
},
{
  "type": "node",
  "id": 287645720,
  "lat": 47.8824934,
  "lon": 1.9048983
},
{
  "type": "node",
  "id": 287645721,
  "lat": 47.8826294,
  "lon": 1.9038216
},
{
  "type": "node",
  "id": 287645729,
  "lat": 47.8837160,
  "lon": 1.9068617
},
{
  "type": "node",
  "id": 287645731,
  "lat": 47.8836106,
  "lon": 1.9069158
},
{
  "type": "node",
  "id": 287645732,
  "lat": 47.8835733,
  "lon": 1.9069533
},
{
  "type": "node",
  "id": 1764895349,
  "lat": 47.8834919,
  "lon": 1.9069644
},
{
  "type": "node",
  "id": 2152733413,
  "lat": 47.8826100,
  "lon": 1.9039339
},
{
  "type": "node",
  "id": 2876162264,
  "lat": 47.8833104,
  "lon": 1.9067433
},
{
  "type": "node",
  "id": 5736673362,
  "lat": 47.8826052,
  "lon": 1.9039684
},
{
  "type": "node",
  "id": 5875955321,
  "lat": 47.8827578,
  "lon": 1.9053832
},
{
  "type": "node",
  "id": 6227908410,
  "lat": 47.8832403,
  "lon": 1.9066579
},
{
  "type": "node",
  "id": 7543831119,
  "lat": 47.8824915,
  "lon": 1.9049508
},
{
  "type": "node",
  "id": 7543835108,
  "lat": 47.8835099,
  "lon": 1.9069863
},
{
  "type": "node",
  "id": 7550904927,
  "lat": 47.8825125,
  "lon": 1.9047373
},
{
  "type": "node",
  "id": 7550928168,
  "lat": 47.8831526,
  "lon": 1.9065114
},
{
  "type": "node",
  "id": 279103874,
  "lat": 47.8641177,
  "lon": 1.9220195
},
{
  "type": "node",
  "id": 279103875,
  "lat": 47.8639377,
  "lon": 1.9220289
},
{
  "type": "node",
  "id": 279103876,
  "lat": 47.8640604,
  "lon": 1.9218503
},
{
  "type": "node",
  "id": 279103877,
  "lat": 47.8639362,
  "lon": 1.9219414
},
{
  "type": "node",
  "id": 672971029,
  "lat": 47.8639519,
  "lon": 1.9220678
},
{
  "type": "node",
  "id": 672971032,
  "lat": 47.8639736,
  "lon": 1.9220982
},
{
  "type": "node",
  "id": 672971034,
  "lat": 47.8640005,
  "lon": 1.9221170
},
{
  "type": "node",
  "id": 672971036,
  "lat": 47.8641211,
  "lon": 1.9219783
},
{
  "type": "node",
  "id": 672971040,
  "lat": 47.8641164,
  "lon": 1.9219375
},
{
  "type": "node",
  "id": 672971043,
  "lat": 47.8640301,
  "lon": 1.9218411
},
{
  "type": "node",
  "id": 672971044,
  "lat": 47.8639994,
  "lon": 1.9218470
},
{
  "type": "node",
  "id": 672971048,
  "lat": 47.8639717,
  "lon": 1.9218673
},
{
  "type": "node",
  "id": 672971053,
  "lat": 47.8639323,
  "lon": 1.9219853
},
{
  "type": "node",
  "id": 7902466021,
  "lat": 47.8641038,
  "lon": 1.9219005
},
{
  "type": "node",
  "id": 7902466022,
  "lat": 47.8640847,
  "lon": 1.9218706
},
{
  "type": "node",
  "id": 7902466023,
  "lat": 47.8639498,
  "lon": 1.9219000
},
{
  "type": "node",
  "id": 7902466024,
  "lat": 47.8640300,
  "lon": 1.9221225
},
{
  "type": "node",
  "id": 7902466025,
  "lat": 47.8640592,
  "lon": 1.9221140
},
{
  "type": "node",
  "id": 7902466026,
  "lat": 47.8640852,
  "lon": 1.9220923
},
{
  "type": "node",
  "id": 7902466047,
  "lat": 47.8641053,
  "lon": 1.9220598
},
{
  "type": "node",
  "id": 7902466048,
  "lat": 47.8641454,
  "lon": 1.9220302
},
{
  "type": "node",
  "id": 279103866,
  "lat": 47.8688321,
  "lon": 1.9240142
},
{
  "type": "node",
  "id": 279103868,
  "lat": 47.8688284,
  "lon": 1.9241571
},
{
  "type": "node",
  "id": 279103869,
  "lat": 47.8688836,
  "lon": 1.9242636
},
{
  "type": "node",
  "id": 672971417,
  "lat": 47.8688480,
  "lon": 1.9242135
},
{
  "type": "node",
  "id": 672971418,
  "lat": 47.8689210,
  "lon": 1.9242887
},
{
  "type": "node",
  "id": 1291461156,
  "lat": 47.8688220,
  "lon": 1.9240747
},
{
  "type": "node",
  "id": 1520406044,
  "lat": 47.8690868,
  "lon": 1.9240270
},
{
  "type": "node",
  "id": 1520406046,
  "lat": 47.8689367,
  "lon": 1.9238922
},
{
  "type": "node",
  "id": 1520406075,
  "lat": 47.8690639,
  "lon": 1.9239653
},
{
  "type": "node",
  "id": 1520406262,
  "lat": 47.8688919,
  "lon": 1.9239151
},
{
  "type": "node",
  "id": 1520406349,
  "lat": 47.8690607,
  "lon": 1.9242265
},
{
  "type": "node",
  "id": 1520406357,
  "lat": 47.8689840,
  "lon": 1.9238935
},
{
  "type": "node",
  "id": 1520406371,
  "lat": 47.8690851,
  "lon": 1.9241660
},
{
  "type": "node",
  "id": 1520406453,
  "lat": 47.8688550,
  "lon": 1.9239594
},
{
  "type": "node",
  "id": 1520406519,
  "lat": 47.8689317,
  "lon": 1.9242925
},
{
  "type": "node",
  "id": 1520406525,
  "lat": 47.8690941,
  "lon": 1.9240967
},
{
  "type": "node",
  "id": 1520406666,
  "lat": 47.8690282,
  "lon": 1.9239189
},
{
  "type": "node",
  "id": 1520406745,
  "lat": 47.8689791,
  "lon": 1.9242938
},
{
  "type": "node",
  "id": 1520406777,
  "lat": 47.8690238,
  "lon": 1.9242709
},
{
  "type": "node",
  "id": 1523017111,
  "lat": 47.8688225,
  "lon": 1.9241177
},
{
  "type": "node",
  "id": 1523017112,
  "lat": 47.8688261,
  "lon": 1.9240406
},
{
  "type": "node",
  "id": 1523017113,
  "lat": 47.8688364,
  "lon": 1.9241857
},
{
  "type": "node",
  "id": 1523017115,
  "lat": 47.8688435,
  "lon": 1.9239821
},
{
  "type": "node",
  "id": 1523017116,
  "lat": 47.8688664,
  "lon": 1.9242439
},
{
  "type": "node",
  "id": 1523017118,
  "lat": 47.8688731,
  "lon": 1.9239338
},
{
  "type": "node",
  "id": 1523017119,
  "lat": 47.8689042,
  "lon": 1.9242799
},
{
  "type": "node",
  "id": 1523017120,
  "lat": 47.8689135,
  "lon": 1.9239008
},
{
  "type": "node",
  "id": 1523017121,
  "lat": 47.8689549,
  "lon": 1.9242963
},
{
  "type": "node",
  "id": 1523017122,
  "lat": 47.8689621,
  "lon": 1.9238899
},
{
  "type": "node",
  "id": 1523017123,
  "lat": 47.8690023,
  "lon": 1.9242852
},
{
  "type": "node",
  "id": 1523017124,
  "lat": 47.8690068,
  "lon": 1.9239033
},
{
  "type": "node",
  "id": 1523017126,
  "lat": 47.8690427,
  "lon": 1.9242521
},
{
  "type": "node",
  "id": 1523017128,
  "lat": 47.8690472,
  "lon": 1.9239395
},
{
  "type": "node",
  "id": 1523017129,
  "lat": 47.8690747,
  "lon": 1.9241976
},
{
  "type": "node",
  "id": 1523017130,
  "lat": 47.8690777,
  "lon": 1.9239963
},
{
  "type": "node",
  "id": 1523017131,
  "lat": 47.8690916,
  "lon": 1.9241325
},
{
  "type": "node",
  "id": 1523017132,
  "lat": 47.8690924,
  "lon": 1.9240606
},
{
  "type": "node",
  "id": 2109776227,
  "lat": 47.8673224,
  "lon": 1.9231110
},
{
  "type": "node",
  "id": 2109776228,
  "lat": 47.8667060,
  "lon": 1.9228668
},
{
  "type": "node",
  "id": 2109776229,
  "lat": 47.8651781,
  "lon": 1.9224350
},
{
  "type": "node",
  "id": 2109776230,
  "lat": 47.8644677,
  "lon": 1.9221559
},
{
  "type": "node",
  "id": 2109776231,
  "lat": 47.8657821,
  "lon": 1.9226235
},
{
  "type": "node",
  "id": 3092964135,
  "lat": 47.8682932,
  "lon": 1.9236819
},
{
  "type": "node",
  "id": 3092964269,
  "lat": 47.8679795,
  "lon": 1.9235043
},
{
  "type": "node",
  "id": 5736780616,
  "lat": 47.8682600,
  "lon": 1.9236645
},
{
  "type": "node",
  "id": 5906049149,
  "lat": 47.8651476,
  "lon": 1.9224230
},
{
  "type": "node",
  "id": 5906049150,
  "lat": 47.8653662,
  "lon": 1.9224937
},
{
  "type": "node",
  "id": 7902465935,
  "lat": 47.8680527,
  "lon": 1.9235461
},
{
  "type": "node",
  "id": 7902465939,
  "lat": 47.8687369,
  "lon": 1.9239371
},
{
  "type": "node",
  "id": 7902465987,
  "lat": 47.8687932,
  "lon": 1.9239823
},
{
  "type": "node",
  "id": 7902466019,
  "lat": 47.8670325,
  "lon": 1.9229679
},
{
  "type": "node",
  "id": 7902466020,
  "lat": 47.8662420,
  "lon": 1.9227397
},
{
  "type": "node",
  "id": 8360816086,
  "lat": 47.8892470,
  "lon": 1.8957918
},
{
  "type": "node",
  "id": 8360816092,
  "lat": 47.8891416,
  "lon": 1.8957926
},
{
  "type": "node",
  "id": 8360816098,
  "lat": 47.8892170,
  "lon": 1.8958005
},
{
  "type": "node",
  "id": 8360816099,
  "lat": 47.8891793,
  "lon": 1.8957920
},
{
  "type": "node",
  "id": 287593611,
  "lat": 47.8880658,
  "lon": 1.9052080
},
{
  "type": "node",
  "id": 287593700,
  "lat": 47.8878797,
  "lon": 1.9052058
},
{
  "type": "node",
  "id": 287645723,
  "lat": 47.8847874,
  "lon": 1.9053596
},
{
  "type": "node",
  "id": 287645725,
  "lat": 47.8847293,
  "lon": 1.9058173
},
{
  "type": "node",
  "id": 287645726,
  "lat": 47.8847057,
  "lon": 1.9058965
},
{
  "type": "node",
  "id": 287645727,
  "lat": 47.8844848,
  "lon": 1.9063990
},
{
  "type": "node",
  "id": 287645728,
  "lat": 47.8844314,
  "lon": 1.9064733
},
{
  "type": "node",
  "id": 306523154,
  "lat": 47.8890010,
  "lon": 1.9050642
},
{
  "type": "node",
  "id": 383654401,
  "lat": 47.8889969,
  "lon": 1.9049584
},
{
  "type": "node",
  "id": 695119779,
  "lat": 47.8887717,
  "lon": 1.9049995
},
{
  "type": "node",
  "id": 1764895320,
  "lat": 47.8879608,
  "lon": 1.9051132
},
{
  "type": "node",
  "id": 1764895335,
  "lat": 47.8878890,
  "lon": 1.9050983
},
{
  "type": "node",
  "id": 1764895340,
  "lat": 47.8883824,
  "lon": 1.9050229
},
{
  "type": "node",
  "id": 1764895345,
  "lat": 47.8883768,
  "lon": 1.9050996
},
{
  "type": "node",
  "id": 1764895347,
  "lat": 47.8888660,
  "lon": 1.9050718
},
{
  "type": "node",
  "id": 1764895355,
  "lat": 47.8888717,
  "lon": 1.9049851
},
{
  "type": "node",
  "id": 2152733419,
  "lat": 47.8848968,
  "lon": 1.9045763
},
{
  "type": "node",
  "id": 3542091365,
  "lat": 47.8881416,
  "lon": 1.9050583
},
{
  "type": "node",
  "id": 4235055216,
  "lat": 47.8880743,
  "lon": 1.9050855
},
{
  "type": "node",
  "id": 4235055217,
  "lat": 47.8880983,
  "lon": 1.9051943
},
{
  "type": "node",
  "id": 4242829075,
  "lat": 47.8840622,
  "lon": 1.9066818
},
{
  "type": "node",
  "id": 4242829076,
  "lat": 47.8842601,
  "lon": 1.9065692
},
{
  "type": "node",
  "id": 4242829077,
  "lat": 47.8843680,
  "lon": 1.9065209
},
{
  "type": "node",
  "id": 4242829078,
  "lat": 47.8846018,
  "lon": 1.9061588
},
{
  "type": "node",
  "id": 5736780943,
  "lat": 47.8844628,
  "lon": 1.9064297
},
{
  "type": "node",
  "id": 6598025679,
  "lat": 47.8882808,
  "lon": 1.9051101
},
{
  "type": "node",
  "id": 7086338967,
  "lat": 47.8849222,
  "lon": 1.9044689
},
{
  "type": "node",
  "id": 8361125449,
  "lat": 47.8884034,
  "lon": 1.9050216
},
{
  "type": "node",
  "id": 8361125450,
  "lat": 47.8883475,
  "lon": 1.9051028
},
{
  "type": "node",
  "id": 8361125451,
  "lat": 47.8880994,
  "lon": 1.9050753
},
{
  "type": "node",
  "id": 8361125452,
  "lat": 47.8880256,
  "lon": 1.9051052
},
{
  "type": "node",
  "id": 8361125453,
  "lat": 47.8879581,
  "lon": 1.9052172
},
{
  "type": "node",
  "id": 9051006185,
  "lat": 47.8841192,
  "lon": 1.9066494
},
{
  "type": "node",
  "id": 9051065273,
  "lat": 47.8847230,
  "lon": 1.9058528
},
{
  "type": "node",
  "id": 9051084350,
  "lat": 47.8845495,
  "lon": 1.9062661
},
{
  "type": "node",
  "id": 485232995,
  "lat": 47.8864570,
  "lon": 1.9109016
},
{
  "type": "node",
  "id": 485232998,
  "lat": 47.8864454,
  "lon": 1.9101985
},
{
  "type": "node",
  "id": 7080197394,
  "lat": 47.8864463,
  "lon": 1.9103028
},
{
  "type": "node",
  "id": 7080197396,
  "lat": 47.8864589,
  "lon": 1.9107834
},
{
  "type": "node",
  "id": 249480930,
  "lat": 47.8983017,
  "lon": 1.8948289
},
{
  "type": "node",
  "id": 249480931,
  "lat": 47.8982989,
  "lon": 1.8947780
},
{
  "type": "node",
  "id": 249481207,
  "lat": 47.8989776,
  "lon": 1.8951832
},
{
  "type": "node",
  "id": 249481436,
  "lat": 47.8996006,
  "lon": 1.8948460
},
{
  "type": "node",
  "id": 249481603,
  "lat": 47.9035056,
  "lon": 1.8952243
},
{
  "type": "node",
  "id": 4409345311,
  "lat": 47.8982945,
  "lon": 1.8947069
},
{
  "type": "node",
  "id": 5262212189,
  "lat": 47.8993233,
  "lon": 1.8950038
},
{
  "type": "node",
  "id": 5918273461,
  "lat": 47.9035519,
  "lon": 1.8951504
},
{
  "type": "node",
  "id": 7640212760,
  "lat": 47.8982959,
  "lon": 1.8947243
},
{
  "type": "node",
  "id": 249481469,
  "lat": 47.9050681,
  "lon": 1.8966294
},
{
  "type": "node",
  "id": 249482052,
  "lat": 47.9044462,
  "lon": 1.8955693
},
{
  "type": "node",
  "id": 249482053,
  "lat": 47.9040779,
  "lon": 1.8949617
},
{
  "type": "node",
  "id": 6019604874,
  "lat": 47.9039573,
  "lon": 1.8947986
},
{
  "type": "node",
  "id": 6019604875,
  "lat": 47.9037948,
  "lon": 1.8947360
},
{
  "type": "node",
  "id": 6835399436,
  "lat": 47.9035663,
  "lon": 1.8951243
},
{
  "type": "node",
  "id": 6835399437,
  "lat": 47.9038186,
  "lon": 1.8947686
},
{
  "type": "node",
  "id": 6835399442,
  "lat": 47.9035838,
  "lon": 1.8951905
},
{
  "type": "node",
  "id": 7614509760,
  "lat": 47.9038534,
  "lon": 1.8946279
},
{
  "type": "node",
  "id": 7614509761,
  "lat": 47.9039819,
  "lon": 1.8948339
},
{
  "type": "node",
  "id": 7614509762,
  "lat": 47.9039696,
  "lon": 1.8948163
},
{
  "type": "node",
  "id": 8197354577,
  "lat": 47.9035610,
  "lon": 1.8951344
},
{
  "type": "node",
  "id": 287593691,
  "lat": 47.8981379,
  "lon": 1.9042731
},
{
  "type": "node",
  "id": 1312749140,
  "lat": 47.8981041,
  "lon": 1.9044938
},
{
  "type": "node",
  "id": 1903198339,
  "lat": 47.8981400,
  "lon": 1.9043568
},
{
  "type": "node",
  "id": 5909322741,
  "lat": 47.8981406,
  "lon": 1.9044115
},
{
  "type": "node",
  "id": 5909322748,
  "lat": 47.8981298,
  "lon": 1.9044524
},
{
  "type": "node",
  "id": 5909322749,
  "lat": 47.8981403,
  "lon": 1.9043842
},
{
  "type": "node",
  "id": 249480822,
  "lat": 47.9092990,
  "lon": 1.9042741
},
{
  "type": "node",
  "id": 250286553,
  "lat": 47.9065998,
  "lon": 1.9040451
},
{
  "type": "node",
  "id": 306508374,
  "lat": 47.9067627,
  "lon": 1.9039889
},
{
  "type": "node",
  "id": 306509736,
  "lat": 47.9066054,
  "lon": 1.9058651
},
{
  "type": "node",
  "id": 339884990,
  "lat": 47.9064707,
  "lon": 1.9053578
},
{
  "type": "node",
  "id": 457134289,
  "lat": 47.9087457,
  "lon": 1.9042080
},
{
  "type": "node",
  "id": 457159972,
  "lat": 47.9067924,
  "lon": 1.9059632
},
{
  "type": "node",
  "id": 457172398,
  "lat": 47.9064028,
  "lon": 1.9059865
},
{
  "type": "node",
  "id": 457172405,
  "lat": 47.9065357,
  "lon": 1.9060704
},
{
  "type": "node",
  "id": 485286580,
  "lat": 47.9065074,
  "lon": 1.9060566
},
{
  "type": "node",
  "id": 1648230868,
  "lat": 47.9065445,
  "lon": 1.9049163
},
{
  "type": "node",
  "id": 1649344576,
  "lat": 47.9068344,
  "lon": 1.9040403
},
{
  "type": "node",
  "id": 1649344582,
  "lat": 47.9068973,
  "lon": 1.9040601
},
{
  "type": "node",
  "id": 1649782840,
  "lat": 47.9066013,
  "lon": 1.9060896
},
{
  "type": "node",
  "id": 4223863897,
  "lat": 47.9062841,
  "lon": 1.9059964
},
{
  "type": "node",
  "id": 4223863903,
  "lat": 47.9067041,
  "lon": 1.9060892
},
{
  "type": "node",
  "id": 4223863905,
  "lat": 47.9067412,
  "lon": 1.9059383
},
{
  "type": "node",
  "id": 5923815533,
  "lat": 47.9067181,
  "lon": 1.9059258
},
{
  "type": "node",
  "id": 5923821130,
  "lat": 47.9063656,
  "lon": 1.9059247
},
{
  "type": "node",
  "id": 5923838117,
  "lat": 47.9068551,
  "lon": 1.9040484
},
{
  "type": "node",
  "id": 5928551062,
  "lat": 47.9066162,
  "lon": 1.9060895
},
{
  "type": "node",
  "id": 5928551063,
  "lat": 47.9065702,
  "lon": 1.9060792
},
{
  "type": "node",
  "id": 6301175312,
  "lat": 47.9069159,
  "lon": 1.9040579
},
{
  "type": "node",
  "id": 6301175318,
  "lat": 47.9067362,
  "lon": 1.9039617
},
{
  "type": "node",
  "id": 6301175319,
  "lat": 47.9067200,
  "lon": 1.9039335
},
{
  "type": "node",
  "id": 6301175320,
  "lat": 47.9067106,
  "lon": 1.9038976
},
{
  "type": "node",
  "id": 6301309160,
  "lat": 47.9067067,
  "lon": 1.9038520
},
{
  "type": "node",
  "id": 6301480651,
  "lat": 47.9063653,
  "lon": 1.9057410
},
{
  "type": "node",
  "id": 6301480652,
  "lat": 47.9063466,
  "lon": 1.9058539
},
{
  "type": "node",
  "id": 6301480659,
  "lat": 47.9069331,
  "lon": 1.9060263
},
{
  "type": "node",
  "id": 6301511170,
  "lat": 47.9066843,
  "lon": 1.9059054
},
{
  "type": "node",
  "id": 6301511171,
  "lat": 47.9066505,
  "lon": 1.9058894
},
{
  "type": "node",
  "id": 6996243714,
  "lat": 47.9065966,
  "lon": 1.9060878
},
{
  "type": "node",
  "id": 6996243715,
  "lat": 47.9065542,
  "lon": 1.9060751
},
{
  "type": "node",
  "id": 7574474360,
  "lat": 47.9081646,
  "lon": 1.9041465
},
{
  "type": "node",
  "id": 7639960680,
  "lat": 47.9082365,
  "lon": 1.9041545
},
{
  "type": "node",
  "id": 7640005019,
  "lat": 47.9095456,
  "lon": 1.9042943
},
{
  "type": "node",
  "id": 7640005028,
  "lat": 47.9087051,
  "lon": 1.9042066
},
{
  "type": "node",
  "id": 7640033087,
  "lat": 47.9086456,
  "lon": 1.9042000
},
{
  "type": "node",
  "id": 8196910296,
  "lat": 47.9068475,
  "lon": 1.9040454
},
{
  "type": "node",
  "id": 9393991499,
  "lat": 47.9063719,
  "lon": 1.9057169
},
{
  "type": "node",
  "id": 249481836,
  "lat": 47.9055025,
  "lon": 1.9086407
},
{
  "type": "node",
  "id": 4225146015,
  "lat": 47.9086255,
  "lon": 1.9108056
},
{
  "type": "node",
  "id": 5759497061,
  "lat": 47.9085998,
  "lon": 1.9107972
},
{
  "type": "node",
  "id": 5759497063,
  "lat": 47.9084527,
  "lon": 1.9107494
},
{
  "type": "node",
  "id": 5759497067,
  "lat": 47.9076577,
  "lon": 1.9104527
},
{
  "type": "node",
  "id": 5759497074,
  "lat": 47.9076964,
  "lon": 1.9104688
},
{
  "type": "node",
  "id": 5759521618,
  "lat": 47.9053518,
  "lon": 1.9093701
},
{
  "type": "node",
  "id": 6300767289,
  "lat": 47.9076771,
  "lon": 1.9104608
},
{
  "type": "node",
  "id": 6300767290,
  "lat": 47.9075783,
  "lon": 1.9104219
},
{
  "type": "node",
  "id": 6300805125,
  "lat": 47.9052951,
  "lon": 1.9095968
},
{
  "type": "node",
  "id": 6300805126,
  "lat": 47.9053652,
  "lon": 1.9093163
},
{
  "type": "node",
  "id": 6312252594,
  "lat": 47.9054693,
  "lon": 1.9088042
},
{
  "type": "node",
  "id": 306700816,
  "lat": 47.9229203,
  "lon": 1.8936247
},
{
  "type": "node",
  "id": 618823574,
  "lat": 47.9228681,
  "lon": 1.8934195
},
{
  "type": "node",
  "id": 306681864,
  "lat": 47.9190169,
  "lon": 1.8983693
},
{
  "type": "node",
  "id": 984873980,
  "lat": 47.9180314,
  "lon": 1.8988196
},
{
  "type": "node",
  "id": 1590969225,
  "lat": 47.9179579,
  "lon": 1.8984922
},
{
  "type": "node",
  "id": 1590969230,
  "lat": 47.9179651,
  "lon": 1.8984595
},
{
  "type": "node",
  "id": 1590969234,
  "lat": 47.9179642,
  "lon": 1.8986010
},
{
  "type": "node",
  "id": 1590969236,
  "lat": 47.9179986,
  "lon": 1.8987970
},
{
  "type": "node",
  "id": 1590969239,
  "lat": 47.9179984,
  "lon": 1.8984199
},
{
  "type": "node",
  "id": 1590969274,
  "lat": 47.9184184,
  "lon": 1.8983359
},
{
  "type": "node",
  "id": 1590969285,
  "lat": 47.9186361,
  "lon": 1.8982839
},
{
  "type": "node",
  "id": 1590969288,
  "lat": 47.9187477,
  "lon": 1.8983027
},
{
  "type": "node",
  "id": 1590969298,
  "lat": 47.9189209,
  "lon": 1.8982092
},
{
  "type": "node",
  "id": 1590969308,
  "lat": 47.9190107,
  "lon": 1.8983070
},
{
  "type": "node",
  "id": 3369093260,
  "lat": 47.9179588,
  "lon": 1.8985182
},
{
  "type": "node",
  "id": 3369093261,
  "lat": 47.9179783,
  "lon": 1.8987213
},
{
  "type": "node",
  "id": 6022547968,
  "lat": 47.9189816,
  "lon": 1.8982504
},
{
  "type": "node",
  "id": 6022547969,
  "lat": 47.9188038,
  "lon": 1.8982436
},
{
  "type": "node",
  "id": 6022547970,
  "lat": 47.9186999,
  "lon": 1.8982736
},
{
  "type": "node",
  "id": 6022577852,
  "lat": 47.9179824,
  "lon": 1.8987545
},
{
  "type": "node",
  "id": 6022577853,
  "lat": 47.9179771,
  "lon": 1.8984369
},
{
  "type": "node",
  "id": 6022577854,
  "lat": 47.9179889,
  "lon": 1.8987762
},
{
  "type": "node",
  "id": 6147249108,
  "lat": 47.9171489,
  "lon": 1.8988195
},
{
  "type": "node",
  "id": 6147249109,
  "lat": 47.9174954,
  "lon": 1.8987438
},
{
  "type": "node",
  "id": 6147249113,
  "lat": 47.9179713,
  "lon": 1.8986610
},
{
  "type": "node",
  "id": 6147249130,
  "lat": 47.9171011,
  "lon": 1.8988280
},
{
  "type": "node",
  "id": 7947644961,
  "lat": 47.9189751,
  "lon": 1.8982460
},
{
  "type": "node",
  "id": 7947644973,
  "lat": 47.9179614,
  "lon": 1.8985516
},
{
  "type": "node",
  "id": 7947644978,
  "lat": 47.9182275,
  "lon": 1.8983773
},
{
  "type": "node",
  "id": 7947745685,
  "lat": 47.9180228,
  "lon": 1.8988137
},
{
  "type": "node",
  "id": 250705095,
  "lat": 47.9108692,
  "lon": 1.9044026
},
{
  "type": "node",
  "id": 4223802382,
  "lat": 47.9110688,
  "lon": 1.9044334
},
{
  "type": "node",
  "id": 7639869200,
  "lat": 47.9110434,
  "lon": 1.9044309
},
{
  "type": "node",
  "id": 3761795407,
  "lat": 47.9212053,
  "lon": 1.9071242
},
{
  "type": "node",
  "id": 3761822041,
  "lat": 47.9211847,
  "lon": 1.9079091
},
{
  "type": "node",
  "id": 3761822042,
  "lat": 47.9211909,
  "lon": 1.9078235
},
{
  "type": "node",
  "id": 4240984752,
  "lat": 47.9211728,
  "lon": 1.9080364
},
{
  "type": "node",
  "id": 6394053623,
  "lat": 47.9211954,
  "lon": 1.9077484
},
{
  "type": "node",
  "id": 6814121340,
  "lat": 47.9212133,
  "lon": 1.9073436
},
{
  "type": "node",
  "id": 7475242065,
  "lat": 47.9212116,
  "lon": 1.9074849
},
{
  "type": "node",
  "id": 605008356,
  "lat": 47.9237263,
  "lon": 1.8931780
},
{
  "type": "node",
  "id": 618823589,
  "lat": 47.9237549,
  "lon": 1.8934105
},
{
  "type": "node",
  "id": 618823605,
  "lat": 47.9250265,
  "lon": 1.8928050
},
{
  "type": "node",
  "id": 618823606,
  "lat": 47.9253883,
  "lon": 1.8929331
},
{
  "type": "node",
  "id": 618823607,
  "lat": 47.9253590,
  "lon": 1.8927096
},
{
  "type": "node",
  "id": 1655198002,
  "lat": 47.9238450,
  "lon": 1.8931411
},
{
  "type": "node",
  "id": 1655198008,
  "lat": 47.9239671,
  "lon": 1.8931031
},
{
  "type": "node",
  "id": 1655198011,
  "lat": 47.9241861,
  "lon": 1.8930421
},
{
  "type": "node",
  "id": 1655198013,
  "lat": 47.9242205,
  "lon": 1.8932723
},
{
  "type": "node",
  "id": 6855239558,
  "lat": 47.9253250,
  "lon": 1.8929515
},
{
  "type": "node",
  "id": 6855866345,
  "lat": 47.9236061,
  "lon": 1.8932118
},
{
  "type": "node",
  "id": 6855866347,
  "lat": 47.9232417,
  "lon": 1.8933144
},
{
  "type": "node",
  "id": 7319617223,
  "lat": 47.9235404,
  "lon": 1.8932303
},
{
  "type": "node",
  "id": 7319617224,
  "lat": 47.9235836,
  "lon": 1.8934545
},
{
  "type": "node",
  "id": 306700670,
  "lat": 47.9257219,
  "lon": 1.8945495
},
{
  "type": "node",
  "id": 306700671,
  "lat": 47.9256241,
  "lon": 1.8945965
},
{
  "type": "node",
  "id": 250318733,
  "lat": 47.9224212,
  "lon": 1.9233487
},
{
  "type": "node",
  "id": 1920882534,
  "lat": 47.9223653,
  "lon": 1.9234135
},
{
  "type": "node",
  "id": 3582984303,
  "lat": 47.9215639,
  "lon": 1.9253349
},
{
  "type": "node",
  "id": 3582984308,
  "lat": 47.9216231,
  "lon": 1.9251891
},
{
  "type": "node",
  "id": 5881609108,
  "lat": 47.9223371,
  "lon": 1.9234786
},
{
  "type": "node",
  "id": 5922580578,
  "lat": 47.9216474,
  "lon": 1.9251295
},
{
  "type": "node",
  "id": 5922587223,
  "lat": 47.9216574,
  "lon": 1.9251073
},
{
  "type": "node",
  "id": 6815474068,
  "lat": 47.9220507,
  "lon": 1.9241733
},
{
  "type": "node",
  "id": 6815635726,
  "lat": 47.9223460,
  "lon": 1.9234582
},
{
  "type": "node",
  "id": 6884628657,
  "lat": 47.9217230,
  "lon": 1.9249523
},
{
  "type": "node",
  "id": 7395269639,
  "lat": 47.9223933,
  "lon": 1.9233811
},
{
  "type": "node",
  "id": 414821256,
  "lat": 47.9260631,
  "lon": 1.9418088
},
{
  "type": "node",
  "id": 414821257,
  "lat": 47.9260193,
  "lon": 1.9421213
},
{
  "type": "node",
  "id": 414821258,
  "lat": 47.9259926,
  "lon": 1.9423418
},
{
  "type": "node",
  "id": 414821259,
  "lat": 47.9259024,
  "lon": 1.9431613
},
{
  "type": "node",
  "id": 414821260,
  "lat": 47.9258768,
  "lon": 1.9433624
},
{
  "type": "node",
  "id": 414821261,
  "lat": 47.9258134,
  "lon": 1.9439072
},
{
  "type": "node",
  "id": 414821262,
  "lat": 47.9257908,
  "lon": 1.9440069
},
{
  "type": "node",
  "id": 5679658705,
  "lat": 47.9258430,
  "lon": 1.9436607
},
{
  "type": "node",
  "id": 7429983803,
  "lat": 47.9260530,
  "lon": 1.9418576
}

  ]
}
