{
  "version": 0.6,
  "generator": "Overpass API 0.7.57 93a4d346",
  "osm3s": {
    "timestamp_osm_base": "2022-02-13T13:29:38Z",
    "timestamp_areas_base": "2022-02-13T06:31:57Z",
    "copyright": "The data included in this document is from www.openstreetmap.org. The data is made available under ODbL."
  },
  "elements": [

{
  "type": "way",
  "id": 10275772,
  "nodes": [
    28796609,
    28796601,
    7533495733,
    297081761
  ],
  "tags": {
    "addr:city": "Nanterre",
    "addr:country": "FR",
    "cycleway:right": "lane",
    "description:covid19": "Bande cyclable temporaire",
    "highway": "primary",
    "junction": "circular",
    "lanes": "3",
    "name": "Place de la Boule",
    "note": "not a roundabout; pas un giratoire",
    "old_name": "Boule Royale",
    "oneway": "yes",
    "postal_code": "92000",
    "surface": "asphalt",
    "wikipedia": "fr:Place de la Boule"
  }
},
{
  "type": "way",
  "id": 17478489,
  "nodes": [
    2422606306,
    2422606303,
    2243186914
  ],
  "tags": {
    "cycleway:right": "lane",
    "highway": "tertiary",
    "lanes": "2",
    "lit": "yes",
    "maxspeed": "50",
    "name": "Avenue Pablo Picasso",
    "oneway": "yes",
    "source": "survey;bing;knowledge",
    "source:maxspeed": "sign",
    "surface": "asphalt"
  }
},
{
  "type": "way",
  "id": 17503443,
  "nodes": [
    6964065261,
    2957179240,
    3384928912
  ],
  "tags": {
    "cycleway:right": "lane",
    "highway": "residential",
    "name": "Rue des Venêts"
  }
},
{
  "type": "way",
  "id": 25767164,
  "nodes": [
    6923543017,
    281027450,
    3159886117,
    3159886114,
    281027426,
    3159886112
  ],
  "tags": {
    "cycleway:right": "lane",
    "highway": "secondary",
    "lanes": "1",
    "maxspeed": "50",
    "name": "Boulevard des Provinces Françaises",
    "oneway": "yes",
    "ref": "D 24",
    "surface": "asphalt"
  }
},
{
  "type": "way",
  "id": 35329446,
  "nodes": [
    5264321268,
    413888327
  ],
  "tags": {
    "addr:city": "Nanterre",
    "addr:country": "FR",
    "addr:postcode": "92000",
    "cycleway:left": "opposite_lane",
    "cycleway:right": "lane",
    "description:covid19": "bandes cyclables temporaires",
    "highway": "tertiary",
    "lanes": "2",
    "maxspeed": "30",
    "name": "Rue Gambetta",
    "old_name": "Rue de la Boule Royale;Rue Royale",
    "oneway": "yes",
    "oneway:bicycle": "no",
    "source": "bing;survey;knowledge",
    "start_date": "1740",
    "surface": "asphalt"
  }
},
{
  "type": "way",
  "id": 35414960,
  "nodes": [
    415417480,
    7552156838
  ],
  "tags": {
    "cycleway:right": "lane",
    "highway": "unclassified",
    "lanes": "2",
    "name": "Rue Sadi Carnot",
    "old_name": "Vieux Chemin de Paris;Rue du Vieux Chemin de Paris",
    "oneway": "yes",
    "source": "knowledge;survey;bing",
    "surface": "asphalt"
  }
},
{
  "type": "way",
  "id": 35974245,
  "nodes": [
    420480631,
    3080568811,
    420480696
  ],
  "tags": {
    "addr:city": "Nanterre",
    "addr:country": "FR",
    "addr:postcode": "92000",
    "cycleway:right": "lane",
    "highway": "residential",
    "name": "Avenue du Cimetière",
    "surface": "asphalt"
  }
},
{
  "type": "way",
  "id": 35974247,
  "nodes": [
    3080576234,
    1824947055,
    1411508502,
    3182523353,
    420480709,
    420480708
  ],
  "tags": {
    "addr:city": "Nanterre",
    "addr:country": "FR",
    "addr:postcode": "92000",
    "cycleway:right": "lane",
    "highway": "unclassified",
    "lanes": "2",
    "name": "Rue des Peupliers",
    "old_name": "Chemin des Peupliers",
    "source": "<différent>; survey",
    "surface": "asphalt"
  }
},
{
  "type": "way",
  "id": 43490947,
  "nodes": [
    1122798956,
    366196304,
    7541265457,
    3443373613,
    420480578,
    366196303,
    3623700158,
    2989597902,
    352931847
  ],
  "tags": {
    "cycleway:right": "lane",
    "highway": "secondary",
    "lanes": "2",
    "name": "Avenue de la Commune de Paris",
    "old_name": "Chemin No 6 de Nanterre à Saint Denis",
    "oneway": "yes",
    "ref": "D 986",
    "source": "survey;knowledge;bing",
    "surface": "asphalt"
  }
},
{
  "type": "way",
  "id": 58177882,
  "nodes": [
    4230212487,
    319107356,
    8224238160,
    8224238163,
    1495883112,
    180880485
  ],
  "tags": {
    "addr:city": "Nanterre",
    "addr:country": "FR",
    "cycleway:right": "lane",
    "highway": "secondary",
    "lanes": "2",
    "maxheight": "4.3",
    "maxspeed": "50",
    "name": "Avenue Frédéric et Irène Joliot Curie",
    "oneway": "yes",
    "postal_code": "92000",
    "ref": "D 131",
    "ref:FR:FANTOIR": "920503585G",
    "source": "survey;bing;knowledge",
    "surface": "asphalt"
  }
},
{
  "type": "way",
  "id": 103289064,
  "nodes": [
    86049326,
    7533495736,
    86049327
  ],
  "tags": {
    "cycleway:right": "lane",
    "description:covid19": "Bande cyclable temporaire",
    "highway": "primary",
    "junction": "circular",
    "lanes": "3",
    "name": "Place de la Boule",
    "note": "not a roundabout; pas un giratoire",
    "old_name": "Boule Royale",
    "oneway": "yes",
    "surface": "asphalt",
    "wikipedia": "fr:Place de la Boule"
  }
},
{
  "type": "way",
  "id": 103289143,
  "nodes": [
    297081761,
    5642876089,
    86049323
  ],
  "tags": {
    "addr:city": "Nanterre",
    "addr:country": "FR",
    "cycleway:right": "lane",
    "description:covid19": "Bande cyclable temporaire",
    "highway": "primary",
    "junction": "circular",
    "lanes": "3",
    "name": "Place de la Boule",
    "note": "not a roundabout; pas un giratoire",
    "old_name": "Boule Royale",
    "oneway": "yes",
    "postal_code": "92000",
    "surface": "asphalt",
    "wikipedia": "fr:Place de la Boule"
  }
},
{
  "type": "way",
  "id": 103289203,
  "nodes": [
    28792214,
    86049325,
    6485722654,
    28796673,
    7533495735,
    86049326
  ],
  "tags": {
    "addr:city": "Nanterre",
    "addr:country": "FR",
    "cycleway:right": "lane",
    "description:covid19": "Bande cyclable temporaire",
    "highway": "primary",
    "junction": "circular",
    "lanes": "3",
    "name": "Place de la Boule",
    "note": "not a roundabout; pas un giratoire",
    "old_name": "Boule Royale",
    "oneway": "yes",
    "postal_code": "92000",
    "surface": "asphalt",
    "wikipedia": "fr:Place de la Boule"
  }
},
{
  "type": "way",
  "id": 125911843,
  "nodes": [
    86049327,
    86049328,
    86049330,
    7533495730,
    86049331
  ],
  "tags": {
    "addr:city": "Nanterre",
    "addr:country": "FR",
    "cycleway:right": "lane",
    "description:covid19": "Bande cyclable temporaire",
    "highway": "primary",
    "junction": "circular",
    "lanes": "3",
    "name": "Place de la Boule",
    "note": "not a roundabout; pas un giratoire",
    "old_name": "Boule Royale",
    "oneway": "yes",
    "postal_code": "92000",
    "surface": "asphalt",
    "wikipedia": "fr:Place de la Boule"
  }
},
{
  "type": "way",
  "id": 129709307,
  "nodes": [
    8224238154,
    1879438184,
    181766723,
    2422606305,
    2422606310
  ],
  "tags": {
    "cycleway:right": "lane",
    "highway": "tertiary",
    "lanes": "2",
    "lit": "yes",
    "maxspeed": "50",
    "name": "Avenue Pablo Picasso",
    "oneway": "yes",
    "sidewalk": "right",
    "source": "survey;bing;knowledge",
    "source:maxspeed": "sign",
    "surface": "asphalt"
  }
},
{
  "type": "way",
  "id": 148235030,
  "nodes": [
    180880504,
    1495883196,
    775538087,
    7236975695,
    8616029373,
    1624229168,
    775538081,
    4230213618,
    4230213679,
    1122799125,
    5887013641,
    5318485516,
    180880519
  ],
  "tags": {
    "cycleway:right": "lane",
    "highway": "secondary",
    "lanes": "2",
    "maxspeed": "50",
    "name": "Avenue Frédéric et Irène Joliot Curie",
    "oneway": "yes",
    "ref": "D 131",
    "ref:FR:FANTOIR": "920503585G",
    "source": "survey;bing;knowledge",
    "surface": "asphalt"
  }
},
{
  "type": "way",
  "id": 148619535,
  "nodes": [
    2575615245,
    4963783793,
    2575615216,
    775538079,
    4230213638,
    2575615211,
    8616029374,
    1624229172,
    281029921,
    7236975693,
    281029922,
    281030911,
    1495883209,
    180880469
  ],
  "tags": {
    "cycleway:right": "lane",
    "highway": "secondary",
    "lanes": "2",
    "maxspeed": "50",
    "name": "Avenue Frédéric et Irène Joliot Curie",
    "oneway": "yes",
    "ref": "D 131",
    "ref:FR:FANTOIR": "920503585G",
    "source": "survey;bing;knowledge",
    "surface": "asphalt"
  }
},
{
  "type": "way",
  "id": 196585623,
  "nodes": [
    86049323,
    3815915678,
    7533495734,
    28792214
  ],
  "tags": {
    "addr:city": "Nanterre",
    "addr:country": "FR",
    "cycleway:right": "lane",
    "description:covid19": "Bande cyclable temporaire",
    "highway": "primary",
    "junction": "circular",
    "lanes": "3",
    "name": "Place de la Boule",
    "note": "not a roundabout; pas un giratoire",
    "old_name": "Boule Royale",
    "oneway": "yes",
    "postal_code": "92000",
    "surface": "asphalt",
    "wikipedia": "fr:Place de la Boule"
  }
},
{
  "type": "way",
  "id": 198421104,
  "nodes": [
    86049331,
    7533495731,
    3384977024,
    415448755,
    86049332
  ],
  "tags": {
    "addr:city": "Nanterre",
    "addr:country": "FR",
    "cycleway:right": "lane",
    "description:covid19": "Bande cyclable temporaire",
    "highway": "primary",
    "junction": "circular",
    "lanes": "3",
    "name": "Place de la Boule",
    "note": "not a roundabout; pas un giratoire",
    "old_name": "Boule Royale",
    "oneway": "yes",
    "postal_code": "92000",
    "surface": "asphalt",
    "wikipedia": "fr:Place de la Boule"
  }
},
{
  "type": "way",
  "id": 198421110,
  "nodes": [
    180880476,
    7273731431,
    497118871,
    3095910369,
    180880479,
    497118873
  ],
  "tags": {
    "cycleway:right": "lane",
    "highway": "secondary",
    "junction": "circular",
    "lanes": "3",
    "maxspeed": "50",
    "name": "Place des Droits de l'Homme",
    "note": "Not a roundabout, entering traffic has priority; pas un giratoire",
    "oneway": "yes",
    "source:maxspeed": "FR:urban",
    "surface": "asphalt"
  }
},
{
  "type": "way",
  "id": 198424354,
  "nodes": [
    420480708,
    420480710,
    420537775,
    1824947242,
    420537776,
    1824947341,
    6460687071,
    1736527730
  ],
  "tags": {
    "addr:city": "Nanterre",
    "addr:country": "FR",
    "addr:postcode": "92000",
    "cycleway:right": "lane",
    "highway": "unclassified",
    "name": "Rue des Peupliers",
    "surface": "asphalt"
  }
},
{
  "type": "way",
  "id": 251321705,
  "nodes": [
    1613345409,
    2575615233,
    2575615225,
    8616043864,
    2575615222,
    240522224
  ],
  "tags": {
    "cycleway:right": "lane",
    "highway": "tertiary",
    "lanes": "1",
    "maxspeed": "50",
    "name": "Boulevard de Pesaro",
    "oneway": "yes",
    "source": "survey;bing;knowledge",
    "surface": "asphalt"
  }
},
{
  "type": "way",
  "id": 263936603,
  "nodes": [
    86049332,
    415449505,
    7533495732,
    1752612502
  ],
  "tags": {
    "addr:city": "Nanterre",
    "addr:country": "FR",
    "cycleway:right": "lane",
    "description:covid19": "Bande cyclable temporaire",
    "highway": "primary",
    "junction": "circular",
    "lanes": "3",
    "name": "Place de la Boule",
    "note": "not a roundabout; pas un giratoire",
    "oneway": "yes",
    "postal_code": "92000",
    "surface": "asphalt",
    "wikipedia": "fr:Place de la Boule"
  }
},
{
  "type": "way",
  "id": 263936629,
  "nodes": [
    1752612502,
    295735383,
    415449506,
    28796609
  ],
  "tags": {
    "addr:city": "Nanterre",
    "addr:country": "FR",
    "cycleway:right": "lane",
    "description:covid19": "Bande cyclable temporaire",
    "highway": "primary",
    "junction": "circular",
    "lanes": "3",
    "name": "Place de la Boule",
    "note": "not a roundabout; pas un giratoire",
    "oneway": "yes",
    "postal_code": "92000",
    "surface": "asphalt",
    "wikipedia": "fr:Place de la Boule"
  }
},
{
  "type": "way",
  "id": 310552964,
  "nodes": [
    6635092640,
    281027298,
    3159886115,
    3046540442,
    281027925,
    6923543017
  ],
  "tags": {
    "addr:city": "Nanterre",
    "addr:country": "FR",
    "busway:left": "lane",
    "cycleway:right": "lane",
    "highway": "secondary",
    "lanes": "1",
    "maxspeed": "30",
    "name": "Boulevard des Provinces Françaises",
    "oneway": "yes",
    "postal_code": "92000",
    "ref": "D 24",
    "source:maxspeed": "sign",
    "surface": "asphalt"
  }
},
{
  "type": "way",
  "id": 331342808,
  "nodes": [
    1613345400,
    2575615246,
    2575615243,
    1613345409
  ],
  "tags": {
    "cycleway:right": "lane",
    "highway": "secondary",
    "lanes": "3",
    "maxspeed": "50",
    "name": "Place Nelson Mandela",
    "old_name": "Place de la Croisée",
    "oneway": "yes",
    "source": "survey;bing;knowledge",
    "surface": "asphalt"
  }
},
{
  "type": "way",
  "id": 540864082,
  "nodes": [
    151225044,
    7297112253,
    5240807743
  ],
  "tags": {
    "bridge": "yes",
    "cycleway:left": "opposite_lane",
    "cycleway:right": "lane",
    "highway": "residential",
    "layer": "1",
    "maxspeed": "50",
    "maxspeed:type": "FR:urban",
    "name": "Pont Célestin Hébert",
    "oneway": "yes",
    "oneway:bicycle": "no",
    "sidewalk": "both",
    "survey:date": "2019"
  }
},
{
  "type": "way",
  "id": 544608530,
  "nodes": [
    1202452341,
    2689332063,
    640635602,
    2689332066,
    413886774,
    5264321268
  ],
  "tags": {
    "addr:city": "Nanterre",
    "addr:country": "FR",
    "addr:postcode": "92000",
    "cycleway:left": "opposite_lane",
    "cycleway:right": "lane",
    "description:covid19": "bandes cyclables temporaires",
    "highway": "tertiary",
    "lanes": "1",
    "maxspeed": "30",
    "name": "Rue Gambetta",
    "old_name": "Rue de la Boule Royale;Rue Royale",
    "oneway": "yes",
    "oneway:bicycle": "no",
    "source": "bing;survey;knowledge",
    "start_date": "1740",
    "surface": "asphalt"
  }
},
{
  "type": "way",
  "id": 550654074,
  "nodes": [
    180880519,
    4230214216,
    2575615240,
    2575615244,
    2575615247,
    1613345400
  ],
  "tags": {
    "cycleway:right": "lane",
    "highway": "secondary",
    "lanes": "2",
    "maxspeed": "50",
    "name": "Avenue Frédéric et Irène Joliot Curie",
    "oneway": "yes",
    "ref": "D 131",
    "ref:FR:FANTOIR": "920503585G",
    "source": "survey;bing;knowledge",
    "surface": "asphalt"
  }
},
{
  "type": "way",
  "id": 779037301,
  "nodes": [
    180880491,
    497118881,
    180880497,
    497118883,
    7273731427,
    3095910368,
    180880504
  ],
  "tags": {
    "cycleway:right": "lane",
    "highway": "secondary",
    "junction": "circular",
    "lanes": "3",
    "maxspeed": "50",
    "name": "Place des Droits de l'Homme",
    "note": "Not a roundabout, entering traffic has priority; pas un giratoire",
    "oneway": "yes",
    "source:maxspeed": "FR:urban",
    "surface": "asphalt"
  }
},
{
  "type": "way",
  "id": 779037302,
  "nodes": [
    180880504,
    497118886,
    180880509,
    7273731429,
    7273731428,
    180880461,
    180880469
  ],
  "tags": {
    "cycleway:right": "lane",
    "highway": "secondary",
    "junction": "circular",
    "lanes": "3",
    "maxspeed": "50",
    "name": "Place des Droits de l'Homme",
    "note": "Not a roundabout, entering traffic has priority; pas un giratoire",
    "oneway": "yes",
    "source:maxspeed": "FR:urban",
    "surface": "asphalt"
  }
},
{
  "type": "way",
  "id": 806432403,
  "nodes": [
    281032439,
    7541396057
  ],
  "tags": {
    "addr:city": "Nanterre",
    "addr:country": "FR",
    "alt_name": "Place Plainchamps",
    "cycleway:left": "shared_lane",
    "cycleway:left:lane": "pictogram",
    "cycleway:right": "lane",
    "cycleway:right:lane": "advisory",
    "highway": "tertiary",
    "lanes": "2",
    "maxspeed": "30",
    "name": "Place Jean-Baptiste Plainchamp",
    "old_name": "Place Saint Denis",
    "oneway": "no",
    "postal_code": "92000",
    "source": "survey;knowledge;bing",
    "surface": "asphalt"
  }
},
{
  "type": "way",
  "id": 884343496,
  "nodes": [
    1879438191,
    8224238153
  ],
  "tags": {
    "cycleway:right": "lane",
    "highway": "tertiary",
    "lanes": "2",
    "maxspeed": "50",
    "name": "Avenue Pablo Picasso",
    "oneway": "yes",
    "source": "survey;bing;knowledge",
    "source:maxspeed": "sign",
    "surface": "asphalt"
  }
},
{
  "type": "way",
  "id": 884343497,
  "nodes": [
    8224238153,
    8224238154
  ],
  "tags": {
    "cycleway:right": "lane",
    "cycleway:right:lane": "advisory",
    "highway": "tertiary",
    "lanes": "2",
    "lit": "yes",
    "maxspeed": "50",
    "name": "Avenue Pablo Picasso",
    "oneway": "yes",
    "sidewalk": "right",
    "source": "survey;bing;knowledge",
    "source:maxspeed": "sign",
    "surface": "asphalt"
  }
},
{
  "type": "way",
  "id": 884343498,
  "nodes": [
    8224238155,
    1088459538,
    1879438185,
    8224238150
  ],
  "tags": {
    "cycleway:right": "lane",
    "highway": "tertiary",
    "lanes": "2",
    "lit": "yes",
    "maxspeed": "50",
    "name": "Avenue Pablo Picasso",
    "oneway": "yes",
    "sidewalk": "right",
    "source": "survey;bing;knowledge",
    "source:maxspeed": "sign",
    "surface": "asphalt"
  }
},
{
  "type": "way",
  "id": 884343499,
  "nodes": [
    2243186914,
    8224238155
  ],
  "tags": {
    "cycleway:right": "lane",
    "cycleway:right:lane": "advisory",
    "highway": "tertiary",
    "lanes": "2",
    "lit": "yes",
    "maxspeed": "50",
    "name": "Avenue Pablo Picasso",
    "oneway": "yes",
    "sidewalk": "right",
    "source": "survey;bing;knowledge",
    "source:maxspeed": "sign",
    "surface": "asphalt"
  }
},
{
  "type": "way",
  "id": 942752896,
  "nodes": [
    497118873,
    180880484
  ],
  "tags": {
    "cycleway:right": "lane",
    "highway": "secondary",
    "junction": "circular",
    "lanes": "3",
    "maxspeed": "50",
    "name": "Place des Droits de l'Homme",
    "note": "Not a roundabout, entering traffic has priority; pas un giratoire",
    "oneway": "yes",
    "source:maxspeed": "FR:urban",
    "surface": "asphalt"
  }
},
{
  "type": "way",
  "id": 942752897,
  "nodes": [
    180880485,
    7273731426,
    180880486,
    180880491
  ],
  "tags": {
    "cycleway:right": "lane",
    "highway": "secondary",
    "junction": "circular",
    "lanes": "3",
    "maxspeed": "50",
    "name": "Place des Droits de l'Homme",
    "note": "Not a roundabout, entering traffic has priority; pas un giratoire",
    "oneway": "yes",
    "source:maxspeed": "FR:urban",
    "surface": "asphalt"
  }
},
{
  "type": "way",
  "id": 942752898,
  "nodes": [
    180880469,
    497118866,
    180880476
  ],
  "tags": {
    "cycleway:right": "lane",
    "highway": "secondary",
    "junction": "circular",
    "lanes": "3",
    "maxspeed": "50",
    "name": "Place des Droits de l'Homme",
    "note": "Not a roundabout, entering traffic has priority; pas un giratoire",
    "oneway": "yes",
    "source:maxspeed": "FR:urban",
    "surface": "asphalt"
  }
},
{
  "type": "way",
  "id": 942752899,
  "nodes": [
    180880484,
    497118877,
    7273731430,
    2243201428,
    180880485
  ],
  "tags": {
    "cycleway:right": "lane",
    "highway": "secondary",
    "junction": "circular",
    "lanes": "3",
    "maxspeed": "50",
    "name": "Place des Droits de l'Homme",
    "note": "Not a roundabout, entering traffic has priority; pas un giratoire",
    "oneway": "yes",
    "source:maxspeed": "FR:urban",
    "surface": "asphalt"
  }
},
{
  "type": "area",
  "id": 3600085799,
  "tags": {
    "admin_level": "8",
    "boundary": "administrative",
    "name": "Nanterre",
    "name:el": "Ναντέρ",
    "name:fr": "Nanterre",
    "name:ja": "ナンテール郡",
    "name:ru": "Нантер",
    "old_name": "Nemetodorum;Nemptodoro;Nantura",
    "population": "96277",
    "population:date": "2019",
    "postal_code": "92000",
    "ref:INSEE": "92050",
    "source:population": "INSEE 2022",
    "type": "boundary",
    "wikidata": "Q170507",
    "wikipedia": "fr:Nanterre"
  }
},
{
  "type": "node",
  "id": 28792214,
  "lat": 48.8869784,
  "lon": 2.2006658
},
{
  "type": "node",
  "id": 28796601,
  "lat": 48.8868647,
  "lon": 2.2001618
},
{
  "type": "node",
  "id": 28796609,
  "lat": 48.8869420,
  "lon": 2.2000079
},
{
  "type": "node",
  "id": 28796673,
  "lat": 48.8871687,
  "lon": 2.2007030
},
{
  "type": "node",
  "id": 86049323,
  "lat": 48.8868531,
  "lon": 2.2004248
},
{
  "type": "node",
  "id": 86049325,
  "lat": 48.8870574,
  "lon": 2.2007087
},
{
  "type": "node",
  "id": 86049326,
  "lat": 48.8872480,
  "lon": 2.2006498
},
{
  "type": "node",
  "id": 86049327,
  "lat": 48.8873215,
  "lon": 2.2005388
},
{
  "type": "node",
  "id": 86049328,
  "lat": 48.8873484,
  "lon": 2.2004592
},
{
  "type": "node",
  "id": 86049330,
  "lat": 48.8873654,
  "lon": 2.2003134
},
{
  "type": "node",
  "id": 86049331,
  "lat": 48.8873559,
  "lon": 2.2002126
},
{
  "type": "node",
  "id": 86049332,
  "lat": 48.8872692,
  "lon": 2.2000106
},
{
  "type": "node",
  "id": 281032439,
  "lat": 48.8913868,
  "lon": 2.2002260
},
{
  "type": "node",
  "id": 295735383,
  "lat": 48.8870632,
  "lon": 2.1999266
},
{
  "type": "node",
  "id": 297081761,
  "lat": 48.8868440,
  "lon": 2.2002958
},
{
  "type": "node",
  "id": 413886774,
  "lat": 48.8888509,
  "lon": 2.1986793
},
{
  "type": "node",
  "id": 413888327,
  "lat": 48.8894232,
  "lon": 2.1981005
},
{
  "type": "node",
  "id": 415448755,
  "lat": 48.8873167,
  "lon": 2.2000875
},
{
  "type": "node",
  "id": 415449505,
  "lat": 48.8872162,
  "lon": 2.1999598
},
{
  "type": "node",
  "id": 415449506,
  "lat": 48.8869993,
  "lon": 2.1999553
},
{
  "type": "node",
  "id": 640635602,
  "lat": 48.8875556,
  "lon": 2.2000065
},
{
  "type": "node",
  "id": 1202452341,
  "lat": 48.8874694,
  "lon": 2.2000921
},
{
  "type": "node",
  "id": 1752612502,
  "lat": 48.8871446,
  "lon": 2.1999263
},
{
  "type": "node",
  "id": 2689332063,
  "lat": 48.8875015,
  "lon": 2.2000619
},
{
  "type": "node",
  "id": 2689332066,
  "lat": 48.8879602,
  "lon": 2.1995919
},
{
  "type": "node",
  "id": 3384977024,
  "lat": 48.8873322,
  "lon": 2.2001248
},
{
  "type": "node",
  "id": 3815915678,
  "lat": 48.8868984,
  "lon": 2.2005619
},
{
  "type": "node",
  "id": 5264321268,
  "lat": 48.8892517,
  "lon": 2.1982740
},
{
  "type": "node",
  "id": 5642876089,
  "lat": 48.8868439,
  "lon": 2.2003399
},
{
  "type": "node",
  "id": 6485722654,
  "lat": 48.8871023,
  "lon": 2.2007152
},
{
  "type": "node",
  "id": 7533495730,
  "lat": 48.8873579,
  "lon": 2.2002240
},
{
  "type": "node",
  "id": 7533495731,
  "lat": 48.8873417,
  "lon": 2.2001533
},
{
  "type": "node",
  "id": 7533495732,
  "lat": 48.8871630,
  "lon": 2.1999317
},
{
  "type": "node",
  "id": 7533495733,
  "lat": 48.8868470,
  "lon": 2.2002543
},
{
  "type": "node",
  "id": 7533495734,
  "lat": 48.8869667,
  "lon": 2.2006554
},
{
  "type": "node",
  "id": 7533495735,
  "lat": 48.8872307,
  "lon": 2.2006657
},
{
  "type": "node",
  "id": 7533495736,
  "lat": 48.8872974,
  "lon": 2.2005857
},
{
  "type": "node",
  "id": 7541396057,
  "lat": 48.8915209,
  "lon": 2.2000917
},
{
  "type": "node",
  "id": 352931847,
  "lat": 48.8968450,
  "lon": 2.1960476
},
{
  "type": "node",
  "id": 366196303,
  "lat": 48.8974898,
  "lon": 2.1969325
},
{
  "type": "node",
  "id": 366196304,
  "lat": 48.8979415,
  "lon": 2.1975361
},
{
  "type": "node",
  "id": 420480578,
  "lat": 48.8975544,
  "lon": 2.1970041
},
{
  "type": "node",
  "id": 1122798956,
  "lat": 48.8980799,
  "lon": 2.1977041
},
{
  "type": "node",
  "id": 2989597902,
  "lat": 48.8969259,
  "lon": 2.1961800
},
{
  "type": "node",
  "id": 3443373613,
  "lat": 48.8976101,
  "lon": 2.1970807
},
{
  "type": "node",
  "id": 3623700158,
  "lat": 48.8969583,
  "lon": 2.1962232
},
{
  "type": "node",
  "id": 7541265457,
  "lat": 48.8976354,
  "lon": 2.1971154
},
{
  "type": "node",
  "id": 2957179240,
  "lat": 48.8891313,
  "lon": 2.2042406
},
{
  "type": "node",
  "id": 3384928912,
  "lat": 48.8892035,
  "lon": 2.2041476
},
{
  "type": "node",
  "id": 6964065261,
  "lat": 48.8890900,
  "lon": 2.2043067
},
{
  "type": "node",
  "id": 181766723,
  "lat": 48.8930570,
  "lon": 2.2128810
},
{
  "type": "node",
  "id": 415417480,
  "lat": 48.8867084,
  "lon": 2.2088488
},
{
  "type": "node",
  "id": 2243186914,
  "lat": 48.8927033,
  "lon": 2.2135134
},
{
  "type": "node",
  "id": 2422606303,
  "lat": 48.8926658,
  "lon": 2.2135601
},
{
  "type": "node",
  "id": 2422606305,
  "lat": 48.8926103,
  "lon": 2.2134606
},
{
  "type": "node",
  "id": 2422606306,
  "lat": 48.8921118,
  "lon": 2.2142798
},
{
  "type": "node",
  "id": 2422606310,
  "lat": 48.8920605,
  "lon": 2.2141720
},
{
  "type": "node",
  "id": 7552156838,
  "lat": 48.8866218,
  "lon": 2.2089362
},
{
  "type": "node",
  "id": 8224238155,
  "lat": 48.8928890,
  "lon": 2.2132702
},
{
  "type": "node",
  "id": 281027298,
  "lat": 48.8994773,
  "lon": 2.2139656
},
{
  "type": "node",
  "id": 281027426,
  "lat": 48.8994288,
  "lon": 2.2138454
},
{
  "type": "node",
  "id": 319107356,
  "lat": 48.8952314,
  "lon": 2.2147299
},
{
  "type": "node",
  "id": 1088459538,
  "lat": 48.8931752,
  "lon": 2.2128952
},
{
  "type": "node",
  "id": 1879438184,
  "lat": 48.8931822,
  "lon": 2.2127122
},
{
  "type": "node",
  "id": 1879438185,
  "lat": 48.8932358,
  "lon": 2.2128166
},
{
  "type": "node",
  "id": 1879438191,
  "lat": 48.8935793,
  "lon": 2.2121760
},
{
  "type": "node",
  "id": 3159886112,
  "lat": 48.8992515,
  "lon": 2.2138007
},
{
  "type": "node",
  "id": 3159886114,
  "lat": 48.8995805,
  "lon": 2.2139219
},
{
  "type": "node",
  "id": 3159886115,
  "lat": 48.8996105,
  "lon": 2.2140142
},
{
  "type": "node",
  "id": 4230212487,
  "lat": 48.8945978,
  "lon": 2.2136162
},
{
  "type": "node",
  "id": 6635092640,
  "lat": 48.8993997,
  "lon": 2.2139418
},
{
  "type": "node",
  "id": 8224238150,
  "lat": 48.8932951,
  "lon": 2.2127366
},
{
  "type": "node",
  "id": 8224238153,
  "lat": 48.8934183,
  "lon": 2.2123935
},
{
  "type": "node",
  "id": 8224238154,
  "lat": 48.8932716,
  "lon": 2.2125915
},
{
  "type": "node",
  "id": 8224238160,
  "lat": 48.8953654,
  "lon": 2.2150036
},
{
  "type": "node",
  "id": 281027450,
  "lat": 48.8998807,
  "lon": 2.2140826
},
{
  "type": "node",
  "id": 281027925,
  "lat": 48.8998686,
  "lon": 2.2141269
},
{
  "type": "node",
  "id": 3046540442,
  "lat": 48.8997698,
  "lon": 2.2140810
},
{
  "type": "node",
  "id": 3159886117,
  "lat": 48.8997803,
  "lon": 2.2140313
},
{
  "type": "node",
  "id": 6923543017,
  "lat": 48.8999481,
  "lon": 2.2141192
},
{
  "type": "node",
  "id": 180880461,
  "lat": 48.8960139,
  "lon": 2.2157809
},
{
  "type": "node",
  "id": 180880469,
  "lat": 48.8960160,
  "lon": 2.2157162
},
{
  "type": "node",
  "id": 180880476,
  "lat": 48.8959971,
  "lon": 2.2156167
},
{
  "type": "node",
  "id": 180880479,
  "lat": 48.8958737,
  "lon": 2.2154831
},
{
  "type": "node",
  "id": 180880484,
  "lat": 48.8957920,
  "lon": 2.2154949
},
{
  "type": "node",
  "id": 180880485,
  "lat": 48.8956898,
  "lon": 2.2156505
},
{
  "type": "node",
  "id": 180880486,
  "lat": 48.8956805,
  "lon": 2.2157524
},
{
  "type": "node",
  "id": 180880491,
  "lat": 48.8956861,
  "lon": 2.2158035
},
{
  "type": "node",
  "id": 180880497,
  "lat": 48.8957244,
  "lon": 2.2159090
},
{
  "type": "node",
  "id": 180880504,
  "lat": 48.8958691,
  "lon": 2.2159899
},
{
  "type": "node",
  "id": 180880509,
  "lat": 48.8959477,
  "lon": 2.2159425
},
{
  "type": "node",
  "id": 180880519,
  "lat": 48.8974967,
  "lon": 2.2183010
},
{
  "type": "node",
  "id": 240522224,
  "lat": 48.8973028,
  "lon": 2.2193387
},
{
  "type": "node",
  "id": 281029921,
  "lat": 48.8970005,
  "lon": 2.2176260
},
{
  "type": "node",
  "id": 281029922,
  "lat": 48.8969267,
  "lon": 2.2174979
},
{
  "type": "node",
  "id": 281030911,
  "lat": 48.8965992,
  "lon": 2.2168954
},
{
  "type": "node",
  "id": 497118866,
  "lat": 48.8960099,
  "lon": 2.2156650
},
{
  "type": "node",
  "id": 497118871,
  "lat": 48.8959459,
  "lon": 2.2155276
},
{
  "type": "node",
  "id": 497118873,
  "lat": 48.8958345,
  "lon": 2.2154810
},
{
  "type": "node",
  "id": 497118877,
  "lat": 48.8957585,
  "lon": 2.2155197
},
{
  "type": "node",
  "id": 497118881,
  "lat": 48.8957011,
  "lon": 2.2158597
},
{
  "type": "node",
  "id": 497118883,
  "lat": 48.8957547,
  "lon": 2.2159486
},
{
  "type": "node",
  "id": 497118886,
  "lat": 48.8959104,
  "lon": 2.2159738
},
{
  "type": "node",
  "id": 775538079,
  "lat": 48.8971755,
  "lon": 2.2178706
},
{
  "type": "node",
  "id": 775538081,
  "lat": 48.8970486,
  "lon": 2.2179293
},
{
  "type": "node",
  "id": 775538087,
  "lat": 48.8961985,
  "lon": 2.2164850
},
{
  "type": "node",
  "id": 1122799125,
  "lat": 48.8972540,
  "lon": 2.2181175
},
{
  "type": "node",
  "id": 1495883112,
  "lat": 48.8956190,
  "lon": 2.2155212
},
{
  "type": "node",
  "id": 1495883196,
  "lat": 48.8959849,
  "lon": 2.2161572
},
{
  "type": "node",
  "id": 1495883209,
  "lat": 48.8961153,
  "lon": 2.2159380
},
{
  "type": "node",
  "id": 1613345400,
  "lat": 48.8975876,
  "lon": 2.2185133
},
{
  "type": "node",
  "id": 1613345409,
  "lat": 48.8975464,
  "lon": 2.2186815
},
{
  "type": "node",
  "id": 1624229168,
  "lat": 48.8969426,
  "lon": 2.2177685
},
{
  "type": "node",
  "id": 1624229172,
  "lat": 48.8970433,
  "lon": 2.2176952
},
{
  "type": "node",
  "id": 2243201428,
  "lat": 48.8957061,
  "lon": 2.2155994
},
{
  "type": "node",
  "id": 2575615211,
  "lat": 48.8970833,
  "lon": 2.2177612
},
{
  "type": "node",
  "id": 2575615216,
  "lat": 48.8972454,
  "lon": 2.2179306
},
{
  "type": "node",
  "id": 2575615222,
  "lat": 48.8973677,
  "lon": 2.2191518
},
{
  "type": "node",
  "id": 2575615225,
  "lat": 48.8974575,
  "lon": 2.2188769
},
{
  "type": "node",
  "id": 2575615233,
  "lat": 48.8975033,
  "lon": 2.2187726
},
{
  "type": "node",
  "id": 2575615240,
  "lat": 48.8975472,
  "lon": 2.2183465
},
{
  "type": "node",
  "id": 2575615243,
  "lat": 48.8975717,
  "lon": 2.2186071
},
{
  "type": "node",
  "id": 2575615244,
  "lat": 48.8975777,
  "lon": 2.2184107
},
{
  "type": "node",
  "id": 2575615245,
  "lat": 48.8975810,
  "lon": 2.2181649
},
{
  "type": "node",
  "id": 2575615246,
  "lat": 48.8975816,
  "lon": 2.2185643
},
{
  "type": "node",
  "id": 2575615247,
  "lat": 48.8975867,
  "lon": 2.2184581
},
{
  "type": "node",
  "id": 3095910368,
  "lat": 48.8958291,
  "lon": 2.2159902
},
{
  "type": "node",
  "id": 3095910369,
  "lat": 48.8959115,
  "lon": 2.2154989
},
{
  "type": "node",
  "id": 4230213618,
  "lat": 48.8970923,
  "lon": 2.2179839
},
{
  "type": "node",
  "id": 4230213638,
  "lat": 48.8971205,
  "lon": 2.2178100
},
{
  "type": "node",
  "id": 4230213679,
  "lat": 48.8971837,
  "lon": 2.2180634
},
{
  "type": "node",
  "id": 4230214216,
  "lat": 48.8975217,
  "lon": 2.2183208
},
{
  "type": "node",
  "id": 4963783793,
  "lat": 48.8974336,
  "lon": 2.2180582
},
{
  "type": "node",
  "id": 5318485516,
  "lat": 48.8974669,
  "lon": 2.2182777
},
{
  "type": "node",
  "id": 5887013641,
  "lat": 48.8973115,
  "lon": 2.2181623
},
{
  "type": "node",
  "id": 7236975693,
  "lat": 48.8969643,
  "lon": 2.2175669
},
{
  "type": "node",
  "id": 7236975695,
  "lat": 48.8968714,
  "lon": 2.2176457
},
{
  "type": "node",
  "id": 7273731426,
  "lat": 48.8956817,
  "lon": 2.2157007
},
{
  "type": "node",
  "id": 7273731427,
  "lat": 48.8957903,
  "lon": 2.2159761
},
{
  "type": "node",
  "id": 7273731428,
  "lat": 48.8960012,
  "lon": 2.2158428
},
{
  "type": "node",
  "id": 7273731429,
  "lat": 48.8959786,
  "lon": 2.2158978
},
{
  "type": "node",
  "id": 7273731430,
  "lat": 48.8957294,
  "lon": 2.2155551
},
{
  "type": "node",
  "id": 7273731431,
  "lat": 48.8959749,
  "lon": 2.2155676
},
{
  "type": "node",
  "id": 8224238163,
  "lat": 48.8955976,
  "lon": 2.2154775
},
{
  "type": "node",
  "id": 8616029373,
  "lat": 48.8969270,
  "lon": 2.2177415
},
{
  "type": "node",
  "id": 8616029374,
  "lat": 48.8970633,
  "lon": 2.2177282
},
{
  "type": "node",
  "id": 8616043864,
  "lat": 48.8973827,
  "lon": 2.2191058
},
{
  "type": "node",
  "id": 151225044,
  "lat": 48.8972453,
  "lon": 2.2243034
},
{
  "type": "node",
  "id": 5240807743,
  "lat": 48.8985890,
  "lon": 2.2252319
},
{
  "type": "node",
  "id": 7297112253,
  "lat": 48.8973393,
  "lon": 2.2243684
},
{
  "type": "node",
  "id": 420480631,
  "lat": 48.9090793,
  "lon": 2.2141227
},
{
  "type": "node",
  "id": 420480696,
  "lat": 48.9099833,
  "lon": 2.2128910
},
{
  "type": "node",
  "id": 3080568811,
  "lat": 48.9091361,
  "lon": 2.2140364
},
{
  "type": "node",
  "id": 420480708,
  "lat": 48.9129924,
  "lon": 2.2149087
},
{
  "type": "node",
  "id": 420480710,
  "lat": 48.9130843,
  "lon": 2.2147544
},
{
  "type": "node",
  "id": 420537775,
  "lat": 48.9131616,
  "lon": 2.2146349
},
{
  "type": "node",
  "id": 420537776,
  "lat": 48.9133705,
  "lon": 2.2143036
},
{
  "type": "node",
  "id": 1736527730,
  "lat": 48.9140757,
  "lon": 2.2131882
},
{
  "type": "node",
  "id": 1824947242,
  "lat": 48.9132189,
  "lon": 2.2145455
},
{
  "type": "node",
  "id": 1824947341,
  "lat": 48.9137908,
  "lon": 2.2136410
},
{
  "type": "node",
  "id": 6460687071,
  "lat": 48.9140549,
  "lon": 2.2132213
},
{
  "type": "node",
  "id": 420480709,
  "lat": 48.9124977,
  "lon": 2.2157071
},
{
  "type": "node",
  "id": 1411508502,
  "lat": 48.9122807,
  "lon": 2.2160591
},
{
  "type": "node",
  "id": 1824947055,
  "lat": 48.9122492,
  "lon": 2.2161101
},
{
  "type": "node",
  "id": 3080576234,
  "lat": 48.9118963,
  "lon": 2.2166825
},
{
  "type": "node",
  "id": 3182523353,
  "lat": 48.9123076,
  "lon": 2.2160154
}

  ]
}
