{
  "version": 0.6,
  "generator": "Overpass API 0.7.57.1 74a55df1",
  "osm3s": {
    "timestamp_osm_base": "2022-02-13T13:28:39Z",
    "timestamp_areas_base": "2022-02-13T06:29:09Z",
    "copyright": "The data included in this document is from www.openstreetmap.org. The data is made available under ODbL."
  },
  "elements": [

{
  "type": "way",
  "id": 4300554,
  "nodes": [
    26001278,
    6535722571,
    1616969821,
    1898349336
  ],
  "tags": {
    "cycleway:right": "lane",
    "highway": "tertiary",
    "name": "Rue Jules Verne",
    "oneway": "yes",
    "surface": "asphalt"
  }
},
{
  "type": "way",
  "id": 4316115,
  "nodes": [
    1240316694,
    26081321,
    1968471754,
    1968471755,
    1968471757,
    26081322,
    26081323,
    26081324,
    2045194654,
    26081325,
    26081326,
    1968471762,
    26081327,
    2045897321,
    2045897320,
    2045897319,
    26081328
  ],
  "tags": {
    "cycleway:right": "lane",
    "highway": "secondary",
    "lit": "yes",
    "name": "Boulevard du Maréchal Juin",
    "oneway": "yes",
    "ref": "D 401",
    "sidewalk": "right",
    "surface": "asphalt"
  }
},
{
  "type": "way",
  "id": 4323103,
  "nodes": [
    26545309,
    2038494678,
    265260991
  ],
  "tags": {
    "cycleway:right": "lane",
    "cycleway:right:lane": "exclusive",
    "highway": "tertiary",
    "name": "Rue du Chemin Vert",
    "oneway": "yes",
    "surface": "asphalt"
  }
},
{
  "type": "way",
  "id": 4356882,
  "nodes": [
    26269083,
    2054579386
  ],
  "tags": {
    "cycleway:right": "lane",
    "highway": "secondary",
    "lanes": "2",
    "lit": "yes",
    "oneway": "yes",
    "ref": "D 401",
    "surface": "asphalt"
  }
},
{
  "type": "way",
  "id": 4576904,
  "nodes": [
    26019466,
    1983941699,
    26019467,
    1747876341,
    1747876499,
    1747876653,
    1983941704,
    26019468
  ],
  "tags": {
    "cycleway:right": "lane",
    "highway": "tertiary",
    "name": "Rue de Lebisey",
    "sidewalk": "left"
  }
},
{
  "type": "way",
  "id": 4617427,
  "nodes": [
    26019484,
    1907920755,
    1983941761,
    26019485,
    1907920705
  ],
  "tags": {
    "cycleway:right": "lane",
    "highway": "tertiary",
    "lanes": "2",
    "maxspeed": "50",
    "maxspeed:type": "sign",
    "name": "Rue de Lebisey",
    "oneway": "yes",
    "surface": "asphalt"
  }
},
{
  "type": "way",
  "id": 4763309,
  "nodes": [
    30422412,
    1978088810,
    8582544699,
    2051417200,
    2051417199,
    2051417197,
    1978088820
  ],
  "tags": {
    "cycleway:right": "lane",
    "highway": "tertiary",
    "name": "Esplanade Brillaud de Laujardière",
    "oneway": "yes"
  }
},
{
  "type": "way",
  "id": 4763310,
  "nodes": [
    30422214,
    1978088847
  ],
  "tags": {
    "cycleway:right": "lane",
    "highway": "tertiary",
    "name": "Esplanade Brillaud de Laujardière",
    "oneway": "yes"
  }
},
{
  "type": "way",
  "id": 4765315,
  "nodes": [
    26269085,
    2038494746,
    5752632038,
    26545309
  ],
  "tags": {
    "cycleway:right": "lane",
    "highway": "secondary",
    "lanes": "2",
    "lit": "yes",
    "oneway": "yes",
    "ref": "D 401",
    "surface": "asphalt"
  }
},
{
  "type": "way",
  "id": 11942758,
  "nodes": [
    30422398,
    5304584024,
    107476352,
    266647108,
    8210186105,
    107476357,
    107476364,
    2723944008,
    107476367
  ],
  "tags": {
    "cycleway:right": "lane",
    "highway": "tertiary",
    "name": "Esplanade Brillaud de Laujardière",
    "oneway": "yes"
  }
},
{
  "type": "way",
  "id": 22418308,
  "nodes": [
    265210646,
    2245025097,
    203781080,
    265294531,
    2245025194,
    265269805,
    203781076
  ],
  "tags": {
    "cycleway:right": "lane",
    "cycleway:right:lane": "exclusive",
    "highway": "tertiary",
    "name": "Rue d'Authie",
    "oneway": "yes",
    "surface": "asphalt"
  }
},
{
  "type": "way",
  "id": 23710588,
  "nodes": [
    1692113538,
    1692113539,
    1936828572,
    256747943,
    1692113553,
    256747958,
    2530524041,
    1744160816,
    2053008019
  ],
  "tags": {
    "cycleway:left": "opposite_lane",
    "cycleway:right": "lane",
    "highway": "secondary",
    "lanes": "2",
    "maxspeed": "50",
    "maxspeed:type": "sign",
    "name": "Avenue de Rouen",
    "oneway": "yes",
    "ref": "D 675",
    "sidewalk": "both",
    "surface": "asphalt",
    "turn:lanes": "through|through;right"
  }
},
{
  "type": "way",
  "id": 24234549,
  "nodes": [
    29286884,
    8231758168,
    1979281821,
    7263558627
  ],
  "tags": {
    "cycleway:right": "lane",
    "highway": "secondary",
    "name": "Rue de l'Aviation",
    "oneway": "yes",
    "surface": "asphalt"
  }
},
{
  "type": "way",
  "id": 24234550,
  "nodes": [
    26305823,
    2000024897,
    2368747543,
    26025382,
    26025383,
    1748993457,
    1748993461,
    26025384,
    2052464511,
    1853124399,
    26025385
  ],
  "tags": {
    "cycleway:right": "lane",
    "highway": "secondary",
    "name": "Avenue Père Charles de Foucauld",
    "oneway": "yes",
    "surface": "asphalt"
  }
},
{
  "type": "way",
  "id": 24420129,
  "nodes": [
    26269089,
    1735084491,
    289451282
  ],
  "tags": {
    "admin_level": "11",
    "boundary": "administrative",
    "cycleway:right": "lane",
    "highway": "tertiary",
    "lanes": "1",
    "name": "Rue du Chemin Vert",
    "oneway": "yes",
    "source": "cadastre-dgi-fr source : Direction Générale des Finances Publiques - Cadastre. Mise à jour : 2014",
    "surface": "asphalt"
  }
},
{
  "type": "way",
  "id": 24521247,
  "nodes": [
    266647147,
    5293472331,
    1898349314,
    1616969819,
    9357692672,
    266647148
  ],
  "tags": {
    "cycleway:right": "lane",
    "highway": "tertiary",
    "lanes": "2",
    "maxspeed:type": "FR:urban",
    "name": "Avenue Nicolas Copernic",
    "oneway": "yes",
    "surface": "asphalt"
  }
},
{
  "type": "way",
  "id": 24521249,
  "nodes": [
    26001253,
    6687441546,
    1907920696,
    26001255,
    1686166380,
    26001256
  ],
  "tags": {
    "cycleway:right": "lane",
    "highway": "secondary",
    "maxspeed": "50",
    "maxspeed:type": "sign",
    "name": "Avenue Nicolas Copernic",
    "oneway": "yes",
    "surface": "asphalt"
  }
},
{
  "type": "way",
  "id": 24564196,
  "nodes": [
    25973809,
    2691462956,
    25973807,
    26526056,
    25973803,
    25973817,
    5690350750,
    2325792713,
    25973802,
    2325792703
  ],
  "tags": {
    "cycleway:right": "lane",
    "highway": "primary",
    "lanes": "2",
    "lit": "yes",
    "maxspeed": "50",
    "name": "Avenue de la Côte de Nacre",
    "oneway": "yes",
    "ref": "D 7",
    "surface": "asphalt"
  }
},
{
  "type": "way",
  "id": 26418407,
  "nodes": [
    289451282,
    1735084457
  ],
  "tags": {
    "cycleway:right": "lane",
    "cycleway:right:lane": "exclusive",
    "highway": "tertiary",
    "lanes": "1",
    "name": "Rue du Chemin Vert",
    "oneway": "yes",
    "surface": "asphalt"
  }
},
{
  "type": "way",
  "id": 26418408,
  "nodes": [
    289451297,
    5752632040,
    2038494739,
    289451299
  ],
  "tags": {
    "cycleway:right": "lane",
    "highway": "secondary",
    "lanes": "2",
    "lit": "yes",
    "oneway": "yes",
    "ref": "D 401",
    "surface": "asphalt"
  }
},
{
  "type": "way",
  "id": 26418444,
  "nodes": [
    289451299,
    1859737815
  ],
  "tags": {
    "bridge": "yes",
    "cycleway:right": "lane",
    "highway": "secondary",
    "lanes": "2",
    "layer": "2",
    "lit": "yes",
    "oneway": "yes",
    "ref": "D 401",
    "surface": "asphalt",
    "turn:lanes": "slight_left|through"
  }
},
{
  "type": "way",
  "id": 26418446,
  "nodes": [
    289451301,
    2038494809,
    289451303
  ],
  "tags": {
    "cycleway:right": "lane",
    "highway": "secondary",
    "lanes": "2",
    "lit": "yes",
    "maxspeed": "70",
    "oneway": "yes",
    "ref": "D 401",
    "surface": "asphalt"
  }
},
{
  "type": "way",
  "id": 28809802,
  "nodes": [
    316745762,
    1983512626,
    1966739076,
    2051417245,
    316745758,
    2051417242,
    1966739078,
    1999698074,
    316745763
  ],
  "tags": {
    "cycleway:right": "lane",
    "highway": "secondary_link",
    "maxspeed": "50",
    "oneway": "yes"
  }
},
{
  "type": "way",
  "id": 28809808,
  "nodes": [
    107476381,
    107476386
  ],
  "tags": {
    "bridge": "yes",
    "cycleway:right": "lane",
    "highway": "secondary_link",
    "layer": "1",
    "oneway": "yes"
  }
},
{
  "type": "way",
  "id": 37531245,
  "nodes": [
    26016017,
    1736524255
  ],
  "tags": {
    "cycleway:right": "lane",
    "cycleway:right:oneway": "no",
    "description:covid19": "Bandes cyclables temporaire",
    "highway": "secondary",
    "lanes": "2",
    "lit": "yes",
    "maxspeed": "50",
    "name": "La Cavée",
    "surface": "asphalt"
  }
},
{
  "type": "way",
  "id": 37531246,
  "nodes": [
    26016009,
    1736524451,
    1736524363,
    1736524407,
    26016010,
    1736524323,
    1736524411,
    1736524278,
    26016011,
    7559925702,
    7559925703,
    1736524532,
    1736524326,
    1736524368,
    7559925704,
    26016012,
    1736524304,
    1736524346
  ],
  "tags": {
    "bridge": "yes",
    "cycleway:right": "lane",
    "cycleway:right:oneway": "no",
    "description:covid19": "Bandes cyclables temporaire",
    "highway": "secondary",
    "lanes": "2",
    "layer": "2",
    "lit": "yes",
    "maxspeed": "50",
    "name": "Viaduc de la Cavée",
    "surface": "asphalt",
    "turn:lanes:backward": "through|through",
    "turn:lanes:forward": "through"
  }
},
{
  "type": "way",
  "id": 146266407,
  "nodes": [
    26544386,
    5224836855,
    26544389,
    1979475903,
    2705389193,
    2457898374,
    1979475902,
    8222612221,
    2054034046,
    26025311
  ],
  "tags": {
    "busway": "opposite_lane",
    "cycleway:left": "share_busway",
    "cycleway:right": "lane",
    "highway": "secondary",
    "lanes": "2",
    "lit": "yes",
    "maxspeed": "50",
    "maxspeed:type": "sign",
    "name": "Avenue de Paris",
    "oneway": "yes",
    "oneway:bus": "no",
    "oneway:psv": "no",
    "pvs": "yes",
    "ref": "D 613",
    "sidewalk": "both",
    "surface": "asphalt"
  }
},
{
  "type": "way",
  "id": 148616925,
  "nodes": [
    26209312,
    146168596,
    1616969734,
    26171456
  ],
  "tags": {
    "admin_level": "11",
    "boundary": "administrative",
    "busway:right": "lane",
    "cycleway:right": "lane",
    "highway": "secondary",
    "name": "Rue de la Délivrande",
    "source": "cadastre-dgi-fr source : Direction Générale des Finances Publiques - Cadastre. Mise à jour : 2014"
  }
},
{
  "type": "way",
  "id": 154378987,
  "nodes": [
    289451319,
    2038494638,
    9403147099,
    289451291
  ],
  "tags": {
    "cycleway:right": "lane",
    "cycleway:right:lane": "exclusive",
    "highway": "tertiary",
    "lanes": "1",
    "lit": "yes",
    "maxspeed:type": "FR:urban",
    "name": "Rue du Chemin Vert",
    "oneway": "yes",
    "sidewalk": "right",
    "surface": "asphalt"
  }
},
{
  "type": "way",
  "id": 156361552,
  "nodes": [
    26001256,
    1686166386,
    1686166395,
    1686166379,
    1907920697,
    1686166384
  ],
  "tags": {
    "cycleway:right": "lane",
    "highway": "secondary",
    "lanes": "2",
    "maxspeed": "50",
    "maxspeed:type": "sign",
    "name": "Avenue Nicolas Copernic",
    "oneway": "yes",
    "surface": "asphalt",
    "turn:lanes": "left;through|through;right"
  }
},
{
  "type": "way",
  "id": 161559074,
  "nodes": [
    1735282820,
    2051417226,
    30422412
  ],
  "tags": {
    "cycleway:right": "lane",
    "highway": "tertiary",
    "lit": "yes",
    "maxspeed": "45",
    "oneway": "yes"
  }
},
{
  "type": "way",
  "id": 161684237,
  "nodes": [
    1736475411,
    1736475597,
    1736475489,
    1736476870,
    1736476400,
    1736475482,
    1736476242,
    1736477066,
    1736475537,
    1736475400,
    1736475706
  ],
  "tags": {
    "cycleway:right": "lane",
    "highway": "secondary_link",
    "lit": "yes",
    "maxspeed": "45",
    "oneway": "yes"
  }
},
{
  "type": "way",
  "id": 161684255,
  "nodes": [
    1736475350,
    1736475738,
    1736475725,
    1736475595,
    1736476594,
    1736476150,
    1736476915,
    1736476438,
    1736475487,
    1736477092,
    1736476389,
    1736475556
  ],
  "tags": {
    "cycleway:right": "lane",
    "highway": "secondary_link",
    "lit": "yes",
    "maxspeed": "45",
    "oneway": "yes"
  }
},
{
  "type": "way",
  "id": 161684287,
  "nodes": [
    1736475708,
    1736477001,
    1736476529,
    1736475705,
    1736475555,
    2531089130,
    1736476507,
    1736476041,
    1736475519
  ],
  "tags": {
    "cycleway:right": "lane",
    "highway": "secondary",
    "maxspeed": "50",
    "name": "Rue Armand Marie",
    "oneway": "yes",
    "surface": "asphalt"
  }
},
{
  "type": "way",
  "id": 161684297,
  "nodes": [
    1736476698,
    1736475550,
    1736475444,
    1736475506,
    1736476252
  ],
  "tags": {
    "cycleway:right": "lane",
    "cycleway:right:oneway": "no",
    "description:covid19": "Bandes cyclables temporaire",
    "highway": "secondary",
    "lanes": "4",
    "lanes:backward": "2",
    "lanes:forward": "1",
    "lit": "yes",
    "maxspeed": "50",
    "name": "Viaduc de la Cavée",
    "surface": "asphalt",
    "turn:lanes:backward": "through|through|right",
    "turn:lanes:forward": "through"
  }
},
{
  "type": "way",
  "id": 161690463,
  "nodes": [
    26016015,
    1736524283,
    1736524608,
    1736524421,
    1736524270,
    1736524366,
    1736524325,
    5007016569,
    26016017
  ],
  "tags": {
    "cycleway:right": "lane",
    "cycleway:right:oneway": "no",
    "description:covid19": "Bandes cyclables temporaire",
    "highway": "secondary",
    "lanes": "1",
    "maxspeed": "50",
    "name": "Viaduc de la Cavée",
    "oneway": "yes",
    "surface": "asphalt"
  }
},
{
  "type": "way",
  "id": 163009099,
  "nodes": [
    1747876641,
    1747876290
  ],
  "tags": {
    "cycleway:right": "lane",
    "highway": "tertiary",
    "maxspeed": "45",
    "name": "Boulevard Général Vanier",
    "oneway": "yes"
  }
},
{
  "type": "way",
  "id": 163009108,
  "nodes": [
    1747876411,
    1747876345,
    1978087304,
    1747876646,
    1747876332,
    1747876450,
    1747876339,
    1747876480,
    1747876327,
    1747876596,
    1747876295,
    1747876518,
    1747876370,
    1747876494,
    1747876650,
    1747876337,
    1747876321,
    1747876440,
    1747876562,
    1747876288,
    1747876404,
    1747876502,
    1747882525,
    1747882655,
    1916731427,
    1747882597,
    1747882521,
    1747882792,
    1747882550,
    1747882804,
    1747882562,
    1747882510,
    1747882624,
    1747882527,
    1747882740,
    1747882558,
    1747882500,
    1747882605,
    1747882523,
    1748526368
  ],
  "tags": {
    "cycleway:right": "lane",
    "highway": "tertiary",
    "maxspeed": "45",
    "name": "Boulevard Général Vanier",
    "oneway": "yes",
    "surface": "asphalt"
  }
},
{
  "type": "way",
  "id": 163078992,
  "nodes": [
    1748526256,
    2017284256,
    1748526095,
    1748526340,
    1416665096,
    1748526177,
    1907941979,
    1748526042,
    1748526289,
    2054326960,
    1748526122,
    1748526426,
    1748526204,
    1748526131,
    1748525980,
    1748526245,
    1748526015,
    1748526076,
    1748526315,
    1748526152,
    1748526265,
    1748526328,
    1748526165
  ],
  "tags": {
    "cycleway:right": "lane",
    "highway": "tertiary",
    "lit": "yes",
    "maxspeed": "45",
    "name": "Boulevard Général Vanier",
    "oneway": "yes",
    "surface": "asphalt"
  }
},
{
  "type": "way",
  "id": 163079002,
  "nodes": [
    1417643362,
    1748526090,
    1748526334,
    1748526274,
    1748526104,
    1748530171,
    1748526355,
    1748526185,
    1748530156,
    1748526150,
    2503617601,
    1748526154,
    2528913549,
    2063365600,
    1748526266,
    1748526096,
    1748526278,
    1748526109,
    1748526385,
    1748526189,
    1748526054,
    1748526299,
    1417906959,
    1748526133,
    1748525984,
    1748526306,
    1748526143,
    1748526005,
    1748526256
  ],
  "tags": {
    "cycleway:right": "lane",
    "highway": "tertiary",
    "lit": "yes",
    "maxspeed": "45",
    "name": "Boulevard Général Vanier",
    "oneway": "yes"
  }
},
{
  "type": "way",
  "id": 163079006,
  "nodes": [
    1748526269,
    1748526007,
    1748526123,
    1748526429
  ],
  "tags": {
    "cycleway:right": "lane",
    "highway": "tertiary",
    "lit": "yes",
    "oneway": "yes"
  }
},
{
  "type": "way",
  "id": 163079010,
  "nodes": [
    1748526130,
    1748526301,
    2054326950
  ],
  "tags": {
    "cycleway:right": "lane",
    "highway": "tertiary",
    "lit": "yes",
    "maxspeed": "45",
    "name": "Boulevard Général Vanier",
    "oneway": "yes"
  }
},
{
  "type": "way",
  "id": 163079011,
  "nodes": [
    1748526085,
    1748526059,
    1748526303,
    1748526137,
    1748526060,
    1748526254
  ],
  "tags": {
    "cycleway:right": "lane",
    "highway": "tertiary",
    "lit": "yes",
    "oneway": "yes"
  }
},
{
  "type": "way",
  "id": 163079012,
  "nodes": [
    1748526254,
    1748526027,
    1748526276,
    1748526107,
    1748526376,
    1748526269
  ],
  "tags": {
    "cycleway:right": "lane",
    "highway": "tertiary",
    "lit": "yes",
    "oneway": "yes"
  }
},
{
  "type": "way",
  "id": 163079017,
  "nodes": [
    1748526429,
    1748526158,
    1748526088,
    1748526332,
    1748526168,
    2054326948,
    1748526283,
    1748526115
  ],
  "tags": {
    "cycleway:right": "lane",
    "highway": "tertiary_link",
    "lit": "yes",
    "oneway": "yes"
  }
},
{
  "type": "way",
  "id": 163079018,
  "nodes": [
    1748526115,
    1907941980,
    1748526180,
    1748526046,
    1748526292,
    1748526124,
    1748526440,
    1748526210,
    1748526138,
    1748525998,
    1748530255,
    1748526248,
    1748526079,
    1748526320,
    1748526157,
    1748526020,
    1748526270,
    303231708,
    1748526030
  ],
  "tags": {
    "cycleway:right": "lane",
    "highway": "tertiary",
    "lit": "yes",
    "maxspeed": "45",
    "name": "Boulevard Général Vanier",
    "oneway": "yes"
  }
},
{
  "type": "way",
  "id": 170975671,
  "nodes": [
    1736475519,
    1736475539,
    2429908889,
    2429908884,
    2429903515,
    1736476412,
    1736475905,
    1736475529,
    1736475396,
    1736475831,
    1736475679,
    1736476147
  ],
  "tags": {
    "cycleway:right": "lane",
    "highway": "secondary",
    "maxspeed": "50",
    "name": "Rue Armand Marie",
    "oneway": "yes",
    "surface": "asphalt"
  }
},
{
  "type": "way",
  "id": 171570652,
  "nodes": [
    289451287,
    2038494569,
    289451289
  ],
  "tags": {
    "cycleway:right": "lane",
    "cycleway:right:lane": "exclusive",
    "highway": "tertiary",
    "lanes": "1",
    "lit": "yes",
    "maxspeed:type": "FR:urban",
    "name": "Rue du Chemin Vert",
    "oneway": "yes",
    "sidewalk": "right",
    "surface": "asphalt"
  }
},
{
  "type": "way",
  "id": 171980519,
  "nodes": [
    265260991,
    2038494666,
    5753669559,
    1797286221
  ],
  "tags": {
    "cycleway:right": "lane",
    "cycleway:right:lane": "exclusive",
    "highway": "tertiary",
    "name": "Rue du Chemin Vert",
    "oneway": "yes",
    "surface": "asphalt"
  }
},
{
  "type": "way",
  "id": 171980533,
  "nodes": [
    1907920704,
    29284649,
    1989513548,
    29284650,
    1907920756,
    26019484
  ],
  "tags": {
    "cycleway:right": "lane",
    "highway": "tertiary",
    "lanes": "2",
    "maxspeed": "50",
    "maxspeed:type": "sign",
    "name": "Rue de Lebisey",
    "oneway": "yes",
    "surface": "asphalt",
    "turn:lanes": "left|through"
  }
},
{
  "type": "way",
  "id": 171980546,
  "nodes": [
    289451295,
    298956634
  ],
  "tags": {
    "cycleway:right": "lane",
    "highway": "tertiary",
    "lanes": "2",
    "name": "Rue du Chemin Vert",
    "oneway": "yes"
  }
},
{
  "type": "way",
  "id": 171980552,
  "nodes": [
    1748526368,
    1747882665,
    1747882669,
    1747882532,
    1747882784,
    1747882541,
    1747882793,
    1747882551,
    1747882805,
    1747882763,
    1978088068,
    1747882536,
    1747882788,
    1747882546,
    1747882800,
    1747876639
  ],
  "tags": {
    "cycleway:right": "lane",
    "highway": "tertiary",
    "maxspeed": "45",
    "name": "Boulevard Général Vanier",
    "oneway": "yes"
  }
},
{
  "type": "way",
  "id": 173765803,
  "nodes": [
    1748525995,
    1747882601,
    1747882496,
    1747882557,
    1747882798,
    1747882526,
    1747882619,
    1747882504,
    1747882561,
    1747882802,
    1747882548,
    1747882790,
    1747882539,
    1747882591,
    1747882806,
    1747882552,
    1916731426,
    1747882783
  ],
  "tags": {
    "cycleway:right": "lane",
    "highway": "tertiary",
    "maxspeed": "45",
    "name": "Boulevard Général Vanier",
    "oneway": "yes",
    "surface": "asphalt"
  }
},
{
  "type": "way",
  "id": 174266840,
  "nodes": [
    1240316302,
    2162834560,
    2162834558,
    2162834556,
    1240316207,
    2162834551,
    1240316634
  ],
  "tags": {
    "cycleway:right": "lane",
    "cycleway:right:lane": "exclusive",
    "highway": "secondary",
    "junction": "roundabout",
    "lanes": "2",
    "lit": "yes",
    "surface": "asphalt"
  }
},
{
  "type": "way",
  "id": 174719393,
  "nodes": [
    1853847055,
    5293893211,
    1853847056,
    5293893212,
    1853847057,
    6630792480,
    1853847058,
    2463703619
  ],
  "tags": {
    "cycleway:right": "lane",
    "highway": "secondary",
    "oneway": "yes",
    "source": "Bing",
    "surface": "asphalt"
  }
},
{
  "type": "way",
  "id": 175452711,
  "nodes": [
    2038494648,
    289451317,
    2038494652,
    5007016602
  ],
  "tags": {
    "cycleway:right": "lane",
    "cycleway:right:lane": "exclusive",
    "highway": "tertiary",
    "lanes": "2",
    "name": "Rue du Chemin Vert",
    "oneway": "yes",
    "surface": "asphalt"
  }
},
{
  "type": "way",
  "id": 179457997,
  "nodes": [
    26001281,
    1898349340,
    8691496502,
    26001283,
    8215045217,
    26001285,
    4936955168,
    26001286
  ],
  "tags": {
    "cycleway:right": "lane",
    "highway": "tertiary",
    "name": "Rue Jules Verne",
    "oneway": "yes",
    "surface": "asphalt"
  }
},
{
  "type": "way",
  "id": 179780977,
  "nodes": [
    1614951232,
    2620904602
  ],
  "tags": {
    "cycleway:right": "lane",
    "highway": "secondary",
    "lanes": "3",
    "lanes:backward": "1",
    "lanes:forward": "2",
    "maxspeed": "50",
    "maxspeed:type": "sign",
    "name": "Rue Saint-Michel",
    "surface": "asphalt",
    "turn:lanes:backward": "through",
    "turn:lanes:forward": "through|through"
  }
},
{
  "type": "way",
  "id": 179947529,
  "nodes": [
    1897834322,
    25974876,
    1897834315,
    1735283374,
    1979177542,
    2245024859,
    1735282612,
    2052445294,
    25974878
  ],
  "tags": {
    "cycleway:right": "lane",
    "highway": "tertiary",
    "name": "Avenue Charlemagne"
  }
},
{
  "type": "way",
  "id": 179989263,
  "nodes": [
    26019433,
    1825809334,
    1614951232
  ],
  "tags": {
    "cycleway:left": "no",
    "cycleway:right": "lane",
    "cycleway:right:lane": "advisory",
    "highway": "secondary",
    "lanes": "2",
    "lit": "yes",
    "maxspeed": "50",
    "maxspeed:type": "sign",
    "name": "Rue Saint-Michel",
    "sidewalk": "both",
    "surface": "asphalt"
  }
},
{
  "type": "way",
  "id": 179989292,
  "nodes": [
    3011921145,
    1915156252,
    26019433
  ],
  "tags": {
    "cycleway:right": "lane",
    "cycleway:right:lane": "advisory",
    "highway": "secondary",
    "lanes": "2",
    "lit": "yes",
    "maxspeed": "50",
    "maxspeed:type": "sign",
    "name": "Rue Saint-Michel",
    "oneway": "yes",
    "sidewalk": "right",
    "surface": "asphalt"
  }
},
{
  "type": "way",
  "id": 185985250,
  "nodes": [
    316745763,
    1966739083,
    1966739085,
    1966739086,
    107476346
  ],
  "tags": {
    "cycleway:right": "lane",
    "highway": "tertiary_link",
    "oneway": "yes",
    "source": "Bing"
  }
},
{
  "type": "way",
  "id": 185985256,
  "nodes": [
    107476386,
    1999698040,
    107476395,
    1999698043,
    107476397,
    99144360,
    1999698056,
    1999698060,
    1966739099
  ],
  "tags": {
    "cycleway:right": "lane",
    "highway": "secondary_link",
    "maxspeed": "50",
    "oneway": "yes",
    "source": "cadastre-dgi-fr source : Direction Générale des Impôts - Cadastre. Mise à jour : 2010"
  }
},
{
  "type": "way",
  "id": 186306784,
  "nodes": [
    25974403,
    2984611872,
    2361905728,
    2984611871,
    2984611870,
    26019418,
    2984611869,
    26019419,
    1268092105,
    26019420,
    8206744513,
    26019421,
    1744204065,
    1904902911,
    26019417
  ],
  "tags": {
    "busway:left": "lane",
    "cycleway:left": "share_busway",
    "cycleway:right": "lane",
    "cycleway:right:lane": "exclusive",
    "highway": "secondary",
    "lanes:backward": "1",
    "lanes:forward": "2",
    "lanes:psv:backward": "1",
    "maxspeed": "50",
    "maxspeed:type": "sign",
    "name": "Rue de Falaise",
    "surface": "asphalt",
    "turn:lanes:forward": "left|through;right"
  }
},
{
  "type": "way",
  "id": 186998584,
  "nodes": [
    1748526030,
    1748530245
  ],
  "tags": {
    "cycleway:right": "lane",
    "highway": "tertiary",
    "lit": "yes",
    "maxspeed": "45",
    "name": "Boulevard Général Vanier",
    "oneway": "yes"
  }
},
{
  "type": "way",
  "id": 186998587,
  "nodes": [
    1748530245,
    1748526281,
    1748526112,
    1748526397,
    1748530208,
    1748526025,
    1748526338,
    1748526175,
    1748526040,
    1748526288,
    8210150436,
    2525000844,
    1748526198,
    1748526063,
    1978087351,
    1747876641
  ],
  "tags": {
    "cycleway:right": "lane",
    "highway": "tertiary",
    "lit": "yes",
    "maxspeed": "45",
    "name": "Boulevard Général Vanier",
    "oneway": "yes"
  }
},
{
  "type": "way",
  "id": 186998591,
  "nodes": [
    1916731425,
    1747876656,
    1747876605,
    1747876320,
    1747876438,
    1747876553,
    1747876285,
    1747876388,
    1747876500,
    1747876654,
    1747876342,
    1747876483,
    1747876292,
    1747876417,
    1747876515,
    1747876660,
    1747876346,
    1747876490,
    1747876647,
    1747876333,
    1747876452,
    1747876630,
    2054413430,
    1748530159,
    1747876442,
    2054413429
  ],
  "tags": {
    "cycleway:right": "lane",
    "highway": "tertiary",
    "maxspeed": "45",
    "name": "Boulevard Général Vanier",
    "oneway": "yes",
    "surface": "asphalt"
  }
},
{
  "type": "way",
  "id": 187058501,
  "nodes": [
    1978088059,
    1747882741,
    1747882563,
    1747882781,
    1748525995
  ],
  "tags": {
    "cycleway:right": "lane",
    "highway": "tertiary",
    "maxspeed": "45",
    "name": "Boulevard Général Vanier",
    "oneway": "yes"
  }
},
{
  "type": "way",
  "id": 188227069,
  "nodes": [
    1978088822,
    8582511210,
    2051417191,
    2051417192,
    3056999449,
    2051417196,
    8582544700,
    1978088813,
    2051417220,
    30422390
  ],
  "tags": {
    "cycleway:right": "lane",
    "highway": "tertiary",
    "name": "Esplanade Brillaud de Laujardière",
    "oneway": "yes"
  }
},
{
  "type": "way",
  "id": 188227070,
  "nodes": [
    1978088820,
    1978088865,
    1240316430
  ],
  "tags": {
    "cycleway:right": "lane",
    "highway": "tertiary",
    "name": "Esplanade Brillaud de Laujardière",
    "oneway": "yes"
  }
},
{
  "type": "way",
  "id": 188463466,
  "nodes": [
    1990915886,
    8215006744,
    6535722577,
    1853847045,
    26001267,
    2463700982
  ],
  "tags": {
    "cycleway:right": "lane",
    "highway": "secondary",
    "lanes": "2",
    "lit": "yes",
    "maxspeed:type": "FR:urban",
    "name": "Avenue Nicolas Copernic",
    "oneway": "yes",
    "surface": "asphalt"
  }
},
{
  "type": "way",
  "id": 192099716,
  "nodes": [
    298956634,
    2038494684,
    289451297
  ],
  "tags": {
    "cycleway:right": "lane",
    "highway": "tertiary",
    "lanes": "2",
    "name": "Rue du Chemin Vert",
    "oneway": "yes"
  }
},
{
  "type": "way",
  "id": 194640256,
  "nodes": [
    2051417378,
    9083772048,
    5642588741,
    316745762
  ],
  "tags": {
    "cycleway:right": "lane",
    "highway": "secondary",
    "maxspeed": "50",
    "name": "Avenue de Courseulles",
    "oneway": "yes",
    "surface": "asphalt"
  }
},
{
  "type": "way",
  "id": 194935975,
  "nodes": [
    2054413429,
    1747876330
  ],
  "tags": {
    "cycleway:right": "lane",
    "highway": "tertiary",
    "maxspeed": "45",
    "name": "Boulevard Général Vanier",
    "oneway": "yes"
  }
},
{
  "type": "way",
  "id": 194945901,
  "nodes": [
    2054579392,
    289451301
  ],
  "tags": {
    "cycleway:right": "lane",
    "highway": "secondary",
    "lanes": "2",
    "lit": "yes",
    "oneway": "yes",
    "ref": "D 401",
    "surface": "asphalt"
  }
},
{
  "type": "way",
  "id": 194945902,
  "nodes": [
    2054579386,
    26269085
  ],
  "tags": {
    "bridge": "yes",
    "cycleway:right": "lane",
    "highway": "secondary",
    "lanes": "2",
    "layer": "1",
    "lit": "yes",
    "oneway": "yes",
    "ref": "D 401",
    "surface": "asphalt"
  }
},
{
  "type": "way",
  "id": 203514172,
  "nodes": [
    1735084457,
    2038494557,
    1969837389,
    289451285,
    2038494560,
    289451287
  ],
  "tags": {
    "cycleway:right": "lane",
    "cycleway:right:lane": "exclusive",
    "highway": "tertiary",
    "lanes": "1",
    "maxspeed:type": "FR:urban",
    "name": "Rue du Chemin Vert",
    "oneway": "yes",
    "sidewalk": "right",
    "surface": "asphalt"
  }
},
{
  "type": "way",
  "id": 206680180,
  "nodes": [
    2167202269,
    2428170656
  ],
  "tags": {
    "bridge": "movable",
    "bridge:movable": "swing",
    "cycleway:right": "lane",
    "highway": "tertiary",
    "layer": "1",
    "maxspeed": "50",
    "name": "Pont de la Fonderie",
    "sidewalk": "both",
    "source:maxspeed": "sign",
    "surface": "asphalt"
  }
},
{
  "type": "way",
  "id": 223697094,
  "nodes": [
    1378817701,
    25973824
  ],
  "tags": {
    "cycleway:right": "lane",
    "highway": "primary",
    "lanes": "2",
    "lit": "yes",
    "maxspeed": "50",
    "name": "Avenue de la Côte de Nacre",
    "oneway": "yes",
    "ref": "D 7",
    "source": "cadastre-dgi-fr source : Direction Générale des Impôts - Cadastre. Mise à jour : 2013",
    "surface": "asphalt"
  }
},
{
  "type": "way",
  "id": 224880682,
  "nodes": [
    1990946429,
    6644763100,
    6644763095,
    6400437481,
    7271593220,
    6400437585,
    4598417960,
    4598417954,
    2518550655,
    9003607815,
    4598417958,
    1997150748
  ],
  "tags": {
    "cycleway:right": "lane",
    "highway": "residential",
    "lanes": "3",
    "lit": "yes",
    "maxspeed": "30",
    "name": "Rue Rosa Parks",
    "oneway": "yes",
    "surface": "asphalt"
  }
},
{
  "type": "way",
  "id": 233713957,
  "nodes": [
    203781076,
    2420580917,
    1970064407,
    2420580921,
    2420580923,
    2420580925,
    2420580927,
    26269089
  ],
  "tags": {
    "cycleway:left": "lane",
    "cycleway:left:lane": "exclusive",
    "cycleway:left:oneway": "-1",
    "cycleway:right": "lane",
    "cycleway:right:lane": "exclusive",
    "highway": "residential",
    "lit": "yes",
    "name": "Rue des Treize Acres",
    "oneway": "yes",
    "oneway:bicycle": "no",
    "ref:FR:FANTOIR": "141187140C",
    "sidewalk": "both",
    "surface": "asphalt"
  }
},
{
  "type": "way",
  "id": 234236378,
  "nodes": [
    1736524609,
    1897974312,
    1736524302
  ],
  "tags": {
    "cycleway:right": "lane",
    "highway": "secondary",
    "lanes": "2",
    "lit": "yes",
    "maxspeed": "50",
    "name": "Boulevard Yves Guillou",
    "oneway": "yes",
    "surface": "asphalt"
  }
},
{
  "type": "way",
  "id": 238300457,
  "nodes": [
    2461463093,
    301088565,
    7426835916,
    2366376987,
    26525746,
    26525747,
    301088559,
    26525748
  ],
  "tags": {
    "cycleway:right": "lane",
    "highway": "secondary",
    "name": "Avenue de la Libération",
    "oneway": "yes",
    "surface": "asphalt"
  }
},
{
  "type": "way",
  "id": 238546179,
  "nodes": [
    2463700982,
    3699592153,
    266647152,
    3699592154,
    1990915887,
    2019010364,
    26001265
  ],
  "tags": {
    "cycleway:right": "lane",
    "highway": "secondary",
    "name": "Avenue Nicolas Copernic",
    "oneway": "yes",
    "surface": "asphalt"
  }
},
{
  "type": "way",
  "id": 238546180,
  "nodes": [
    1853847053,
    1853847054,
    8214991940,
    26001273
  ],
  "tags": {
    "cycleway:right": "lane",
    "highway": "secondary",
    "name": "Avenue Nicolas Copernic",
    "oneway": "yes",
    "source": "Bing",
    "surface": "asphalt"
  }
},
{
  "type": "way",
  "id": 238546181,
  "nodes": [
    2019010367,
    9349579583,
    1853847053
  ],
  "tags": {
    "cycleway:right": "lane",
    "highway": "secondary",
    "name": "Avenue Nicolas Copernic",
    "oneway": "yes",
    "source": "Bing",
    "surface": "asphalt"
  }
},
{
  "type": "way",
  "id": 238546418,
  "nodes": [
    26001265,
    5293893214,
    26001264,
    26001261,
    5293893213,
    26001260,
    5293893210,
    1853847055
  ],
  "tags": {
    "cycleway:right": "lane",
    "highway": "secondary",
    "name": "Avenue Nicolas Copernic",
    "oneway": "yes",
    "surface": "asphalt"
  }
},
{
  "type": "way",
  "id": 238546419,
  "nodes": [
    266647135,
    8691496501,
    2407393822,
    8215001379,
    266647139,
    2407393821,
    1898349391,
    266647144
  ],
  "tags": {
    "cycleway:right": "lane",
    "highway": "tertiary",
    "maxspeed:type": "FR:urban",
    "name": "Rue Jules Verne",
    "oneway": "yes",
    "surface": "asphalt"
  }
},
{
  "type": "way",
  "id": 238546421,
  "nodes": [
    2463703619,
    1853847048,
    2019010369,
    2309830745,
    1853847059,
    1853847060,
    2019010367
  ],
  "tags": {
    "cycleway:right": "lane",
    "highway": "secondary",
    "name": "Avenue Nicolas Copernic",
    "oneway": "yes",
    "source": "Bing",
    "surface": "asphalt"
  }
},
{
  "type": "way",
  "id": 239035261,
  "nodes": [
    8263020588,
    6397054838,
    8263039919,
    6397054839
  ],
  "tags": {
    "cycleway:right": "lane",
    "highway": "primary",
    "lanes": "3",
    "lit": "yes",
    "maxspeed": "50",
    "maxspeed:type": "sign",
    "name": "Avenue de la Côte de Nacre",
    "oneway": "yes",
    "ref": "D 7",
    "source": "cadastre-dgi-fr source : Direction Générale des Impôts - Cadastre. Mise à jour : 2013",
    "surface": "asphalt",
    "turn:lanes": "left|through|through;right"
  }
},
{
  "type": "way",
  "id": 247188974,
  "nodes": [
    2075957595,
    2034720360,
    25974156
  ],
  "tags": {
    "cycleway:right": "lane",
    "highway": "tertiary",
    "maxspeed": "50",
    "name": "Quai de la Londe",
    "sidewalk": "both",
    "source": "cadastre-dgi-fr source : Direction Générale des Impôts - Cadastre. Mise à jour : 2010",
    "source:maxspeed": "sign",
    "surface": "asphalt"
  }
},
{
  "type": "way",
  "id": 251469920,
  "nodes": [
    1735094369,
    1735094389,
    1735094392,
    1993724965,
    1735094390
  ],
  "tags": {
    "cycleway:left": "opposite_lane",
    "cycleway:right": "lane",
    "highway": "tertiary",
    "lanes": "2",
    "lit": "yes",
    "maxspeed": "50",
    "maxspeed:type": "sign",
    "name": "Rue Mélingue",
    "oneway": "yes",
    "sidewalk": "both",
    "source": "cadastre-dgi-fr source : Direction Générale des Impôts - Cadastre. Mise à jour : 2013",
    "surface": "asphalt"
  }
},
{
  "type": "way",
  "id": 264914175,
  "nodes": [
    107476346,
    107476345,
    259055954,
    8210188628,
    107476342,
    5304584027,
    30422399
  ],
  "tags": {
    "cycleway:right": "lane",
    "highway": "tertiary",
    "name": "Esplanade Brillaud de Laujardière",
    "oneway": "yes"
  }
},
{
  "type": "way",
  "id": 264914176,
  "nodes": [
    1616969757,
    3797872371
  ],
  "tags": {
    "busway:right": "lane",
    "cycleway:right": "lane",
    "highway": "secondary",
    "name": "Avenue de la Côte de Nacre",
    "oneway": "yes"
  }
},
{
  "type": "way",
  "id": 283433006,
  "nodes": [
    1732801753,
    1669922421,
    1669922405,
    1690728819
  ],
  "tags": {
    "cycleway:right": "lane",
    "highway": "secondary",
    "lanes": "2",
    "lit": "yes",
    "name": "Place de la Demi-Lune",
    "oneway": "yes",
    "source": "cadastre-dgi-fr source : Direction Générale des Impôts - Cadastre. Mise à jour : 2014",
    "surface": "asphalt",
    "turn:lanes": "left|through"
  }
},
{
  "type": "way",
  "id": 341456195,
  "nodes": [
    107476367,
    107476381
  ],
  "tags": {
    "cycleway:right": "lane",
    "highway": "secondary_link",
    "name": "Esplanade Brillaud de Laujardière",
    "oneway": "yes",
    "source": "cadastre-dgi-fr source : Direction Générale des Impôts - Cadastre. Mise à jour : 2015"
  }
},
{
  "type": "way",
  "id": 341456199,
  "nodes": [
    1966739099,
    1966739101,
    1966739103,
    316745757,
    1966739105,
    1966739107,
    316745762
  ],
  "tags": {
    "cycleway:right": "lane",
    "highway": "secondary_link",
    "maxspeed": "50",
    "oneway": "yes",
    "source": "cadastre-dgi-fr source : Direction Générale des Impôts - Cadastre. Mise à jour : 2010"
  }
},
{
  "type": "way",
  "id": 341509353,
  "nodes": [
    1620254837,
    1736524367,
    1736524410,
    1736524345,
    1736524389,
    1736524258
  ],
  "tags": {
    "cycleway:right": "lane",
    "cycleway:right:oneway": "no",
    "description:covid19": "Bandes cyclables temporaire",
    "highway": "secondary",
    "lanes": "3",
    "lanes:backward": "1",
    "lanes:forward": "2",
    "lit": "yes",
    "maxspeed": "50",
    "name": "Boulevard des Baladas",
    "source": "cadastre-dgi-fr source : Direction Générale des Impôts - Cadastre. Mise à jour : 2015",
    "surface": "asphalt",
    "turn:lanes:backward": "through",
    "turn:lanes:forward": "through|through|through"
  }
},
{
  "type": "way",
  "id": 355122010,
  "nodes": [
    1600982637,
    1566150853
  ],
  "tags": {
    "cycleway:right": "lane",
    "destination": "Le Chemin Vert",
    "highway": "secondary",
    "lanes": "2",
    "lit": "yes",
    "maxspeed": "70",
    "name": "Boulevard du Maréchal Juin",
    "oneway": "yes",
    "ref": "D 401",
    "surface": "asphalt"
  }
},
{
  "type": "way",
  "id": 355122011,
  "nodes": [
    26545308,
    2038494835,
    26269073
  ],
  "tags": {
    "cycleway:right": "lane",
    "highway": "secondary",
    "lanes": "2",
    "lit": "yes",
    "name": "Boulevard du Maréchal Juin",
    "oneway": "yes",
    "ref": "D 401"
  }
},
{
  "type": "way",
  "id": 360538657,
  "nodes": [
    338873210,
    3673068671
  ],
  "tags": {
    "cycleway:right": "lane",
    "highway": "secondary",
    "lanes": "4",
    "lanes:forward": "2",
    "name": "Boulevard du Maréchal Juin",
    "ref": "D 401",
    "source": "cadastre-dgi-fr source : Direction Générale des Impôts - Cadastre. Mise à jour : 2015"
  }
},
{
  "type": "way",
  "id": 360742272,
  "nodes": [
    1747876331,
    1747876411
  ],
  "tags": {
    "cycleway:right": "lane",
    "highway": "tertiary",
    "maxspeed": "45",
    "name": "Boulevard Général Vanier",
    "oneway": "yes"
  }
},
{
  "type": "way",
  "id": 360742273,
  "nodes": [
    1747876290,
    1747876335,
    1747876455,
    1747876331
  ],
  "tags": {
    "cycleway:right": "lane",
    "highway": "tertiary",
    "maxspeed": "45",
    "name": "Boulevard Général Vanier",
    "oneway": "yes"
  }
},
{
  "type": "way",
  "id": 364196478,
  "nodes": [
    1736524255,
    1736524406,
    1736524516,
    3486843214,
    1736524362,
    3673060197
  ],
  "tags": {
    "cycleway:right": "lane",
    "cycleway:right:oneway": "no",
    "description:covid19": "Bandes cyclables temporaire",
    "highway": "secondary",
    "lanes": "2",
    "lit": "yes",
    "maxspeed": "50",
    "name": "Boulevard des Baladas",
    "surface": "asphalt"
  }
},
{
  "type": "way",
  "id": 364196480,
  "nodes": [
    3673068671,
    2051417477
  ],
  "tags": {
    "cycleway:right": "lane",
    "highway": "secondary",
    "lanes": "4",
    "lanes:forward": "2",
    "maxspeed": "50",
    "name": "Boulevard du Maréchal Juin",
    "ref": "D 401",
    "source": "cadastre-dgi-fr source : Direction Générale des Impôts - Cadastre. Mise à jour : 2015"
  }
},
{
  "type": "way",
  "id": 376347773,
  "nodes": [
    3797872371,
    26209312
  ],
  "tags": {
    "busway:right": "lane",
    "cycleway:right": "lane",
    "highway": "secondary",
    "name": "Rue de la Délivrande",
    "oneway": "yes"
  }
},
{
  "type": "way",
  "id": 385708402,
  "nodes": [
    1747876330,
    1748526013,
    1748526093,
    1748526336,
    1748526172,
    1748526038,
    1748526242,
    1748526074,
    1748526312,
    1748526148,
    1748526011,
    1417643362
  ],
  "tags": {
    "cycleway:right": "lane",
    "highway": "tertiary",
    "lit": "yes",
    "maxspeed": "45",
    "name": "Boulevard Général Vanier",
    "oneway": "yes"
  }
},
{
  "type": "way",
  "id": 385708403,
  "nodes": [
    2054326950,
    1748526115
  ],
  "tags": {
    "cycleway:right": "lane",
    "highway": "tertiary",
    "lit": "yes",
    "maxspeed": "45",
    "name": "Boulevard Général Vanier",
    "oneway": "yes"
  }
},
{
  "type": "way",
  "id": 385708404,
  "nodes": [
    1748526085,
    1748526130
  ],
  "tags": {
    "cycleway:right": "lane",
    "highway": "tertiary",
    "lit": "yes",
    "maxspeed": "45",
    "name": "Boulevard Général Vanier",
    "oneway": "yes"
  }
},
{
  "type": "way",
  "id": 385708405,
  "nodes": [
    1747882783,
    1916731425
  ],
  "tags": {
    "cycleway:right": "lane",
    "highway": "tertiary",
    "maxspeed": "45",
    "name": "Boulevard Général Vanier",
    "oneway": "yes",
    "surface": "asphalt"
  }
},
{
  "type": "way",
  "id": 385708409,
  "nodes": [
    26019476,
    1616969729,
    1983941756,
    26019477
  ],
  "tags": {
    "cycleway:right": "lane",
    "highway": "tertiary",
    "name": "Rue Emmanuel Desbiot",
    "oneway": "yes"
  }
},
{
  "type": "way",
  "id": 385708416,
  "nodes": [
    26019468,
    1983941709,
    1983941714,
    114203847,
    8210138155,
    26019470
  ],
  "tags": {
    "cycleway:right": "lane",
    "highway": "tertiary",
    "name": "Rue de Lebisey",
    "sidewalk": "left",
    "surface": "asphalt"
  }
},
{
  "type": "way",
  "id": 385710564,
  "nodes": [
    1859737815,
    2054579392
  ],
  "tags": {
    "bridge": "yes",
    "cycleway:right": "lane",
    "highway": "secondary",
    "lanes": "2",
    "layer": "2",
    "lit": "yes",
    "oneway": "yes",
    "ref": "D 401",
    "surface": "asphalt",
    "turn:lanes": "slight_left|through"
  }
},
{
  "type": "way",
  "id": 385713966,
  "nodes": [
    2578407780,
    2038494878,
    289451312,
    289451314,
    289451316,
    25974959,
    1240316634
  ],
  "tags": {
    "cycleway:right": "lane",
    "cycleway:right:lane": "exclusive",
    "highway": "secondary",
    "lanes": "2",
    "lit": "yes",
    "maxspeed": "70",
    "oneway": "yes",
    "ref": "D 401",
    "surface": "asphalt"
  }
},
{
  "type": "way",
  "id": 386625144,
  "nodes": [
    2045111308,
    2045111310,
    240957296,
    1265896414,
    265282782,
    2245024964,
    265270038
  ],
  "tags": {
    "cycleway:right": "lane",
    "cycleway:right:lane": "exclusive",
    "highway": "tertiary",
    "lanes": "1",
    "name": "Rue d'Authie",
    "oneway": "yes",
    "surface": "asphalt"
  }
},
{
  "type": "way",
  "id": 386625147,
  "nodes": [
    265210674,
    1970064374,
    2245024981,
    203781137,
    203781089,
    265269996,
    4975748371
  ],
  "tags": {
    "cycleway:right": "lane",
    "cycleway:right:lane": "exclusive",
    "highway": "tertiary",
    "name": "Rue d'Authie",
    "oneway": "yes",
    "surface": "asphalt"
  }
},
{
  "type": "way",
  "id": 406767997,
  "nodes": [
    1736524356,
    4088037513,
    1736524377,
    1736524684,
    1736524408,
    1736524364,
    1736524679,
    1736524521
  ],
  "tags": {
    "cycleway:right": "lane",
    "cycleway:right:oneway": "no",
    "description:covid19": "Bandes cyclables temporaire",
    "highway": "secondary_link",
    "lanes": "2",
    "name": "Boulevard du Petit Vallerent",
    "oneway": "yes",
    "source": "cadastre-dgi-fr source : Direction Générale des Impôts - Cadastre. Mise à jour : 2016",
    "surface": "asphalt",
    "turn:lanes": "left|through"
  }
},
{
  "type": "way",
  "id": 438611260,
  "nodes": [
    1736524258,
    4088037512,
    1736524316,
    1736524356
  ],
  "tags": {
    "cycleway:right": "lane",
    "cycleway:right:oneway": "no",
    "description:covid19": "Bandes cyclables temporaire",
    "highway": "secondary_link",
    "lanes": "1",
    "name": "Boulevard du Petit Vallerent",
    "oneway": "yes",
    "source": "cadastre-dgi-fr source : Direction Générale des Impôts - Cadastre. Mise à jour : 2016",
    "surface": "asphalt"
  }
},
{
  "type": "way",
  "id": 441669176,
  "nodes": [
    26545307,
    6299183312,
    5805219996,
    26545308
  ],
  "tags": {
    "cycleway:right": "lane",
    "cycleway:right:lane": "exclusive",
    "highway": "secondary",
    "lanes": "3",
    "lit": "yes",
    "maxspeed": "50",
    "name": "Boulevard du Maréchal Juin",
    "oneway": "yes",
    "ref": "D 401",
    "sidewalk": "right",
    "surface": "asphalt",
    "turn:lanes": "through|through|slight_right"
  }
},
{
  "type": "way",
  "id": 441669177,
  "nodes": [
    1566150853,
    6299183313,
    26545307
  ],
  "tags": {
    "cycleway:right": "lane",
    "cycleway:right:lane": "exclusive",
    "highway": "secondary",
    "lanes": "3",
    "lit": "yes",
    "maxspeed": "50",
    "name": "Boulevard du Maréchal Juin",
    "oneway": "yes",
    "ref": "D 401",
    "sidewalk": "right",
    "surface": "asphalt",
    "turn:lanes": "through|through|merge_to_left"
  }
},
{
  "type": "way",
  "id": 449368270,
  "nodes": [
    26081330,
    2045897323,
    1711135586,
    26081331,
    2022940907,
    26081333,
    2022940923,
    26081334,
    7793546066,
    2022940926,
    26081335,
    2045897329,
    271312909
  ],
  "tags": {
    "cycleway": "lane",
    "cycleway:right": "lane",
    "highway": "secondary",
    "junction": "roundabout",
    "lit": "yes",
    "name": "Rond-Point du Débarquement",
    "smoothness": "good",
    "surface": "asphalt"
  }
},
{
  "type": "way",
  "id": 449529488,
  "nodes": [
    30422390,
    30422400,
    9001911787,
    30422389,
    30422388,
    1735282700,
    30422387,
    30422386,
    30422398,
    7793060065,
    30422397,
    7793060066,
    30422399,
    30422396,
    495991213,
    30422403,
    30422395,
    30422404,
    30422394,
    1735283679
  ],
  "tags": {
    "cycleway": "lane",
    "cycleway:right": "lane",
    "highway": "tertiary",
    "junction": "roundabout",
    "name": "Porte de l'Europe"
  }
},
{
  "type": "way",
  "id": 464765952,
  "nodes": [
    26120937,
    4598417917,
    2337284560,
    2337356230,
    8206736544,
    26120936
  ],
  "tags": {
    "cycleway:right": "lane",
    "cycleway:right:lane": "advisory",
    "highway": "secondary",
    "maxspeed": "50",
    "maxspeed:type": "sign",
    "name": "Rue de la Gare",
    "oneway": "yes",
    "surface": "asphalt"
  }
},
{
  "type": "way",
  "id": 464765963,
  "nodes": [
    1997150748,
    4598417957,
    4642495934,
    4598417955
  ],
  "tags": {
    "cycleway:right": "lane",
    "highway": "residential",
    "lanes": "1",
    "lit": "yes",
    "maxspeed": "30",
    "name": "Rue Rosa Parks",
    "oneway": "yes",
    "surface": "asphalt"
  }
},
{
  "type": "way",
  "id": 467406834,
  "nodes": [
    1907920705,
    26019486,
    1907920703
  ],
  "tags": {
    "cycleway:right": "lane",
    "highway": "tertiary",
    "lanes": "3",
    "maxspeed": "50",
    "maxspeed:type": "sign",
    "name": "Rue de Lebisey",
    "oneway": "yes",
    "surface": "asphalt",
    "turn:lanes": "left|through|through;right"
  }
},
{
  "type": "way",
  "id": 467408539,
  "nodes": [
    26290394,
    266647161,
    8210184721,
    26290396
  ],
  "tags": {
    "cycleway:left": "opposite_track",
    "cycleway:right": "lane",
    "highway": "tertiary",
    "name": "Rue de Lebisey",
    "oneway": "yes",
    "sidewalk": "both"
  }
},
{
  "type": "way",
  "id": 467408540,
  "nodes": [
    26019477,
    1983941757,
    26290393,
    26290394
  ],
  "tags": {
    "cycleway:right": "lane",
    "highway": "tertiary",
    "name": "Rue de Lebisey",
    "oneway": "yes",
    "sidewalk": "both"
  }
},
{
  "type": "way",
  "id": 467408610,
  "nodes": [
    26019473,
    1983941755
  ],
  "tags": {
    "cycleway:right": "lane",
    "highway": "tertiary",
    "name": "Rue Emmanuel Desbiot",
    "oneway": "yes",
    "surface": "asphalt"
  }
},
{
  "type": "way",
  "id": 467408936,
  "nodes": [
    1978088441,
    26019472,
    26019473
  ],
  "tags": {
    "cycleway:right": "lane",
    "highway": "tertiary",
    "name": "Rue Emmanuel Desbiot",
    "oneway": "yes",
    "surface": "asphalt"
  }
},
{
  "type": "way",
  "id": 508236865,
  "nodes": [
    4975748371,
    2245025039,
    203781083
  ],
  "tags": {
    "cycleway:right": "lane",
    "cycleway:right:lane": "exclusive",
    "highway": "tertiary",
    "lanes": "2",
    "name": "Rue d'Authie",
    "oneway": "yes",
    "surface": "asphalt",
    "turn:lanes": "left|through;right"
  }
},
{
  "type": "way",
  "id": 510742339,
  "nodes": [
    4598417955,
    4598417956,
    6400437484,
    7271593219,
    6400437482,
    6644763096,
    5314533026,
    1990946429
  ],
  "tags": {
    "cycleway:right": "lane",
    "highway": "residential",
    "lanes": "1",
    "lit": "yes",
    "maxspeed": "30",
    "name": "Rue Rosa Parks",
    "oneway": "yes",
    "surface": "asphalt"
  }
},
{
  "type": "way",
  "id": 512006183,
  "nodes": [
    1736524346,
    26016013
  ],
  "tags": {
    "bridge": "yes",
    "cycleway:right": "lane",
    "cycleway:right:oneway": "no",
    "description:covid19": "Bandes cyclables temporaire",
    "highway": "secondary",
    "lanes": "2",
    "layer": "2",
    "maxspeed": "50",
    "name": "Viaduc de la Cavée",
    "surface": "asphalt",
    "turn:lanes:backward": "through",
    "turn:lanes:forward": "through"
  }
},
{
  "type": "way",
  "id": 512006184,
  "nodes": [
    26016013,
    26016014,
    1736524712,
    26016015
  ],
  "tags": {
    "bridge": "yes",
    "cycleway:right": "lane",
    "cycleway:right:oneway": "no",
    "description:covid19": "Bandes cyclables temporaire",
    "highway": "secondary",
    "lanes": "1",
    "layer": "2",
    "maxspeed": "50",
    "name": "Viaduc de la Cavée",
    "oneway": "yes",
    "surface": "asphalt"
  }
},
{
  "type": "way",
  "id": 512006185,
  "nodes": [
    1736476252,
    3486843212,
    1736476963,
    1736475617,
    3486843213,
    26016009
  ],
  "tags": {
    "cycleway:right": "lane",
    "cycleway:right:oneway": "no",
    "description:covid19": "Bandes cyclables temporaire",
    "highway": "secondary",
    "lanes": "2",
    "lit": "yes",
    "maxspeed": "50",
    "name": "Viaduc de la Cavée",
    "surface": "asphalt",
    "turn:lanes:backward": "through|through",
    "turn:lanes:forward": "through"
  }
},
{
  "type": "way",
  "id": 512006194,
  "nodes": [
    289451291,
    289451293,
    2038494648
  ],
  "tags": {
    "cycleway:right": "lane",
    "cycleway:right:lane": "exclusive",
    "highway": "tertiary",
    "lanes": "1",
    "name": "Rue du Chemin Vert",
    "oneway": "yes",
    "surface": "asphalt"
  }
},
{
  "type": "way",
  "id": 512006195,
  "nodes": [
    5007016602,
    2038494668,
    5752631606
  ],
  "tags": {
    "cycleway:right": "lane",
    "cycleway:right:lane": "exclusive",
    "highway": "tertiary",
    "lanes": "3",
    "name": "Rue du Chemin Vert",
    "oneway": "yes",
    "surface": "asphalt",
    "turn:lanes": "left|through|through"
  }
},
{
  "type": "way",
  "id": 512006196,
  "nodes": [
    289451289,
    1935497725,
    289451319
  ],
  "tags": {
    "cycleway:right": "lane",
    "highway": "tertiary",
    "lanes": "2",
    "maxspeed:type": "FR:urban",
    "name": "Rue du Chemin Vert",
    "oneway": "yes",
    "surface": "asphalt",
    "turn:lanes": "left|through"
  }
},
{
  "type": "way",
  "id": 549303797,
  "nodes": [
    1898349336,
    5694405410,
    1898349338,
    26001281
  ],
  "tags": {
    "cycleway:right": "lane",
    "highway": "tertiary",
    "name": "Rue Jules Verne",
    "oneway": "yes",
    "surface": "asphalt"
  }
},
{
  "type": "way",
  "id": 549303803,
  "nodes": [
    266647144,
    1898349393,
    266647146,
    266647147
  ],
  "tags": {
    "cycleway:right": "lane",
    "highway": "tertiary",
    "name": "Rue Jules Verne",
    "oneway": "yes",
    "surface": "asphalt"
  }
},
{
  "type": "way",
  "id": 550129066,
  "nodes": [
    5313649165,
    5313649164,
    2051417457
  ],
  "tags": {
    "cycleway:right": "lane",
    "highway": "secondary",
    "lanes": "2",
    "name": "Boulevard du Maréchal Juin",
    "oneway": "yes",
    "ref": "D 401",
    "turn:lanes:forward": "through|through;right"
  }
},
{
  "type": "way",
  "id": 550129067,
  "nodes": [
    2051417457,
    338873210
  ],
  "tags": {
    "cycleway:right": "lane",
    "highway": "secondary",
    "lanes": "4",
    "lanes:backward": "2",
    "lanes:forward": "2",
    "name": "Boulevard du Maréchal Juin",
    "ref": "D 401",
    "turn:lanes:forward": "through|through;right"
  }
},
{
  "type": "way",
  "id": 550656932,
  "nodes": [
    1736476284,
    1736475715,
    1736475520,
    1736475672,
    1736477007,
    2429903508
  ],
  "tags": {
    "cycleway:right": "lane",
    "highway": "secondary",
    "name": "Avenue Père Charles de Foucauld",
    "oneway": "yes",
    "surface": "asphalt"
  }
},
{
  "type": "way",
  "id": 553602812,
  "nodes": [
    203781083,
    2245025060,
    1970064388,
    8228406661,
    265210657,
    2245025089,
    265269810,
    265210646
  ],
  "tags": {
    "cycleway:right": "lane",
    "highway": "tertiary",
    "name": "Rue d'Authie",
    "oneway": "yes"
  }
},
{
  "type": "way",
  "id": 612688884,
  "nodes": [
    25974156,
    2034720363
  ],
  "tags": {
    "cycleway:right": "lane",
    "highway": "tertiary",
    "maxspeed": "50",
    "name": "Avenue de Tourville",
    "sidewalk": "both",
    "source": "cadastre-dgi-fr source : Direction Générale des Impôts - Cadastre. Mise à jour : 2010",
    "source:maxspeed": "sign",
    "surface": "asphalt"
  }
},
{
  "type": "way",
  "id": 672668692,
  "nodes": [
    5601784550,
    26003242,
    26003243,
    3116148127,
    25974986
  ],
  "tags": {
    "cycleway:right": "lane",
    "cycleway:right:lane": "advisory",
    "highway": "secondary",
    "lanes": "2",
    "maxspeed": "50",
    "name": "Boulevard Dunois",
    "oneway": "yes",
    "ref:FR:FANTOIR": "141182530S",
    "surface": "asphalt"
  }
},
{
  "type": "way",
  "id": 707951811,
  "nodes": [
    5752631606,
    5752632037,
    289451295
  ],
  "tags": {
    "cycleway:right": "lane",
    "highway": "tertiary",
    "lanes": "3",
    "name": "Rue du Chemin Vert",
    "oneway": "yes",
    "turn:lanes": "left|through|through"
  }
},
{
  "type": "way",
  "id": 723834903,
  "nodes": [
    265270038,
    265210674
  ],
  "tags": {
    "cycleway:left": "lane",
    "cycleway:left:lane": "exclusive",
    "cycleway:left:oneway": "-1",
    "cycleway:right": "lane",
    "cycleway:right:lane": "exclusive",
    "highway": "tertiary",
    "lanes": "1",
    "name": "Rue d'Authie",
    "oneway": "yes",
    "oneway:bicycle": "no",
    "surface": "asphalt"
  }
},
{
  "type": "way",
  "id": 760478064,
  "nodes": [
    7104227742,
    7342697649,
    3502893796,
    7104227743
  ],
  "tags": {
    "bicycle": "yes",
    "cycleway:right": "lane",
    "highway": "service",
    "oneway": "yes",
    "service": "parking_aisle",
    "source": "Bing"
  }
},
{
  "type": "way",
  "id": 760480467,
  "nodes": [
    1978088847,
    1978088822
  ],
  "tags": {
    "cycleway:right": "lane",
    "highway": "tertiary",
    "name": "Esplanade Brillaud de Laujardière",
    "oneway": "yes"
  }
},
{
  "type": "way",
  "id": 778253518,
  "nodes": [
    2054413469,
    1748526335,
    1748526170,
    1748526037,
    1748526286,
    1978087462,
    1748526119,
    1748526423,
    1748526128,
    1748526452,
    1748526230,
    1748526071,
    1748526310,
    1748526146,
    1748526290,
    1748526009,
    1748526085
  ],
  "tags": {
    "cycleway:right": "lane",
    "highway": "tertiary",
    "lit": "yes",
    "maxspeed": "45",
    "name": "Boulevard Général Vanier",
    "oneway": "yes",
    "surface": "asphalt"
  }
},
{
  "type": "way",
  "id": 778253519,
  "nodes": [
    2620904602,
    1520896452
  ],
  "tags": {
    "cycleway:right": "lane",
    "highway": "secondary",
    "lanes": "2",
    "maxspeed": "50",
    "maxspeed:type": "sign",
    "name": "Rue Saint-Michel",
    "surface": "asphalt"
  }
},
{
  "type": "way",
  "id": 778253521,
  "nodes": [
    7263558619,
    25983962,
    25983963,
    2052464507,
    26025389,
    2052464509,
    25983964,
    25983965,
    2000024896,
    29286884
  ],
  "tags": {
    "cycleway:right": "lane",
    "highway": "secondary",
    "name": "Avenue Père Charles de Foucauld",
    "oneway": "yes",
    "surface": "asphalt"
  }
},
{
  "type": "way",
  "id": 778253524,
  "nodes": [
    1853124535,
    1853124498,
    8723755276,
    8231766564,
    26305823
  ],
  "tags": {
    "cycleway:right": "lane",
    "highway": "secondary",
    "name": "Rue de l'Aviation",
    "oneway": "yes",
    "surface": "asphalt"
  }
},
{
  "type": "way",
  "id": 780244743,
  "nodes": [
    26525801,
    2019010382,
    2285753046,
    7721078283,
    2285753040,
    26525804,
    7721078284,
    2285753023,
    26525805,
    26525806,
    7285367066
  ],
  "tags": {
    "cycleway:right": "lane",
    "highway": "residential",
    "lit": "yes",
    "name": "Rue de la Delivrande",
    "oneway": "yes",
    "surface": "asphalt"
  }
},
{
  "type": "way",
  "id": 821897643,
  "nodes": [
    1736524521,
    1736524748,
    2053007987
  ],
  "tags": {
    "cycleway:right": "lane",
    "cycleway:right:oneway": "no",
    "description:covid19": "Bandes cyclables temporaire",
    "highway": "secondary_link",
    "lanes": "1",
    "name": "Boulevard du Petit Vallerent",
    "oneway": "yes",
    "surface": "asphalt"
  }
},
{
  "type": "way",
  "id": 836127968,
  "nodes": [
    1240316694,
    2162834605,
    1240316591,
    2162834613,
    25974962
  ],
  "tags": {
    "cycleway:right": "lane",
    "highway": "secondary",
    "junction": "roundabout",
    "lanes": "2",
    "lit": "yes",
    "surface": "asphalt"
  }
},
{
  "type": "way",
  "id": 836127969,
  "nodes": [
    26081337,
    2045897326,
    2022940904,
    2045897324,
    26081328
  ],
  "tags": {
    "cycleway": "lane",
    "cycleway:right": "lane",
    "highway": "secondary",
    "junction": "roundabout",
    "lit": "yes",
    "name": "Rond-Point du Débarquement",
    "smoothness": "good",
    "surface": "asphalt"
  }
},
{
  "type": "way",
  "id": 836127973,
  "nodes": [
    26081328,
    2022940894,
    26081329,
    2045897317,
    1240316356,
    2045897318,
    26081330
  ],
  "tags": {
    "cycleway": "lane",
    "cycleway:right": "lane",
    "highway": "secondary",
    "junction": "roundabout",
    "lit": "yes",
    "name": "Rond-Point du Débarquement",
    "smoothness": "good",
    "surface": "asphalt"
  }
},
{
  "type": "way",
  "id": 836127975,
  "nodes": [
    25974960,
    2162834568,
    1240316377,
    2162834578,
    1565952165,
    2162834595,
    1240316694
  ],
  "tags": {
    "cycleway:right": "lane",
    "cycleway:right:lane": "exclusive",
    "highway": "secondary",
    "junction": "roundabout",
    "lanes": "2",
    "lit": "yes",
    "sidewalk": "right",
    "surface": "asphalt"
  }
},
{
  "type": "way",
  "id": 836127976,
  "nodes": [
    1735283679,
    30422393,
    1735282820,
    30422391,
    7793060064,
    30422390
  ],
  "tags": {
    "cycleway": "lane",
    "cycleway:right": "lane",
    "highway": "tertiary",
    "junction": "roundabout",
    "name": "Porte de l'Europe"
  }
},
{
  "type": "way",
  "id": 942345946,
  "nodes": [
    289451303,
    289451305,
    2038494844,
    298956619,
    289451307,
    1968471744,
    2038494870,
    289451310,
    2578407780
  ],
  "tags": {
    "cycleway:right": "lane",
    "cycleway:right:lane": "exclusive",
    "highway": "secondary",
    "lanes": "2",
    "lit": "yes",
    "maxspeed": "70",
    "oneway": "yes",
    "ref": "D 401",
    "sidewalk": "right",
    "surface": "asphalt"
  }
},
{
  "type": "way",
  "id": 942345947,
  "nodes": [
    26269073,
    26269083
  ],
  "tags": {
    "cycleway:right": "lane",
    "highway": "secondary",
    "lanes": "2",
    "lit": "yes",
    "name": "Boulevard du Maréchal Juin",
    "oneway": "yes",
    "ref": "D 401"
  }
},
{
  "type": "way",
  "id": 963352121,
  "nodes": [
    25973824,
    2325792730,
    25973801,
    2019010415,
    25973804,
    25973806,
    25973808,
    2019010417,
    2019010418,
    2019010419,
    8263020588
  ],
  "tags": {
    "cycleway:right": "lane",
    "highway": "primary",
    "lanes": "2",
    "lit": "yes",
    "maxspeed": "50",
    "name": "Avenue de la Côte de Nacre",
    "oneway": "yes",
    "ref": "D 7",
    "source": "cadastre-dgi-fr source : Direction Générale des Impôts - Cadastre. Mise à jour : 2013",
    "surface": "asphalt"
  }
},
{
  "type": "way",
  "id": 993598484,
  "nodes": [
    9179653162,
    7376292412,
    2309413943,
    1795288754
  ],
  "tags": {
    "bicycle": "yes",
    "cycleway:right": "lane",
    "highway": "service",
    "lanes": "1",
    "lit": "yes",
    "oneway": "yes",
    "service": "alley",
    "surface": "asphalt"
  }
},
{
  "type": "way",
  "id": 1019710920,
  "nodes": [
    1240316634,
    1240316504,
    2161359606,
    25974960
  ],
  "tags": {
    "cycleway:right": "lane",
    "cycleway:right:lane": "exclusive",
    "highway": "secondary",
    "junction": "roundabout",
    "lanes": "2",
    "lit": "yes",
    "surface": "asphalt"
  }
},
{
  "type": "way",
  "id": 1024028797,
  "nodes": [
    1640458239,
    1907920704
  ],
  "tags": {
    "cycleway:right": "lane",
    "highway": "tertiary",
    "lanes": "2",
    "maxspeed": "50",
    "maxspeed:type": "sign",
    "name": "Rue de Lebisey",
    "oneway": "yes",
    "surface": "asphalt",
    "turn:lanes": "left|through"
  }
},
{
  "type": "area",
  "id": 3600149197,
  "tags": {
    "addr:postcode": "14000",
    "admin_level": "8",
    "boundary": "administrative",
    "name": "Caen",
    "name:ar": "كاين",
    "name:br": "Caen",
    "name:el": "Καέν",
    "name:en": "Caen",
    "name:eo": "Kaeno",
    "name:fr": "Caen",
    "name:ja": "カーン",
    "name:nl": "Caen",
    "name:oc": "Can",
    "name:ru": "Кан",
    "name:sr": "Кан",
    "name:uk": "Кан",
    "population": "106230",
    "population:date": "2019",
    "postal_code": "14000",
    "ref:INSEE": "14118",
    "source:population": "INSEE 2022",
    "source:postal_code": "La Poste - 12/2014",
    "type": "boundary",
    "wikidata": "Q41185",
    "wikipedia": "fr:Caen"
  }
},
{
  "type": "node",
  "id": 25974876,
  "lat": 49.1720322,
  "lon": -0.3993971
},
{
  "type": "node",
  "id": 25974878,
  "lat": 49.1731364,
  "lon": -0.3995168
},
{
  "type": "node",
  "id": 1735282612,
  "lat": 49.1729893,
  "lon": -0.3994966
},
{
  "type": "node",
  "id": 1735283374,
  "lat": 49.1722888,
  "lon": -0.3994511
},
{
  "type": "node",
  "id": 1897834315,
  "lat": 49.1721197,
  "lon": -0.3994155
},
{
  "type": "node",
  "id": 1897834322,
  "lat": 49.1719807,
  "lon": -0.3993764
},
{
  "type": "node",
  "id": 1979177542,
  "lat": 49.1727123,
  "lon": -0.3994786
},
{
  "type": "node",
  "id": 2052445294,
  "lat": 49.1730495,
  "lon": -0.3995049
},
{
  "type": "node",
  "id": 2245024859,
  "lat": 49.1728685,
  "lon": -0.3994887
},
{
  "type": "node",
  "id": 265210646,
  "lat": 49.1875653,
  "lon": -0.3934677
},
{
  "type": "node",
  "id": 265269810,
  "lat": 49.1875426,
  "lon": -0.3934258
},
{
  "type": "node",
  "id": 2245025089,
  "lat": 49.1874586,
  "lon": -0.3932879
},
{
  "type": "node",
  "id": 2245025097,
  "lat": 49.1876533,
  "lon": -0.3935966
},
{
  "type": "node",
  "id": 203781076,
  "lat": 49.1894395,
  "lon": -0.3954484
},
{
  "type": "node",
  "id": 203781080,
  "lat": 49.1880802,
  "lon": -0.3941772
},
{
  "type": "node",
  "id": 265260991,
  "lat": 49.1945145,
  "lon": -0.3951979
},
{
  "type": "node",
  "id": 265269805,
  "lat": 49.1885668,
  "lon": -0.3946282
},
{
  "type": "node",
  "id": 265294531,
  "lat": 49.1882955,
  "lon": -0.3943930
},
{
  "type": "node",
  "id": 289451291,
  "lat": 49.1930003,
  "lon": -0.3937399
},
{
  "type": "node",
  "id": 289451293,
  "lat": 49.1934451,
  "lon": -0.3941094
},
{
  "type": "node",
  "id": 289451295,
  "lat": 49.1945281,
  "lon": -0.3950639
},
{
  "type": "node",
  "id": 289451317,
  "lat": 49.1937136,
  "lon": -0.3943461
},
{
  "type": "node",
  "id": 289451319,
  "lat": 49.1926202,
  "lon": -0.3934249
},
{
  "type": "node",
  "id": 1797286221,
  "lat": 49.1940952,
  "lon": -0.3948349
},
{
  "type": "node",
  "id": 1970064407,
  "lat": 49.1900154,
  "lon": -0.3937937
},
{
  "type": "node",
  "id": 2038494638,
  "lat": 49.1927283,
  "lon": -0.3935126
},
{
  "type": "node",
  "id": 2038494648,
  "lat": 49.1936435,
  "lon": -0.3942843
},
{
  "type": "node",
  "id": 2038494652,
  "lat": 49.1938104,
  "lon": -0.3944313
},
{
  "type": "node",
  "id": 2038494666,
  "lat": 49.1942426,
  "lon": -0.3949625
},
{
  "type": "node",
  "id": 2038494668,
  "lat": 49.1942814,
  "lon": -0.3948465
},
{
  "type": "node",
  "id": 2245025194,
  "lat": 49.1885073,
  "lon": -0.3945731
},
{
  "type": "node",
  "id": 2420580917,
  "lat": 49.1895474,
  "lon": -0.3951396
},
{
  "type": "node",
  "id": 2420580921,
  "lat": 49.1901349,
  "lon": -0.3934501
},
{
  "type": "node",
  "id": 5007016602,
  "lat": 49.1941925,
  "lon": -0.3947682
},
{
  "type": "node",
  "id": 5752631606,
  "lat": 49.1943190,
  "lon": -0.3948797
},
{
  "type": "node",
  "id": 5752632037,
  "lat": 49.1944629,
  "lon": -0.3950064
},
{
  "type": "node",
  "id": 5753669559,
  "lat": 49.1941554,
  "lon": -0.3948870
},
{
  "type": "node",
  "id": 9403147099,
  "lat": 49.1928686,
  "lon": -0.3936236
},
{
  "type": "node",
  "id": 1736524364,
  "lat": 49.1706492,
  "lon": -0.3736478
},
{
  "type": "node",
  "id": 1736524408,
  "lat": 49.1705990,
  "lon": -0.3735857
},
{
  "type": "node",
  "id": 1736524521,
  "lat": 49.1707436,
  "lon": -0.3737538
},
{
  "type": "node",
  "id": 1736524679,
  "lat": 49.1707030,
  "lon": -0.3737081
},
{
  "type": "node",
  "id": 1736524748,
  "lat": 49.1707986,
  "lon": -0.3737995
},
{
  "type": "node",
  "id": 2053007987,
  "lat": 49.1708500,
  "lon": -0.3738388
},
{
  "type": "node",
  "id": 26016015,
  "lat": 49.1704884,
  "lon": -0.3674854
},
{
  "type": "node",
  "id": 26016017,
  "lat": 49.1704614,
  "lon": -0.3689943
},
{
  "type": "node",
  "id": 1620254837,
  "lat": 49.1701331,
  "lon": -0.3718573
},
{
  "type": "node",
  "id": 1736524255,
  "lat": 49.1701819,
  "lon": -0.3707317
},
{
  "type": "node",
  "id": 1736524258,
  "lat": 49.1702940,
  "lon": -0.3730511
},
{
  "type": "node",
  "id": 1736524270,
  "lat": 49.1705532,
  "lon": -0.3681640
},
{
  "type": "node",
  "id": 1736524283,
  "lat": 49.1705000,
  "lon": -0.3675546
},
{
  "type": "node",
  "id": 1736524302,
  "lat": 49.1748734,
  "lon": -0.3713867
},
{
  "type": "node",
  "id": 1736524316,
  "lat": 49.1703939,
  "lon": -0.3732754
},
{
  "type": "node",
  "id": 1736524325,
  "lat": 49.1705286,
  "lon": -0.3686160
},
{
  "type": "node",
  "id": 1736524345,
  "lat": 49.1702075,
  "lon": -0.3726056
},
{
  "type": "node",
  "id": 1736524356,
  "lat": 49.1704358,
  "lon": -0.3733546
},
{
  "type": "node",
  "id": 1736524362,
  "lat": 49.1701258,
  "lon": -0.3715508
},
{
  "type": "node",
  "id": 1736524366,
  "lat": 49.1705409,
  "lon": -0.3684752
},
{
  "type": "node",
  "id": 1736524367,
  "lat": 49.1701443,
  "lon": -0.3720445
},
{
  "type": "node",
  "id": 1736524377,
  "lat": 49.1704938,
  "lon": -0.3734413
},
{
  "type": "node",
  "id": 1736524389,
  "lat": 49.1702305,
  "lon": -0.3727440
},
{
  "type": "node",
  "id": 1736524406,
  "lat": 49.1701632,
  "lon": -0.3708998
},
{
  "type": "node",
  "id": 1736524410,
  "lat": 49.1701710,
  "lon": -0.3723667
},
{
  "type": "node",
  "id": 1736524421,
  "lat": 49.1705514,
  "lon": -0.3680031
},
{
  "type": "node",
  "id": 1736524516,
  "lat": 49.1701445,
  "lon": -0.3710837
},
{
  "type": "node",
  "id": 1736524608,
  "lat": 49.1705435,
  "lon": -0.3678462
},
{
  "type": "node",
  "id": 1736524684,
  "lat": 49.1705428,
  "lon": -0.3735107
},
{
  "type": "node",
  "id": 1736524712,
  "lat": 49.1704303,
  "lon": -0.3671698
},
{
  "type": "node",
  "id": 3486843214,
  "lat": 49.1701338,
  "lon": -0.3713174
},
{
  "type": "node",
  "id": 3673060197,
  "lat": 49.1701301,
  "lon": -0.3717626
},
{
  "type": "node",
  "id": 4088037512,
  "lat": 49.1703417,
  "lon": -0.3731726
},
{
  "type": "node",
  "id": 4088037513,
  "lat": 49.1704645,
  "lon": -0.3734019
},
{
  "type": "node",
  "id": 5007016569,
  "lat": 49.1704813,
  "lon": -0.3689553
},
{
  "type": "node",
  "id": 1736524609,
  "lat": 49.1751458,
  "lon": -0.3709356
},
{
  "type": "node",
  "id": 1897974312,
  "lat": 49.1750971,
  "lon": -0.3710164
},
{
  "type": "node",
  "id": 203781083,
  "lat": 49.1869815,
  "lon": -0.3923689
},
{
  "type": "node",
  "id": 203781089,
  "lat": 49.1863515,
  "lon": -0.3912211
},
{
  "type": "node",
  "id": 203781137,
  "lat": 49.1858930,
  "lon": -0.3903579
},
{
  "type": "node",
  "id": 240957296,
  "lat": 49.1841199,
  "lon": -0.3872700
},
{
  "type": "node",
  "id": 265210657,
  "lat": 49.1873422,
  "lon": -0.3930781
},
{
  "type": "node",
  "id": 265210674,
  "lat": 49.1853297,
  "lon": -0.3893244
},
{
  "type": "node",
  "id": 265269996,
  "lat": 49.1863630,
  "lon": -0.3912389
},
{
  "type": "node",
  "id": 265270038,
  "lat": 49.1852409,
  "lon": -0.3891706
},
{
  "type": "node",
  "id": 265282782,
  "lat": 49.1846455,
  "lon": -0.3881529
},
{
  "type": "node",
  "id": 1265896414,
  "lat": 49.1842700,
  "lon": -0.3875629
},
{
  "type": "node",
  "id": 1970064374,
  "lat": 49.1853969,
  "lon": -0.3894345
},
{
  "type": "node",
  "id": 1970064388,
  "lat": 49.1871420,
  "lon": -0.3926967
},
{
  "type": "node",
  "id": 2045111308,
  "lat": 49.1839774,
  "lon": -0.3867106
},
{
  "type": "node",
  "id": 2045111310,
  "lat": 49.1840841,
  "lon": -0.3871489
},
{
  "type": "node",
  "id": 2245024964,
  "lat": 49.1851954,
  "lon": -0.3890928
},
{
  "type": "node",
  "id": 2245024981,
  "lat": 49.1858478,
  "lon": -0.3902738
},
{
  "type": "node",
  "id": 2245025039,
  "lat": 49.1869261,
  "lon": -0.3922707
},
{
  "type": "node",
  "id": 2245025060,
  "lat": 49.1870409,
  "lon": -0.3924835
},
{
  "type": "node",
  "id": 4975748371,
  "lat": 49.1868199,
  "lon": -0.3920901
},
{
  "type": "node",
  "id": 8228406661,
  "lat": 49.1872903,
  "lon": -0.3929793
},
{
  "type": "node",
  "id": 26269089,
  "lat": 49.1906863,
  "lon": -0.3919023
},
{
  "type": "node",
  "id": 289451282,
  "lat": 49.1903665,
  "lon": -0.3914732
},
{
  "type": "node",
  "id": 289451285,
  "lat": 49.1910882,
  "lon": -0.3921211
},
{
  "type": "node",
  "id": 289451287,
  "lat": 49.1914865,
  "lon": -0.3924672
},
{
  "type": "node",
  "id": 289451289,
  "lat": 49.1920355,
  "lon": -0.3929294
},
{
  "type": "node",
  "id": 1735084457,
  "lat": 49.1907201,
  "lon": -0.3918012
},
{
  "type": "node",
  "id": 1735084491,
  "lat": 49.1905941,
  "lon": -0.3918186
},
{
  "type": "node",
  "id": 1935497725,
  "lat": 49.1922891,
  "lon": -0.3931415
},
{
  "type": "node",
  "id": 1969837389,
  "lat": 49.1908661,
  "lon": -0.3919280
},
{
  "type": "node",
  "id": 2038494557,
  "lat": 49.1907921,
  "lon": -0.3918637
},
{
  "type": "node",
  "id": 2038494560,
  "lat": 49.1913750,
  "lon": -0.3923703
},
{
  "type": "node",
  "id": 2038494569,
  "lat": 49.1916132,
  "lon": -0.3925739
},
{
  "type": "node",
  "id": 2420580923,
  "lat": 49.1902946,
  "lon": -0.3930095
},
{
  "type": "node",
  "id": 2420580925,
  "lat": 49.1906338,
  "lon": -0.3920346
},
{
  "type": "node",
  "id": 2420580927,
  "lat": 49.1906637,
  "lon": -0.3919600
},
{
  "type": "node",
  "id": 25974986,
  "lat": 49.1879733,
  "lon": -0.3782314
},
{
  "type": "node",
  "id": 26003242,
  "lat": 49.1878099,
  "lon": -0.3785997
},
{
  "type": "node",
  "id": 26003243,
  "lat": 49.1878946,
  "lon": -0.3784361
},
{
  "type": "node",
  "id": 3116148127,
  "lat": 49.1879531,
  "lon": -0.3783017
},
{
  "type": "node",
  "id": 5601784550,
  "lat": 49.1875511,
  "lon": -0.3791323
},
{
  "type": "node",
  "id": 1736475350,
  "lat": 49.1617758,
  "lon": -0.3663454
},
{
  "type": "node",
  "id": 1736475400,
  "lat": 49.1617151,
  "lon": -0.3666639
},
{
  "type": "node",
  "id": 1736475411,
  "lat": 49.1615440,
  "lon": -0.3669591
},
{
  "type": "node",
  "id": 1736475482,
  "lat": 49.1616779,
  "lon": -0.3667886
},
{
  "type": "node",
  "id": 1736475489,
  "lat": 49.1616024,
  "lon": -0.3669077
},
{
  "type": "node",
  "id": 1736475537,
  "lat": 49.1617067,
  "lon": -0.3667070
},
{
  "type": "node",
  "id": 1736475597,
  "lat": 49.1615730,
  "lon": -0.3669361
},
{
  "type": "node",
  "id": 1736475706,
  "lat": 49.1617241,
  "lon": -0.3666060
},
{
  "type": "node",
  "id": 1736475725,
  "lat": 49.1618141,
  "lon": -0.3664552
},
{
  "type": "node",
  "id": 1736475738,
  "lat": 49.1617942,
  "lon": -0.3664045
},
{
  "type": "node",
  "id": 1736476242,
  "lat": 49.1616841,
  "lon": -0.3667743
},
{
  "type": "node",
  "id": 1736476400,
  "lat": 49.1616540,
  "lon": -0.3668335
},
{
  "type": "node",
  "id": 1736476870,
  "lat": 49.1616318,
  "lon": -0.3668692
},
{
  "type": "node",
  "id": 1736477066,
  "lat": 49.1616959,
  "lon": -0.3667464
},
{
  "type": "node",
  "id": 1736475520,
  "lat": 49.1616752,
  "lon": -0.3569031
},
{
  "type": "node",
  "id": 1736475672,
  "lat": 49.1616801,
  "lon": -0.3568669
},
{
  "type": "node",
  "id": 1736475715,
  "lat": 49.1616669,
  "lon": -0.3569351
},
{
  "type": "node",
  "id": 1736476284,
  "lat": 49.1616569,
  "lon": -0.3569669
},
{
  "type": "node",
  "id": 1736477007,
  "lat": 49.1616840,
  "lon": -0.3568214
},
{
  "type": "node",
  "id": 2429903508,
  "lat": 49.1616846,
  "lon": -0.3568039
},
{
  "type": "node",
  "id": 7263558619,
  "lat": 49.1618364,
  "lon": -0.3550113
},
{
  "type": "node",
  "id": 1736475444,
  "lat": 49.1677658,
  "lon": -0.3655398
},
{
  "type": "node",
  "id": 1736475487,
  "lat": 49.1620131,
  "lon": -0.3667183
},
{
  "type": "node",
  "id": 1736475506,
  "lat": 49.1678732,
  "lon": -0.3655191
},
{
  "type": "node",
  "id": 1736475550,
  "lat": 49.1676971,
  "lon": -0.3655341
},
{
  "type": "node",
  "id": 1736475556,
  "lat": 49.1621141,
  "lon": -0.3667267
},
{
  "type": "node",
  "id": 1736475595,
  "lat": 49.1618445,
  "lon": -0.3665214
},
{
  "type": "node",
  "id": 1736476150,
  "lat": 49.1619159,
  "lon": -0.3666342
},
{
  "type": "node",
  "id": 1736476252,
  "lat": 49.1683413,
  "lon": -0.3653246
},
{
  "type": "node",
  "id": 1736476389,
  "lat": 49.1620751,
  "lon": -0.3667304
},
{
  "type": "node",
  "id": 1736476438,
  "lat": 49.1619803,
  "lon": -0.3667004
},
{
  "type": "node",
  "id": 1736476594,
  "lat": 49.1618832,
  "lon": -0.3665894
},
{
  "type": "node",
  "id": 1736476698,
  "lat": 49.1676112,
  "lon": -0.3654887
},
{
  "type": "node",
  "id": 1736476915,
  "lat": 49.1619470,
  "lon": -0.3666726
},
{
  "type": "node",
  "id": 1736477092,
  "lat": 49.1620482,
  "lon": -0.3667290
},
{
  "type": "node",
  "id": 25983962,
  "lat": 49.1618611,
  "lon": -0.3548634
},
{
  "type": "node",
  "id": 25983963,
  "lat": 49.1619287,
  "lon": -0.3544829
},
{
  "type": "node",
  "id": 26025385,
  "lat": 49.1620803,
  "lon": -0.3545200
},
{
  "type": "node",
  "id": 26025389,
  "lat": 49.1620443,
  "lon": -0.3539235
},
{
  "type": "node",
  "id": 1736475396,
  "lat": 49.1619021,
  "lon": -0.3574150
},
{
  "type": "node",
  "id": 1736475519,
  "lat": 49.1624298,
  "lon": -0.3578107
},
{
  "type": "node",
  "id": 1736475529,
  "lat": 49.1619154,
  "lon": -0.3574185
},
{
  "type": "node",
  "id": 1736475539,
  "lat": 49.1623433,
  "lon": -0.3577717
},
{
  "type": "node",
  "id": 1736475555,
  "lat": 49.1620111,
  "lon": -0.3573208
},
{
  "type": "node",
  "id": 1736475679,
  "lat": 49.1618749,
  "lon": -0.3574158
},
{
  "type": "node",
  "id": 1736475705,
  "lat": 49.1619850,
  "lon": -0.3572854
},
{
  "type": "node",
  "id": 1736475708,
  "lat": 49.1619598,
  "lon": -0.3572153
},
{
  "type": "node",
  "id": 1736475831,
  "lat": 49.1618874,
  "lon": -0.3574146
},
{
  "type": "node",
  "id": 1736475905,
  "lat": 49.1619273,
  "lon": -0.3574249
},
{
  "type": "node",
  "id": 1736476041,
  "lat": 49.1623640,
  "lon": -0.3577121
},
{
  "type": "node",
  "id": 1736476147,
  "lat": 49.1618631,
  "lon": -0.3574206
},
{
  "type": "node",
  "id": 1736476412,
  "lat": 49.1619399,
  "lon": -0.3574344
},
{
  "type": "node",
  "id": 1736476507,
  "lat": 49.1622458,
  "lon": -0.3575733
},
{
  "type": "node",
  "id": 1736476529,
  "lat": 49.1619728,
  "lon": -0.3572621
},
{
  "type": "node",
  "id": 1736477001,
  "lat": 49.1619655,
  "lon": -0.3572434
},
{
  "type": "node",
  "id": 1853124399,
  "lat": 49.1621224,
  "lon": -0.3543167
},
{
  "type": "node",
  "id": 2052464507,
  "lat": 49.1619371,
  "lon": -0.3544421
},
{
  "type": "node",
  "id": 2429903515,
  "lat": 49.1619623,
  "lon": -0.3574520
},
{
  "type": "node",
  "id": 2429908884,
  "lat": 49.1620730,
  "lon": -0.3575457
},
{
  "type": "node",
  "id": 2429908889,
  "lat": 49.1622909,
  "lon": -0.3577279
},
{
  "type": "node",
  "id": 2531089130,
  "lat": 49.1622195,
  "lon": -0.3575448
},
{
  "type": "node",
  "id": 25983964,
  "lat": 49.1621867,
  "lon": -0.3534539
},
{
  "type": "node",
  "id": 25983965,
  "lat": 49.1624169,
  "lon": -0.3524961
},
{
  "type": "node",
  "id": 26025382,
  "lat": 49.1624758,
  "lon": -0.3526297
},
{
  "type": "node",
  "id": 26025383,
  "lat": 49.1622583,
  "lon": -0.3535544
},
{
  "type": "node",
  "id": 26025384,
  "lat": 49.1622210,
  "lon": -0.3538402
},
{
  "type": "node",
  "id": 26305823,
  "lat": 49.1625986,
  "lon": -0.3522039
},
{
  "type": "node",
  "id": 29286884,
  "lat": 49.1624883,
  "lon": -0.3521588
},
{
  "type": "node",
  "id": 1748993457,
  "lat": 49.1622486,
  "lon": -0.3536211
},
{
  "type": "node",
  "id": 1748993461,
  "lat": 49.1622333,
  "lon": -0.3537630
},
{
  "type": "node",
  "id": 1853124498,
  "lat": 49.1629942,
  "lon": -0.3504827
},
{
  "type": "node",
  "id": 1853124535,
  "lat": 49.1630975,
  "lon": -0.3501508
},
{
  "type": "node",
  "id": 1979281821,
  "lat": 49.1629384,
  "lon": -0.3502758
},
{
  "type": "node",
  "id": 2000024896,
  "lat": 49.1624538,
  "lon": -0.3523217
},
{
  "type": "node",
  "id": 2000024897,
  "lat": 49.1625518,
  "lon": -0.3523661
},
{
  "type": "node",
  "id": 2052464509,
  "lat": 49.1620776,
  "lon": -0.3538166
},
{
  "type": "node",
  "id": 2052464511,
  "lat": 49.1622142,
  "lon": -0.3538729
},
{
  "type": "node",
  "id": 2368747543,
  "lat": 49.1625206,
  "lon": -0.3524753
},
{
  "type": "node",
  "id": 7263558627,
  "lat": 49.1629862,
  "lon": -0.3500724
},
{
  "type": "node",
  "id": 8231758168,
  "lat": 49.1625445,
  "lon": -0.3519254
},
{
  "type": "node",
  "id": 8231766564,
  "lat": 49.1626490,
  "lon": -0.3519777
},
{
  "type": "node",
  "id": 8723755276,
  "lat": 49.1627005,
  "lon": -0.3517097
},
{
  "type": "node",
  "id": 26016009,
  "lat": 49.1690413,
  "lon": -0.3653054
},
{
  "type": "node",
  "id": 26016010,
  "lat": 49.1694749,
  "lon": -0.3655372
},
{
  "type": "node",
  "id": 26016011,
  "lat": 49.1697089,
  "lon": -0.3657752
},
{
  "type": "node",
  "id": 26016012,
  "lat": 49.1700511,
  "lon": -0.3662610
},
{
  "type": "node",
  "id": 26016013,
  "lat": 49.1702771,
  "lon": -0.3667269
},
{
  "type": "node",
  "id": 26016014,
  "lat": 49.1703703,
  "lon": -0.3669043
},
{
  "type": "node",
  "id": 1736475617,
  "lat": 49.1687912,
  "lon": -0.3652602
},
{
  "type": "node",
  "id": 1736476963,
  "lat": 49.1687156,
  "lon": -0.3652555
},
{
  "type": "node",
  "id": 1736524278,
  "lat": 49.1696639,
  "lon": -0.3657299
},
{
  "type": "node",
  "id": 1736524304,
  "lat": 49.1701507,
  "lon": -0.3664435
},
{
  "type": "node",
  "id": 1736524323,
  "lat": 49.1695422,
  "lon": -0.3656042
},
{
  "type": "node",
  "id": 1736524326,
  "lat": 49.1698626,
  "lon": -0.3659601
},
{
  "type": "node",
  "id": 1736524346,
  "lat": 49.1702002,
  "lon": -0.3665532
},
{
  "type": "node",
  "id": 1736524363,
  "lat": 49.1692392,
  "lon": -0.3653835
},
{
  "type": "node",
  "id": 1736524368,
  "lat": 49.1699031,
  "lon": -0.3660166
},
{
  "type": "node",
  "id": 1736524407,
  "lat": 49.1693483,
  "lon": -0.3654469
},
{
  "type": "node",
  "id": 1736524411,
  "lat": 49.1696061,
  "lon": -0.3656706
},
{
  "type": "node",
  "id": 1736524451,
  "lat": 49.1691535,
  "lon": -0.3653450
},
{
  "type": "node",
  "id": 1736524532,
  "lat": 49.1698354,
  "lon": -0.3659248
},
{
  "type": "node",
  "id": 3486843212,
  "lat": 49.1685291,
  "lon": -0.3652784
},
{
  "type": "node",
  "id": 3486843213,
  "lat": 49.1689166,
  "lon": -0.3652739
},
{
  "type": "node",
  "id": 7559925702,
  "lat": 49.1697568,
  "lon": -0.3658274
},
{
  "type": "node",
  "id": 7559925703,
  "lat": 49.1697995,
  "lon": -0.3658795
},
{
  "type": "node",
  "id": 7559925704,
  "lat": 49.1699491,
  "lon": -0.3660838
},
{
  "type": "node",
  "id": 25974403,
  "lat": 49.1725501,
  "lon": -0.3545684
},
{
  "type": "node",
  "id": 26019418,
  "lat": 49.1721188,
  "lon": -0.3544970
},
{
  "type": "node",
  "id": 26019419,
  "lat": 49.1719533,
  "lon": -0.3544189
},
{
  "type": "node",
  "id": 26019420,
  "lat": 49.1713279,
  "lon": -0.3539415
},
{
  "type": "node",
  "id": 1268092105,
  "lat": 49.1716548,
  "lon": -0.3542236
},
{
  "type": "node",
  "id": 2361905728,
  "lat": 49.1723386,
  "lon": -0.3545675
},
{
  "type": "node",
  "id": 2984611869,
  "lat": 49.1720348,
  "lon": -0.3544618
},
{
  "type": "node",
  "id": 2984611870,
  "lat": 49.1721862,
  "lon": -0.3545217
},
{
  "type": "node",
  "id": 2984611871,
  "lat": 49.1722479,
  "lon": -0.3545422
},
{
  "type": "node",
  "id": 2984611872,
  "lat": 49.1724599,
  "lon": -0.3545772
},
{
  "type": "node",
  "id": 1735094369,
  "lat": 49.1798939,
  "lon": -0.3633332
},
{
  "type": "node",
  "id": 1735094389,
  "lat": 49.1799275,
  "lon": -0.3633729
},
{
  "type": "node",
  "id": 1735094390,
  "lat": 49.1801320,
  "lon": -0.3636172
},
{
  "type": "node",
  "id": 1735094392,
  "lat": 49.1800058,
  "lon": -0.3634569
},
{
  "type": "node",
  "id": 1993724965,
  "lat": 49.1800775,
  "lon": -0.3635480
},
{
  "type": "node",
  "id": 26019433,
  "lat": 49.1755146,
  "lon": -0.3562379
},
{
  "type": "node",
  "id": 1520896452,
  "lat": 49.1752651,
  "lon": -0.3540875
},
{
  "type": "node",
  "id": 1614951232,
  "lat": 49.1753401,
  "lon": -0.3546218
},
{
  "type": "node",
  "id": 1795288754,
  "lat": 49.1798203,
  "lon": -0.3547262
},
{
  "type": "node",
  "id": 1825809334,
  "lat": 49.1754075,
  "lon": -0.3552559
},
{
  "type": "node",
  "id": 1915156252,
  "lat": 49.1755526,
  "lon": -0.3565807
},
{
  "type": "node",
  "id": 2309413943,
  "lat": 49.1795895,
  "lon": -0.3544731
},
{
  "type": "node",
  "id": 2620904602,
  "lat": 49.1752981,
  "lon": -0.3542023
},
{
  "type": "node",
  "id": 3011921145,
  "lat": 49.1755666,
  "lon": -0.3566340
},
{
  "type": "node",
  "id": 3502893796,
  "lat": 49.1793754,
  "lon": -0.3547918
},
{
  "type": "node",
  "id": 7104227742,
  "lat": 49.1797244,
  "lon": -0.3551747
},
{
  "type": "node",
  "id": 7104227743,
  "lat": 49.1793075,
  "lon": -0.3547183
},
{
  "type": "node",
  "id": 7342697649,
  "lat": 49.1793818,
  "lon": -0.3547996
},
{
  "type": "node",
  "id": 7376292412,
  "lat": 49.1795557,
  "lon": -0.3544373
},
{
  "type": "node",
  "id": 9179653162,
  "lat": 49.1792444,
  "lon": -0.3541039
},
{
  "type": "node",
  "id": 26019417,
  "lat": 49.1704702,
  "lon": -0.3532415
},
{
  "type": "node",
  "id": 26019421,
  "lat": 49.1708424,
  "lon": -0.3535236
},
{
  "type": "node",
  "id": 1744204065,
  "lat": 49.1706757,
  "lon": -0.3533912
},
{
  "type": "node",
  "id": 1904902911,
  "lat": 49.1705909,
  "lon": -0.3533333
},
{
  "type": "node",
  "id": 8206744513,
  "lat": 49.1711470,
  "lon": -0.3537858
},
{
  "type": "node",
  "id": 26120936,
  "lat": 49.1775043,
  "lon": -0.3523723
},
{
  "type": "node",
  "id": 26120937,
  "lat": 49.1765948,
  "lon": -0.3514804
},
{
  "type": "node",
  "id": 1990946429,
  "lat": 49.1792943,
  "lon": -0.3489888
},
{
  "type": "node",
  "id": 1997150748,
  "lat": 49.1780326,
  "lon": -0.3476255
},
{
  "type": "node",
  "id": 2337284560,
  "lat": 49.1769098,
  "lon": -0.3517893
},
{
  "type": "node",
  "id": 2337356230,
  "lat": 49.1769286,
  "lon": -0.3518077
},
{
  "type": "node",
  "id": 2518550655,
  "lat": 49.1786305,
  "lon": -0.3483160
},
{
  "type": "node",
  "id": 4598417917,
  "lat": 49.1766858,
  "lon": -0.3515696
},
{
  "type": "node",
  "id": 4598417954,
  "lat": 49.1786684,
  "lon": -0.3483568
},
{
  "type": "node",
  "id": 4598417955,
  "lat": 49.1787029,
  "lon": -0.3482834
},
{
  "type": "node",
  "id": 4598417956,
  "lat": 49.1790815,
  "lon": -0.3486972
},
{
  "type": "node",
  "id": 4598417957,
  "lat": 49.1781211,
  "lon": -0.3476476
},
{
  "type": "node",
  "id": 4598417958,
  "lat": 49.1780757,
  "lon": -0.3477398
},
{
  "type": "node",
  "id": 4598417960,
  "lat": 49.1790504,
  "lon": -0.3487686
},
{
  "type": "node",
  "id": 4642495934,
  "lat": 49.1786634,
  "lon": -0.3482403
},
{
  "type": "node",
  "id": 5314533026,
  "lat": 49.1792551,
  "lon": -0.3488742
},
{
  "type": "node",
  "id": 6400437481,
  "lat": 49.1791504,
  "lon": -0.3488800
},
{
  "type": "node",
  "id": 6400437482,
  "lat": 49.1791805,
  "lon": -0.3488077
},
{
  "type": "node",
  "id": 6400437484,
  "lat": 49.1791101,
  "lon": -0.3487291
},
{
  "type": "node",
  "id": 6400437585,
  "lat": 49.1790785,
  "lon": -0.3487999
},
{
  "type": "node",
  "id": 6644763095,
  "lat": 49.1791839,
  "lon": -0.3489262
},
{
  "type": "node",
  "id": 6644763096,
  "lat": 49.1792296,
  "lon": -0.3488515
},
{
  "type": "node",
  "id": 6644763100,
  "lat": 49.1792078,
  "lon": -0.3489592
},
{
  "type": "node",
  "id": 7271593219,
  "lat": 49.1791284,
  "lon": -0.3487496
},
{
  "type": "node",
  "id": 7271593220,
  "lat": 49.1790965,
  "lon": -0.3488199
},
{
  "type": "node",
  "id": 8206736544,
  "lat": 49.1773169,
  "lon": -0.3521885
},
{
  "type": "node",
  "id": 9003607815,
  "lat": 49.1780921,
  "lon": -0.3477568
},
{
  "type": "node",
  "id": 26525746,
  "lat": 49.1868414,
  "lon": -0.3594710
},
{
  "type": "node",
  "id": 26525747,
  "lat": 49.1870092,
  "lon": -0.3592589
},
{
  "type": "node",
  "id": 26525748,
  "lat": 49.1872670,
  "lon": -0.3586391
},
{
  "type": "node",
  "id": 301088559,
  "lat": 49.1871869,
  "lon": -0.3588935
},
{
  "type": "node",
  "id": 301088565,
  "lat": 49.1866140,
  "lon": -0.3596719
},
{
  "type": "node",
  "id": 2366376987,
  "lat": 49.1867386,
  "lon": -0.3595543
},
{
  "type": "node",
  "id": 2461463093,
  "lat": 49.1865416,
  "lon": -0.3597397
},
{
  "type": "node",
  "id": 7426835916,
  "lat": 49.1866155,
  "lon": -0.3596705
},
{
  "type": "node",
  "id": 26019466,
  "lat": 49.1911118,
  "lon": -0.3572042
},
{
  "type": "node",
  "id": 26019467,
  "lat": 49.1913164,
  "lon": -0.3573372
},
{
  "type": "node",
  "id": 26019468,
  "lat": 49.1915681,
  "lon": -0.3573904
},
{
  "type": "node",
  "id": 26019470,
  "lat": 49.1926317,
  "lon": -0.3572215
},
{
  "type": "node",
  "id": 26019472,
  "lat": 49.1931702,
  "lon": -0.3569151
},
{
  "type": "node",
  "id": 26019473,
  "lat": 49.1934515,
  "lon": -0.3567080
},
{
  "type": "node",
  "id": 26290394,
  "lat": 49.1945820,
  "lon": -0.3565192
},
{
  "type": "node",
  "id": 26290396,
  "lat": 49.1942923,
  "lon": -0.3571534
},
{
  "type": "node",
  "id": 114203847,
  "lat": 49.1925240,
  "lon": -0.3572466
},
{
  "type": "node",
  "id": 266647161,
  "lat": 49.1944024,
  "lon": -0.3569411
},
{
  "type": "node",
  "id": 1747876341,
  "lat": 49.1913553,
  "lon": -0.3573543
},
{
  "type": "node",
  "id": 1747876499,
  "lat": 49.1913986,
  "lon": -0.3573687
},
{
  "type": "node",
  "id": 1747876653,
  "lat": 49.1914565,
  "lon": -0.3573798
},
{
  "type": "node",
  "id": 1978088441,
  "lat": 49.1929936,
  "lon": -0.3570188
},
{
  "type": "node",
  "id": 1983941699,
  "lat": 49.1912101,
  "lon": -0.3572666
},
{
  "type": "node",
  "id": 1983941704,
  "lat": 49.1915100,
  "lon": -0.3573877
},
{
  "type": "node",
  "id": 1983941709,
  "lat": 49.1916493,
  "lon": -0.3573844
},
{
  "type": "node",
  "id": 1983941714,
  "lat": 49.1922843,
  "lon": -0.3573126
},
{
  "type": "node",
  "id": 1983941755,
  "lat": 49.1936234,
  "lon": -0.3565271
},
{
  "type": "node",
  "id": 8210138155,
  "lat": 49.1925976,
  "lon": -0.3572294
},
{
  "type": "node",
  "id": 8210184721,
  "lat": 49.1943633,
  "lon": -0.3570278
},
{
  "type": "node",
  "id": 25974156,
  "lat": 49.1831523,
  "lon": -0.3526657
},
{
  "type": "node",
  "id": 2034720360,
  "lat": 49.1831049,
  "lon": -0.3527332
},
{
  "type": "node",
  "id": 2034720363,
  "lat": 49.1833239,
  "lon": -0.3524353
},
{
  "type": "node",
  "id": 2075957595,
  "lat": 49.1830805,
  "lon": -0.3527704
},
{
  "type": "node",
  "id": 2167202269,
  "lat": 49.1830144,
  "lon": -0.3523980
},
{
  "type": "node",
  "id": 2428170656,
  "lat": 49.1829467,
  "lon": -0.3522676
},
{
  "type": "node",
  "id": 26544386,
  "lat": 49.1744305,
  "lon": -0.3371302
},
{
  "type": "node",
  "id": 26544389,
  "lat": 49.1741616,
  "lon": -0.3363280
},
{
  "type": "node",
  "id": 256747958,
  "lat": 49.1744959,
  "lon": -0.3351412
},
{
  "type": "node",
  "id": 1669922405,
  "lat": 49.1746352,
  "lon": -0.3376866
},
{
  "type": "node",
  "id": 1669922421,
  "lat": 49.1745901,
  "lon": -0.3377648
},
{
  "type": "node",
  "id": 1690728819,
  "lat": 49.1747145,
  "lon": -0.3376241
},
{
  "type": "node",
  "id": 1692113553,
  "lat": 49.1744825,
  "lon": -0.3350321
},
{
  "type": "node",
  "id": 1732801753,
  "lat": 49.1745344,
  "lon": -0.3380261
},
{
  "type": "node",
  "id": 1744160816,
  "lat": 49.1747398,
  "lon": -0.3373594
},
{
  "type": "node",
  "id": 1979475902,
  "lat": 49.1738626,
  "lon": -0.3354305
},
{
  "type": "node",
  "id": 1979475903,
  "lat": 49.1740338,
  "lon": -0.3359414
},
{
  "type": "node",
  "id": 2053008019,
  "lat": 49.1747792,
  "lon": -0.3375572
},
{
  "type": "node",
  "id": 2457898374,
  "lat": 49.1739594,
  "lon": -0.3357162
},
{
  "type": "node",
  "id": 2530524041,
  "lat": 49.1747285,
  "lon": -0.3372845
},
{
  "type": "node",
  "id": 2705389193,
  "lat": 49.1739885,
  "lon": -0.3358042
},
{
  "type": "node",
  "id": 5224836855,
  "lat": 49.1742290,
  "lon": -0.3365298
},
{
  "type": "node",
  "id": 8222612221,
  "lat": 49.1734789,
  "lon": -0.3342623
},
{
  "type": "node",
  "id": 26025311,
  "lat": 49.1728645,
  "lon": -0.3324031
},
{
  "type": "node",
  "id": 256747943,
  "lat": 49.1743534,
  "lon": -0.3339458
},
{
  "type": "node",
  "id": 1692113538,
  "lat": 49.1742141,
  "lon": -0.3328019
},
{
  "type": "node",
  "id": 1692113539,
  "lat": 49.1742368,
  "lon": -0.3329769
},
{
  "type": "node",
  "id": 1936828572,
  "lat": 49.1743268,
  "lon": -0.3337337
},
{
  "type": "node",
  "id": 2054034046,
  "lat": 49.1729324,
  "lon": -0.3326085
},
{
  "type": "node",
  "id": 25974959,
  "lat": 49.2005623,
  "lon": -0.3956689
},
{
  "type": "node",
  "id": 25974960,
  "lat": 49.2007310,
  "lon": -0.3952917
},
{
  "type": "node",
  "id": 25974962,
  "lat": 49.2010407,
  "lon": -0.3955649
},
{
  "type": "node",
  "id": 26081321,
  "lat": 49.2011158,
  "lon": -0.3952367
},
{
  "type": "node",
  "id": 26269073,
  "lat": 49.1965150,
  "lon": -0.3966228
},
{
  "type": "node",
  "id": 26269083,
  "lat": 49.1962465,
  "lon": -0.3965053
},
{
  "type": "node",
  "id": 26269085,
  "lat": 49.1957023,
  "lon": -0.3961565
},
{
  "type": "node",
  "id": 26545307,
  "lat": 49.1975440,
  "lon": -0.3969096
},
{
  "type": "node",
  "id": 26545308,
  "lat": 49.1967875,
  "lon": -0.3967392
},
{
  "type": "node",
  "id": 26545309,
  "lat": 49.1948577,
  "lon": -0.3954782
},
{
  "type": "node",
  "id": 289451297,
  "lat": 49.1948708,
  "lon": -0.3953231
},
{
  "type": "node",
  "id": 289451299,
  "lat": 49.1956979,
  "lon": -0.3960230
},
{
  "type": "node",
  "id": 289451301,
  "lat": 49.1962336,
  "lon": -0.3963330
},
{
  "type": "node",
  "id": 289451303,
  "lat": 49.1966170,
  "lon": -0.3965022
},
{
  "type": "node",
  "id": 289451305,
  "lat": 49.1970277,
  "lon": -0.3966376
},
{
  "type": "node",
  "id": 289451307,
  "lat": 49.1975928,
  "lon": -0.3967295
},
{
  "type": "node",
  "id": 289451310,
  "lat": 49.1982291,
  "lon": -0.3967457
},
{
  "type": "node",
  "id": 289451312,
  "lat": 49.1988867,
  "lon": -0.3966404
},
{
  "type": "node",
  "id": 289451314,
  "lat": 49.1997928,
  "lon": -0.3962849
},
{
  "type": "node",
  "id": 289451316,
  "lat": 49.2005122,
  "lon": -0.3957574
},
{
  "type": "node",
  "id": 298956619,
  "lat": 49.1972683,
  "lon": -0.3966913
},
{
  "type": "node",
  "id": 298956634,
  "lat": 49.1946787,
  "lon": -0.3951967
},
{
  "type": "node",
  "id": 1240316207,
  "lat": 49.2006329,
  "lon": -0.3957114
},
{
  "type": "node",
  "id": 1240316302,
  "lat": 49.2007357,
  "lon": -0.3958738
},
{
  "type": "node",
  "id": 1240316377,
  "lat": 49.2008214,
  "lon": -0.3952538
},
{
  "type": "node",
  "id": 1240316504,
  "lat": 49.2006409,
  "lon": -0.3954233
},
{
  "type": "node",
  "id": 1240316591,
  "lat": 49.2010179,
  "lon": -0.3954324
},
{
  "type": "node",
  "id": 1240316634,
  "lat": 49.2006168,
  "lon": -0.3955349
},
{
  "type": "node",
  "id": 1240316694,
  "lat": 49.2009675,
  "lon": -0.3953335
},
{
  "type": "node",
  "id": 1565952165,
  "lat": 49.2009121,
  "lon": -0.3952803
},
{
  "type": "node",
  "id": 1566150853,
  "lat": 49.1980282,
  "lon": -0.3969303
},
{
  "type": "node",
  "id": 1600982637,
  "lat": 49.1983980,
  "lon": -0.3968989
},
{
  "type": "node",
  "id": 1859737815,
  "lat": 49.1958739,
  "lon": -0.3961350
},
{
  "type": "node",
  "id": 1968471744,
  "lat": 49.1979305,
  "lon": -0.3967541
},
{
  "type": "node",
  "id": 2038494678,
  "lat": 49.1947264,
  "lon": -0.3953813
},
{
  "type": "node",
  "id": 2038494684,
  "lat": 49.1947732,
  "lon": -0.3952559
},
{
  "type": "node",
  "id": 2038494739,
  "lat": 49.1951158,
  "lon": -0.3955330
},
{
  "type": "node",
  "id": 2038494746,
  "lat": 49.1952387,
  "lon": -0.3958051
},
{
  "type": "node",
  "id": 2038494809,
  "lat": 49.1964271,
  "lon": -0.3964261
},
{
  "type": "node",
  "id": 2038494835,
  "lat": 49.1966568,
  "lon": -0.3966827
},
{
  "type": "node",
  "id": 2038494844,
  "lat": 49.1972159,
  "lon": -0.3966762
},
{
  "type": "node",
  "id": 2038494870,
  "lat": 49.1980776,
  "lon": -0.3967530
},
{
  "type": "node",
  "id": 2038494878,
  "lat": 49.1985573,
  "lon": -0.3967072
},
{
  "type": "node",
  "id": 2054579386,
  "lat": 49.1960777,
  "lon": -0.3964107
},
{
  "type": "node",
  "id": 2054579392,
  "lat": 49.1960768,
  "lon": -0.3962678
},
{
  "type": "node",
  "id": 2161359606,
  "lat": 49.2006744,
  "lon": -0.3953535
},
{
  "type": "node",
  "id": 2162834551,
  "lat": 49.2006176,
  "lon": -0.3956330
},
{
  "type": "node",
  "id": 2162834556,
  "lat": 49.2006496,
  "lon": -0.3957586
},
{
  "type": "node",
  "id": 2162834558,
  "lat": 49.2006728,
  "lon": -0.3958036
},
{
  "type": "node",
  "id": 2162834560,
  "lat": 49.2007040,
  "lon": -0.3958452
},
{
  "type": "node",
  "id": 2162834568,
  "lat": 49.2007760,
  "lon": -0.3952635
},
{
  "type": "node",
  "id": 2162834578,
  "lat": 49.2008676,
  "lon": -0.3952594
},
{
  "type": "node",
  "id": 2162834595,
  "lat": 49.2009360,
  "lon": -0.3952988
},
{
  "type": "node",
  "id": 2162834605,
  "lat": 49.2009949,
  "lon": -0.3953824
},
{
  "type": "node",
  "id": 2162834613,
  "lat": 49.2010338,
  "lon": -0.3954966
},
{
  "type": "node",
  "id": 2578407780,
  "lat": 49.1982921,
  "lon": -0.3967383
},
{
  "type": "node",
  "id": 5752632038,
  "lat": 49.1949671,
  "lon": -0.3955712
},
{
  "type": "node",
  "id": 5752632040,
  "lat": 49.1949994,
  "lon": -0.3954337
},
{
  "type": "node",
  "id": 5805219996,
  "lat": 49.1970400,
  "lon": -0.3968173
},
{
  "type": "node",
  "id": 6299183312,
  "lat": 49.1973093,
  "lon": -0.3968905
},
{
  "type": "node",
  "id": 6299183313,
  "lat": 49.1978632,
  "lon": -0.3969334
},
{
  "type": "node",
  "id": 26081322,
  "lat": 49.2015969,
  "lon": -0.3947676
},
{
  "type": "node",
  "id": 26081323,
  "lat": 49.2019534,
  "lon": -0.3942632
},
{
  "type": "node",
  "id": 26081324,
  "lat": 49.2022962,
  "lon": -0.3936597
},
{
  "type": "node",
  "id": 1968471754,
  "lat": 49.2013571,
  "lon": -0.3950271
},
{
  "type": "node",
  "id": 1968471755,
  "lat": 49.2014845,
  "lon": -0.3949055
},
{
  "type": "node",
  "id": 1968471757,
  "lat": 49.2015544,
  "lon": -0.3948198
},
{
  "type": "node",
  "id": 2045194654,
  "lat": 49.2024329,
  "lon": -0.3933818
},
{
  "type": "node",
  "id": 30422214,
  "lat": 49.1981931,
  "lon": -0.3831099
},
{
  "type": "node",
  "id": 1240316430,
  "lat": 49.1982910,
  "lon": -0.3833122
},
{
  "type": "node",
  "id": 1978088820,
  "lat": 49.1985113,
  "lon": -0.3828520
},
{
  "type": "node",
  "id": 1978088822,
  "lat": 49.1984808,
  "lon": -0.3825212
},
{
  "type": "node",
  "id": 1978088847,
  "lat": 49.1983031,
  "lon": -0.3828897
},
{
  "type": "node",
  "id": 1978088865,
  "lat": 49.1984234,
  "lon": -0.3830324
},
{
  "type": "node",
  "id": 2051417191,
  "lat": 49.1992204,
  "lon": -0.3809693
},
{
  "type": "node",
  "id": 2051417192,
  "lat": 49.1992466,
  "lon": -0.3809158
},
{
  "type": "node",
  "id": 2051417196,
  "lat": 49.1993136,
  "lon": -0.3807731
},
{
  "type": "node",
  "id": 2051417197,
  "lat": 49.1993171,
  "lon": -0.3811474
},
{
  "type": "node",
  "id": 2051417199,
  "lat": 49.1993673,
  "lon": -0.3810409
},
{
  "type": "node",
  "id": 2051417200,
  "lat": 49.1994302,
  "lon": -0.3809081
},
{
  "type": "node",
  "id": 3056999449,
  "lat": 49.1992994,
  "lon": -0.3808032
},
{
  "type": "node",
  "id": 8582511210,
  "lat": 49.1991947,
  "lon": -0.3810233
},
{
  "type": "node",
  "id": 26081325,
  "lat": 49.2025435,
  "lon": -0.3930878
},
{
  "type": "node",
  "id": 26081326,
  "lat": 49.2026952,
  "lon": -0.3926301
},
{
  "type": "node",
  "id": 26081327,
  "lat": 49.2028190,
  "lon": -0.3921073
},
{
  "type": "node",
  "id": 26081328,
  "lat": 49.2028214,
  "lon": -0.3918322
},
{
  "type": "node",
  "id": 26081329,
  "lat": 49.2027188,
  "lon": -0.3915912
},
{
  "type": "node",
  "id": 26081330,
  "lat": 49.2027774,
  "lon": -0.3911720
},
{
  "type": "node",
  "id": 26081331,
  "lat": 49.2029902,
  "lon": -0.3910020
},
{
  "type": "node",
  "id": 26081333,
  "lat": 49.2031654,
  "lon": -0.3910620
},
{
  "type": "node",
  "id": 26081334,
  "lat": 49.2032894,
  "lon": -0.3912651
},
{
  "type": "node",
  "id": 26081335,
  "lat": 49.2033174,
  "lon": -0.3915275
},
{
  "type": "node",
  "id": 26081337,
  "lat": 49.2030301,
  "lon": -0.3919360
},
{
  "type": "node",
  "id": 271312909,
  "lat": 49.2032782,
  "lon": -0.3917042
},
{
  "type": "node",
  "id": 1240316356,
  "lat": 49.2027150,
  "lon": -0.3913701
},
{
  "type": "node",
  "id": 1711135586,
  "lat": 49.2029100,
  "lon": -0.3910284
},
{
  "type": "node",
  "id": 1968471762,
  "lat": 49.2027898,
  "lon": -0.3922307
},
{
  "type": "node",
  "id": 2022940894,
  "lat": 49.2027577,
  "lon": -0.3917241
},
{
  "type": "node",
  "id": 2022940904,
  "lat": 49.2029195,
  "lon": -0.3919137
},
{
  "type": "node",
  "id": 2022940907,
  "lat": 49.2030807,
  "lon": -0.3910118
},
{
  "type": "node",
  "id": 2022940923,
  "lat": 49.2032336,
  "lon": -0.3911428
},
{
  "type": "node",
  "id": 2022940926,
  "lat": 49.2033189,
  "lon": -0.3914338
},
{
  "type": "node",
  "id": 2045897317,
  "lat": 49.2027083,
  "lon": -0.3914810
},
{
  "type": "node",
  "id": 2045897318,
  "lat": 49.2027387,
  "lon": -0.3912648
},
{
  "type": "node",
  "id": 2045897319,
  "lat": 49.2028287,
  "lon": -0.3919061
},
{
  "type": "node",
  "id": 2045897320,
  "lat": 49.2028307,
  "lon": -0.3919670
},
{
  "type": "node",
  "id": 2045897321,
  "lat": 49.2028316,
  "lon": -0.3920278
},
{
  "type": "node",
  "id": 2045897323,
  "lat": 49.2028374,
  "lon": -0.3910865
},
{
  "type": "node",
  "id": 2045897324,
  "lat": 49.2028680,
  "lon": -0.3918799
},
{
  "type": "node",
  "id": 2045897326,
  "lat": 49.2029741,
  "lon": -0.3919326
},
{
  "type": "node",
  "id": 2045897329,
  "lat": 49.2033036,
  "lon": -0.3916189
},
{
  "type": "node",
  "id": 7793546066,
  "lat": 49.2033093,
  "lon": -0.3913473
},
{
  "type": "node",
  "id": 30422386,
  "lat": 49.2006599,
  "lon": -0.3778095
},
{
  "type": "node",
  "id": 30422387,
  "lat": 49.2006059,
  "lon": -0.3778356
},
{
  "type": "node",
  "id": 30422388,
  "lat": 49.2005255,
  "lon": -0.3779546
},
{
  "type": "node",
  "id": 30422389,
  "lat": 49.2005067,
  "lon": -0.3780363
},
{
  "type": "node",
  "id": 30422390,
  "lat": 49.2005204,
  "lon": -0.3782062
},
{
  "type": "node",
  "id": 30422391,
  "lat": 49.2005878,
  "lon": -0.3783250
},
{
  "type": "node",
  "id": 30422393,
  "lat": 49.2006777,
  "lon": -0.3783696
},
{
  "type": "node",
  "id": 30422394,
  "lat": 49.2007681,
  "lon": -0.3783418
},
{
  "type": "node",
  "id": 30422395,
  "lat": 49.2008419,
  "lon": -0.3782423
},
{
  "type": "node",
  "id": 30422396,
  "lat": 49.2008669,
  "lon": -0.3780233
},
{
  "type": "node",
  "id": 30422397,
  "lat": 49.2007929,
  "lon": -0.3778568
},
{
  "type": "node",
  "id": 30422398,
  "lat": 49.2007165,
  "lon": -0.3778097
},
{
  "type": "node",
  "id": 30422399,
  "lat": 49.2008483,
  "lon": -0.3779501
},
{
  "type": "node",
  "id": 30422400,
  "lat": 49.2005049,
  "lon": -0.3781229
},
{
  "type": "node",
  "id": 30422403,
  "lat": 49.2008632,
  "lon": -0.3781737
},
{
  "type": "node",
  "id": 30422404,
  "lat": 49.2008094,
  "lon": -0.3782997
},
{
  "type": "node",
  "id": 30422412,
  "lat": 49.2003218,
  "lon": -0.3790311
},
{
  "type": "node",
  "id": 107476352,
  "lat": 49.2010407,
  "lon": -0.3771108
},
{
  "type": "node",
  "id": 266647108,
  "lat": 49.2011305,
  "lon": -0.3769206
},
{
  "type": "node",
  "id": 495991213,
  "lat": 49.2008717,
  "lon": -0.3780989
},
{
  "type": "node",
  "id": 1735282700,
  "lat": 49.2005596,
  "lon": -0.3778856
},
{
  "type": "node",
  "id": 1735282820,
  "lat": 49.2006350,
  "lon": -0.3783582
},
{
  "type": "node",
  "id": 1735283679,
  "lat": 49.2007209,
  "lon": -0.3783654
},
{
  "type": "node",
  "id": 1978088810,
  "lat": 49.2001166,
  "lon": -0.3794561
},
{
  "type": "node",
  "id": 1978088813,
  "lat": 49.2002847,
  "lon": -0.3787072
},
{
  "type": "node",
  "id": 2051417220,
  "lat": 49.2004350,
  "lon": -0.3783876
},
{
  "type": "node",
  "id": 2051417226,
  "lat": 49.2005617,
  "lon": -0.3785169
},
{
  "type": "node",
  "id": 5304584024,
  "lat": 49.2007966,
  "lon": -0.3776367
},
{
  "type": "node",
  "id": 5304584027,
  "lat": 49.2009305,
  "lon": -0.3777760
},
{
  "type": "node",
  "id": 7793060064,
  "lat": 49.2005486,
  "lon": -0.3782729
},
{
  "type": "node",
  "id": 7793060065,
  "lat": 49.2007564,
  "lon": -0.3778266
},
{
  "type": "node",
  "id": 7793060066,
  "lat": 49.2008240,
  "lon": -0.3778986
},
{
  "type": "node",
  "id": 8582544699,
  "lat": 49.1999368,
  "lon": -0.3798365
},
{
  "type": "node",
  "id": 8582544700,
  "lat": 49.1998209,
  "lon": -0.3796938
},
{
  "type": "node",
  "id": 9001911787,
  "lat": 49.2005051,
  "lon": -0.3781131
},
{
  "type": "node",
  "id": 99144360,
  "lat": 49.2022481,
  "lon": -0.3744307
},
{
  "type": "node",
  "id": 107476342,
  "lat": 49.2012780,
  "lon": -0.3770404
},
{
  "type": "node",
  "id": 107476345,
  "lat": 49.2015818,
  "lon": -0.3764136
},
{
  "type": "node",
  "id": 107476346,
  "lat": 49.2020404,
  "lon": -0.3756318
},
{
  "type": "node",
  "id": 107476357,
  "lat": 49.2013047,
  "lon": -0.3765436
},
{
  "type": "node",
  "id": 107476364,
  "lat": 49.2016218,
  "lon": -0.3759096
},
{
  "type": "node",
  "id": 107476367,
  "lat": 49.2020209,
  "lon": -0.3750309
},
{
  "type": "node",
  "id": 107476381,
  "lat": 49.2020094,
  "lon": -0.3749187
},
{
  "type": "node",
  "id": 107476386,
  "lat": 49.2020106,
  "lon": -0.3747013
},
{
  "type": "node",
  "id": 107476395,
  "lat": 49.2021147,
  "lon": -0.3745088
},
{
  "type": "node",
  "id": 107476397,
  "lat": 49.2022026,
  "lon": -0.3744433
},
{
  "type": "node",
  "id": 259055954,
  "lat": 49.2014566,
  "lon": -0.3767042
},
{
  "type": "node",
  "id": 316745757,
  "lat": 49.2034392,
  "lon": -0.3747726
},
{
  "type": "node",
  "id": 316745758,
  "lat": 49.2033838,
  "lon": -0.3751408
},
{
  "type": "node",
  "id": 316745762,
  "lat": 49.2047480,
  "lon": -0.3755721
},
{
  "type": "node",
  "id": 316745763,
  "lat": 49.2026459,
  "lon": -0.3751811
},
{
  "type": "node",
  "id": 1966739076,
  "lat": 49.2039410,
  "lon": -0.3753149
},
{
  "type": "node",
  "id": 1966739078,
  "lat": 49.2030116,
  "lon": -0.3750969
},
{
  "type": "node",
  "id": 1966739083,
  "lat": 49.2024780,
  "lon": -0.3752768
},
{
  "type": "node",
  "id": 1966739085,
  "lat": 49.2023559,
  "lon": -0.3753599
},
{
  "type": "node",
  "id": 1966739086,
  "lat": 49.2022473,
  "lon": -0.3754533
},
{
  "type": "node",
  "id": 1966739099,
  "lat": 49.2025668,
  "lon": -0.3744843
},
{
  "type": "node",
  "id": 1966739101,
  "lat": 49.2027049,
  "lon": -0.3745222
},
{
  "type": "node",
  "id": 1966739103,
  "lat": 49.2030047,
  "lon": -0.3746090
},
{
  "type": "node",
  "id": 1966739105,
  "lat": 49.2042014,
  "lon": -0.3751265
},
{
  "type": "node",
  "id": 1966739107,
  "lat": 49.2045713,
  "lon": -0.3753523
},
{
  "type": "node",
  "id": 1983512626,
  "lat": 49.2045723,
  "lon": -0.3755688
},
{
  "type": "node",
  "id": 1999698040,
  "lat": 49.2020585,
  "lon": -0.3745945
},
{
  "type": "node",
  "id": 1999698043,
  "lat": 49.2021561,
  "lon": -0.3744685
},
{
  "type": "node",
  "id": 1999698056,
  "lat": 49.2023261,
  "lon": -0.3744321
},
{
  "type": "node",
  "id": 1999698060,
  "lat": 49.2024060,
  "lon": -0.3744478
},
{
  "type": "node",
  "id": 1999698074,
  "lat": 49.2028307,
  "lon": -0.3751193
},
{
  "type": "node",
  "id": 2051417242,
  "lat": 49.2032142,
  "lon": -0.3751102
},
{
  "type": "node",
  "id": 2051417245,
  "lat": 49.2035993,
  "lon": -0.3751876
},
{
  "type": "node",
  "id": 2051417378,
  "lat": 49.2057909,
  "lon": -0.3763220
},
{
  "type": "node",
  "id": 2723944008,
  "lat": 49.2018313,
  "lon": -0.3754740
},
{
  "type": "node",
  "id": 5642588741,
  "lat": 49.2050391,
  "lon": -0.3758041
},
{
  "type": "node",
  "id": 8210186105,
  "lat": 49.2012514,
  "lon": -0.3766589
},
{
  "type": "node",
  "id": 8210188628,
  "lat": 49.2014106,
  "lon": -0.3767907
},
{
  "type": "node",
  "id": 9083772048,
  "lat": 49.2051442,
  "lon": -0.3758781
},
{
  "type": "node",
  "id": 338873210,
  "lat": 49.2083390,
  "lon": -0.3777873
},
{
  "type": "node",
  "id": 2051417457,
  "lat": 49.2080873,
  "lon": -0.3784335
},
{
  "type": "node",
  "id": 2051417477,
  "lat": 49.2085567,
  "lon": -0.3771561
},
{
  "type": "node",
  "id": 3673068671,
  "lat": 49.2083783,
  "lon": -0.3776774
},
{
  "type": "node",
  "id": 5313649164,
  "lat": 49.2080350,
  "lon": -0.3784739
},
{
  "type": "node",
  "id": 5313649165,
  "lat": 49.2078789,
  "lon": -0.3788154
},
{
  "type": "node",
  "id": 26001278,
  "lat": 49.1985723,
  "lon": -0.3606610
},
{
  "type": "node",
  "id": 26001281,
  "lat": 49.1984998,
  "lon": -0.3617973
},
{
  "type": "node",
  "id": 26001283,
  "lat": 49.1984775,
  "lon": -0.3628386
},
{
  "type": "node",
  "id": 26001285,
  "lat": 49.1984713,
  "lon": -0.3632783
},
{
  "type": "node",
  "id": 26001286,
  "lat": 49.1984674,
  "lon": -0.3638525
},
{
  "type": "node",
  "id": 266647135,
  "lat": 49.1983764,
  "lon": -0.3637996
},
{
  "type": "node",
  "id": 266647139,
  "lat": 49.1983897,
  "lon": -0.3627855
},
{
  "type": "node",
  "id": 266647144,
  "lat": 49.1983877,
  "lon": -0.3617910
},
{
  "type": "node",
  "id": 266647146,
  "lat": 49.1984134,
  "lon": -0.3610838
},
{
  "type": "node",
  "id": 266647147,
  "lat": 49.1983976,
  "lon": -0.3608610
},
{
  "type": "node",
  "id": 1616969819,
  "lat": 49.1983861,
  "lon": -0.3606457
},
{
  "type": "node",
  "id": 1616969821,
  "lat": 49.1985383,
  "lon": -0.3609054
},
{
  "type": "node",
  "id": 1898349314,
  "lat": 49.1983863,
  "lon": -0.3606950
},
{
  "type": "node",
  "id": 1898349336,
  "lat": 49.1985172,
  "lon": -0.3611657
},
{
  "type": "node",
  "id": 1898349338,
  "lat": 49.1985023,
  "lon": -0.3617156
},
{
  "type": "node",
  "id": 1898349340,
  "lat": 49.1984955,
  "lon": -0.3619352
},
{
  "type": "node",
  "id": 1898349391,
  "lat": 49.1983851,
  "lon": -0.3619280
},
{
  "type": "node",
  "id": 1898349393,
  "lat": 49.1983981,
  "lon": -0.3616974
},
{
  "type": "node",
  "id": 2407393821,
  "lat": 49.1983965,
  "lon": -0.3621616
},
{
  "type": "node",
  "id": 2407393822,
  "lat": 49.1983790,
  "lon": -0.3630944
},
{
  "type": "node",
  "id": 4936955168,
  "lat": 49.1984691,
  "lon": -0.3636063
},
{
  "type": "node",
  "id": 5293472331,
  "lat": 49.1983900,
  "lon": -0.3607294
},
{
  "type": "node",
  "id": 5694405410,
  "lat": 49.1985088,
  "lon": -0.3615010
},
{
  "type": "node",
  "id": 6535722571,
  "lat": 49.1985667,
  "lon": -0.3607045
},
{
  "type": "node",
  "id": 8215001379,
  "lat": 49.1983755,
  "lon": -0.3630182
},
{
  "type": "node",
  "id": 8215045217,
  "lat": 49.1984863,
  "lon": -0.3630325
},
{
  "type": "node",
  "id": 8691496501,
  "lat": 49.1983851,
  "lon": -0.3632009
},
{
  "type": "node",
  "id": 8691496502,
  "lat": 49.1984829,
  "lon": -0.3621420
},
{
  "type": "node",
  "id": 9357692672,
  "lat": 49.1983912,
  "lon": -0.3605285
},
{
  "type": "node",
  "id": 26001255,
  "lat": 49.1998474,
  "lon": -0.3540292
},
{
  "type": "node",
  "id": 26001256,
  "lat": 49.1997188,
  "lon": -0.3545398
},
{
  "type": "node",
  "id": 26001260,
  "lat": 49.1989379,
  "lon": -0.3567445
},
{
  "type": "node",
  "id": 26001261,
  "lat": 49.1988223,
  "lon": -0.3571619
},
{
  "type": "node",
  "id": 26001264,
  "lat": 49.1987262,
  "lon": -0.3575782
},
{
  "type": "node",
  "id": 26001265,
  "lat": 49.1985954,
  "lon": -0.3583715
},
{
  "type": "node",
  "id": 26001267,
  "lat": 49.1985447,
  "lon": -0.3590201
},
{
  "type": "node",
  "id": 26001273,
  "lat": 49.1986026,
  "lon": -0.3600162
},
{
  "type": "node",
  "id": 26019476,
  "lat": 49.1946274,
  "lon": -0.3559728
},
{
  "type": "node",
  "id": 26019477,
  "lat": 49.1950025,
  "lon": -0.3557854
},
{
  "type": "node",
  "id": 26019484,
  "lat": 49.1981133,
  "lon": -0.3541354
},
{
  "type": "node",
  "id": 26171456,
  "lat": 49.1962068,
  "lon": -0.3600468
},
{
  "type": "node",
  "id": 26209312,
  "lat": 49.1966964,
  "lon": -0.3600971
},
{
  "type": "node",
  "id": 26290393,
  "lat": 49.1947719,
  "lon": -0.3561436
},
{
  "type": "node",
  "id": 26525804,
  "lat": 49.2004562,
  "lon": -0.3590485
},
{
  "type": "node",
  "id": 26525805,
  "lat": 49.1999198,
  "lon": -0.3588364
},
{
  "type": "node",
  "id": 26525806,
  "lat": 49.1995892,
  "lon": -0.3587760
},
{
  "type": "node",
  "id": 146168596,
  "lat": 49.1964386,
  "lon": -0.3600740
},
{
  "type": "node",
  "id": 266647148,
  "lat": 49.1983909,
  "lon": -0.3604334
},
{
  "type": "node",
  "id": 266647152,
  "lat": 49.1985516,
  "lon": -0.3587187
},
{
  "type": "node",
  "id": 1616969729,
  "lat": 49.1948180,
  "lon": -0.3558695
},
{
  "type": "node",
  "id": 1616969734,
  "lat": 49.1963228,
  "lon": -0.3600631
},
{
  "type": "node",
  "id": 1616969757,
  "lat": 49.1971567,
  "lon": -0.3602063
},
{
  "type": "node",
  "id": 1686166379,
  "lat": 49.1997780,
  "lon": -0.3539712
},
{
  "type": "node",
  "id": 1686166380,
  "lat": 49.1998211,
  "lon": -0.3543054
},
{
  "type": "node",
  "id": 1686166386,
  "lat": 49.1997447,
  "lon": -0.3543386
},
{
  "type": "node",
  "id": 1686166395,
  "lat": 49.1997605,
  "lon": -0.3542045
},
{
  "type": "node",
  "id": 1853847045,
  "lat": 49.1985398,
  "lon": -0.3592317
},
{
  "type": "node",
  "id": 1853847048,
  "lat": 49.1986764,
  "lon": -0.3584121
},
{
  "type": "node",
  "id": 1853847053,
  "lat": 49.1986130,
  "lon": -0.3594676
},
{
  "type": "node",
  "id": 1853847054,
  "lat": 49.1986059,
  "lon": -0.3598740
},
{
  "type": "node",
  "id": 1853847055,
  "lat": 49.1990388,
  "lon": -0.3564882
},
{
  "type": "node",
  "id": 1853847056,
  "lat": 49.1989728,
  "lon": -0.3567608
},
{
  "type": "node",
  "id": 1853847057,
  "lat": 49.1988734,
  "lon": -0.3572031
},
{
  "type": "node",
  "id": 1853847058,
  "lat": 49.1987467,
  "lon": -0.3579022
},
{
  "type": "node",
  "id": 1853847059,
  "lat": 49.1986536,
  "lon": -0.3586623
},
{
  "type": "node",
  "id": 1853847060,
  "lat": 49.1986493,
  "lon": -0.3587064
},
{
  "type": "node",
  "id": 1907920755,
  "lat": 49.1982154,
  "lon": -0.3540884
},
{
  "type": "node",
  "id": 1907920756,
  "lat": 49.1982199,
  "lon": -0.3541048
},
{
  "type": "node",
  "id": 1983941756,
  "lat": 49.1948906,
  "lon": -0.3558347
},
{
  "type": "node",
  "id": 1983941757,
  "lat": 49.1949246,
  "lon": -0.3559151
},
{
  "type": "node",
  "id": 1990915886,
  "lat": 49.1985017,
  "lon": -0.3601324
},
{
  "type": "node",
  "id": 1990915887,
  "lat": 49.1985597,
  "lon": -0.3585858
},
{
  "type": "node",
  "id": 2019010364,
  "lat": 49.1985846,
  "lon": -0.3584317
},
{
  "type": "node",
  "id": 2019010367,
  "lat": 49.1986300,
  "lon": -0.3589480
},
{
  "type": "node",
  "id": 2019010369,
  "lat": 49.1986723,
  "lon": -0.3584599
},
{
  "type": "node",
  "id": 2285753023,
  "lat": 49.2001740,
  "lon": -0.3589284
},
{
  "type": "node",
  "id": 2285753040,
  "lat": 49.2007073,
  "lon": -0.3591444
},
{
  "type": "node",
  "id": 2285753046,
  "lat": 49.2009438,
  "lon": -0.3592150
},
{
  "type": "node",
  "id": 2309830745,
  "lat": 49.1986591,
  "lon": -0.3585936
},
{
  "type": "node",
  "id": 2463700982,
  "lat": 49.1985453,
  "lon": -0.3589934
},
{
  "type": "node",
  "id": 2463703619,
  "lat": 49.1986792,
  "lon": -0.3583918
},
{
  "type": "node",
  "id": 3699592153,
  "lat": 49.1985512,
  "lon": -0.3587365
},
{
  "type": "node",
  "id": 3699592154,
  "lat": 49.1985534,
  "lon": -0.3586418
},
{
  "type": "node",
  "id": 3797872371,
  "lat": 49.1969580,
  "lon": -0.3601676
},
{
  "type": "node",
  "id": 5293893210,
  "lat": 49.1989981,
  "lon": -0.3565636
},
{
  "type": "node",
  "id": 5293893211,
  "lat": 49.1990234,
  "lon": -0.3565845
},
{
  "type": "node",
  "id": 5293893212,
  "lat": 49.1989082,
  "lon": -0.3570185
},
{
  "type": "node",
  "id": 5293893213,
  "lat": 49.1988588,
  "lon": -0.3570236
},
{
  "type": "node",
  "id": 5293893214,
  "lat": 49.1986565,
  "lon": -0.3579754
},
{
  "type": "node",
  "id": 6535722577,
  "lat": 49.1985244,
  "lon": -0.3598720
},
{
  "type": "node",
  "id": 6630792480,
  "lat": 49.1987634,
  "lon": -0.3578034
},
{
  "type": "node",
  "id": 7285367066,
  "lat": 49.1992375,
  "lon": -0.3587440
},
{
  "type": "node",
  "id": 7721078283,
  "lat": 49.2007779,
  "lon": -0.3591720
},
{
  "type": "node",
  "id": 7721078284,
  "lat": 49.2002636,
  "lon": -0.3589659
},
{
  "type": "node",
  "id": 8214991940,
  "lat": 49.1986043,
  "lon": -0.3599281
},
{
  "type": "node",
  "id": 8215006744,
  "lat": 49.1985240,
  "lon": -0.3599245
},
{
  "type": "node",
  "id": 9349579583,
  "lat": 49.1986230,
  "lon": -0.3592001
},
{
  "type": "node",
  "id": 25973801,
  "lat": 49.2060553,
  "lon": -0.3614558
},
{
  "type": "node",
  "id": 25973802,
  "lat": 49.2058754,
  "lon": -0.3616756
},
{
  "type": "node",
  "id": 25973803,
  "lat": 49.2071120,
  "lon": -0.3620484
},
{
  "type": "node",
  "id": 25973804,
  "lat": 49.2072010,
  "lon": -0.3618058
},
{
  "type": "node",
  "id": 25973817,
  "lat": 49.2066792,
  "lon": -0.3619109
},
{
  "type": "node",
  "id": 25973824,
  "lat": 49.2058778,
  "lon": -0.3614033
},
{
  "type": "node",
  "id": 1378817701,
  "lat": 49.2057046,
  "lon": -0.3613521
},
{
  "type": "node",
  "id": 2019010415,
  "lat": 49.2062061,
  "lon": -0.3615000
},
{
  "type": "node",
  "id": 2325792703,
  "lat": 49.2057480,
  "lon": -0.3616374
},
{
  "type": "node",
  "id": 2325792713,
  "lat": 49.2059160,
  "lon": -0.3616872
},
{
  "type": "node",
  "id": 2325792730,
  "lat": 49.2059751,
  "lon": -0.3614321
},
{
  "type": "node",
  "id": 5690350750,
  "lat": 49.2059563,
  "lon": -0.3616987
},
{
  "type": "node",
  "id": 26525801,
  "lat": 49.2019900,
  "lon": -0.3593526
},
{
  "type": "node",
  "id": 2019010382,
  "lat": 49.2018633,
  "lon": -0.3593334
},
{
  "type": "node",
  "id": 26001253,
  "lat": 49.1998573,
  "lon": -0.3537471
},
{
  "type": "node",
  "id": 26019485,
  "lat": 49.1988768,
  "lon": -0.3537328
},
{
  "type": "node",
  "id": 26019486,
  "lat": 49.1992038,
  "lon": -0.3536305
},
{
  "type": "node",
  "id": 29284649,
  "lat": 49.1992020,
  "lon": -0.3537727
},
{
  "type": "node",
  "id": 29284650,
  "lat": 49.1989037,
  "lon": -0.3538449
},
{
  "type": "node",
  "id": 303231708,
  "lat": 49.1955646,
  "lon": -0.3488233
},
{
  "type": "node",
  "id": 1416665096,
  "lat": 49.1973546,
  "lon": -0.3509585
},
{
  "type": "node",
  "id": 1417906959,
  "lat": 49.1965097,
  "lon": -0.3503599
},
{
  "type": "node",
  "id": 1640458239,
  "lat": 49.1996458,
  "lon": -0.3537490
},
{
  "type": "node",
  "id": 1686166384,
  "lat": 49.1997850,
  "lon": -0.3537478
},
{
  "type": "node",
  "id": 1748525980,
  "lat": 49.1979728,
  "lon": -0.3510630
},
{
  "type": "node",
  "id": 1748525984,
  "lat": 49.1966578,
  "lon": -0.3505120
},
{
  "type": "node",
  "id": 1748525998,
  "lat": 49.1961780,
  "lon": -0.3501316
},
{
  "type": "node",
  "id": 1748526005,
  "lat": 49.1971200,
  "lon": -0.3508562
},
{
  "type": "node",
  "id": 1748526007,
  "lat": 49.1971159,
  "lon": -0.3513000
},
{
  "type": "node",
  "id": 1748526009,
  "lat": 49.1975465,
  "lon": -0.3511436
},
{
  "type": "node",
  "id": 1748526015,
  "lat": 49.1981223,
  "lon": -0.3510531
},
{
  "type": "node",
  "id": 1748526020,
  "lat": 49.1957247,
  "lon": -0.3492528
},
{
  "type": "node",
  "id": 1748526027,
  "lat": 49.1972108,
  "lon": -0.3512014
},
{
  "type": "node",
  "id": 1748526030,
  "lat": 49.1954805,
  "lon": -0.3485803
},
{
  "type": "node",
  "id": 1748526037,
  "lat": 49.1983850,
  "lon": -0.3510810
},
{
  "type": "node",
  "id": 1748526042,
  "lat": 49.1974969,
  "lon": -0.3510015
},
{
  "type": "node",
  "id": 1748526046,
  "lat": 49.1968449,
  "lon": -0.3508255
},
{
  "type": "node",
  "id": 1748526054,
  "lat": 49.1963846,
  "lon": -0.3502116
},
{
  "type": "node",
  "id": 1748526059,
  "lat": 49.1973622,
  "lon": -0.3511056
},
{
  "type": "node",
  "id": 1748526060,
  "lat": 49.1972738,
  "lon": -0.3511441
},
{
  "type": "node",
  "id": 1748526071,
  "lat": 49.1978370,
  "lon": -0.3511865
},
{
  "type": "node",
  "id": 1748526076,
  "lat": 49.1981802,
  "lon": -0.3510384
},
{
  "type": "node",
  "id": 1748526079,
  "lat": 49.1959666,
  "lon": -0.3497841
},
{
  "type": "node",
  "id": 1748526085,
  "lat": 49.1974233,
  "lon": -0.3511111
},
{
  "type": "node",
  "id": 1748526088,
  "lat": 49.1971297,
  "lon": -0.3510723
},
{
  "type": "node",
  "id": 1748526095,
  "lat": 49.1972880,
  "lon": -0.3509361
},
{
  "type": "node",
  "id": 1748526096,
  "lat": 49.1959193,
  "lon": -0.3494445
},
{
  "type": "node",
  "id": 1748526104,
  "lat": 49.1953845,
  "lon": -0.3477184
},
{
  "type": "node",
  "id": 1748526107,
  "lat": 49.1971676,
  "lon": -0.3512574
},
{
  "type": "node",
  "id": 1748526109,
  "lat": 49.1961002,
  "lon": -0.3497879
},
{
  "type": "node",
  "id": 1748526112,
  "lat": 49.1953272,
  "lon": -0.3481133
},
{
  "type": "node",
  "id": 1748526115,
  "lat": 49.1970685,
  "lon": -0.3509795
},
{
  "type": "node",
  "id": 1748526119,
  "lat": 49.1982244,
  "lon": -0.3511525
},
{
  "type": "node",
  "id": 1748526122,
  "lat": 49.1976657,
  "lon": -0.3510396
},
{
  "type": "node",
  "id": 1748526123,
  "lat": 49.1971271,
  "lon": -0.3512163
},
{
  "type": "node",
  "id": 1748526124,
  "lat": 49.1966390,
  "lon": -0.3506659
},
{
  "type": "node",
  "id": 1748526128,
  "lat": 49.1980754,
  "lon": -0.3511788
},
{
  "type": "node",
  "id": 1748526130,
  "lat": 49.1972832,
  "lon": -0.3510644
},
{
  "type": "node",
  "id": 1748526131,
  "lat": 49.1978956,
  "lon": -0.3510667
},
{
  "type": "node",
  "id": 1748526133,
  "lat": 49.1965548,
  "lon": -0.3504133
},
{
  "type": "node",
  "id": 1748526137,
  "lat": 49.1973013,
  "lon": -0.3511289
},
{
  "type": "node",
  "id": 1748526138,
  "lat": 49.1963086,
  "lon": -0.3503161
},
{
  "type": "node",
  "id": 1748526143,
  "lat": 49.1969793,
  "lon": -0.3507755
},
{
  "type": "node",
  "id": 1748526146,
  "lat": 49.1976588,
  "lon": -0.3511650
},
{
  "type": "node",
  "id": 1748526150,
  "lat": 49.1955183,
  "lon": -0.3483418
},
{
  "type": "node",
  "id": 1748526152,
  "lat": 49.1983088,
  "lon": -0.3509879
},
{
  "type": "node",
  "id": 1748526154,
  "lat": 49.1955718,
  "lon": -0.3485235
},
{
  "type": "node",
  "id": 1748526157,
  "lat": 49.1957882,
  "lon": -0.3494170
},
{
  "type": "node",
  "id": 1748526158,
  "lat": 49.1971322,
  "lon": -0.3510987
},
{
  "type": "node",
  "id": 1748526165,
  "lat": 49.1985177,
  "lon": -0.3508385
},
{
  "type": "node",
  "id": 1748526168,
  "lat": 49.1971174,
  "lon": -0.3510275
},
{
  "type": "node",
  "id": 1748526170,
  "lat": 49.1984519,
  "lon": -0.3510455
},
{
  "type": "node",
  "id": 1748526177,
  "lat": 49.1974068,
  "lon": -0.3509770
},
{
  "type": "node",
  "id": 1748526180,
  "lat": 49.1969391,
  "lon": -0.3508927
},
{
  "type": "node",
  "id": 1748526185,
  "lat": 49.1954620,
  "lon": -0.3481235
},
{
  "type": "node",
  "id": 1748526189,
  "lat": 49.1962870,
  "lon": -0.3500737
},
{
  "type": "node",
  "id": 1748526204,
  "lat": 49.1978152,
  "lon": -0.3510617
},
{
  "type": "node",
  "id": 1748526210,
  "lat": 49.1964204,
  "lon": -0.3504526
},
{
  "type": "node",
  "id": 1748526230,
  "lat": 49.1979277,
  "lon": -0.3511931
},
{
  "type": "node",
  "id": 1748526245,
  "lat": 49.1980516,
  "lon": -0.3510605
},
{
  "type": "node",
  "id": 1748526248,
  "lat": 49.1960574,
  "lon": -0.3499432
},
{
  "type": "node",
  "id": 1748526254,
  "lat": 49.1972466,
  "lon": -0.3511655
},
{
  "type": "node",
  "id": 1748526256,
  "lat": 49.1972431,
  "lon": -0.3509177
},
{
  "type": "node",
  "id": 1748526265,
  "lat": 49.1983763,
  "lon": -0.3509510
},
{
  "type": "node",
  "id": 1748526266,
  "lat": 49.1958482,
  "lon": -0.3492748
},
{
  "type": "node",
  "id": 1748526269,
  "lat": 49.1970974,
  "lon": -0.3513753
},
{
  "type": "node",
  "id": 1748526270,
  "lat": 49.1956531,
  "lon": -0.3490638
},
{
  "type": "node",
  "id": 1748526274,
  "lat": 49.1953520,
  "lon": -0.3474980
},
{
  "type": "node",
  "id": 1748526276,
  "lat": 49.1971910,
  "lon": -0.3512240
},
{
  "type": "node",
  "id": 1748526278,
  "lat": 49.1960400,
  "lon": -0.3496781
},
{
  "type": "node",
  "id": 1748526281,
  "lat": 49.1953687,
  "lon": -0.3482536
},
{
  "type": "node",
  "id": 1748526283,
  "lat": 49.1970961,
  "lon": -0.3510017
},
{
  "type": "node",
  "id": 1748526286,
  "lat": 49.1983046,
  "lon": -0.3511233
},
{
  "type": "node",
  "id": 1748526289,
  "lat": 49.1975853,
  "lon": -0.3510211
},
{
  "type": "node",
  "id": 1748526290,
  "lat": 49.1976156,
  "lon": -0.3511584
},
{
  "type": "node",
  "id": 1748526292,
  "lat": 49.1967407,
  "lon": -0.3507486
},
{
  "type": "node",
  "id": 1748526299,
  "lat": 49.1964561,
  "lon": -0.3502979
},
{
  "type": "node",
  "id": 1748526301,
  "lat": 49.1972073,
  "lon": -0.3510446
},
{
  "type": "node",
  "id": 1748526303,
  "lat": 49.1973351,
  "lon": -0.3511138
},
{
  "type": "node",
  "id": 1748526306,
  "lat": 49.1967892,
  "lon": -0.3506164
},
{
  "type": "node",
  "id": 1748526310,
  "lat": 49.1977495,
  "lon": -0.3511816
},
{
  "type": "node",
  "id": 1748526315,
  "lat": 49.1982405,
  "lon": -0.3510150
},
{
  "type": "node",
  "id": 1748526320,
  "lat": 49.1958762,
  "lon": -0.3496072
},
{
  "type": "node",
  "id": 1748526328,
  "lat": 49.1984470,
  "lon": -0.3508994
},
{
  "type": "node",
  "id": 1748526332,
  "lat": 49.1971248,
  "lon": -0.3510483
},
{
  "type": "node",
  "id": 1748526334,
  "lat": 49.1953415,
  "lon": -0.3474104
},
{
  "type": "node",
  "id": 1748526335,
  "lat": 49.1985203,
  "lon": -0.3510055
},
{
  "type": "node",
  "id": 1748526340,
  "lat": 49.1973394,
  "lon": -0.3509542
},
{
  "type": "node",
  "id": 1748526355,
  "lat": 49.1954248,
  "lon": -0.3479465
},
{
  "type": "node",
  "id": 1748526376,
  "lat": 49.1971482,
  "lon": -0.3512895
},
{
  "type": "node",
  "id": 1748526385,
  "lat": 49.1961911,
  "lon": -0.3499386
},
{
  "type": "node",
  "id": 1748526397,
  "lat": 49.1952946,
  "lon": -0.3479576
},
{
  "type": "node",
  "id": 1748526423,
  "lat": 49.1981423,
  "lon": -0.3511700
},
{
  "type": "node",
  "id": 1748526426,
  "lat": 49.1977244,
  "lon": -0.3510482
},
{
  "type": "node",
  "id": 1748526429,
  "lat": 49.1971327,
  "lon": -0.3511474
},
{
  "type": "node",
  "id": 1748526440,
  "lat": 49.1965385,
  "lon": -0.3505756
},
{
  "type": "node",
  "id": 1748526452,
  "lat": 49.1980043,
  "lon": -0.3511882
},
{
  "type": "node",
  "id": 1748530156,
  "lat": 49.1954872,
  "lon": -0.3482180
},
{
  "type": "node",
  "id": 1748530171,
  "lat": 49.1953961,
  "lon": -0.3477896
},
{
  "type": "node",
  "id": 1748530208,
  "lat": 49.1952754,
  "lon": -0.3477644
},
{
  "type": "node",
  "id": 1748530245,
  "lat": 49.1953864,
  "lon": -0.3483053
},
{
  "type": "node",
  "id": 1748530255,
  "lat": 49.1960931,
  "lon": -0.3500019
},
{
  "type": "node",
  "id": 1907920696,
  "lat": 49.1998534,
  "lon": -0.3538833
},
{
  "type": "node",
  "id": 1907920697,
  "lat": 49.1997832,
  "lon": -0.3538555
},
{
  "type": "node",
  "id": 1907920703,
  "lat": 49.1996614,
  "lon": -0.3535833
},
{
  "type": "node",
  "id": 1907920704,
  "lat": 49.1994044,
  "lon": -0.3537601
},
{
  "type": "node",
  "id": 1907920705,
  "lat": 49.1989819,
  "lon": -0.3536894
},
{
  "type": "node",
  "id": 1907941979,
  "lat": 49.1974279,
  "lon": -0.3509827
},
{
  "type": "node",
  "id": 1907941980,
  "lat": 49.1969481,
  "lon": -0.3508987
},
{
  "type": "node",
  "id": 1978087462,
  "lat": 49.1982642,
  "lon": -0.3511380
},
{
  "type": "node",
  "id": 1983941761,
  "lat": 49.1985466,
  "lon": -0.3538891
},
{
  "type": "node",
  "id": 1989513548,
  "lat": 49.1990535,
  "lon": -0.3538011
},
{
  "type": "node",
  "id": 2017284256,
  "lat": 49.1972583,
  "lon": -0.3509244
},
{
  "type": "node",
  "id": 2054326948,
  "lat": 49.1971078,
  "lon": -0.3510130
},
{
  "type": "node",
  "id": 2054326950,
  "lat": 49.1971507,
  "lon": -0.3510217
},
{
  "type": "node",
  "id": 2054326960,
  "lat": 49.1976379,
  "lon": -0.3510332
},
{
  "type": "node",
  "id": 2054413469,
  "lat": 49.1985591,
  "lon": -0.3509802
},
{
  "type": "node",
  "id": 2063365600,
  "lat": 49.1956803,
  "lon": -0.3488323
},
{
  "type": "node",
  "id": 2503617601,
  "lat": 49.1955473,
  "lon": -0.3484404
},
{
  "type": "node",
  "id": 2528913549,
  "lat": 49.1956232,
  "lon": -0.3486804
},
{
  "type": "node",
  "id": 6687441546,
  "lat": 49.1998549,
  "lon": -0.3538312
},
{
  "type": "node",
  "id": 1417643362,
  "lat": 49.1953256,
  "lon": -0.3471245
},
{
  "type": "node",
  "id": 1747876285,
  "lat": 49.1971256,
  "lon": -0.3425304
},
{
  "type": "node",
  "id": 1747876288,
  "lat": 49.1974289,
  "lon": -0.3424312
},
{
  "type": "node",
  "id": 1747876290,
  "lat": 49.1955781,
  "lon": -0.3444883
},
{
  "type": "node",
  "id": 1747876292,
  "lat": 49.1965892,
  "lon": -0.3426984
},
{
  "type": "node",
  "id": 1747876295,
  "lat": 49.1965614,
  "lon": -0.3425630
},
{
  "type": "node",
  "id": 1747876320,
  "lat": 49.1973319,
  "lon": -0.3425690
},
{
  "type": "node",
  "id": 1747876321,
  "lat": 49.1971635,
  "lon": -0.3423782
},
{
  "type": "node",
  "id": 1747876327,
  "lat": 49.1963303,
  "lon": -0.3427636
},
{
  "type": "node",
  "id": 1747876330,
  "lat": 49.1956678,
  "lon": -0.3445177
},
{
  "type": "node",
  "id": 1747876331,
  "lat": 49.1956554,
  "lon": -0.3442410
},
{
  "type": "node",
  "id": 1747876332,
  "lat": 49.1960158,
  "lon": -0.3432412
},
{
  "type": "node",
  "id": 1747876333,
  "lat": 49.1961261,
  "lon": -0.3432344
},
{
  "type": "node",
  "id": 1747876335,
  "lat": 49.1955882,
  "lon": -0.3444448
},
{
  "type": "node",
  "id": 1747876337,
  "lat": 49.1970499,
  "lon": -0.3423759
},
{
  "type": "node",
  "id": 1747876339,
  "lat": 49.1961557,
  "lon": -0.3429945
},
{
  "type": "node",
  "id": 1747876342,
  "lat": 49.1967969,
  "lon": -0.3425894
},
{
  "type": "node",
  "id": 1747876345,
  "lat": 49.1957851,
  "lon": -0.3438628
},
{
  "type": "node",
  "id": 1747876346,
  "lat": 49.1963013,
  "lon": -0.3429721
},
{
  "type": "node",
  "id": 1747876370,
  "lat": 49.1968169,
  "lon": -0.3424213
},
{
  "type": "node",
  "id": 1747876388,
  "lat": 49.1970299,
  "lon": -0.3425326
},
{
  "type": "node",
  "id": 1747876404,
  "lat": 49.1974873,
  "lon": -0.3424477
},
{
  "type": "node",
  "id": 1747876411,
  "lat": 49.1956994,
  "lon": -0.3441082
},
{
  "type": "node",
  "id": 1747876417,
  "lat": 49.1964942,
  "lon": -0.3427699
},
{
  "type": "node",
  "id": 1747876438,
  "lat": 49.1972733,
  "lon": -0.3425519
},
{
  "type": "node",
  "id": 1747876440,
  "lat": 49.1972607,
  "lon": -0.3423932
},
{
  "type": "node",
  "id": 1747876442,
  "lat": 49.1957464,
  "lon": -0.3442424
},
{
  "type": "node",
  "id": 1747876450,
  "lat": 49.1960800,
  "lon": -0.3431194
},
{
  "type": "node",
  "id": 1747876452,
  "lat": 49.1960749,
  "lon": -0.3433354
},
{
  "type": "node",
  "id": 1747876455,
  "lat": 49.1956272,
  "lon": -0.3443260
},
{
  "type": "node",
  "id": 1747876480,
  "lat": 49.1962292,
  "lon": -0.3428935
},
{
  "type": "node",
  "id": 1747876483,
  "lat": 49.1966967,
  "lon": -0.3426348
},
{
  "type": "node",
  "id": 1747876490,
  "lat": 49.1962419,
  "lon": -0.3430493
},
{
  "type": "node",
  "id": 1747876494,
  "lat": 49.1968934,
  "lon": -0.3423998
},
{
  "type": "node",
  "id": 1747876500,
  "lat": 49.1969661,
  "lon": -0.3425394
},
{
  "type": "node",
  "id": 1747876502,
  "lat": 49.1975406,
  "lon": -0.3424708
},
{
  "type": "node",
  "id": 1747876515,
  "lat": 49.1964348,
  "lon": -0.3428222
},
{
  "type": "node",
  "id": 1747876518,
  "lat": 49.1966803,
  "lon": -0.3424872
},
{
  "type": "node",
  "id": 1747876553,
  "lat": 49.1972013,
  "lon": -0.3425394
},
{
  "type": "node",
  "id": 1747876562,
  "lat": 49.1973526,
  "lon": -0.3424111
},
{
  "type": "node",
  "id": 1747876596,
  "lat": 49.1964556,
  "lon": -0.3426451
},
{
  "type": "node",
  "id": 1747876605,
  "lat": 49.1974039,
  "lon": -0.3425985
},
{
  "type": "node",
  "id": 1747876630,
  "lat": 49.1960297,
  "lon": -0.3434422
},
{
  "type": "node",
  "id": 1747876639,
  "lat": 49.1988821,
  "lon": -0.3451964
},
{
  "type": "node",
  "id": 1747876641,
  "lat": 49.1955008,
  "lon": -0.3448127
},
{
  "type": "node",
  "id": 1747876646,
  "lat": 49.1959630,
  "lon": -0.3433638
},
{
  "type": "node",
  "id": 1747876647,
  "lat": 49.1961818,
  "lon": -0.3431356
},
{
  "type": "node",
  "id": 1747876650,
  "lat": 49.1969705,
  "lon": -0.3423827
},
{
  "type": "node",
  "id": 1747876654,
  "lat": 49.1968785,
  "lon": -0.3425587
},
{
  "type": "node",
  "id": 1747876656,
  "lat": 49.1975100,
  "lon": -0.3426473
},
{
  "type": "node",
  "id": 1747876660,
  "lat": 49.1963673,
  "lon": -0.3428960
},
{
  "type": "node",
  "id": 1747882496,
  "lat": 49.1982391,
  "lon": -0.3436295
},
{
  "type": "node",
  "id": 1747882500,
  "lat": 49.1983269,
  "lon": -0.3436388
},
{
  "type": "node",
  "id": 1747882504,
  "lat": 49.1981088,
  "lon": -0.3432544
},
{
  "type": "node",
  "id": 1747882510,
  "lat": 49.1981403,
  "lon": -0.3431395
},
{
  "type": "node",
  "id": 1747882521,
  "lat": 49.1978477,
  "lon": -0.3426960
},
{
  "type": "node",
  "id": 1747882523,
  "lat": 49.1983755,
  "lon": -0.3438805
},
{
  "type": "node",
  "id": 1747882525,
  "lat": 49.1976159,
  "lon": -0.3425128
},
{
  "type": "node",
  "id": 1747882526,
  "lat": 49.1981701,
  "lon": -0.3433862
},
{
  "type": "node",
  "id": 1747882527,
  "lat": 49.1982341,
  "lon": -0.3433296
},
{
  "type": "node",
  "id": 1747882532,
  "lat": 49.1985312,
  "lon": -0.3446526
},
{
  "type": "node",
  "id": 1747882536,
  "lat": 49.1988028,
  "lon": -0.3451427
},
{
  "type": "node",
  "id": 1747882539,
  "lat": 49.1978405,
  "lon": -0.3428818
},
{
  "type": "node",
  "id": 1747882541,
  "lat": 49.1985737,
  "lon": -0.3447709
},
{
  "type": "node",
  "id": 1747882546,
  "lat": 49.1988497,
  "lon": -0.3451841
},
{
  "type": "node",
  "id": 1747882548,
  "lat": 49.1979719,
  "lon": -0.3430373
},
{
  "type": "node",
  "id": 1747882550,
  "lat": 49.1979156,
  "lon": -0.3427788
},
{
  "type": "node",
  "id": 1747882551,
  "lat": 49.1986603,
  "lon": -0.3449475
},
{
  "type": "node",
  "id": 1747882552,
  "lat": 49.1977075,
  "lon": -0.3427627
},
{
  "type": "node",
  "id": 1747882557,
  "lat": 49.1982181,
  "lon": -0.3435425
},
{
  "type": "node",
  "id": 1747882558,
  "lat": 49.1982993,
  "lon": -0.3435273
},
{
  "type": "node",
  "id": 1747882561,
  "lat": 49.1980763,
  "lon": -0.3431944
},
{
  "type": "node",
  "id": 1747882562,
  "lat": 49.1980696,
  "lon": -0.3430094
},
{
  "type": "node",
  "id": 1747882563,
  "lat": 49.1984756,
  "lon": -0.3449039
},
{
  "type": "node",
  "id": 1747882591,
  "lat": 49.1977953,
  "lon": -0.3428371
},
{
  "type": "node",
  "id": 1747882597,
  "lat": 49.1977953,
  "lon": -0.3426444
},
{
  "type": "node",
  "id": 1747882601,
  "lat": 49.1982678,
  "lon": -0.3437613
},
{
  "type": "node",
  "id": 1747882605,
  "lat": 49.1983479,
  "lon": -0.3437360
},
{
  "type": "node",
  "id": 1747882619,
  "lat": 49.1981386,
  "lon": -0.3433161
},
{
  "type": "node",
  "id": 1747882624,
  "lat": 49.1981972,
  "lon": -0.3432485
},
{
  "type": "node",
  "id": 1747882655,
  "lat": 49.1976652,
  "lon": -0.3425424
},
{
  "type": "node",
  "id": 1747882665,
  "lat": 49.1984914,
  "lon": -0.3444854
},
{
  "type": "node",
  "id": 1747882669,
  "lat": 49.1985091,
  "lon": -0.3445724
},
{
  "type": "node",
  "id": 1747882740,
  "lat": 49.1982689,
  "lon": -0.3434268
},
{
  "type": "node",
  "id": 1747882741,
  "lat": 49.1985681,
  "lon": -0.3451661
},
{
  "type": "node",
  "id": 1747882763,
  "lat": 49.1987547,
  "lon": -0.3450852
},
{
  "type": "node",
  "id": 1747882781,
  "lat": 49.1984362,
  "lon": -0.3447503
},
{
  "type": "node",
  "id": 1747882783,
  "lat": 49.1976132,
  "lon": -0.3427033
},
{
  "type": "node",
  "id": 1747882784,
  "lat": 49.1985549,
  "lon": -0.3447228
},
{
  "type": "node",
  "id": 1747882788,
  "lat": 49.1988282,
  "lon": -0.3451672
},
{
  "type": "node",
  "id": 1747882790,
  "lat": 49.1978836,
  "lon": -0.3429334
},
{
  "type": "node",
  "id": 1747882792,
  "lat": 49.1978792,
  "lon": -0.3427323
},
{
  "type": "node",
  "id": 1747882793,
  "lat": 49.1986073,
  "lon": -0.3448427
},
{
  "type": "node",
  "id": 1747882798,
  "lat": 49.1981999,
  "lon": -0.3434724
},
{
  "type": "node",
  "id": 1747882800,
  "lat": 49.1988679,
  "lon": -0.3451917
},
{
  "type": "node",
  "id": 1747882802,
  "lat": 49.1980304,
  "lon": -0.3431184
},
{
  "type": "node",
  "id": 1747882804,
  "lat": 49.1979896,
  "lon": -0.3428818
},
{
  "type": "node",
  "id": 1747882805,
  "lat": 49.1987051,
  "lon": -0.3450235
},
{
  "type": "node",
  "id": 1747882806,
  "lat": 49.1977500,
  "lon": -0.3427965
},
{
  "type": "node",
  "id": 1748525995,
  "lat": 49.1983447,
  "lon": -0.3442200
},
{
  "type": "node",
  "id": 1748526011,
  "lat": 49.1953208,
  "lon": -0.3469466
},
{
  "type": "node",
  "id": 1748526013,
  "lat": 49.1955475,
  "lon": -0.3450056
},
{
  "type": "node",
  "id": 1748526025,
  "lat": 49.1952381,
  "lon": -0.3471803
},
{
  "type": "node",
  "id": 1748526038,
  "lat": 49.1953602,
  "lon": -0.3461309
},
{
  "type": "node",
  "id": 1748526040,
  "lat": 49.1952379,
  "lon": -0.3464804
},
{
  "type": "node",
  "id": 1748526063,
  "lat": 49.1953820,
  "lon": -0.3453730
},
{
  "type": "node",
  "id": 1748526074,
  "lat": 49.1953291,
  "lon": -0.3464868
},
{
  "type": "node",
  "id": 1748526090,
  "lat": 49.1953311,
  "lon": -0.3472669
},
{
  "type": "node",
  "id": 1748526093,
  "lat": 49.1954647,
  "lon": -0.3454162
},
{
  "type": "node",
  "id": 1748526148,
  "lat": 49.1953180,
  "lon": -0.3467674
},
{
  "type": "node",
  "id": 1748526172,
  "lat": 49.1953820,
  "lon": -0.3459510
},
{
  "type": "node",
  "id": 1748526175,
  "lat": 49.1952314,
  "lon": -0.3466512
},
{
  "type": "node",
  "id": 1748526198,
  "lat": 49.1953246,
  "lon": -0.3456909
},
{
  "type": "node",
  "id": 1748526242,
  "lat": 49.1953373,
  "lon": -0.3463458
},
{
  "type": "node",
  "id": 1748526288,
  "lat": 49.1952505,
  "lon": -0.3463087
},
{
  "type": "node",
  "id": 1748526312,
  "lat": 49.1953221,
  "lon": -0.3466307
},
{
  "type": "node",
  "id": 1748526336,
  "lat": 49.1954241,
  "lon": -0.3456607
},
{
  "type": "node",
  "id": 1748526338,
  "lat": 49.1952280,
  "lon": -0.3468889
},
{
  "type": "node",
  "id": 1748526368,
  "lat": 49.1984284,
  "lon": -0.3441567
},
{
  "type": "node",
  "id": 1748530159,
  "lat": 49.1958145,
  "lon": -0.3440474
},
{
  "type": "node",
  "id": 1916731425,
  "lat": 49.1975684,
  "lon": -0.3426790
},
{
  "type": "node",
  "id": 1916731426,
  "lat": 49.1976699,
  "lon": -0.3427390
},
{
  "type": "node",
  "id": 1916731427,
  "lat": 49.1977220,
  "lon": -0.3425844
},
{
  "type": "node",
  "id": 1978087304,
  "lat": 49.1958227,
  "lon": -0.3437511
},
{
  "type": "node",
  "id": 1978087351,
  "lat": 49.1954430,
  "lon": -0.3450768
},
{
  "type": "node",
  "id": 1978088059,
  "lat": 49.1986468,
  "lon": -0.3453658
},
{
  "type": "node",
  "id": 1978088068,
  "lat": 49.1987908,
  "lon": -0.3451283
},
{
  "type": "node",
  "id": 2054413429,
  "lat": 49.1957217,
  "lon": -0.3443103
},
{
  "type": "node",
  "id": 2054413430,
  "lat": 49.1958732,
  "lon": -0.3438767
},
{
  "type": "node",
  "id": 2525000844,
  "lat": 49.1952768,
  "lon": -0.3460321
},
{
  "type": "node",
  "id": 8210150436,
  "lat": 49.1952685,
  "lon": -0.3461050
},
{
  "type": "node",
  "id": 25973806,
  "lat": 49.2085339,
  "lon": -0.3622713
},
{
  "type": "node",
  "id": 25973807,
  "lat": 49.2098678,
  "lon": -0.3630757
},
{
  "type": "node",
  "id": 25973808,
  "lat": 49.2099069,
  "lon": -0.3628250
},
{
  "type": "node",
  "id": 25973809,
  "lat": 49.2105153,
  "lon": -0.3633060
},
{
  "type": "node",
  "id": 26526056,
  "lat": 49.2093124,
  "lon": -0.3628320
},
{
  "type": "node",
  "id": 2019010417,
  "lat": 49.2100700,
  "lon": -0.3628906
},
{
  "type": "node",
  "id": 2019010418,
  "lat": 49.2102354,
  "lon": -0.3629478
},
{
  "type": "node",
  "id": 2019010419,
  "lat": 49.2104015,
  "lon": -0.3629998
},
{
  "type": "node",
  "id": 2691462956,
  "lat": 49.2103107,
  "lon": -0.3632326
},
{
  "type": "node",
  "id": 6397054838,
  "lat": 49.2105581,
  "lon": -0.3630556
},
{
  "type": "node",
  "id": 6397054839,
  "lat": 49.2107908,
  "lon": -0.3631471
},
{
  "type": "node",
  "id": 8263020588,
  "lat": 49.2105437,
  "lon": -0.3630505
},
{
  "type": "node",
  "id": 8263039919,
  "lat": 49.2107615,
  "lon": -0.3631356
}

  ]
}
