{
  "version": 0.6,
  "generator": "Overpass API 0.7.57 93a4d346",
  "osm3s": {
    "timestamp_osm_base": "2022-02-13T13:49:54Z",
    "timestamp_areas_base": "2022-02-13T06:31:57Z",
    "copyright": "The data included in this document is from www.openstreetmap.org. The data is made available under ODbL."
  },
  "elements": [

{
  "type": "area",
  "id": 3600290031,
  "tags": {
    "admin_level": "8",
    "alt_name": "Foyal",
    "alt_name:gcf": "Fodfrans",
    "boundary": "administrative",
    "capital": "yes",
    "name": "Fort-de-France",
    "name:ar": "فور دو فرانس",
    "name:be": "Форт-дэ-Франс",
    "name:be-tarask": "Форт-дэ-Франс",
    "name:bg": "Фор дьо Франс",
    "name:el": "Φορ-ντε-Φρανς",
    "name:fa": "فور-دو-فرانس",
    "name:frp": "Fôrt-de-France",
    "name:gcf": "Fodwans",
    "name:he": "פור-דה-פראנס",
    "name:ja": "フォール＝ド＝フランス",
    "name:ka": "ფორ-დე-ფრანსი",
    "name:ko": "포르드프랑스",
    "name:lt": "For de Fransas",
    "name:lv": "Fordefransa",
    "name:mr": "फोर्ट-दे-फ्रान्स",
    "name:mzn": "فور دو فرانس",
    "name:os": "Фор-де-Франс",
    "name:pnb": "فورٹ ڈی فرانس",
    "name:ru": "Фор-де-Франс",
    "name:sr": "Фор де Франс",
    "name:th": "ฟอร์-เดอ-ฟร็องส์",
    "name:uk": "Фор-де-Франс",
    "name:zh": "法兰西堡",
    "old_name": "Fort Royal",
    "population": "76512",
    "population:date": "2019",
    "postal_code": "97200;97234",
    "ref:INSEE": "97209",
    "source:population": "INSEE 2022",
    "source:postal_code": "La Poste - 12/2014",
    "type": "boundary",
    "wikidata": "Q81621",
    "wikipedia": "fr:Fort-de-France"
  }
}

  ]
}
