{
  "version": 0.6,
  "generator": "Overpass API 0.7.57.1 74a55df1",
  "osm3s": {
    "timestamp_osm_base": "2022-02-13T13:18:30Z",
    "timestamp_areas_base": "2022-02-13T02:36:10Z",
    "copyright": "The data included in this document is from www.openstreetmap.org. The data is made available under ODbL."
  },
  "elements": [

{
  "type": "way",
  "id": 39367580,
  "nodes": [
    471713984,
    471713985,
    471713986
  ],
  "tags": {
    "highway": "cycleway",
    "lanes": "1",
    "maxspeed": "30",
    "name": "Voie André Malraux",
    "oneway": "yes",
    "surface": "asphalt"
  }
},
{
  "type": "way",
  "id": 76273686,
  "nodes": [
    7911326607,
    7911326631,
    467483009,
    7921535512
  ],
  "tags": {
    "highway": "cycleway",
    "lanes": "1",
    "maxspeed": "50",
    "name": "Voie André Malraux",
    "oneway": "yes",
    "surface": "asphalt"
  }
},
{
  "type": "way",
  "id": 90143993,
  "nodes": [
    524582022,
    524582001,
    9474290291,
    9474290289,
    9474290294,
    9474290292,
    519348680,
    519348660,
    519348663,
    6960260422,
    9474290288,
    9474290287,
    6960260425,
    9474290295,
    9474290296,
    9474290297,
    6960260423,
    9474290298,
    9474290299,
    9474290300,
    6960260424,
    9474290311,
    9474290301,
    9474290310,
    6960260429,
    9474290302,
    9474290303,
    6960260427,
    6960260421,
    9474290309,
    9474290308,
    9474290307,
    6960260431,
    6960260420
  ],
  "tags": {
    "foot": "yes",
    "highway": "cycleway",
    "horse": "yes",
    "incline": "-0%",
    "motor_vehicle": "no",
    "name": "Voie Verte CHU de Poitiers - Mignaloux",
    "oneway": "no",
    "source": "cadastre-dgi-fr source : Direction Générale des Impôts - Cadastre;mise à jour : 2009",
    "surface": "asphalt"
  }
},
{
  "type": "way",
  "id": 116512462,
  "nodes": [
    1313260972,
    1313260968,
    1313260963,
    1313260957,
    7180016366,
    1313260950,
    1313260947,
    1313260944,
    1313260943,
    1313260942,
    1313260939,
    1313260936,
    1313260938
  ],
  "tags": {
    "foot": "yes",
    "highway": "cycleway",
    "lit": "yes",
    "segregated": "no",
    "surface": "asphalt"
  }
},
{
  "type": "way",
  "id": 133413931,
  "nodes": [
    1313260787,
    1889008985,
    1889008975,
    1889008971,
    1889008942,
    1889008890,
    1889008886,
    5831841322,
    1889008871,
    1889008863,
    1889008836,
    1889008798,
    1889008781,
    1889008770,
    1889008767,
    1889008760,
    1889008754,
    1889008745,
    1889008746,
    1889008747,
    1889008753,
    1889008759,
    1889008761,
    1889008756,
    1889008748,
    1468653750,
    1889008742,
    1468653744,
    1468653739,
    1468653734,
    1468653729,
    1468653727,
    1468653713,
    1468653704,
    1468653702,
    7319386625,
    1468653699,
    1468653694,
    7319386630,
    1468653684,
    1889008741,
    1313135697,
    1313135696,
    1889008740,
    1468653681,
    1468653678,
    1468653676,
    1468653674,
    1889008739
  ],
  "tags": {
    "bicycle": "designated",
    "foot": "designated",
    "highway": "cycleway",
    "lit": "yes",
    "segregated": "no",
    "surface": "asphalt"
  }
},
{
  "type": "way",
  "id": 144348826,
  "nodes": [
    1578956903,
    1578956901,
    374282493
  ],
  "tags": {
    "highway": "cycleway",
    "note": "Pas marqué clairement mais je le considère comme cela, surtout qu'il y a la place",
    "source": "Observations locales et GPS",
    "surface": "asphalt"
  }
},
{
  "type": "way",
  "id": 156259969,
  "nodes": [
    471395639,
    1685210562,
    471395642,
    1685210573,
    471395644,
    1685210591,
    471395646,
    471395648,
    1685210564,
    471395650
  ],
  "tags": {
    "highway": "cycleway",
    "lit": "yes",
    "name": "Rue Henri Potez",
    "source": "cadastre-dgi-fr source : Direction Générale des Impôts - Cadastre ; mise à jour : 2009",
    "surface": "asphalt"
  }
},
{
  "type": "way",
  "id": 156259975,
  "nodes": [
    471395611,
    471395612,
    471395623
  ],
  "tags": {
    "highway": "cycleway",
    "name": "Rue Henri Potez",
    "source": "cadastre-dgi-fr source : Direction Générale des Impôts - Cadastre ; mise à jour : 2009"
  }
},
{
  "type": "way",
  "id": 156259977,
  "nodes": [
    471395625,
    471395627,
    471395549,
    1685210501,
    471395629
  ],
  "tags": {
    "highway": "cycleway",
    "name": "Rue Henri Potez",
    "source": "cadastre-dgi-fr source : Direction Générale des Impôts - Cadastre ; mise à jour : 2009"
  }
},
{
  "type": "way",
  "id": 156259981,
  "nodes": [
    471395523,
    1685210528,
    471395633,
    471395634,
    471395665,
    471395637,
    471395638,
    1685210557
  ],
  "tags": {
    "highway": "cycleway",
    "lit": "yes",
    "name": "Rue Henri Potez",
    "source": "cadastre-dgi-fr source : Direction Générale des Impôts - Cadastre ; mise à jour : 2009",
    "surface": "asphalt"
  }
},
{
  "type": "way",
  "id": 156260014,
  "nodes": [
    1685210323,
    471395533,
    1685210320,
    471395534
  ],
  "tags": {
    "highway": "cycleway",
    "name": "Rue des Frères Voisin",
    "source": "cadastre-dgi-fr source : Direction Générale des Impôts - Cadastre ; mise à jour : 2009"
  }
},
{
  "type": "way",
  "id": 170153874,
  "nodes": [
    355522396,
    1813069435,
    471979997
  ],
  "tags": {
    "foot": "no",
    "highway": "cycleway",
    "surface": "asphalt",
    "tunnel": "no"
  }
},
{
  "type": "way",
  "id": 171757326,
  "nodes": [
    1827373320,
    1827373318,
    1827373317,
    1827373315,
    6153259125,
    6092277149
  ],
  "tags": {
    "foot": "yes",
    "highway": "cycleway",
    "surface": "compacted",
    "width": "3"
  }
},
{
  "type": "way",
  "id": 173780104,
  "nodes": [
    1845377153,
    6153259149,
    1845377145,
    1845377142,
    1845377136,
    1845377132,
    1845377130,
    1845377117,
    1845377116,
    1845377115,
    1845377110,
    1845377102,
    1845377099,
    1845377098
  ],
  "tags": {
    "bicycle": "designated",
    "foot": "designated",
    "highway": "cycleway",
    "oneway": "no",
    "segregated": "yes",
    "surface": "compacted"
  }
},
{
  "type": "way",
  "id": 173780116,
  "nodes": [
    1119484465,
    1845377112,
    1845377111,
    1845377108,
    1845377107,
    1845377105,
    1845377103,
    1845377100,
    1845377095,
    1845377093,
    1845377091,
    1845377090,
    1845377089,
    9370557179,
    1845377088,
    1845377087,
    9370557178,
    1845377086,
    1845377085,
    1845377084,
    9370557177,
    1845377083,
    1845377081,
    1845377080,
    1845377079,
    1845377078,
    1845377077,
    1845377076,
    1845377075,
    1845377074,
    1845377073,
    1845377072,
    1845377071,
    1845377070,
    1845377069,
    1845377068,
    1845377067,
    1845377066,
    7172764193,
    1845377065,
    7172760965,
    7172764194,
    7172764195,
    7172764196,
    1845377064
  ],
  "tags": {
    "bicycle": "designated",
    "foot": "designated",
    "highway": "cycleway",
    "lit": "yes",
    "motor_vehicle": "no",
    "segregated": "no",
    "surface": "asphalt",
    "width": "3"
  }
},
{
  "type": "way",
  "id": 173932876,
  "nodes": [
    1846794164,
    1846794165,
    1846794168,
    475548453,
    5043857161,
    5043857160,
    5043857159,
    475548445
  ],
  "tags": {
    "comment": "je trouve cette partie pas pratique pour ceux venant de l'autre sens",
    "foot": "no",
    "highway": "cycleway",
    "oneway": "no",
    "surface": "asphalt"
  }
},
{
  "type": "way",
  "id": 173932877,
  "nodes": [
    1846794150,
    1846794151,
    1846794152,
    1846794155,
    1846794159,
    5043857063,
    6555694753,
    1846794161,
    1846794164,
    475548450
  ],
  "tags": {
    "comment": "je trouve cette partie pas pratique pour ceux venant de l'autre sens",
    "foot": "no",
    "highway": "cycleway",
    "oneway": "no",
    "surface": "asphalt"
  }
},
{
  "type": "way",
  "id": 174736646,
  "nodes": [
    1853962586,
    1853962572,
    1853962557,
    1853962536,
    1853962531,
    1853962530,
    1853962522,
    1853962494,
    1853962465,
    1853962459,
    1853962428,
    1853962419,
    1853962403,
    1853962399,
    1853962381,
    1853962375,
    1853962355,
    1853962350,
    1853962331,
    1853962313,
    1853962293,
    7314216454,
    7314216453
  ],
  "tags": {
    "highway": "cycleway",
    "oneway": "yes",
    "source": "GPS + Observations sur places",
    "surface": "asphalt"
  }
},
{
  "type": "way",
  "id": 174736692,
  "nodes": [
    1853963241,
    6154116800,
    6154116799,
    6154116802,
    1853963286,
    1853963292,
    1853963304
  ],
  "tags": {
    "highway": "cycleway",
    "source": "GPS + Observations sur places"
  }
},
{
  "type": "way",
  "id": 174736696,
  "nodes": [
    1853962574,
    1853962570,
    1853962564,
    1853962560,
    1853962547,
    1853962534,
    1853962531
  ],
  "tags": {
    "highway": "cycleway",
    "oneway": "yes",
    "source": "GPS + Observations sur places",
    "surface": "asphalt"
  }
},
{
  "type": "way",
  "id": 175776829,
  "nodes": [
    1863322256,
    1863322249,
    1863322245,
    1863322243,
    1863322241,
    1863322240,
    1863322238,
    1863322236,
    1863322234
  ],
  "tags": {
    "highway": "cycleway",
    "oneway": "yes",
    "source": "Observations sur place + GPS",
    "surface": "asphalt"
  }
},
{
  "type": "way",
  "id": 175776831,
  "nodes": [
    1863322234,
    1863322235,
    1863322237,
    1863322239,
    1863322242,
    1863322246,
    1863322263
  ],
  "tags": {
    "highway": "cycleway",
    "oneway": "yes",
    "source": "Observations sur place + GPS",
    "surface": "asphalt"
  }
},
{
  "type": "way",
  "id": 176852693,
  "nodes": [
    1873360113,
    1873360117,
    1873360118,
    1873360119,
    1873360120,
    1873360137,
    1873360144
  ],
  "tags": {
    "highway": "cycleway",
    "oneway": "yes",
    "source": "Observations sur Place + GPS",
    "surface": "asphalt"
  }
},
{
  "type": "way",
  "id": 186769756,
  "nodes": [
    1975126682,
    1975126696,
    1975126705,
    1975126731,
    1975126735,
    1975126755,
    1975126788,
    1975126790,
    1975126797,
    1975126808,
    1975126838,
    1975126844,
    1975126861
  ],
  "tags": {
    "foot": "no",
    "highway": "cycleway",
    "oneway": "yes",
    "source": "cadastre-dgi-fr source : Direction Générale des Impôts - Cadastre. Mise à jour : 2012",
    "surface": "asphalt"
  }
},
{
  "type": "way",
  "id": 210625606,
  "nodes": [
    2207019250,
    2207019251,
    2207019254,
    2207019256,
    3517734705
  ],
  "tags": {
    "highway": "cycleway",
    "source": "cadastre-dgi-fr source : Direction Générale des Impôts - Cadastre ; mise à jour : 2009"
  }
},
{
  "type": "way",
  "id": 218427549,
  "nodes": [
    1269263717,
    2276768352,
    2460079098,
    2276768343,
    2460079093,
    2460079091,
    2276768339,
    2276768335
  ],
  "tags": {
    "highway": "cycleway",
    "oneway": "yes",
    "surface": "asphalt"
  }
},
{
  "type": "way",
  "id": 282987472,
  "nodes": [
    2460079093,
    2460079095,
    2460079108,
    1399774232
  ],
  "tags": {
    "comment": "En mémoire des familles Barrault-Rolland",
    "foot": "no",
    "highway": "cycleway",
    "lit": "yes",
    "motorcycle": "no",
    "name": "Allée des Jardins de Lucie",
    "note:fr": "juste pour les vélos montant vers la Rue de la Roche. Pour ceux qui vont vers le viaduc, ils doivent passer par le rond point",
    "oneway": "yes"
  }
},
{
  "type": "way",
  "id": 285868885,
  "nodes": [
    2895059570,
    2895197541,
    415308442,
    304890975,
    2895197540,
    6153911826,
    2895059568
  ],
  "tags": {
    "bicycle": "designated",
    "foot": "designated",
    "highway": "cycleway",
    "lit": "yes",
    "segregated": "no",
    "surface": "asphalt"
  }
},
{
  "type": "way",
  "id": 285868889,
  "nodes": [
    2895059568,
    6153911828,
    2895059567,
    2895059566,
    2895059565,
    2895059564,
    1324658453,
    2895059562,
    1313260787
  ],
  "tags": {
    "bicycle": "designated",
    "foot": "designated",
    "highway": "cycleway",
    "lit": "yes",
    "segregated": "no",
    "surface": "asphalt"
  }
},
{
  "type": "way",
  "id": 285881085,
  "nodes": [
    2895059568,
    2895197539,
    6153911827,
    2895197542,
    1313260828,
    2895197543,
    2895197547,
    2895197551
  ],
  "tags": {
    "bicycle": "designated",
    "foot": "designated",
    "highway": "cycleway",
    "lit": "yes",
    "segregated": "no",
    "surface": "asphalt"
  }
},
{
  "type": "way",
  "id": 304528454,
  "nodes": [
    1863322251,
    1863322263,
    1863322267
  ],
  "tags": {
    "bicycle": "designated",
    "highway": "cycleway",
    "oneway": "no",
    "segregated": "yes",
    "source": "Observations sur place + GPS",
    "surface": "asphalt"
  }
},
{
  "type": "way",
  "id": 304528459,
  "nodes": [
    1863322286,
    1863322291,
    1863322295,
    1863322344,
    1863322379,
    1863322389
  ],
  "tags": {
    "bicycle": "designated",
    "highway": "cycleway",
    "oneway": "no",
    "segregated": "yes",
    "source": "Observations sur place + GPS",
    "surface": "asphalt"
  }
},
{
  "type": "way",
  "id": 304529531,
  "nodes": [
    1863322297,
    1863322305,
    1863322315,
    1863322320,
    1863322313,
    1863322300,
    1863322293,
    1863322290,
    1863322288,
    1863322285,
    1863322269,
    3090739331,
    1863322265,
    3090739332,
    1863322260,
    1863322256
  ],
  "tags": {
    "bicycle": "designated",
    "highway": "cycleway",
    "oneway": "no",
    "segregated": "yes",
    "source": "Observations sur place + GPS",
    "surface": "asphalt"
  }
},
{
  "type": "way",
  "id": 304529987,
  "nodes": [
    1863322399,
    1863322402,
    3090739336,
    1863322404,
    1863322407
  ],
  "tags": {
    "bicycle": "designated",
    "highway": "cycleway",
    "oneway": "no",
    "segregated": "yes",
    "source": "Observations sur place + GPS",
    "surface": "asphalt"
  }
},
{
  "type": "way",
  "id": 304529991,
  "nodes": [
    1863322425,
    1863322427,
    1863322430
  ],
  "tags": {
    "bicycle": "designated",
    "highway": "cycleway",
    "oneway": "no",
    "segregated": "yes",
    "source": "Observations sur place + GPS",
    "surface": "asphalt"
  }
},
{
  "type": "way",
  "id": 304529994,
  "nodes": [
    1863322411,
    1863322405,
    1863322403,
    1863322401,
    1863322398,
    1863322394,
    1863322388,
    1863322386,
    1863322373,
    1863322364,
    1863322358,
    1863322354,
    1863322353,
    1863322351,
    1863322349,
    1863322347,
    1863322346,
    1863322343,
    1863322341,
    1863322337,
    1863322335,
    1863322327,
    1863322326
  ],
  "tags": {
    "bicycle": "designated",
    "highway": "cycleway",
    "oneway": "yes",
    "segregated": "yes",
    "source": "Observations sur place + GPS",
    "surface": "asphalt"
  }
},
{
  "type": "way",
  "id": 304529996,
  "nodes": [
    1863322444,
    1863322442,
    1863322440,
    1863322437,
    1863322436,
    1863322434,
    1863322432
  ],
  "tags": {
    "bicycle": "designated",
    "highway": "cycleway",
    "oneway": "yes",
    "segregated": "yes",
    "source": "Observations sur place + GPS",
    "surface": "asphalt"
  }
},
{
  "type": "way",
  "id": 376824388,
  "nodes": [
    1468653744,
    1313135758,
    3802073210,
    3802073211,
    3802073212,
    1045052174
  ],
  "tags": {
    "highway": "cycleway",
    "lit": "yes",
    "surface": "asphalt"
  }
},
{
  "type": "way",
  "id": 772273199,
  "nodes": [
    9104294103,
    7209643138,
    9104294104,
    7209643135
  ],
  "tags": {
    "highway": "cycleway"
  }
},
{
  "type": "way",
  "id": 844854744,
  "nodes": [
    2657333143,
    2460079089,
    2460079092,
    2460079093
  ],
  "tags": {
    "highway": "cycleway",
    "lit": "yes",
    "motorcycle": "no",
    "oneway": "no"
  }
},
{
  "type": "way",
  "id": 847814318,
  "nodes": [
    1329920645,
    471713980,
    471713981,
    471713982,
    1329920666,
    471713983,
    471713984
  ],
  "tags": {
    "highway": "cycleway",
    "lanes": "1",
    "maxspeed": "30",
    "name": "Voie André Malraux",
    "oneway": "yes",
    "surface": "asphalt"
  }
},
{
  "type": "way",
  "id": 847814320,
  "nodes": [
    471713986,
    471713987,
    471713988,
    471713989,
    7911326636
  ],
  "tags": {
    "bridge": "yes",
    "highway": "cycleway",
    "lanes": "1",
    "layer": "1",
    "maxspeed": "30",
    "name": "Voie André Malraux",
    "oneway": "yes",
    "surface": "asphalt"
  }
},
{
  "type": "way",
  "id": 847814327,
  "nodes": [
    7911326634,
    471713996,
    9039145136,
    9039145133,
    9104294106,
    471714292,
    7919698613,
    7919698614,
    7919698615,
    7921535528,
    7919698616,
    7919698617,
    7919698618,
    7919698619,
    7919698620,
    7919698621,
    7919698622,
    7919698623,
    7919698624,
    7919698625,
    7919698626,
    7919698627
  ],
  "tags": {
    "bridge": "yes",
    "highway": "cycleway",
    "lanes": "1",
    "layer": "1",
    "maxspeed": "50",
    "name": "Voie André Malraux",
    "oneway": "yes",
    "surface": "asphalt"
  }
},
{
  "type": "way",
  "id": 847814328,
  "nodes": [
    7911326636,
    471794481,
    6282357163,
    471713990,
    471713991,
    471713992,
    471713993,
    471713994,
    471713995,
    471794479,
    7911326634
  ],
  "tags": {
    "highway": "cycleway",
    "lanes": "1",
    "maxspeed": "30",
    "name": "Voie André Malraux",
    "oneway": "yes",
    "surface": "asphalt"
  }
},
{
  "type": "way",
  "id": 848796285,
  "nodes": [
    7919698608,
    7919698598,
    7919698599,
    7919698600,
    7919698601,
    7919698602,
    7919698603,
    7919698604,
    7919698605,
    7919698606,
    7921535525,
    7921535522,
    7921535523
  ],
  "tags": {
    "highway": "cycleway",
    "lanes": "1",
    "name": "Voie André Malraux",
    "oneway": "yes",
    "surface": "asphalt"
  }
},
{
  "type": "way",
  "id": 848796286,
  "nodes": [
    7919698609,
    7919698610,
    7919698611,
    7919698612,
    7919698608
  ],
  "tags": {
    "bridge": "yes",
    "highway": "cycleway",
    "lanes": "1",
    "layer": "1",
    "name": "Voie André Malraux",
    "oneway": "yes",
    "surface": "asphalt"
  }
},
{
  "type": "way",
  "id": 848796289,
  "nodes": [
    7919698673,
    7919698666,
    7919698667,
    7919698668,
    7919698669,
    7921535560,
    7919698670,
    7919698671,
    7919698672
  ],
  "tags": {
    "highway": "cycleway",
    "lanes": "1",
    "maxspeed": "50",
    "name": "Voie André Malraux",
    "oneway": "yes"
  }
},
{
  "type": "way",
  "id": 848796290,
  "nodes": [
    7919698674,
    7919698664,
    7919698665,
    7919698673
  ],
  "tags": {
    "bridge": "yes",
    "highway": "cycleway",
    "lanes": "1",
    "layer": "1",
    "maxspeed": "50",
    "name": "Voie André Malraux",
    "oneway": "yes"
  }
},
{
  "type": "way",
  "id": 848796293,
  "nodes": [
    7919698677,
    7919690129,
    7919690130,
    7919690131,
    7919690132,
    7919690133,
    7921535554,
    7919690134,
    7919690135
  ],
  "tags": {
    "highway": "cycleway",
    "maxspeed": "50",
    "name": "Voie André Malraux",
    "oneway": "yes",
    "surface": "asphalt"
  }
},
{
  "type": "way",
  "id": 848796294,
  "nodes": [
    7919698678,
    7919698677
  ],
  "tags": {
    "bridge": "yes",
    "highway": "cycleway",
    "layer": "1",
    "maxspeed": "50",
    "name": "Voie André Malraux",
    "oneway": "yes",
    "surface": "asphalt"
  }
},
{
  "type": "way",
  "id": 848796295,
  "nodes": [
    7919698656,
    7919698657
  ],
  "tags": {
    "bridge": "yes",
    "highway": "cycleway",
    "lanes": "1",
    "layer": "1",
    "maxspeed": "50",
    "name": "Voie André Malraux",
    "oneway": "yes"
  }
},
{
  "type": "way",
  "id": 848796296,
  "nodes": [
    7919690137,
    7919690138,
    7919690139,
    7919690140,
    7919690141,
    7919690142,
    7919690143,
    7919690144,
    7921535551,
    7919690145,
    7919690146,
    7919690147,
    7919690148,
    7919690149,
    7919690150,
    7919690151,
    7919690152,
    7919690153,
    7919690154,
    7919690155,
    7919690156,
    7919690157,
    7919690158,
    7919690159,
    7919690160,
    7919690161,
    7919690162,
    7919690163,
    7919690164,
    7919690165,
    7919690166,
    7919690167,
    7919690168,
    7919690169,
    7919690170,
    7919690171,
    7919690172,
    7919690173,
    7919690174,
    7919690175
  ],
  "tags": {
    "highway": "cycleway",
    "lanes": "1",
    "maxspeed": "50",
    "name": "Voie André Malraux",
    "oneway": "yes",
    "surface": "asphalt"
  }
},
{
  "type": "way",
  "id": 848796297,
  "nodes": [
    7919690135,
    7919690136,
    7919690137
  ],
  "tags": {
    "bridge": "yes",
    "highway": "cycleway",
    "layer": "1",
    "maxspeed": "50",
    "name": "Voie André Malraux",
    "oneway": "yes",
    "surface": "asphalt"
  }
},
{
  "type": "way",
  "id": 848796298,
  "nodes": [
    7919698657,
    7919698658,
    7921535552,
    7919698659,
    7919698660,
    7919698661,
    7919698662,
    7919698663,
    7919698674
  ],
  "tags": {
    "highway": "cycleway",
    "lanes": "1",
    "maxspeed": "50",
    "name": "Voie André Malraux",
    "oneway": "yes"
  }
},
{
  "type": "way",
  "id": 848796299,
  "nodes": [
    7919690175,
    7919690176,
    7919690177,
    7919690178,
    7919690179,
    7919690180,
    7919690181,
    7919690182,
    7919690183,
    7919690184,
    7919698585,
    7919698586,
    7919698587
  ],
  "tags": {
    "bridge": "yes",
    "highway": "cycleway",
    "lanes": "1",
    "layer": "1",
    "maxspeed": "50",
    "name": "Voie André Malraux",
    "oneway": "yes",
    "surface": "asphalt"
  }
},
{
  "type": "way",
  "id": 848796300,
  "nodes": [
    7919698627,
    7919698628,
    7919698629,
    7919698630,
    7919698631,
    7919698632,
    7919698633,
    7919698634,
    7919698635,
    7919698636,
    7919698637,
    7919698638,
    7919698639,
    7919698640,
    7919698641,
    7919698642,
    7919698643,
    7919698644,
    7919698645,
    7919698646,
    7919698647,
    7919698648,
    7919698649,
    7919698650,
    7919698651,
    7919698652,
    7919698653,
    7919698654,
    7919698655,
    7919698656
  ],
  "tags": {
    "highway": "cycleway",
    "lanes": "1",
    "maxspeed": "50",
    "name": "Voie André Malraux",
    "oneway": "yes",
    "surface": "asphalt"
  }
},
{
  "type": "way",
  "id": 848796301,
  "nodes": [
    7919698587,
    7919698588,
    7919698589,
    7919698590,
    7919698591,
    7919698592,
    7919698593,
    7919698594,
    7919698595,
    7919698596,
    7919698597,
    7919698609
  ],
  "tags": {
    "highway": "cycleway",
    "lanes": "1",
    "maxspeed": "50",
    "name": "Voie André Malraux",
    "oneway": "yes",
    "surface": "asphalt"
  }
},
{
  "type": "way",
  "id": 849041443,
  "nodes": [
    471714269,
    7921535548,
    7921535547,
    9039145126,
    7921535546,
    9039145125,
    7921535545,
    7921535544,
    9039145139,
    7921535543,
    7921535542,
    9039145128,
    7921535541,
    9039145127,
    7921535540,
    7921535539,
    7921535538,
    7921535537,
    7921535536,
    7921535535
  ],
  "tags": {
    "highway": "cycleway",
    "name": "Voie André Malraux",
    "oneway": "yes"
  }
},
{
  "type": "way",
  "id": 849041445,
  "nodes": [
    471794561,
    7921535551
  ],
  "tags": {
    "highway": "cycleway",
    "name": "Voie Andre malraux",
    "oneway": "yes"
  }
},
{
  "type": "way",
  "id": 849041446,
  "nodes": [
    7921535552,
    6282357150
  ],
  "tags": {
    "highway": "cycleway",
    "name": "Voie André Malraux",
    "oneway": "yes",
    "surface": "asphalt"
  }
},
{
  "type": "way",
  "id": 849041447,
  "nodes": [
    7921535555,
    7921535554
  ],
  "tags": {
    "highway": "cycleway",
    "name": "Voie André Malraux",
    "oneway": "yes"
  }
},
{
  "type": "way",
  "id": 849041448,
  "nodes": [
    471794813,
    7919698678
  ],
  "tags": {
    "highway": "cycleway",
    "name": "Voie André Malraux",
    "oneway": "yes",
    "surface": "asphalt"
  }
},
{
  "type": "way",
  "id": 849041449,
  "nodes": [
    7921535559,
    7921535560
  ],
  "tags": {
    "highway": "cycleway",
    "name": "Voie André Malraux",
    "oneway": "yes",
    "surface": "asphalt"
  }
},
{
  "type": "way",
  "id": 849041450,
  "nodes": [
    471979759,
    7921535564
  ],
  "tags": {
    "highway": "cycleway",
    "name": "Voie André Malraux",
    "oneway": "yes",
    "surface": "asphalt"
  }
},
{
  "type": "way",
  "id": 860471505,
  "nodes": [
    8019465851,
    7919690119,
    7919690120,
    7919690121,
    7921535564,
    7919690122,
    7919690123,
    7919690124,
    7919690125,
    7919690126,
    7919690127,
    7919690128,
    7919698678
  ],
  "tags": {
    "highway": "cycleway",
    "maxspeed": "50",
    "name": "Voie André Malraux",
    "oneway": "yes",
    "surface": "asphalt"
  }
},
{
  "type": "way",
  "id": 878255521,
  "nodes": [
    7921535512,
    467483010,
    1329920645
  ],
  "tags": {
    "highway": "cycleway",
    "lanes": "1",
    "maxspeed": "50",
    "name": "Voie André Malraux",
    "oneway": "yes",
    "surface": "asphalt"
  }
},
{
  "type": "way",
  "id": 976799345,
  "nodes": [
    7921535535,
    9039145135,
    9039145132,
    9039145134,
    9104294106
  ],
  "tags": {
    "bridge": "yes",
    "highway": "cycleway",
    "layer": "1",
    "name": "Voie André Malraux",
    "oneway": "yes"
  }
},
{
  "type": "way",
  "id": 997016114,
  "nodes": [
    9206294011,
    9206294012,
    9206294013,
    9206294014,
    7872006073
  ],
  "tags": {
    "highway": "cycleway"
  }
},
{
  "type": "area",
  "id": 3600132348,
  "tags": {
    "admin_level": "8",
    "alt_name:eo": "Potevo",
    "boundary": "administrative",
    "name": "Poitiers",
    "name:br": "Poatie",
    "name:el": "Πουατιέ",
    "name:eo": "Puatiero",
    "name:fr": "Poitiers",
    "name:he": "פואטייה",
    "name:ja": "ポワチエ",
    "name:lt": "Puatjė",
    "name:oc": "Peitieus",
    "name:ru": "Пуатье",
    "name:sr": "Поатје",
    "name:uk": "Пуатьє",
    "population": "89212",
    "population:date": "2019",
    "postal_code": "86000",
    "ref:INSEE": "86194",
    "source:population": "INSEE 2022",
    "type": "boundary",
    "wikidata": "Q6616",
    "wikipedia": "fr:Poitiers"
  }
},
{
  "type": "node",
  "id": 1845377064,
  "lat": 46.5458941,
  "lon": 0.2893825
},
{
  "type": "node",
  "id": 1845377065,
  "lat": 46.5460298,
  "lon": 0.2893561
},
{
  "type": "node",
  "id": 1845377066,
  "lat": 46.5461686,
  "lon": 0.2895287
},
{
  "type": "node",
  "id": 1845377067,
  "lat": 46.5462949,
  "lon": 0.2897063
},
{
  "type": "node",
  "id": 1845377068,
  "lat": 46.5465152,
  "lon": 0.2900855
},
{
  "type": "node",
  "id": 1845377069,
  "lat": 46.5465983,
  "lon": 0.2902637
},
{
  "type": "node",
  "id": 1845377070,
  "lat": 46.5466685,
  "lon": 0.2905001
},
{
  "type": "node",
  "id": 1845377071,
  "lat": 46.5468055,
  "lon": 0.2908211
},
{
  "type": "node",
  "id": 7172760965,
  "lat": 46.5459976,
  "lon": 0.2893480
},
{
  "type": "node",
  "id": 7172764193,
  "lat": 46.5460565,
  "lon": 0.2893733
},
{
  "type": "node",
  "id": 7172764194,
  "lat": 46.5459792,
  "lon": 0.2893531
},
{
  "type": "node",
  "id": 7172764195,
  "lat": 46.5459414,
  "lon": 0.2893689
},
{
  "type": "node",
  "id": 7172764196,
  "lat": 46.5459220,
  "lon": 0.2893825
},
{
  "type": "node",
  "id": 1845377072,
  "lat": 46.5469599,
  "lon": 0.2911036
},
{
  "type": "node",
  "id": 1845377073,
  "lat": 46.5470713,
  "lon": 0.2912367
},
{
  "type": "node",
  "id": 1845377074,
  "lat": 46.5471469,
  "lon": 0.2913332
},
{
  "type": "node",
  "id": 1845377075,
  "lat": 46.5472312,
  "lon": 0.2915077
},
{
  "type": "node",
  "id": 1845377076,
  "lat": 46.5473195,
  "lon": 0.2916492
},
{
  "type": "node",
  "id": 1845377077,
  "lat": 46.5473788,
  "lon": 0.2917688
},
{
  "type": "node",
  "id": 1845377078,
  "lat": 46.5474168,
  "lon": 0.2918631
},
{
  "type": "node",
  "id": 1845377079,
  "lat": 46.5474466,
  "lon": 0.2919467
},
{
  "type": "node",
  "id": 1845377080,
  "lat": 46.5474852,
  "lon": 0.2919846
},
{
  "type": "node",
  "id": 1845377081,
  "lat": 46.5475162,
  "lon": 0.2919994
},
{
  "type": "node",
  "id": 1845377083,
  "lat": 46.5475482,
  "lon": 0.2920115
},
{
  "type": "node",
  "id": 1845377084,
  "lat": 46.5476422,
  "lon": 0.2921486
},
{
  "type": "node",
  "id": 1845377085,
  "lat": 46.5476691,
  "lon": 0.2921901
},
{
  "type": "node",
  "id": 1845377086,
  "lat": 46.5477553,
  "lon": 0.2923487
},
{
  "type": "node",
  "id": 1845377087,
  "lat": 46.5477841,
  "lon": 0.2924837
},
{
  "type": "node",
  "id": 1845377088,
  "lat": 46.5477956,
  "lon": 0.2925646
},
{
  "type": "node",
  "id": 1845377089,
  "lat": 46.5478581,
  "lon": 0.2927132
},
{
  "type": "node",
  "id": 1845377090,
  "lat": 46.5479024,
  "lon": 0.2927840
},
{
  "type": "node",
  "id": 1845377091,
  "lat": 46.5480443,
  "lon": 0.2929874
},
{
  "type": "node",
  "id": 1845377093,
  "lat": 46.5482197,
  "lon": 0.2932189
},
{
  "type": "node",
  "id": 1845377095,
  "lat": 46.5485271,
  "lon": 0.2936423
},
{
  "type": "node",
  "id": 1845377100,
  "lat": 46.5486614,
  "lon": 0.2938182
},
{
  "type": "node",
  "id": 1845377103,
  "lat": 46.5488267,
  "lon": 0.2940284
},
{
  "type": "node",
  "id": 1845377105,
  "lat": 46.5489837,
  "lon": 0.2941794
},
{
  "type": "node",
  "id": 1845377107,
  "lat": 46.5491798,
  "lon": 0.2943582
},
{
  "type": "node",
  "id": 1845377108,
  "lat": 46.5492519,
  "lon": 0.2944539
},
{
  "type": "node",
  "id": 1845377111,
  "lat": 46.5495293,
  "lon": 0.2947696
},
{
  "type": "node",
  "id": 1845377112,
  "lat": 46.5496011,
  "lon": 0.2948474
},
{
  "type": "node",
  "id": 9370557177,
  "lat": 46.5475831,
  "lon": 0.2920460
},
{
  "type": "node",
  "id": 9370557178,
  "lat": 46.5477753,
  "lon": 0.2924172
},
{
  "type": "node",
  "id": 9370557179,
  "lat": 46.5478258,
  "lon": 0.2926475
},
{
  "type": "node",
  "id": 1119484465,
  "lat": 46.5497301,
  "lon": 0.2949670
},
{
  "type": "node",
  "id": 1845377098,
  "lat": 46.5486320,
  "lon": 0.3003974
},
{
  "type": "node",
  "id": 1845377099,
  "lat": 46.5486648,
  "lon": 0.3003644
},
{
  "type": "node",
  "id": 1845377102,
  "lat": 46.5487981,
  "lon": 0.3005130
},
{
  "type": "node",
  "id": 1845377110,
  "lat": 46.5494160,
  "lon": 0.3012208
},
{
  "type": "node",
  "id": 1845377115,
  "lat": 46.5499170,
  "lon": 0.3017931
},
{
  "type": "node",
  "id": 1845377116,
  "lat": 46.5500496,
  "lon": 0.3019496
},
{
  "type": "node",
  "id": 1845377117,
  "lat": 46.5502518,
  "lon": 0.3021956
},
{
  "type": "node",
  "id": 1845377130,
  "lat": 46.5504850,
  "lon": 0.3024616
},
{
  "type": "node",
  "id": 1845377132,
  "lat": 46.5505355,
  "lon": 0.3025136
},
{
  "type": "node",
  "id": 1845377136,
  "lat": 46.5507173,
  "lon": 0.3027447
},
{
  "type": "node",
  "id": 1845377142,
  "lat": 46.5508499,
  "lon": 0.3029322
},
{
  "type": "node",
  "id": 1845377145,
  "lat": 46.5509672,
  "lon": 0.3031596
},
{
  "type": "node",
  "id": 1845377153,
  "lat": 46.5510468,
  "lon": 0.3032453
},
{
  "type": "node",
  "id": 6153259149,
  "lat": 46.5510103,
  "lon": 0.3032204
},
{
  "type": "node",
  "id": 1827373315,
  "lat": 46.5505321,
  "lon": 0.3124107
},
{
  "type": "node",
  "id": 1827373317,
  "lat": 46.5505481,
  "lon": 0.3127288
},
{
  "type": "node",
  "id": 1827373318,
  "lat": 46.5505522,
  "lon": 0.3128861
},
{
  "type": "node",
  "id": 1827373320,
  "lat": 46.5505539,
  "lon": 0.3130866
},
{
  "type": "node",
  "id": 1846794150,
  "lat": 46.5533122,
  "lon": 0.3096081
},
{
  "type": "node",
  "id": 1846794151,
  "lat": 46.5534089,
  "lon": 0.3095296
},
{
  "type": "node",
  "id": 1846794152,
  "lat": 46.5534444,
  "lon": 0.3093993
},
{
  "type": "node",
  "id": 6092277149,
  "lat": 46.5502617,
  "lon": 0.3091361
},
{
  "type": "node",
  "id": 6153259125,
  "lat": 46.5504392,
  "lon": 0.3111960
},
{
  "type": "node",
  "id": 475548445,
  "lat": 46.5547782,
  "lon": 0.3069210
},
{
  "type": "node",
  "id": 475548450,
  "lat": 46.5543445,
  "lon": 0.3074353
},
{
  "type": "node",
  "id": 475548453,
  "lat": 46.5546076,
  "lon": 0.3073176
},
{
  "type": "node",
  "id": 1846794161,
  "lat": 46.5541466,
  "lon": 0.3078778
},
{
  "type": "node",
  "id": 1846794164,
  "lat": 46.5543592,
  "lon": 0.3074955
},
{
  "type": "node",
  "id": 1846794165,
  "lat": 46.5544386,
  "lon": 0.3074301
},
{
  "type": "node",
  "id": 1846794168,
  "lat": 46.5545837,
  "lon": 0.3073698
},
{
  "type": "node",
  "id": 5043857159,
  "lat": 46.5546779,
  "lon": 0.3070695
},
{
  "type": "node",
  "id": 5043857160,
  "lat": 46.5546208,
  "lon": 0.3071615
},
{
  "type": "node",
  "id": 5043857161,
  "lat": 46.5545970,
  "lon": 0.3072081
},
{
  "type": "node",
  "id": 1846794155,
  "lat": 46.5536381,
  "lon": 0.3088727
},
{
  "type": "node",
  "id": 1846794159,
  "lat": 46.5537884,
  "lon": 0.3085439
},
{
  "type": "node",
  "id": 5043857063,
  "lat": 46.5538181,
  "lon": 0.3084887
},
{
  "type": "node",
  "id": 6555694753,
  "lat": 46.5539369,
  "lon": 0.3082677
},
{
  "type": "node",
  "id": 1853963241,
  "lat": 46.5653347,
  "lon": 0.3381725
},
{
  "type": "node",
  "id": 1853963286,
  "lat": 46.5654536,
  "lon": 0.3383668
},
{
  "type": "node",
  "id": 1853963292,
  "lat": 46.5655018,
  "lon": 0.3384513
},
{
  "type": "node",
  "id": 1853963304,
  "lat": 46.5654826,
  "lon": 0.3385106
},
{
  "type": "node",
  "id": 2207019250,
  "lat": 46.5664898,
  "lon": 0.3403906
},
{
  "type": "node",
  "id": 2207019251,
  "lat": 46.5665429,
  "lon": 0.3404133
},
{
  "type": "node",
  "id": 6154116799,
  "lat": 46.5653837,
  "lon": 0.3382970
},
{
  "type": "node",
  "id": 6154116800,
  "lat": 46.5653464,
  "lon": 0.3382125
},
{
  "type": "node",
  "id": 6154116802,
  "lat": 46.5654123,
  "lon": 0.3383285
},
{
  "type": "node",
  "id": 2207019254,
  "lat": 46.5669306,
  "lon": 0.3406161
},
{
  "type": "node",
  "id": 2207019256,
  "lat": 46.5671550,
  "lon": 0.3407335
},
{
  "type": "node",
  "id": 3517734705,
  "lat": 46.5672109,
  "lon": 0.3407854
},
{
  "type": "node",
  "id": 1853962293,
  "lat": 46.5632299,
  "lon": 0.3461127
},
{
  "type": "node",
  "id": 1853962313,
  "lat": 46.5632872,
  "lon": 0.3468915
},
{
  "type": "node",
  "id": 7314216453,
  "lat": 46.5631487,
  "lon": 0.3457710
},
{
  "type": "node",
  "id": 7314216454,
  "lat": 46.5632035,
  "lon": 0.3458230
},
{
  "type": "node",
  "id": 1853962331,
  "lat": 46.5633568,
  "lon": 0.3478209
},
{
  "type": "node",
  "id": 1853962350,
  "lat": 46.5634175,
  "lon": 0.3486531
},
{
  "type": "node",
  "id": 1853962355,
  "lat": 46.5634386,
  "lon": 0.3490933
},
{
  "type": "node",
  "id": 1853962375,
  "lat": 46.5634845,
  "lon": 0.3496614
},
{
  "type": "node",
  "id": 1853962381,
  "lat": 46.5634979,
  "lon": 0.3499539
},
{
  "type": "node",
  "id": 1853962399,
  "lat": 46.5635427,
  "lon": 0.3504780
},
{
  "type": "node",
  "id": 1853962403,
  "lat": 46.5635561,
  "lon": 0.3505876
},
{
  "type": "node",
  "id": 1853962419,
  "lat": 46.5635937,
  "lon": 0.3508001
},
{
  "type": "node",
  "id": 1853962428,
  "lat": 46.5636416,
  "lon": 0.3509900
},
{
  "type": "node",
  "id": 1853962459,
  "lat": 46.5636986,
  "lon": 0.3511952
},
{
  "type": "node",
  "id": 1853962465,
  "lat": 46.5637513,
  "lon": 0.3513600
},
{
  "type": "node",
  "id": 1853962494,
  "lat": 46.5638076,
  "lon": 0.3514893
},
{
  "type": "node",
  "id": 1853962522,
  "lat": 46.5638477,
  "lon": 0.3515771
},
{
  "type": "node",
  "id": 1853962530,
  "lat": 46.5638808,
  "lon": 0.3516464
},
{
  "type": "node",
  "id": 1853962531,
  "lat": 46.5638958,
  "lon": 0.3516692
},
{
  "type": "node",
  "id": 1853962534,
  "lat": 46.5639446,
  "lon": 0.3516795
},
{
  "type": "node",
  "id": 1853962536,
  "lat": 46.5639502,
  "lon": 0.3517086
},
{
  "type": "node",
  "id": 1853962547,
  "lat": 46.5640002,
  "lon": 0.3516847
},
{
  "type": "node",
  "id": 1853962557,
  "lat": 46.5640424,
  "lon": 0.3518075
},
{
  "type": "node",
  "id": 1853962560,
  "lat": 46.5640444,
  "lon": 0.3516715
},
{
  "type": "node",
  "id": 1853962564,
  "lat": 46.5640635,
  "lon": 0.3516516
},
{
  "type": "node",
  "id": 1853962570,
  "lat": 46.5640805,
  "lon": 0.3516350
},
{
  "type": "node",
  "id": 1853962572,
  "lat": 46.5640888,
  "lon": 0.3518506
},
{
  "type": "node",
  "id": 1853962574,
  "lat": 46.5640988,
  "lon": 0.3516161
},
{
  "type": "node",
  "id": 1853962586,
  "lat": 46.5641528,
  "lon": 0.3519168
},
{
  "type": "node",
  "id": 519348660,
  "lat": 46.5517932,
  "lon": 0.3892763
},
{
  "type": "node",
  "id": 519348663,
  "lat": 46.5515752,
  "lon": 0.3896973
},
{
  "type": "node",
  "id": 519348680,
  "lat": 46.5520414,
  "lon": 0.3888174
},
{
  "type": "node",
  "id": 524582001,
  "lat": 46.5522801,
  "lon": 0.3886469
},
{
  "type": "node",
  "id": 524582022,
  "lat": 46.5527943,
  "lon": 0.3892627
},
{
  "type": "node",
  "id": 6960260422,
  "lat": 46.5515449,
  "lon": 0.3897290
},
{
  "type": "node",
  "id": 6960260423,
  "lat": 46.5494417,
  "lon": 0.3900135
},
{
  "type": "node",
  "id": 6960260424,
  "lat": 46.5489335,
  "lon": 0.3911503
},
{
  "type": "node",
  "id": 6960260425,
  "lat": 46.5506684,
  "lon": 0.3886965
},
{
  "type": "node",
  "id": 6960260429,
  "lat": 46.5485180,
  "lon": 0.3929523
},
{
  "type": "node",
  "id": 9474290287,
  "lat": 46.5514946,
  "lon": 0.3897088
},
{
  "type": "node",
  "id": 9474290288,
  "lat": 46.5515231,
  "lon": 0.3897269
},
{
  "type": "node",
  "id": 9474290289,
  "lat": 46.5521997,
  "lon": 0.3886146
},
{
  "type": "node",
  "id": 9474290291,
  "lat": 46.5522357,
  "lon": 0.3886169
},
{
  "type": "node",
  "id": 9474290292,
  "lat": 46.5521580,
  "lon": 0.3886398
},
{
  "type": "node",
  "id": 9474290294,
  "lat": 46.5521771,
  "lon": 0.3886233
},
{
  "type": "node",
  "id": 9474290295,
  "lat": 46.5503249,
  "lon": 0.3890152
},
{
  "type": "node",
  "id": 9474290296,
  "lat": 46.5499403,
  "lon": 0.3893851
},
{
  "type": "node",
  "id": 9474290297,
  "lat": 46.5496814,
  "lon": 0.3896849
},
{
  "type": "node",
  "id": 9474290298,
  "lat": 46.5492602,
  "lon": 0.3903022
},
{
  "type": "node",
  "id": 9474290299,
  "lat": 46.5491084,
  "lon": 0.3906229
},
{
  "type": "node",
  "id": 9474290300,
  "lat": 46.5489767,
  "lon": 0.3909770
},
{
  "type": "node",
  "id": 9474290301,
  "lat": 46.5487598,
  "lon": 0.3919648
},
{
  "type": "node",
  "id": 9474290310,
  "lat": 46.5485790,
  "lon": 0.3926779
},
{
  "type": "node",
  "id": 9474290311,
  "lat": 46.5488860,
  "lon": 0.3913683
},
{
  "type": "node",
  "id": 355522396,
  "lat": 46.5691100,
  "lon": 0.3694033
},
{
  "type": "node",
  "id": 471979997,
  "lat": 46.5692005,
  "lon": 0.3691741
},
{
  "type": "node",
  "id": 1813069435,
  "lat": 46.5691583,
  "lon": 0.3692797
},
{
  "type": "node",
  "id": 1045052174,
  "lat": 46.5648357,
  "lon": 0.3853082
},
{
  "type": "node",
  "id": 1313135696,
  "lat": 46.5641904,
  "lon": 0.3824664
},
{
  "type": "node",
  "id": 1313135697,
  "lat": 46.5642540,
  "lon": 0.3825666
},
{
  "type": "node",
  "id": 1313135758,
  "lat": 46.5654034,
  "lon": 0.3846104
},
{
  "type": "node",
  "id": 1468653674,
  "lat": 46.5638010,
  "lon": 0.3819555
},
{
  "type": "node",
  "id": 1468653676,
  "lat": 46.5638698,
  "lon": 0.3820783
},
{
  "type": "node",
  "id": 1468653678,
  "lat": 46.5639602,
  "lon": 0.3822058
},
{
  "type": "node",
  "id": 1468653681,
  "lat": 46.5640398,
  "lon": 0.3823312
},
{
  "type": "node",
  "id": 1468653684,
  "lat": 46.5643030,
  "lon": 0.3826744
},
{
  "type": "node",
  "id": 1468653694,
  "lat": 46.5643840,
  "lon": 0.3829456
},
{
  "type": "node",
  "id": 1468653699,
  "lat": 46.5645439,
  "lon": 0.3831526
},
{
  "type": "node",
  "id": 1468653702,
  "lat": 46.5647371,
  "lon": 0.3833294
},
{
  "type": "node",
  "id": 1468653704,
  "lat": 46.5649785,
  "lon": 0.3835841
},
{
  "type": "node",
  "id": 1468653713,
  "lat": 46.5651078,
  "lon": 0.3837790
},
{
  "type": "node",
  "id": 1468653727,
  "lat": 46.5651637,
  "lon": 0.3838568
},
{
  "type": "node",
  "id": 1468653729,
  "lat": 46.5652767,
  "lon": 0.3840486
},
{
  "type": "node",
  "id": 1468653734,
  "lat": 46.5653281,
  "lon": 0.3841884
},
{
  "type": "node",
  "id": 1468653739,
  "lat": 46.5653908,
  "lon": 0.3843560
},
{
  "type": "node",
  "id": 1468653744,
  "lat": 46.5654427,
  "lon": 0.3845897
},
{
  "type": "node",
  "id": 1468653750,
  "lat": 46.5654898,
  "lon": 0.3846791
},
{
  "type": "node",
  "id": 1889008739,
  "lat": 46.5637853,
  "lon": 0.3819458
},
{
  "type": "node",
  "id": 1889008740,
  "lat": 46.5641619,
  "lon": 0.3824298
},
{
  "type": "node",
  "id": 1889008741,
  "lat": 46.5642688,
  "lon": 0.3826009
},
{
  "type": "node",
  "id": 1889008742,
  "lat": 46.5654622,
  "lon": 0.3846217
},
{
  "type": "node",
  "id": 1889008745,
  "lat": 46.5655669,
  "lon": 0.3852272
},
{
  "type": "node",
  "id": 1889008746,
  "lat": 46.5655680,
  "lon": 0.3851980
},
{
  "type": "node",
  "id": 1889008747,
  "lat": 46.5655712,
  "lon": 0.3851126
},
{
  "type": "node",
  "id": 1889008748,
  "lat": 46.5655735,
  "lon": 0.3847088
},
{
  "type": "node",
  "id": 1889008753,
  "lat": 46.5655923,
  "lon": 0.3850208
},
{
  "type": "node",
  "id": 1889008754,
  "lat": 46.5656016,
  "lon": 0.3854240
},
{
  "type": "node",
  "id": 1889008756,
  "lat": 46.5656150,
  "lon": 0.3847547
},
{
  "type": "node",
  "id": 1889008759,
  "lat": 46.5656312,
  "lon": 0.3848978
},
{
  "type": "node",
  "id": 1889008760,
  "lat": 46.5656467,
  "lon": 0.3856707
},
{
  "type": "node",
  "id": 1889008761,
  "lat": 46.5656480,
  "lon": 0.3848196
},
{
  "type": "node",
  "id": 1889008767,
  "lat": 46.5657356,
  "lon": 0.3860029
},
{
  "type": "node",
  "id": 1889008770,
  "lat": 46.5657494,
  "lon": 0.3860363
},
{
  "type": "node",
  "id": 1889008781,
  "lat": 46.5658118,
  "lon": 0.3861875
},
{
  "type": "node",
  "id": 1889008798,
  "lat": 46.5659015,
  "lon": 0.3863548
},
{
  "type": "node",
  "id": 1889008836,
  "lat": 46.5660411,
  "lon": 0.3865734
},
{
  "type": "node",
  "id": 3802073210,
  "lat": 46.5653494,
  "lon": 0.3846524
},
{
  "type": "node",
  "id": 3802073211,
  "lat": 46.5649483,
  "lon": 0.3852538
},
{
  "type": "node",
  "id": 3802073212,
  "lat": 46.5648761,
  "lon": 0.3852446
},
{
  "type": "node",
  "id": 7319386625,
  "lat": 46.5645725,
  "lon": 0.3831788
},
{
  "type": "node",
  "id": 7319386630,
  "lat": 46.5643804,
  "lon": 0.3829337
},
{
  "type": "node",
  "id": 7872006073,
  "lat": 46.5637828,
  "lon": 0.3839540
},
{
  "type": "node",
  "id": 9206294011,
  "lat": 46.5642961,
  "lon": 0.3831602
},
{
  "type": "node",
  "id": 9206294012,
  "lat": 46.5641208,
  "lon": 0.3834413
},
{
  "type": "node",
  "id": 9206294013,
  "lat": 46.5639402,
  "lon": 0.3837415
},
{
  "type": "node",
  "id": 9206294014,
  "lat": 46.5638402,
  "lon": 0.3838483
},
{
  "type": "node",
  "id": 1889008863,
  "lat": 46.5662052,
  "lon": 0.3867505
},
{
  "type": "node",
  "id": 1889008871,
  "lat": 46.5663478,
  "lon": 0.3868983
},
{
  "type": "node",
  "id": 1889008886,
  "lat": 46.5665353,
  "lon": 0.3870895
},
{
  "type": "node",
  "id": 1889008890,
  "lat": 46.5665942,
  "lon": 0.3871544
},
{
  "type": "node",
  "id": 5831841322,
  "lat": 46.5664664,
  "lon": 0.3870193
},
{
  "type": "node",
  "id": 1313260828,
  "lat": 46.5681134,
  "lon": 0.3864158
},
{
  "type": "node",
  "id": 1313260936,
  "lat": 46.5690651,
  "lon": 0.3824254
},
{
  "type": "node",
  "id": 1313260938,
  "lat": 46.5690619,
  "lon": 0.3824790
},
{
  "type": "node",
  "id": 1313260939,
  "lat": 46.5690662,
  "lon": 0.3823923
},
{
  "type": "node",
  "id": 1313260942,
  "lat": 46.5690735,
  "lon": 0.3823737
},
{
  "type": "node",
  "id": 1313260943,
  "lat": 46.5690810,
  "lon": 0.3823508
},
{
  "type": "node",
  "id": 1313260944,
  "lat": 46.5690875,
  "lon": 0.3823265
},
{
  "type": "node",
  "id": 1313260947,
  "lat": 46.5691218,
  "lon": 0.3821728
},
{
  "type": "node",
  "id": 1313260950,
  "lat": 46.5691683,
  "lon": 0.3819898
},
{
  "type": "node",
  "id": 1313260957,
  "lat": 46.5692069,
  "lon": 0.3818365
},
{
  "type": "node",
  "id": 1313260963,
  "lat": 46.5692356,
  "lon": 0.3817421
},
{
  "type": "node",
  "id": 1313260968,
  "lat": 46.5692575,
  "lon": 0.3816823
},
{
  "type": "node",
  "id": 1313260972,
  "lat": 46.5692873,
  "lon": 0.3816195
},
{
  "type": "node",
  "id": 2895197543,
  "lat": 46.5681455,
  "lon": 0.3863366
},
{
  "type": "node",
  "id": 2895197547,
  "lat": 46.5682697,
  "lon": 0.3860131
},
{
  "type": "node",
  "id": 2895197551,
  "lat": 46.5683578,
  "lon": 0.3857673
},
{
  "type": "node",
  "id": 7180016366,
  "lat": 46.5691853,
  "lon": 0.3819222
},
{
  "type": "node",
  "id": 304890975,
  "lat": 46.5678872,
  "lon": 0.3876428
},
{
  "type": "node",
  "id": 415308442,
  "lat": 46.5679276,
  "lon": 0.3876692
},
{
  "type": "node",
  "id": 1313260787,
  "lat": 46.5672896,
  "lon": 0.3877573
},
{
  "type": "node",
  "id": 1324658453,
  "lat": 46.5675246,
  "lon": 0.3878784
},
{
  "type": "node",
  "id": 1889008942,
  "lat": 46.5669018,
  "lon": 0.3874154
},
{
  "type": "node",
  "id": 1889008971,
  "lat": 46.5671177,
  "lon": 0.3875893
},
{
  "type": "node",
  "id": 1889008975,
  "lat": 46.5671382,
  "lon": 0.3876058
},
{
  "type": "node",
  "id": 1889008985,
  "lat": 46.5672330,
  "lon": 0.3876904
},
{
  "type": "node",
  "id": 2895059562,
  "lat": 46.5674202,
  "lon": 0.3878589
},
{
  "type": "node",
  "id": 2895059564,
  "lat": 46.5676101,
  "lon": 0.3878497
},
{
  "type": "node",
  "id": 2895059565,
  "lat": 46.5677049,
  "lon": 0.3877851
},
{
  "type": "node",
  "id": 2895059566,
  "lat": 46.5677513,
  "lon": 0.3877617
},
{
  "type": "node",
  "id": 2895059567,
  "lat": 46.5677984,
  "lon": 0.3877407
},
{
  "type": "node",
  "id": 2895059568,
  "lat": 46.5678398,
  "lon": 0.3876736
},
{
  "type": "node",
  "id": 2895059570,
  "lat": 46.5679937,
  "lon": 0.3877170
},
{
  "type": "node",
  "id": 2895197539,
  "lat": 46.5678348,
  "lon": 0.3876346
},
{
  "type": "node",
  "id": 2895197540,
  "lat": 46.5678685,
  "lon": 0.3876282
},
{
  "type": "node",
  "id": 2895197541,
  "lat": 46.5679547,
  "lon": 0.3876837
},
{
  "type": "node",
  "id": 2895197542,
  "lat": 46.5679642,
  "lon": 0.3870563
},
{
  "type": "node",
  "id": 6153911826,
  "lat": 46.5678623,
  "lon": 0.3876237
},
{
  "type": "node",
  "id": 6153911827,
  "lat": 46.5678358,
  "lon": 0.3875971
},
{
  "type": "node",
  "id": 6153911828,
  "lat": 46.5678146,
  "lon": 0.3877227
},
{
  "type": "node",
  "id": 6960260420,
  "lat": 46.5478819,
  "lon": 0.3961088
},
{
  "type": "node",
  "id": 6960260421,
  "lat": 46.5480576,
  "lon": 0.3959964
},
{
  "type": "node",
  "id": 6960260427,
  "lat": 46.5482714,
  "lon": 0.3944777
},
{
  "type": "node",
  "id": 6960260431,
  "lat": 46.5479284,
  "lon": 0.3961106
},
{
  "type": "node",
  "id": 9474290302,
  "lat": 46.5484438,
  "lon": 0.3933256
},
{
  "type": "node",
  "id": 9474290303,
  "lat": 46.5483284,
  "lon": 0.3940877
},
{
  "type": "node",
  "id": 9474290307,
  "lat": 46.5479762,
  "lon": 0.3961130
},
{
  "type": "node",
  "id": 9474290308,
  "lat": 46.5480105,
  "lon": 0.3960969
},
{
  "type": "node",
  "id": 9474290309,
  "lat": 46.5480440,
  "lon": 0.3960545
},
{
  "type": "node",
  "id": 1399774232,
  "lat": 46.5858382,
  "lon": 0.3328834
},
{
  "type": "node",
  "id": 2276768335,
  "lat": 46.5855797,
  "lon": 0.3330761
},
{
  "type": "node",
  "id": 2276768339,
  "lat": 46.5856008,
  "lon": 0.3330885
},
{
  "type": "node",
  "id": 2276768343,
  "lat": 46.5857119,
  "lon": 0.3333011
},
{
  "type": "node",
  "id": 2276768352,
  "lat": 46.5860642,
  "lon": 0.3340417
},
{
  "type": "node",
  "id": 2460079089,
  "lat": 46.5856087,
  "lon": 0.3333004
},
{
  "type": "node",
  "id": 2460079091,
  "lat": 46.5856353,
  "lon": 0.3331545
},
{
  "type": "node",
  "id": 2460079092,
  "lat": 46.5856590,
  "lon": 0.3332461
},
{
  "type": "node",
  "id": 2460079093,
  "lat": 46.5856724,
  "lon": 0.3332293
},
{
  "type": "node",
  "id": 2460079095,
  "lat": 46.5857522,
  "lon": 0.3331380
},
{
  "type": "node",
  "id": 2460079098,
  "lat": 46.5857700,
  "lon": 0.3334423
},
{
  "type": "node",
  "id": 2460079108,
  "lat": 46.5858001,
  "lon": 0.3329520
},
{
  "type": "node",
  "id": 2657333143,
  "lat": 46.5855694,
  "lon": 0.3333662
},
{
  "type": "node",
  "id": 374282493,
  "lat": 46.5828737,
  "lon": 0.3362728
},
{
  "type": "node",
  "id": 1269263717,
  "lat": 46.5861646,
  "lon": 0.3342362
},
{
  "type": "node",
  "id": 1578956901,
  "lat": 46.5834722,
  "lon": 0.3367992
},
{
  "type": "node",
  "id": 1578956903,
  "lat": 46.5835708,
  "lon": 0.3368851
},
{
  "type": "node",
  "id": 471395523,
  "lat": 46.5920323,
  "lon": 0.3206543
},
{
  "type": "node",
  "id": 471395533,
  "lat": 46.5903214,
  "lon": 0.3199611
},
{
  "type": "node",
  "id": 471395534,
  "lat": 46.5901851,
  "lon": 0.3198536
},
{
  "type": "node",
  "id": 471395549,
  "lat": 46.5917210,
  "lon": 0.3207055
},
{
  "type": "node",
  "id": 471395612,
  "lat": 46.5914597,
  "lon": 0.3210428
},
{
  "type": "node",
  "id": 471395623,
  "lat": 46.5914794,
  "lon": 0.3210131
},
{
  "type": "node",
  "id": 471395625,
  "lat": 46.5915499,
  "lon": 0.3208692
},
{
  "type": "node",
  "id": 471395627,
  "lat": 46.5916910,
  "lon": 0.3207281
},
{
  "type": "node",
  "id": 471395629,
  "lat": 46.5918704,
  "lon": 0.3206542
},
{
  "type": "node",
  "id": 471395633,
  "lat": 46.5921733,
  "lon": 0.3207046
},
{
  "type": "node",
  "id": 471395634,
  "lat": 46.5923120,
  "lon": 0.3208134
},
{
  "type": "node",
  "id": 471395637,
  "lat": 46.5923586,
  "lon": 0.3208709
},
{
  "type": "node",
  "id": 471395638,
  "lat": 46.5924518,
  "lon": 0.3209906
},
{
  "type": "node",
  "id": 471395665,
  "lat": 46.5923348,
  "lon": 0.3208416
},
{
  "type": "node",
  "id": 1685210320,
  "lat": 46.5902302,
  "lon": 0.3198983
},
{
  "type": "node",
  "id": 1685210323,
  "lat": 46.5903924,
  "lon": 0.3200093
},
{
  "type": "node",
  "id": 1685210501,
  "lat": 46.5917615,
  "lon": 0.3206863
},
{
  "type": "node",
  "id": 1685210528,
  "lat": 46.5920759,
  "lon": 0.3206699
},
{
  "type": "node",
  "id": 1685210557,
  "lat": 46.5924600,
  "lon": 0.3210082
},
{
  "type": "node",
  "id": 471395611,
  "lat": 46.5913825,
  "lon": 0.3212820
},
{
  "type": "node",
  "id": 471395639,
  "lat": 46.5925253,
  "lon": 0.3211474
},
{
  "type": "node",
  "id": 471395642,
  "lat": 46.5925758,
  "lon": 0.3213348
},
{
  "type": "node",
  "id": 471395644,
  "lat": 46.5925996,
  "lon": 0.3215231
},
{
  "type": "node",
  "id": 471395646,
  "lat": 46.5925776,
  "lon": 0.3217018
},
{
  "type": "node",
  "id": 471395648,
  "lat": 46.5925667,
  "lon": 0.3217956
},
{
  "type": "node",
  "id": 471395650,
  "lat": 46.5925464,
  "lon": 0.3218944
},
{
  "type": "node",
  "id": 1685210562,
  "lat": 46.5925404,
  "lon": 0.3212130
},
{
  "type": "node",
  "id": 1685210564,
  "lat": 46.5925517,
  "lon": 0.3218623
},
{
  "type": "node",
  "id": 1685210573,
  "lat": 46.5925941,
  "lon": 0.3214796
},
{
  "type": "node",
  "id": 1685210591,
  "lat": 46.5925953,
  "lon": 0.3215736
},
{
  "type": "node",
  "id": 1873360113,
  "lat": 46.5936814,
  "lon": 0.3407528
},
{
  "type": "node",
  "id": 1873360117,
  "lat": 46.5937149,
  "lon": 0.3406839
},
{
  "type": "node",
  "id": 1873360118,
  "lat": 46.5937255,
  "lon": 0.3406607
},
{
  "type": "node",
  "id": 1873360119,
  "lat": 46.5937446,
  "lon": 0.3406265
},
{
  "type": "node",
  "id": 1873360120,
  "lat": 46.5937579,
  "lon": 0.3405935
},
{
  "type": "node",
  "id": 1873360137,
  "lat": 46.5937677,
  "lon": 0.3405709
},
{
  "type": "node",
  "id": 1873360144,
  "lat": 46.5937933,
  "lon": 0.3405370
},
{
  "type": "node",
  "id": 7209643135,
  "lat": 46.5746157,
  "lon": 0.3457843
},
{
  "type": "node",
  "id": 7209643138,
  "lat": 46.5744987,
  "lon": 0.3459044
},
{
  "type": "node",
  "id": 9104294103,
  "lat": 46.5744742,
  "lon": 0.3459296
},
{
  "type": "node",
  "id": 9104294104,
  "lat": 46.5745290,
  "lon": 0.3458734
},
{
  "type": "node",
  "id": 467483009,
  "lat": 46.5854034,
  "lon": 0.3471388
},
{
  "type": "node",
  "id": 7911326607,
  "lat": 46.5853487,
  "lon": 0.3470380
},
{
  "type": "node",
  "id": 7911326631,
  "lat": 46.5853717,
  "lon": 0.3471122
},
{
  "type": "node",
  "id": 7921535512,
  "lat": 46.5855366,
  "lon": 0.3472643
},
{
  "type": "node",
  "id": 467483010,
  "lat": 46.5862603,
  "lon": 0.3479460
},
{
  "type": "node",
  "id": 471713996,
  "lat": 46.5858727,
  "lon": 0.3525797
},
{
  "type": "node",
  "id": 471714269,
  "lat": 46.5860412,
  "lon": 0.3508145
},
{
  "type": "node",
  "id": 471714292,
  "lat": 46.5856902,
  "lon": 0.3528222
},
{
  "type": "node",
  "id": 471794479,
  "lat": 46.5861613,
  "lon": 0.3521798
},
{
  "type": "node",
  "id": 7911326634,
  "lat": 46.5859260,
  "lon": 0.3525058
},
{
  "type": "node",
  "id": 7919690181,
  "lat": 46.5849464,
  "lon": 0.3537724
},
{
  "type": "node",
  "id": 7919690182,
  "lat": 46.5852884,
  "lon": 0.3534360
},
{
  "type": "node",
  "id": 7919690183,
  "lat": 46.5855501,
  "lon": 0.3531684
},
{
  "type": "node",
  "id": 7919690184,
  "lat": 46.5856818,
  "lon": 0.3530353
},
{
  "type": "node",
  "id": 7919698585,
  "lat": 46.5857685,
  "lon": 0.3529290
},
{
  "type": "node",
  "id": 7919698586,
  "lat": 46.5858585,
  "lon": 0.3528191
},
{
  "type": "node",
  "id": 7919698587,
  "lat": 46.5860054,
  "lon": 0.3526264
},
{
  "type": "node",
  "id": 7919698588,
  "lat": 46.5860541,
  "lon": 0.3525462
},
{
  "type": "node",
  "id": 7919698589,
  "lat": 46.5862310,
  "lon": 0.3522876
},
{
  "type": "node",
  "id": 7919698606,
  "lat": 46.5862735,
  "lon": 0.3477854
},
{
  "type": "node",
  "id": 7919698613,
  "lat": 46.5854747,
  "lon": 0.3530530
},
{
  "type": "node",
  "id": 7919698614,
  "lat": 46.5853162,
  "lon": 0.3532045
},
{
  "type": "node",
  "id": 7919698615,
  "lat": 46.5852265,
  "lon": 0.3532900
},
{
  "type": "node",
  "id": 7919698616,
  "lat": 46.5850526,
  "lon": 0.3534500
},
{
  "type": "node",
  "id": 7919698617,
  "lat": 46.5848894,
  "lon": 0.3536149
},
{
  "type": "node",
  "id": 7919698618,
  "lat": 46.5848212,
  "lon": 0.3536994
},
{
  "type": "node",
  "id": 7919698619,
  "lat": 46.5846756,
  "lon": 0.3538670
},
{
  "type": "node",
  "id": 7921535522,
  "lat": 46.5862090,
  "lon": 0.3477306
},
{
  "type": "node",
  "id": 7921535523,
  "lat": 46.5861811,
  "lon": 0.3477454
},
{
  "type": "node",
  "id": 7921535525,
  "lat": 46.5862163,
  "lon": 0.3477366
},
{
  "type": "node",
  "id": 7921535528,
  "lat": 46.5851658,
  "lon": 0.3533461
},
{
  "type": "node",
  "id": 7921535535,
  "lat": 46.5858767,
  "lon": 0.3524117
},
{
  "type": "node",
  "id": 7921535536,
  "lat": 46.5859569,
  "lon": 0.3522897
},
{
  "type": "node",
  "id": 7921535537,
  "lat": 46.5860434,
  "lon": 0.3521502
},
{
  "type": "node",
  "id": 7921535538,
  "lat": 46.5861242,
  "lon": 0.3519971
},
{
  "type": "node",
  "id": 7921535539,
  "lat": 46.5862208,
  "lon": 0.3518230
},
{
  "type": "node",
  "id": 7921535540,
  "lat": 46.5862663,
  "lon": 0.3517255
},
{
  "type": "node",
  "id": 7921535546,
  "lat": 46.5862610,
  "lon": 0.3511480
},
{
  "type": "node",
  "id": 7921535547,
  "lat": 46.5861376,
  "lon": 0.3509847
},
{
  "type": "node",
  "id": 7921535548,
  "lat": 46.5860812,
  "lon": 0.3508940
},
{
  "type": "node",
  "id": 9039145126,
  "lat": 46.5862359,
  "lon": 0.3511096
},
{
  "type": "node",
  "id": 9039145127,
  "lat": 46.5862770,
  "lon": 0.3517023
},
{
  "type": "node",
  "id": 9039145132,
  "lat": 46.5858007,
  "lon": 0.3525279
},
{
  "type": "node",
  "id": 9039145133,
  "lat": 46.5858167,
  "lon": 0.3526541
},
{
  "type": "node",
  "id": 9039145134,
  "lat": 46.5857706,
  "lon": 0.3525899
},
{
  "type": "node",
  "id": 9039145135,
  "lat": 46.5858130,
  "lon": 0.3525052
},
{
  "type": "node",
  "id": 9039145136,
  "lat": 46.5858283,
  "lon": 0.3526387
},
{
  "type": "node",
  "id": 9104294106,
  "lat": 46.5857663,
  "lon": 0.3527210
},
{
  "type": "node",
  "id": 6282357150,
  "lat": 46.5795609,
  "lon": 0.3669438
},
{
  "type": "node",
  "id": 7919698658,
  "lat": 46.5796541,
  "lon": 0.3667190
},
{
  "type": "node",
  "id": 7919698659,
  "lat": 46.5796147,
  "lon": 0.3668512
},
{
  "type": "node",
  "id": 7921535552,
  "lat": 46.5796503,
  "lon": 0.3667316
},
{
  "type": "node",
  "id": 7919690156,
  "lat": 46.5816399,
  "lon": 0.3600845
},
{
  "type": "node",
  "id": 7919690157,
  "lat": 46.5819474,
  "lon": 0.3597492
},
{
  "type": "node",
  "id": 7919690158,
  "lat": 46.5821738,
  "lon": 0.3594992
},
{
  "type": "node",
  "id": 7919690159,
  "lat": 46.5822517,
  "lon": 0.3594127
},
{
  "type": "node",
  "id": 7919690160,
  "lat": 46.5824348,
  "lon": 0.3592036
},
{
  "type": "node",
  "id": 7919690161,
  "lat": 46.5825994,
  "lon": 0.3589957
},
{
  "type": "node",
  "id": 7919690162,
  "lat": 46.5826781,
  "lon": 0.3588999
},
{
  "type": "node",
  "id": 7919690163,
  "lat": 46.5827696,
  "lon": 0.3587819
},
{
  "type": "node",
  "id": 7919690164,
  "lat": 46.5828636,
  "lon": 0.3586534
},
{
  "type": "node",
  "id": 7919690165,
  "lat": 46.5829142,
  "lon": 0.3585739
},
{
  "type": "node",
  "id": 7919690166,
  "lat": 46.5830458,
  "lon": 0.3583695
},
{
  "type": "node",
  "id": 7919690167,
  "lat": 46.5830972,
  "lon": 0.3582830
},
{
  "type": "node",
  "id": 7919690168,
  "lat": 46.5832169,
  "lon": 0.3580634
},
{
  "type": "node",
  "id": 7919690169,
  "lat": 46.5832699,
  "lon": 0.3579618
},
{
  "type": "node",
  "id": 7919690170,
  "lat": 46.5833526,
  "lon": 0.3577702
},
{
  "type": "node",
  "id": 7919690171,
  "lat": 46.5834288,
  "lon": 0.3575751
},
{
  "type": "node",
  "id": 7919690172,
  "lat": 46.5834987,
  "lon": 0.3573624
},
{
  "type": "node",
  "id": 7919690173,
  "lat": 46.5835501,
  "lon": 0.3571884
},
{
  "type": "node",
  "id": 7919690174,
  "lat": 46.5837420,
  "lon": 0.3563601
},
{
  "type": "node",
  "id": 7919690175,
  "lat": 46.5839168,
  "lon": 0.3556576
},
{
  "type": "node",
  "id": 7919690176,
  "lat": 46.5840142,
  "lon": 0.3553425
},
{
  "type": "node",
  "id": 7919690177,
  "lat": 46.5841836,
  "lon": 0.3549383
},
{
  "type": "node",
  "id": 7919690178,
  "lat": 46.5843265,
  "lon": 0.3546451
},
{
  "type": "node",
  "id": 7919690179,
  "lat": 46.5845770,
  "lon": 0.3542304
},
{
  "type": "node",
  "id": 7919690180,
  "lat": 46.5847513,
  "lon": 0.3539944
},
{
  "type": "node",
  "id": 7919698620,
  "lat": 46.5845668,
  "lon": 0.3540159
},
{
  "type": "node",
  "id": 7919698621,
  "lat": 46.5844304,
  "lon": 0.3542130
},
{
  "type": "node",
  "id": 7919698622,
  "lat": 46.5843143,
  "lon": 0.3544142
},
{
  "type": "node",
  "id": 7919698623,
  "lat": 46.5841576,
  "lon": 0.3547079
},
{
  "type": "node",
  "id": 7919698624,
  "lat": 46.5840488,
  "lon": 0.3549480
},
{
  "type": "node",
  "id": 7919698625,
  "lat": 46.5839705,
  "lon": 0.3551317
},
{
  "type": "node",
  "id": 7919698626,
  "lat": 46.5839050,
  "lon": 0.3553101
},
{
  "type": "node",
  "id": 7919698627,
  "lat": 46.5838073,
  "lon": 0.3555904
},
{
  "type": "node",
  "id": 7919698628,
  "lat": 46.5833953,
  "lon": 0.3572533
},
{
  "type": "node",
  "id": 7919698629,
  "lat": 46.5833206,
  "lon": 0.3574920
},
{
  "type": "node",
  "id": 7919698630,
  "lat": 46.5832045,
  "lon": 0.3578032
},
{
  "type": "node",
  "id": 7919698631,
  "lat": 46.5830782,
  "lon": 0.3580339
},
{
  "type": "node",
  "id": 7919698632,
  "lat": 46.5829436,
  "lon": 0.3582766
},
{
  "type": "node",
  "id": 7919698633,
  "lat": 46.5827132,
  "lon": 0.3586119
},
{
  "type": "node",
  "id": 7919698634,
  "lat": 46.5824450,
  "lon": 0.3589512
},
{
  "type": "node",
  "id": 7919698635,
  "lat": 46.5819509,
  "lon": 0.3595225
},
{
  "type": "node",
  "id": 7919698636,
  "lat": 46.5814412,
  "lon": 0.3600750
},
{
  "type": "node",
  "id": 471794561,
  "lat": 46.5803960,
  "lon": 0.3635199
},
{
  "type": "node",
  "id": 7919690134,
  "lat": 46.5798525,
  "lon": 0.3664771
},
{
  "type": "node",
  "id": 7919690135,
  "lat": 46.5800138,
  "lon": 0.3659462
},
{
  "type": "node",
  "id": 7919690136,
  "lat": 46.5800701,
  "lon": 0.3657551
},
{
  "type": "node",
  "id": 7919690137,
  "lat": 46.5802140,
  "lon": 0.3652153
},
{
  "type": "node",
  "id": 7919690138,
  "lat": 46.5802724,
  "lon": 0.3649339
},
{
  "type": "node",
  "id": 7919690139,
  "lat": 46.5803045,
  "lon": 0.3647551
},
{
  "type": "node",
  "id": 7919690140,
  "lat": 46.5803310,
  "lon": 0.3645588
},
{
  "type": "node",
  "id": 7919690141,
  "lat": 46.5803519,
  "lon": 0.3643754
},
{
  "type": "node",
  "id": 7919690142,
  "lat": 46.5803624,
  "lon": 0.3642142
},
{
  "type": "node",
  "id": 7919690143,
  "lat": 46.5803760,
  "lon": 0.3637539
},
{
  "type": "node",
  "id": 7919690144,
  "lat": 46.5803705,
  "lon": 0.3633338
},
{
  "type": "node",
  "id": 7919690145,
  "lat": 46.5803704,
  "lon": 0.3630985
},
{
  "type": "node",
  "id": 7919690146,
  "lat": 46.5803523,
  "lon": 0.3627148
},
{
  "type": "node",
  "id": 7919690147,
  "lat": 46.5803567,
  "lon": 0.3624151
},
{
  "type": "node",
  "id": 7919690148,
  "lat": 46.5803583,
  "lon": 0.3622983
},
{
  "type": "node",
  "id": 7919690149,
  "lat": 46.5803768,
  "lon": 0.3620892
},
{
  "type": "node",
  "id": 7919690150,
  "lat": 46.5804250,
  "lon": 0.3617913
},
{
  "type": "node",
  "id": 7919690151,
  "lat": 46.5804916,
  "lon": 0.3615518
},
{
  "type": "node",
  "id": 7919690152,
  "lat": 46.5805703,
  "lon": 0.3613602
},
{
  "type": "node",
  "id": 7919690153,
  "lat": 46.5806948,
  "lon": 0.3611452
},
{
  "type": "node",
  "id": 7919690154,
  "lat": 46.5808072,
  "lon": 0.3609817
},
{
  "type": "node",
  "id": 7919690155,
  "lat": 46.5811412,
  "lon": 0.3606078
},
{
  "type": "node",
  "id": 7919698637,
  "lat": 46.5809434,
  "lon": 0.3605846
},
{
  "type": "node",
  "id": 7919698638,
  "lat": 46.5807001,
  "lon": 0.3608582
},
{
  "type": "node",
  "id": 7919698639,
  "lat": 46.5806041,
  "lon": 0.3610056
},
{
  "type": "node",
  "id": 7919698640,
  "lat": 46.5805490,
  "lon": 0.3611058
},
{
  "type": "node",
  "id": 7919698641,
  "lat": 46.5804604,
  "lon": 0.3612847
},
{
  "type": "node",
  "id": 7919698642,
  "lat": 46.5804040,
  "lon": 0.3614480
},
{
  "type": "node",
  "id": 7919698643,
  "lat": 46.5803430,
  "lon": 0.3616318
},
{
  "type": "node",
  "id": 7919698644,
  "lat": 46.5802928,
  "lon": 0.3618461
},
{
  "type": "node",
  "id": 7919698645,
  "lat": 46.5802579,
  "lon": 0.3620420
},
{
  "type": "node",
  "id": 7919698646,
  "lat": 46.5802439,
  "lon": 0.3622240
},
{
  "type": "node",
  "id": 7919698647,
  "lat": 46.5802360,
  "lon": 0.3624459
},
{
  "type": "node",
  "id": 7919698648,
  "lat": 46.5802413,
  "lon": 0.3626016
},
{
  "type": "node",
  "id": 7919698649,
  "lat": 46.5802395,
  "lon": 0.3628965
},
{
  "type": "node",
  "id": 7919698650,
  "lat": 46.5802478,
  "lon": 0.3633593
},
{
  "type": "node",
  "id": 7919698651,
  "lat": 46.5802579,
  "lon": 0.3637103
},
{
  "type": "node",
  "id": 7919698652,
  "lat": 46.5802541,
  "lon": 0.3640031
},
{
  "type": "node",
  "id": 7919698653,
  "lat": 46.5802319,
  "lon": 0.3643698
},
{
  "type": "node",
  "id": 7919698654,
  "lat": 46.5802128,
  "lon": 0.3645795
},
{
  "type": "node",
  "id": 7919698655,
  "lat": 46.5801716,
  "lon": 0.3648613
},
{
  "type": "node",
  "id": 7919698656,
  "lat": 46.5801049,
  "lon": 0.3651698
},
{
  "type": "node",
  "id": 7919698657,
  "lat": 46.5799545,
  "lon": 0.3657400
},
{
  "type": "node",
  "id": 7921535551,
  "lat": 46.5803699,
  "lon": 0.3632515
},
{
  "type": "node",
  "id": 471713980,
  "lat": 46.5865001,
  "lon": 0.3482169
},
{
  "type": "node",
  "id": 471713981,
  "lat": 46.5865513,
  "lon": 0.3482963
},
{
  "type": "node",
  "id": 471713982,
  "lat": 46.5866213,
  "lon": 0.3484191
},
{
  "type": "node",
  "id": 471713983,
  "lat": 46.5867317,
  "lon": 0.3487046
},
{
  "type": "node",
  "id": 471713984,
  "lat": 46.5867729,
  "lon": 0.3488423
},
{
  "type": "node",
  "id": 471713985,
  "lat": 46.5868051,
  "lon": 0.3490441
},
{
  "type": "node",
  "id": 471713986,
  "lat": 46.5868157,
  "lon": 0.3492472
},
{
  "type": "node",
  "id": 471713987,
  "lat": 46.5868110,
  "lon": 0.3494234
},
{
  "type": "node",
  "id": 471713988,
  "lat": 46.5868038,
  "lon": 0.3496729
},
{
  "type": "node",
  "id": 471713989,
  "lat": 46.5867896,
  "lon": 0.3499485
},
{
  "type": "node",
  "id": 471713990,
  "lat": 46.5867374,
  "lon": 0.3508397
},
{
  "type": "node",
  "id": 471713991,
  "lat": 46.5866964,
  "lon": 0.3510464
},
{
  "type": "node",
  "id": 471713992,
  "lat": 46.5866377,
  "lon": 0.3512516
},
{
  "type": "node",
  "id": 471713993,
  "lat": 46.5865770,
  "lon": 0.3514024
},
{
  "type": "node",
  "id": 471713994,
  "lat": 46.5864814,
  "lon": 0.3516146
},
{
  "type": "node",
  "id": 471713995,
  "lat": 46.5864056,
  "lon": 0.3517563
},
{
  "type": "node",
  "id": 471794481,
  "lat": 46.5867661,
  "lon": 0.3504351
},
{
  "type": "node",
  "id": 1329920645,
  "lat": 46.5863682,
  "lon": 0.3480517
},
{
  "type": "node",
  "id": 1329920666,
  "lat": 46.5866836,
  "lon": 0.3485549
},
{
  "type": "node",
  "id": 6282357163,
  "lat": 46.5867551,
  "lon": 0.3506696
},
{
  "type": "node",
  "id": 7911326636,
  "lat": 46.5867755,
  "lon": 0.3502403
},
{
  "type": "node",
  "id": 7919698590,
  "lat": 46.5863209,
  "lon": 0.3521521
},
{
  "type": "node",
  "id": 7919698591,
  "lat": 46.5864301,
  "lon": 0.3519453
},
{
  "type": "node",
  "id": 7919698592,
  "lat": 46.5866252,
  "lon": 0.3515831
},
{
  "type": "node",
  "id": 7919698593,
  "lat": 46.5867192,
  "lon": 0.3513530
},
{
  "type": "node",
  "id": 7919698594,
  "lat": 46.5867609,
  "lon": 0.3512175
},
{
  "type": "node",
  "id": 7919698595,
  "lat": 46.5867962,
  "lon": 0.3511018
},
{
  "type": "node",
  "id": 7919698596,
  "lat": 46.5868356,
  "lon": 0.3508880
},
{
  "type": "node",
  "id": 7919698597,
  "lat": 46.5868573,
  "lon": 0.3507081
},
{
  "type": "node",
  "id": 7919698598,
  "lat": 46.5869239,
  "lon": 0.3491649
},
{
  "type": "node",
  "id": 7919698599,
  "lat": 46.5868998,
  "lon": 0.3489324
},
{
  "type": "node",
  "id": 7919698600,
  "lat": 46.5868388,
  "lon": 0.3486543
},
{
  "type": "node",
  "id": 7919698601,
  "lat": 46.5867850,
  "lon": 0.3485060
},
{
  "type": "node",
  "id": 7919698602,
  "lat": 46.5867063,
  "lon": 0.3483179
},
{
  "type": "node",
  "id": 7919698603,
  "lat": 46.5866148,
  "lon": 0.3481683
},
{
  "type": "node",
  "id": 7919698604,
  "lat": 46.5865570,
  "lon": 0.3480796
},
{
  "type": "node",
  "id": 7919698605,
  "lat": 46.5864470,
  "lon": 0.3479534
},
{
  "type": "node",
  "id": 7919698608,
  "lat": 46.5869273,
  "lon": 0.3492301
},
{
  "type": "node",
  "id": 7919698609,
  "lat": 46.5868821,
  "lon": 0.3502527
},
{
  "type": "node",
  "id": 7919698610,
  "lat": 46.5869151,
  "lon": 0.3497414
},
{
  "type": "node",
  "id": 7919698611,
  "lat": 46.5869204,
  "lon": 0.3496197
},
{
  "type": "node",
  "id": 7919698612,
  "lat": 46.5869299,
  "lon": 0.3493458
},
{
  "type": "node",
  "id": 7921535541,
  "lat": 46.5863005,
  "lon": 0.3516453
},
{
  "type": "node",
  "id": 7921535542,
  "lat": 46.5863241,
  "lon": 0.3515609
},
{
  "type": "node",
  "id": 7921535543,
  "lat": 46.5863282,
  "lon": 0.3514682
},
{
  "type": "node",
  "id": 7921535544,
  "lat": 46.5863258,
  "lon": 0.3513422
},
{
  "type": "node",
  "id": 7921535545,
  "lat": 46.5863123,
  "lon": 0.3512654
},
{
  "type": "node",
  "id": 9039145125,
  "lat": 46.5862908,
  "lon": 0.3512088
},
{
  "type": "node",
  "id": 9039145128,
  "lat": 46.5863113,
  "lon": 0.3516134
},
{
  "type": "node",
  "id": 9039145139,
  "lat": 46.5863297,
  "lon": 0.3514208
},
{
  "type": "node",
  "id": 1863322234,
  "lat": 46.6111469,
  "lon": 0.3484987
},
{
  "type": "node",
  "id": 1863322235,
  "lat": 46.6112140,
  "lon": 0.3485704
},
{
  "type": "node",
  "id": 1863322236,
  "lat": 46.6113217,
  "lon": 0.3485062
},
{
  "type": "node",
  "id": 1863322237,
  "lat": 46.6114125,
  "lon": 0.3486635
},
{
  "type": "node",
  "id": 1863322238,
  "lat": 46.6114378,
  "lon": 0.3485437
},
{
  "type": "node",
  "id": 1863322239,
  "lat": 46.6115143,
  "lon": 0.3487142
},
{
  "type": "node",
  "id": 1863322240,
  "lat": 46.6115577,
  "lon": 0.3485782
},
{
  "type": "node",
  "id": 1863322241,
  "lat": 46.6116820,
  "lon": 0.3486091
},
{
  "type": "node",
  "id": 1863322242,
  "lat": 46.6117566,
  "lon": 0.3488157
},
{
  "type": "node",
  "id": 1863322243,
  "lat": 46.6117915,
  "lon": 0.3486249
},
{
  "type": "node",
  "id": 1863322245,
  "lat": 46.6119484,
  "lon": 0.3485624
},
{
  "type": "node",
  "id": 1863322246,
  "lat": 46.6120167,
  "lon": 0.3489237
},
{
  "type": "node",
  "id": 1863322249,
  "lat": 46.6121091,
  "lon": 0.3485340
},
{
  "type": "node",
  "id": 1863322251,
  "lat": 46.6121994,
  "lon": 0.3488208
},
{
  "type": "node",
  "id": 1863322256,
  "lat": 46.6122043,
  "lon": 0.3485149
},
{
  "type": "node",
  "id": 1863322260,
  "lat": 46.6122370,
  "lon": 0.3484908
},
{
  "type": "node",
  "id": 1863322263,
  "lat": 46.6122072,
  "lon": 0.3489912
},
{
  "type": "node",
  "id": 1863322265,
  "lat": 46.6122974,
  "lon": 0.3483802
},
{
  "type": "node",
  "id": 1863322267,
  "lat": 46.6123689,
  "lon": 0.3490368
},
{
  "type": "node",
  "id": 1863322269,
  "lat": 46.6124739,
  "lon": 0.3482443
},
{
  "type": "node",
  "id": 3090739331,
  "lat": 46.6124105,
  "lon": 0.3482764
},
{
  "type": "node",
  "id": 3090739332,
  "lat": 46.6122687,
  "lon": 0.3484467
},
{
  "type": "node",
  "id": 1863322326,
  "lat": 46.6128413,
  "lon": 0.3471549
},
{
  "type": "node",
  "id": 1863322327,
  "lat": 46.6128913,
  "lon": 0.3471611
},
{
  "type": "node",
  "id": 1863322335,
  "lat": 46.6129362,
  "lon": 0.3471612
},
{
  "type": "node",
  "id": 1863322337,
  "lat": 46.6130256,
  "lon": 0.3471421
},
{
  "type": "node",
  "id": 1863322341,
  "lat": 46.6130794,
  "lon": 0.3471447
},
{
  "type": "node",
  "id": 1863322343,
  "lat": 46.6131321,
  "lon": 0.3471588
},
{
  "type": "node",
  "id": 1863322346,
  "lat": 46.6131767,
  "lon": 0.3471956
},
{
  "type": "node",
  "id": 1863322347,
  "lat": 46.6132148,
  "lon": 0.3472362
},
{
  "type": "node",
  "id": 1863322349,
  "lat": 46.6132508,
  "lon": 0.3473092
},
{
  "type": "node",
  "id": 1863322285,
  "lat": 46.6125075,
  "lon": 0.3482060
},
{
  "type": "node",
  "id": 1863322286,
  "lat": 46.6125040,
  "lon": 0.3490770
},
{
  "type": "node",
  "id": 1863322288,
  "lat": 46.6125785,
  "lon": 0.3480716
},
{
  "type": "node",
  "id": 1863322290,
  "lat": 46.6126236,
  "lon": 0.3480036
},
{
  "type": "node",
  "id": 1863322291,
  "lat": 46.6126151,
  "lon": 0.3491407
},
{
  "type": "node",
  "id": 1863322293,
  "lat": 46.6127132,
  "lon": 0.3478850
},
{
  "type": "node",
  "id": 1863322295,
  "lat": 46.6127327,
  "lon": 0.3491886
},
{
  "type": "node",
  "id": 1863322297,
  "lat": 46.6127066,
  "lon": 0.3473990
},
{
  "type": "node",
  "id": 1863322300,
  "lat": 46.6127697,
  "lon": 0.3477241
},
{
  "type": "node",
  "id": 1863322305,
  "lat": 46.6127484,
  "lon": 0.3474489
},
{
  "type": "node",
  "id": 1863322313,
  "lat": 46.6128022,
  "lon": 0.3476403
},
{
  "type": "node",
  "id": 1863322315,
  "lat": 46.6127890,
  "lon": 0.3475165
},
{
  "type": "node",
  "id": 1863322320,
  "lat": 46.6128018,
  "lon": 0.3475778
},
{
  "type": "node",
  "id": 1863322344,
  "lat": 46.6132409,
  "lon": 0.3493978
},
{
  "type": "node",
  "id": 1863322351,
  "lat": 46.6132762,
  "lon": 0.3473911
},
{
  "type": "node",
  "id": 1863322353,
  "lat": 46.6132913,
  "lon": 0.3474685
},
{
  "type": "node",
  "id": 1863322354,
  "lat": 46.6133194,
  "lon": 0.3475469
},
{
  "type": "node",
  "id": 1863322358,
  "lat": 46.6133597,
  "lon": 0.3476340
},
{
  "type": "node",
  "id": 1863322364,
  "lat": 46.6134642,
  "lon": 0.3478435
},
{
  "type": "node",
  "id": 1863322373,
  "lat": 46.6135992,
  "lon": 0.3481166
},
{
  "type": "node",
  "id": 1863322379,
  "lat": 46.6137952,
  "lon": 0.3496259
},
{
  "type": "node",
  "id": 1863322386,
  "lat": 46.6137503,
  "lon": 0.3484284
},
{
  "type": "node",
  "id": 1863322388,
  "lat": 46.6137862,
  "lon": 0.3485078
},
{
  "type": "node",
  "id": 1863322389,
  "lat": 46.6138253,
  "lon": 0.3496193
},
{
  "type": "node",
  "id": 1863322394,
  "lat": 46.6138570,
  "lon": 0.3487303
},
{
  "type": "node",
  "id": 1863322398,
  "lat": 46.6138817,
  "lon": 0.3487908
},
{
  "type": "node",
  "id": 1863322399,
  "lat": 46.6138828,
  "lon": 0.3495518
},
{
  "type": "node",
  "id": 1863322401,
  "lat": 46.6139160,
  "lon": 0.3488239
},
{
  "type": "node",
  "id": 1863322402,
  "lat": 46.6139187,
  "lon": 0.3495428
},
{
  "type": "node",
  "id": 1863322403,
  "lat": 46.6139604,
  "lon": 0.3488292
},
{
  "type": "node",
  "id": 1863322404,
  "lat": 46.6140323,
  "lon": 0.3495574
},
{
  "type": "node",
  "id": 1863322405,
  "lat": 46.6139934,
  "lon": 0.3488040
},
{
  "type": "node",
  "id": 1863322407,
  "lat": 46.6140505,
  "lon": 0.3495205
},
{
  "type": "node",
  "id": 1863322411,
  "lat": 46.6141479,
  "lon": 0.3486283
},
{
  "type": "node",
  "id": 1863322425,
  "lat": 46.6141669,
  "lon": 0.3493169
},
{
  "type": "node",
  "id": 1863322427,
  "lat": 46.6141866,
  "lon": 0.3492551
},
{
  "type": "node",
  "id": 1863322430,
  "lat": 46.6142524,
  "lon": 0.3491612
},
{
  "type": "node",
  "id": 1863322432,
  "lat": 46.6142079,
  "lon": 0.3487507
},
{
  "type": "node",
  "id": 1863322434,
  "lat": 46.6142246,
  "lon": 0.3488011
},
{
  "type": "node",
  "id": 1863322436,
  "lat": 46.6142445,
  "lon": 0.3488463
},
{
  "type": "node",
  "id": 1863322437,
  "lat": 46.6142541,
  "lon": 0.3488922
},
{
  "type": "node",
  "id": 1863322440,
  "lat": 46.6142620,
  "lon": 0.3489812
},
{
  "type": "node",
  "id": 1863322442,
  "lat": 46.6142739,
  "lon": 0.3490338
},
{
  "type": "node",
  "id": 1863322444,
  "lat": 46.6143026,
  "lon": 0.3490854
},
{
  "type": "node",
  "id": 3090739336,
  "lat": 46.6139988,
  "lon": 0.3495633
},
{
  "type": "node",
  "id": 471794813,
  "lat": 46.5793181,
  "lon": 0.3699888
},
{
  "type": "node",
  "id": 7919690123,
  "lat": 46.5789338,
  "lon": 0.3735345
},
{
  "type": "node",
  "id": 7919690124,
  "lat": 46.5790294,
  "lon": 0.3726396
},
{
  "type": "node",
  "id": 7919690125,
  "lat": 46.5790558,
  "lon": 0.3723851
},
{
  "type": "node",
  "id": 7919690126,
  "lat": 46.5790872,
  "lon": 0.3720824
},
{
  "type": "node",
  "id": 7919690127,
  "lat": 46.5792221,
  "lon": 0.3708347
},
{
  "type": "node",
  "id": 7919690128,
  "lat": 46.5793161,
  "lon": 0.3698953
},
{
  "type": "node",
  "id": 7919690129,
  "lat": 46.5795064,
  "lon": 0.3681629
},
{
  "type": "node",
  "id": 7919690130,
  "lat": 46.5795393,
  "lon": 0.3678895
},
{
  "type": "node",
  "id": 7919690131,
  "lat": 46.5795883,
  "lon": 0.3675426
},
{
  "type": "node",
  "id": 7919690132,
  "lat": 46.5796276,
  "lon": 0.3673276
},
{
  "type": "node",
  "id": 7919690133,
  "lat": 46.5796746,
  "lon": 0.3671450
},
{
  "type": "node",
  "id": 7919698660,
  "lat": 46.5795595,
  "lon": 0.3670931
},
{
  "type": "node",
  "id": 7919698661,
  "lat": 46.5794890,
  "lon": 0.3674423
},
{
  "type": "node",
  "id": 7919698662,
  "lat": 46.5794065,
  "lon": 0.3680261
},
{
  "type": "node",
  "id": 7919698663,
  "lat": 46.5793354,
  "lon": 0.3686930
},
{
  "type": "node",
  "id": 7919698664,
  "lat": 46.5793078,
  "lon": 0.3689628
},
{
  "type": "node",
  "id": 7919698665,
  "lat": 46.5792725,
  "lon": 0.3692260
},
{
  "type": "node",
  "id": 7919698666,
  "lat": 46.5791951,
  "lon": 0.3700227
},
{
  "type": "node",
  "id": 7919698667,
  "lat": 46.5790945,
  "lon": 0.3709219
},
{
  "type": "node",
  "id": 7919698668,
  "lat": 46.5789980,
  "lon": 0.3718817
},
{
  "type": "node",
  "id": 7919698669,
  "lat": 46.5789500,
  "lon": 0.3723797
},
{
  "type": "node",
  "id": 7919698670,
  "lat": 46.5788849,
  "lon": 0.3729200
},
{
  "type": "node",
  "id": 7919698673,
  "lat": 46.5792258,
  "lon": 0.3697113
},
{
  "type": "node",
  "id": 7919698674,
  "lat": 46.5793281,
  "lon": 0.3687643
},
{
  "type": "node",
  "id": 7919698677,
  "lat": 46.5794406,
  "lon": 0.3687699
},
{
  "type": "node",
  "id": 7919698678,
  "lat": 46.5793392,
  "lon": 0.3696862
},
{
  "type": "node",
  "id": 7921535554,
  "lat": 46.5797024,
  "lon": 0.3670406
},
{
  "type": "node",
  "id": 7921535555,
  "lat": 46.5796557,
  "lon": 0.3672891
},
{
  "type": "node",
  "id": 7921535559,
  "lat": 46.5789518,
  "lon": 0.3723016
},
{
  "type": "node",
  "id": 7921535560,
  "lat": 46.5789420,
  "lon": 0.3724458
},
{
  "type": "node",
  "id": 471979759,
  "lat": 46.5786847,
  "lon": 0.3761373
},
{
  "type": "node",
  "id": 1975126682,
  "lat": 46.5760314,
  "lon": 0.3762452
},
{
  "type": "node",
  "id": 1975126696,
  "lat": 46.5760463,
  "lon": 0.3762126
},
{
  "type": "node",
  "id": 1975126705,
  "lat": 46.5760523,
  "lon": 0.3761863
},
{
  "type": "node",
  "id": 1975126731,
  "lat": 46.5760574,
  "lon": 0.3761569
},
{
  "type": "node",
  "id": 1975126735,
  "lat": 46.5760659,
  "lon": 0.3760628
},
{
  "type": "node",
  "id": 1975126755,
  "lat": 46.5760880,
  "lon": 0.3758085
},
{
  "type": "node",
  "id": 1975126788,
  "lat": 46.5760938,
  "lon": 0.3757416
},
{
  "type": "node",
  "id": 1975126790,
  "lat": 46.5761004,
  "lon": 0.3756536
},
{
  "type": "node",
  "id": 1975126797,
  "lat": 46.5761072,
  "lon": 0.3755813
},
{
  "type": "node",
  "id": 1975126808,
  "lat": 46.5761165,
  "lon": 0.3755054
},
{
  "type": "node",
  "id": 1975126838,
  "lat": 46.5761369,
  "lon": 0.3754057
},
{
  "type": "node",
  "id": 1975126844,
  "lat": 46.5761697,
  "lon": 0.3752456
},
{
  "type": "node",
  "id": 1975126861,
  "lat": 46.5762353,
  "lon": 0.3750137
},
{
  "type": "node",
  "id": 7919690119,
  "lat": 46.5785082,
  "lon": 0.3774166
},
{
  "type": "node",
  "id": 7919690120,
  "lat": 46.5786231,
  "lon": 0.3764516
},
{
  "type": "node",
  "id": 7919690121,
  "lat": 46.5786795,
  "lon": 0.3759095
},
{
  "type": "node",
  "id": 7919690122,
  "lat": 46.5788110,
  "lon": 0.3746969
},
{
  "type": "node",
  "id": 7919698671,
  "lat": 46.5787262,
  "lon": 0.3744147
},
{
  "type": "node",
  "id": 7919698672,
  "lat": 46.5786298,
  "lon": 0.3753639
},
{
  "type": "node",
  "id": 7921535564,
  "lat": 46.5786964,
  "lon": 0.3757537
},
{
  "type": "node",
  "id": 8019465851,
  "lat": 46.5784595,
  "lon": 0.3777841
}

  ]
}
