{
  "version": 0.6,
  "generator": "Overpass API 0.7.57.1 74a55df1",
  "osm3s": {
    "timestamp_osm_base": "2022-02-13T13:18:30Z",
    "timestamp_areas_base": "2022-02-13T02:36:10Z",
    "copyright": "The data included in this document is from www.openstreetmap.org. The data is made available under ODbL."
  },
  "elements": [

{
  "type": "way",
  "id": 6271334,
  "nodes": [
    9242752638,
    4315688677,
    554161468,
    4315688675,
    9242752640
  ],
  "tags": {
    "cycleway:right": "lane",
    "highway": "tertiary",
    "maxspeed": "30",
    "name": "Rue du Placieux",
    "oneway": "yes",
    "source": "GrandNancy Orthophotographie 2012",
    "surface": "asphalt",
    "traffic_calming": "table"
  }
},
{
  "type": "way",
  "id": 6271342,
  "nodes": [
    129994276,
    2727563251,
    1645514927,
    2714051875
  ],
  "tags": {
    "cycleway:right": "lane",
    "highway": "tertiary",
    "maxspeed": "30",
    "name": "Rue du Sergent Blandan",
    "smoothness": "excellent",
    "source:maxspeed": "FR:zone30",
    "surface": "asphalt"
  }
},
{
  "type": "way",
  "id": 6275026,
  "nodes": [
    52718520,
    1675847763,
    52719198,
    1675847765,
    2777797033,
    9096968356,
    1675847767
  ],
  "tags": {
    "cycleway:right": "lane",
    "highway": "secondary",
    "maxspeed": "50",
    "name": "Place Godefroy de Bouillon",
    "oneway": "yes",
    "source": "survey",
    "surface": "asphalt"
  }
},
{
  "type": "way",
  "id": 6281686,
  "nodes": [
    120307159,
    2714051970,
    137234342,
    2724035596,
    2724035601,
    2714051990,
    120307170
  ],
  "tags": {
    "cycleway:right": "lane",
    "highway": "secondary",
    "lanes": "2",
    "maxspeed": "50",
    "name": "Rue de Laxou",
    "oneway": "yes",
    "source": "GrandNancy Orthophotographie 2012",
    "surface": "asphalt",
    "turn:lanes": "left;through|through"
  }
},
{
  "type": "way",
  "id": 6281689,
  "nodes": [
    10707515,
    2745357300,
    1721571111,
    5738318521
  ],
  "tags": {
    "cycleway:right": "lane",
    "cycleway:right:width": "1.5",
    "highway": "secondary",
    "lanes": "2",
    "maxspeed": "50",
    "name": "Avenue Anatole France",
    "oneway": "yes",
    "surface": "asphalt"
  }
},
{
  "type": "way",
  "id": 6281693,
  "nodes": [
    10707515,
    2725502612,
    2725502611,
    2725502610,
    471820015
  ],
  "tags": {
    "cycleway:right": "lane",
    "destination": "Nancy-centre;Préville;Musée de l’École de Nancy;Conseil Départemental;E.H.P.A.D. S. Bénichou",
    "highway": "secondary",
    "lanes": "2",
    "maxspeed": "50",
    "name": "Rue de Saint-Lambert",
    "oneway": "yes",
    "source": "GrandNancy Orthophotographie 2012",
    "surface": "asphalt"
  }
},
{
  "type": "way",
  "id": 6628164,
  "nodes": [
    10467284,
    2073915537,
    254291018,
    986743139,
    2069540000,
    986742288,
    10468261
  ],
  "tags": {
    "cycleway:right": "lane",
    "destination": "Nancy-centre;Saurup;St Pierre-Bonsecours;C.H.R.U. Nancy;Hôpital Central;Duroc;Vandœuvre Nabécor-Curie",
    "destination:symbol": "hospital;parking",
    "highway": "tertiary",
    "maxspeed": "50",
    "maxspeed:type": "sign",
    "name": "Rue du Général Duroc",
    "oneway": "yes",
    "surface": "asphalt"
  }
},
{
  "type": "way",
  "id": 6993472,
  "nodes": [
    6280817946,
    6456412695,
    6280817930,
    6280817929,
    10531881
  ],
  "tags": {
    "busway:right": "lane",
    "cycleway:right": "lane",
    "cycleway:right:lane": "exclusive",
    "destination": "Gare Thiers;Musée de l’École de Nancy;La Manufacture",
    "destination:symbol": "parking",
    "highway": "secondary",
    "lanes": "3",
    "lit": "yes",
    "maxspeed": "30",
    "name": "Rue Raymond Poincaré",
    "note": "aucune signalisation autorisant cycles a circuler le long du quai de bus",
    "old_ref": "D 400",
    "oneway": "yes",
    "sidewalk": "both",
    "smoothness": "good",
    "source": "GrandNancy Orthophotographie 2012",
    "source:maxspeed": "FR:zone30",
    "surface": "asphalt"
  }
},
{
  "type": "way",
  "id": 8061643,
  "nodes": [
    10532258,
    552929297,
    1645409903,
    4177162674,
    4177163594
  ],
  "tags": {
    "cycleway:right": "lane",
    "cycleway:right:lane": "exclusive",
    "highway": "tertiary",
    "lanes": "2",
    "lit": "yes",
    "maxspeed": "30",
    "name": "Cours Léopold",
    "old_ref": "N 57;D 570",
    "oneway": "yes",
    "sidewalk": "right",
    "smoothness": "excellent",
    "source:maxspeed": "FR:zone30",
    "surface": "asphalt"
  }
},
{
  "type": "way",
  "id": 10522823,
  "nodes": [
    2440786023,
    2440786025,
    2440786032,
    2440786036
  ],
  "tags": {
    "cycleway:left": "no",
    "cycleway:right": "lane",
    "cycleway:right:lane": "advisory",
    "highway": "residential",
    "maxspeed": "30",
    "name": "Rue Baron Louis",
    "oneway": "yes",
    "source": "GrandNancy Orthophotographie 2012",
    "source:maxspeed": "FR:zone30",
    "surface": "asphalt"
  }
},
{
  "type": "way",
  "id": 13857221,
  "nodes": [
    129994262,
    1673468891,
    2514288933,
    2514288934,
    129994264,
    609748913,
    2976118890
  ],
  "tags": {
    "bicycle": "yes",
    "cycleway:right": "lane",
    "destination": "Conseil Départemental;Quartier Blandan;Piscine",
    "highway": "tertiary",
    "name": "Rue Émile Gebhart",
    "oneway": "yes",
    "source": "GrandNancy Orthophotographie 2012",
    "surface": "asphalt"
  }
},
{
  "type": "way",
  "id": 13857222,
  "nodes": [
    10535022,
    2714051824,
    8883257245,
    9049260471,
    2714051811,
    292432422,
    6503536597
  ],
  "tags": {
    "cycleway:right": "lane",
    "highway": "tertiary",
    "maxspeed": "50",
    "name": "Rue du Sergent Blandan",
    "oneway": "yes",
    "source": "GrandNancy Orthophotographie 2012",
    "source:maxspeed": "FR:urban",
    "surface": "asphalt"
  }
},
{
  "type": "way",
  "id": 13857441,
  "nodes": [
    249819564,
    3317506158,
    149398030
  ],
  "tags": {
    "cycleway:right": "lane",
    "highway": "residential",
    "maxspeed": "30",
    "name": "Rue Dupont des Loges",
    "source": "Bing;survey",
    "source:maxspeed": "FR:zone30",
    "surface": "asphalt"
  }
},
{
  "type": "way",
  "id": 13857668,
  "nodes": [
    90663962,
    4689443825,
    5742890278,
    4689443826
  ],
  "tags": {
    "cycleway:right": "lane",
    "destination": "Musée de l’Histoire du Fer;St Pierre-Bonsecours;René Ⅱ",
    "highway": "tertiary",
    "lanes": "2",
    "maxspeed": "50",
    "name": "Rue Mansuy-Gauvain",
    "oneway": "yes",
    "source": "GrandNancy Orthophotographie 2012",
    "surface": "asphalt"
  }
},
{
  "type": "way",
  "id": 13864414,
  "nodes": [
    130121048,
    1732705959,
    2957398628,
    1732705966,
    2957398631,
    130121058,
    1732705970,
    2957398742,
    130121049,
    2957398743,
    279894431,
    2957398746,
    130121050,
    1732705975,
    130121052,
    1732705972,
    130121053,
    1732705969,
    130121054,
    1732705963,
    130121055,
    1732705957,
    130121057,
    130121048
  ],
  "tags": {
    "alt_name": "Place de l'Abbé Pierre",
    "bicycle": "yes",
    "cycleway:right": "lane",
    "cycleway:right:lane": "exclusive",
    "highway": "tertiary",
    "junction": "roundabout",
    "lane_markings": "no",
    "lit": "yes",
    "maxspeed": "30",
    "name": "Rond-Point des Familles Place de l'Abbé Pierre",
    "sidewalk": "separate",
    "smoothness": "excellent",
    "source:maxspeed": "FR:zone30",
    "surface": "asphalt"
  }
},
{
  "type": "way",
  "id": 13864422,
  "nodes": [
    130121131,
    4654061080,
    2285844498,
    2285844500,
    242544831,
    2285844504,
    4654061020,
    10708114,
    4654061015,
    2285844512,
    10707871
  ],
  "tags": {
    "cycleway:right": "lane",
    "cycleway:right:lane": "exclusive",
    "highway": "tertiary",
    "lanes": "1",
    "lit": "yes",
    "maxspeed": "30",
    "maxspeed:type": "sign",
    "name": "Boulevard d'Haussonville",
    "oneway": "yes",
    "sidewalk": "both",
    "smoothness": "excellent",
    "source": "GrandNancy Orthophotographie 2012",
    "surface": "asphalt"
  }
},
{
  "type": "way",
  "id": 14326319,
  "nodes": [
    1787898372,
    3317506520,
    137828506,
    660760153,
    3317506516
  ],
  "tags": {
    "bicycle": "yes",
    "cycleway:right": "lane",
    "cycleway:right:lane": "exclusive",
    "highway": "secondary",
    "lanes": "1",
    "name": "Place de la Commanderie",
    "oneway": "yes",
    "smoothness": "excellent",
    "source": "GrandNancy Orthophotographie 2012",
    "surface": "asphalt"
  }
},
{
  "type": "way",
  "id": 15119945,
  "nodes": [
    129994266,
    2727563091,
    2727563097,
    2614070097,
    2727563110,
    149398019,
    2727563111,
    2727563113,
    2727563126,
    150638800,
    575270492,
    1662139572
  ],
  "tags": {
    "cycleway:right": "lane",
    "highway": "tertiary",
    "maxspeed": "30",
    "name": "Rue des Frères Voirin",
    "oneway": "yes",
    "source": "GrandNancy Orthophotographie 2012",
    "source:maxspeed": "FR:zone30",
    "surface": "asphalt"
  }
},
{
  "type": "way",
  "id": 15119947,
  "nodes": [
    129997267,
    3317506513,
    129997269,
    660881021,
    3312732572,
    241900479,
    3312732579,
    1653241651,
    6560114723,
    2780137432,
    1787898374
  ],
  "tags": {
    "cycleway:right": "lane",
    "destination": "E.H.P.A.D. S. Bénichou",
    "highway": "residential",
    "lanes": "1",
    "maxspeed": "30",
    "name": "Rue Kléber",
    "oneway": "yes",
    "source": "Bing;survey",
    "source:maxspeed": "FR:zone30",
    "surface": "asphalt"
  }
},
{
  "type": "way",
  "id": 15218876,
  "nodes": [
    5268634670,
    2959735163,
    5268634676,
    2976118873,
    129994261,
    1673468886,
    2976118879,
    254291017,
    2073915538,
    129994262
  ],
  "tags": {
    "cycleway:right": "lane",
    "highway": "tertiary",
    "maxspeed": "50",
    "maxspeed:type": "sign",
    "name": "Rue du Général Chevert",
    "oneway": "yes",
    "source": "GrandNancy Orthophotographie 2012",
    "surface": "asphalt"
  }
},
{
  "type": "way",
  "id": 15218961,
  "nodes": [
    137828573,
    150541279,
    2714051879,
    6458472845,
    2727563313,
    150541280
  ],
  "tags": {
    "cycleway:right": "lane",
    "highway": "secondary",
    "lanes": "1",
    "maxspeed": "50",
    "name": "Place Paul Painlevé",
    "oneway": "yes",
    "source": "GrandNancy Orthophotographie 2012",
    "surface": "asphalt"
  }
},
{
  "type": "way",
  "id": 20935759,
  "nodes": [
    90662961,
    2796855816,
    1650922156,
    260090361
  ],
  "tags": {
    "cycleway:right": "lane",
    "highway": "secondary",
    "name": "Rue Charles de Foucauld",
    "oneway": "yes",
    "source": "GrandNancy Orthophotographie 2012",
    "surface": "asphalt"
  }
},
{
  "type": "way",
  "id": 20938679,
  "nodes": [
    147814557,
    1895608894
  ],
  "tags": {
    "cycleway:right": "lane",
    "highway": "tertiary",
    "lanes": "2",
    "name": "Rue Henri Bazin",
    "oneway": "yes",
    "surface": "asphalt"
  }
},
{
  "type": "way",
  "id": 22352308,
  "nodes": [
    240352606,
    6131425055,
    1510359379,
    1510359383,
    240352597,
    6443878193,
    4639989977,
    4639989978,
    240352599,
    4639991289,
    2159641654,
    1526006330,
    6443878192,
    2080524556,
    5703132463
  ],
  "tags": {
    "cycleway:right": "lane",
    "highway": "secondary",
    "lanes": "1",
    "maxspeed": "30",
    "name": "Rue de Nabécor",
    "oneway": "yes",
    "source": "survey",
    "source:maxspeed": "FR:zone30"
  }
},
{
  "type": "way",
  "id": 22352313,
  "nodes": [
    240352608,
    4422606088,
    340436880,
    2216216421,
    4422606291,
    4422606292,
    533586263
  ],
  "tags": {
    "cycleway:right": "lane",
    "highway": "secondary",
    "lanes": "1",
    "maxspeed": "50",
    "name": "Rue de Nabécor",
    "oneway": "yes",
    "source": "survey",
    "source:maxspeed": "survey"
  }
},
{
  "type": "way",
  "id": 22633161,
  "nodes": [
    10532776,
    3859687897,
    3859687896,
    10536038
  ],
  "tags": {
    "cycleway:right": "lane",
    "highway": "tertiary",
    "maxspeed:type": "sign",
    "name": "Rue du Placieux",
    "oneway": "no",
    "surface": "asphalt"
  }
},
{
  "type": "way",
  "id": 23380884,
  "nodes": [
    610516883,
    2747791853,
    8104334290,
    2440786101,
    610516884,
    253154479,
    8104334289,
    2747791866,
    2440786108,
    253154480,
    2702942187,
    2702942188,
    8104334288,
    2440786110,
    610521802
  ],
  "tags": {
    "cycleway:right": "lane",
    "highway": "secondary",
    "lanes": "1",
    "maxspeed": "50",
    "name": "Rue de Boudonville",
    "oneway": "yes",
    "smoothness": "excellent",
    "source": "GrandNancy Orthophotographie 2012",
    "surface": "asphalt"
  }
},
{
  "type": "way",
  "id": 23380885,
  "nodes": [
    610521802,
    253154481,
    8091600511,
    253154482
  ],
  "tags": {
    "cycleway:right": "lane",
    "highway": "secondary",
    "lanes": "1",
    "maxspeed": "50",
    "name": "Rue du Chanoine Jacob",
    "oneway": "yes",
    "smoothness": "excellent",
    "surface": "asphalt"
  }
},
{
  "type": "way",
  "id": 23856025,
  "nodes": [
    269040926,
    10467304,
    269254771,
    4600776831,
    1681252523,
    4774234590,
    269040981,
    6395819241,
    276954955,
    4600776829,
    10468252,
    4600776828,
    1681252521,
    5767469666
  ],
  "tags": {
    "cycleway:right": "lane",
    "highway": "tertiary",
    "name": "Rue du Capitaine Guynemer",
    "source": "GrandNancy Orthophotographie 2016"
  }
},
{
  "type": "way",
  "id": 23988647,
  "nodes": [
    5768789303,
    260090349,
    4958420767,
    260090350
  ],
  "tags": {
    "bicycle": "yes",
    "cycleway:right": "lane",
    "highway": "residential",
    "lanes": "3",
    "maxspeed": "30",
    "name": "Rue Braconnot",
    "oneway": "yes",
    "source:maxspeed": "FR:zone30",
    "surface": "asphalt",
    "turn:lanes": "left|through|through"
  }
},
{
  "type": "way",
  "id": 23988649,
  "nodes": [
    260090367,
    3096244602,
    579524609,
    260090352,
    2505301799,
    1650922141,
    2796855778,
    2796855786,
    2796855792,
    2796855793,
    260090353
  ],
  "tags": {
    "cycleway:right": "lane",
    "highway": "secondary",
    "lanes": "1",
    "maxspeed": "50",
    "name": "Rue Sigisbert Adam",
    "oneway": "yes",
    "surface": "asphalt"
  }
},
{
  "type": "way",
  "id": 24759216,
  "nodes": [
    90661189,
    654086144,
    654086148
  ],
  "tags": {
    "cycleway:right": "lane",
    "highway": "tertiary",
    "lanes": "2",
    "name": "Rue Charles Keller",
    "oneway": "no",
    "surface": "asphalt"
  }
},
{
  "type": "way",
  "id": 25382634,
  "nodes": [
    247122865,
    3295217690
  ],
  "tags": {
    "cycleway:right": "lane",
    "highway": "secondary",
    "lanes": "2",
    "name": "Rue Molitor",
    "oneway": "yes",
    "source": "GrandNancy Orthophotographie 2016",
    "surface": "asphalt"
  }
},
{
  "type": "way",
  "id": 25382637,
  "nodes": [
    276659095,
    276659096
  ],
  "tags": {
    "bridge": "yes",
    "bridge:name": "Pont de Tomblaine",
    "cycleway:right": "lane",
    "highway": "secondary",
    "lanes": "2",
    "layer": "1",
    "oneway": "yes",
    "source": "GrandNancy Orthophotographie 2012",
    "turn:lanes": "left;through|through"
  }
},
{
  "type": "way",
  "id": 25955615,
  "nodes": [
    10709995,
    2777797073,
    283160935,
    2777797072,
    2777797063
  ],
  "tags": {
    "cycleway:right": "lane",
    "highway": "secondary",
    "name": "Place Godefroy de Bouillon",
    "oneway": "yes",
    "source": "GrandNancy Orthophotographie 2012",
    "surface": "asphalt"
  }
},
{
  "type": "way",
  "id": 26143807,
  "nodes": [
    150897974,
    6443878196,
    286305624,
    6443878195,
    286305615,
    2611049238,
    2611049242,
    6443878194,
    286511993,
    5703132461
  ],
  "tags": {
    "cycleway:right": "lane",
    "highway": "secondary",
    "lanes": "1",
    "maxspeed": "30",
    "name": "Rue du Maréchal Oudinot",
    "oneway": "yes",
    "source:maxspeed": "FR:zone30",
    "surface": "asphalt"
  }
},
{
  "type": "way",
  "id": 26500760,
  "nodes": [
    290459703,
    4913349959,
    986741910,
    10467284
  ],
  "tags": {
    "cycleway:right": "lane",
    "highway": "tertiary",
    "lanes": "2",
    "name": "Rue du Sergent Blandan",
    "oneway": "yes",
    "surface": "asphalt",
    "turn:lanes": "through|right"
  }
},
{
  "type": "way",
  "id": 26609493,
  "nodes": [
    166345035,
    4689443838,
    280574749,
    1976960063,
    1976960061,
    280574753,
    1844378132,
    2732079811,
    2732079810,
    1619488243
  ],
  "tags": {
    "cycleway:right": "lane",
    "destination": "Quartier Gare;Quartier Charles Ⅲ;Bonsecours;CHU de Nancy;Urgences;Maternité Régionale",
    "destination:symbol": "hospital",
    "highway": "secondary",
    "maxspeed": "50",
    "name": "Rue Foller",
    "oneway": "yes",
    "source": "Bing + survey",
    "surface": "asphalt"
  }
},
{
  "type": "way",
  "id": 26611821,
  "nodes": [
    291870369,
    3295217691
  ],
  "tags": {
    "bridge": "yes",
    "comment": "La voie de bus a été remplacé par une bande cyclable",
    "cycleway:right": "lane",
    "highway": "secondary",
    "lanes": "2",
    "layer": "1",
    "loc_name": "Pont Saint-Léon",
    "maxspeed": "50",
    "name": "Rue Raymond Poincaré",
    "old_ref": "D 400",
    "oneway": "yes",
    "source": "GrandNancy Orthophotographie 2012",
    "surface": "asphalt"
  }
},
{
  "type": "way",
  "id": 26616514,
  "nodes": [
    291931431,
    724173512
  ],
  "tags": {
    "cycleway:right": "lane",
    "highway": "residential",
    "lit": "yes",
    "maxspeed": "30",
    "name": "Rue Sainte-Catherine",
    "oneway": "yes",
    "source:maxspeed": "FR:zone30",
    "surface": "asphalt"
  }
},
{
  "type": "way",
  "id": 26928894,
  "nodes": [
    9123151915,
    1917427284,
    3992747188,
    147814614,
    5817184171,
    724212805
  ],
  "tags": {
    "cycleway:right": "lane",
    "highway": "secondary",
    "lanes": "2",
    "maxspeed": "50",
    "name": "Rue de l'Ile de Corse",
    "oneway": "yes",
    "source": "cadastre-dgi-fr source : Direction Générale des Impôts - Cadastre. Mise à jour : 2010",
    "surface": "asphalt"
  }
},
{
  "type": "way",
  "id": 30419853,
  "nodes": [
    2069624964,
    2146465242,
    6381145151,
    129999207,
    6381145148,
    2441567455,
    289139666
  ],
  "tags": {
    "cycleway:right": "lane",
    "cycleway:right:width": "1.60",
    "highway": "secondary",
    "maxspeed": "50",
    "maxspeed:type": "sign",
    "name": "Rue de Bonsecours",
    "old_ref": "N 57;D 570",
    "parking:lane:right": "parallel",
    "source": "Bing;survey",
    "surface": "asphalt"
  }
},
{
  "type": "way",
  "id": 32721535,
  "nodes": [
    10710587,
    2714052092,
    2745357327,
    2745357329,
    2745357334,
    2445785142,
    493347191,
    2745357341,
    4516033282,
    2445785145,
    2745357343,
    1653241936,
    3092682284,
    90663817
  ],
  "tags": {
    "cycleway:right": "lane",
    "destination": "Toutes direction;Laxou;Maxéville;Quartier Ville Vieille-Léopold;Saint-Léon",
    "highway": "secondary",
    "lanes": "2",
    "name": "Rue Saint-Léon",
    "oneway": "yes",
    "source": "GrandNancy Orthophotographie 2012",
    "surface": "asphalt",
    "turn:lanes": "left|through"
  }
},
{
  "type": "way",
  "id": 38212480,
  "nodes": [
    551574953,
    8532075003,
    4023988497,
    2833164402,
    449840916
  ],
  "tags": {
    "cycleway:right": "lane",
    "highway": "tertiary",
    "lanes": "2",
    "lit": "yes",
    "maxspeed": "30",
    "name": "Place Carnot",
    "old_ref": "N 57;D 570",
    "oneway": "yes",
    "sidewalk": "right",
    "source": "survey;GrandNancy Orthophotographie 2012",
    "source:maxspeed": "FR:zone30",
    "surface": "asphalt"
  }
},
{
  "type": "way",
  "id": 38382699,
  "nodes": [
    150541282,
    2459484105,
    3312732435,
    148482645
  ],
  "tags": {
    "busway": "opposite_lane",
    "comment": "voir ref B6, de la page FR:Bicycle",
    "cycleway:left": "share_busway",
    "cycleway:right": "lane",
    "highway": "secondary",
    "lanes": "2",
    "maxspeed": "50",
    "name": "Rue Aristide Briand",
    "oneway": "yes",
    "oneway:bicycle": "no",
    "surface": "asphalt"
  }
},
{
  "type": "way",
  "id": 38382704,
  "nodes": [
    5738318531,
    1650149842,
    3317506510,
    129997267
  ],
  "tags": {
    "cycleway:right": "lane",
    "highway": "residential",
    "lanes": "2",
    "name": "Rue Dupont des Loges",
    "oneway": "yes",
    "source": "Bing;survey",
    "surface": "asphalt",
    "turn:lanes": "left|through"
  }
},
{
  "type": "way",
  "id": 41383900,
  "nodes": [
    471820011,
    1653241680,
    2745357310,
    10707515
  ],
  "tags": {
    "cycleway:right": "lane",
    "cycleway:right:width": "1.5",
    "destination": "Laxou;Villers;C.R.O.U.S.",
    "highway": "secondary",
    "lanes": "2",
    "maxspeed": "50",
    "name": "Rue Raymond Poincaré",
    "oneway": "yes",
    "source": "GrandNancy Orthophotographie 2012",
    "surface": "asphalt"
  }
},
{
  "type": "way",
  "id": 41383902,
  "nodes": [
    471820015,
    2874693614
  ],
  "tags": {
    "cycleway:right": "lane",
    "cycleway:right:lane": "exclusive",
    "highway": "secondary",
    "lanes": "2",
    "lit": "yes",
    "maxspeed": "50",
    "name": "Rue de Saint-Lambert",
    "oneway": "yes",
    "sidewalk": "both",
    "smoothness": "excellent",
    "surface": "asphalt"
  }
},
{
  "type": "way",
  "id": 42023825,
  "nodes": [
    10533916,
    2727563464,
    2727563466,
    551574978,
    8532075005,
    10533254
  ],
  "tags": {
    "cycleway:left": "no",
    "cycleway:right": "lane",
    "cycleway:right:lane": "exclusive",
    "destination": "Quartier Stanislas;Vaudémont;Ville Vieille-Carnot",
    "destination:symbol": "parking",
    "highway": "residential",
    "lanes": "2",
    "lit": "yes",
    "maxspeed": "30",
    "name": "Place Carnot",
    "oneway": "yes",
    "sidewalk": "right",
    "smoothness": "excellent",
    "source:maxspeed": "FR:zone30",
    "surface": "asphalt",
    "turn:lanes": "left|left"
  }
},
{
  "type": "way",
  "id": 45422478,
  "nodes": [
    258741848,
    258741851,
    258741855
  ],
  "tags": {
    "cycleway:right": "lane",
    "highway": "residential",
    "maxspeed": "30",
    "name": "Rue Braconnot",
    "oneway": "no",
    "source:maxspeed": "FR:zone30",
    "surface": "asphalt"
  }
},
{
  "type": "way",
  "id": 46881390,
  "nodes": [
    90661862,
    4560851374,
    90661565,
    1645296833,
    1650869951,
    90661189
  ],
  "tags": {
    "cycleway:right": "lane",
    "highway": "tertiary",
    "lanes": "1",
    "name": "Rue Charles Keller",
    "oneway": "yes",
    "surface": "asphalt"
  }
},
{
  "type": "way",
  "id": 47457805,
  "nodes": [
    129994259,
    1673468852,
    2976118865,
    129994260
  ],
  "tags": {
    "cycleway:right": "lane",
    "highway": "tertiary",
    "maxspeed": "50",
    "maxspeed:type": "sign",
    "name": "Rue Christian Moench",
    "old_ref": "D 93B",
    "oneway": "yes",
    "source": "GrandNancy Orthophotographie 2012",
    "surface": "asphalt"
  }
},
{
  "type": "way",
  "id": 47457808,
  "nodes": [
    150897975,
    2719977468,
    1721769059,
    2719977466,
    624083213
  ],
  "tags": {
    "cycleway:right": "lane",
    "highway": "secondary",
    "lanes": "2",
    "maxspeed": "50",
    "maxspeed:type": "sign",
    "name": "Rue de Vaucouleurs",
    "old_ref": "D 93C",
    "oneway": "yes",
    "smoothness": "good",
    "source": "cadastre-dgi-fr source : Direction Générale des Impôts - Cadastre. Mise à jour : 2009",
    "surface": "asphalt"
  }
},
{
  "type": "way",
  "id": 48010779,
  "nodes": [
    10532139,
    8564303230,
    2795049397,
    2440786057,
    368234346
  ],
  "tags": {
    "cycleway:left": "no",
    "cycleway:right": "lane",
    "cycleway:right:lane": "exclusive",
    "highway": "tertiary",
    "lanes": "3",
    "lanes:backward": "1",
    "lanes:forward": "2",
    "lit": "yes",
    "maxspeed": "30",
    "name": "Rue de Verdun",
    "sidewalk": "both",
    "source": "GrandNancy Orthophotographie 2012",
    "source:maxspeed": "FR:zone30",
    "surface": "asphalt",
    "turn:lanes:backward": "left;right"
  }
},
{
  "type": "way",
  "id": 56451506,
  "nodes": [
    4550962487,
    2796855529,
    4550962486
  ],
  "tags": {
    "cycleway:right": "lane",
    "cycleway:right:width": "0.79",
    "highway": "secondary",
    "lanes": "2",
    "maxspeed": "50",
    "name": "Boulevard du 26e Régiment d'Infanterie",
    "oneway": "yes",
    "source": "GrandNancy Orthophotographie 2012",
    "surface": "asphalt"
  }
},
{
  "type": "way",
  "id": 58406414,
  "nodes": [
    707509430,
    4565201317,
    4565201316,
    707509432
  ],
  "tags": {
    "cycleway:right": "lane",
    "cycleway:right:width": "1",
    "highway": "secondary",
    "lanes": "2",
    "maxspeed": "50",
    "name": "Boulevard du 26e Régiment d'Infanterie",
    "oneway": "yes",
    "parking:lane:right": "parallel",
    "source": "GrandNancy Orthophotographie 2012",
    "surface": "asphalt"
  }
},
{
  "type": "way",
  "id": 58406483,
  "nodes": [
    724173476,
    2531053963,
    724173492
  ],
  "tags": {
    "cycleway:right": "lane",
    "highway": "tertiary",
    "maxspeed": "50",
    "name": "Porte Sainte-Catherine",
    "oneway": "yes",
    "source": "cadastre-dgi-fr source : Direction Générale des Impôts - Cadastre. Mise à jour : 2010",
    "surface": "asphalt"
  }
},
{
  "type": "way",
  "id": 58406484,
  "nodes": [
    724173515,
    147814599
  ],
  "tags": {
    "cycleway:right": "lane",
    "highway": "secondary",
    "maxspeed": "50",
    "name": "Rue de l'Ile de Corse",
    "oneway": "yes",
    "source": "cadastre-dgi-fr source : Direction Générale des Impôts - Cadastre. Mise à jour : 2010",
    "surface": "asphalt"
  }
},
{
  "type": "way",
  "id": 58406488,
  "nodes": [
    724173520,
    724173509,
    724173535
  ],
  "tags": {
    "cycleway:right": "lane",
    "highway": "residential",
    "maxspeed": "30",
    "name": "Rue Sainte-Catherine",
    "oneway": "yes",
    "source": "cadastre-dgi-fr source : Direction Générale des Impôts - Cadastre. Mise à jour : 2010",
    "surface": "asphalt"
  }
},
{
  "type": "way",
  "id": 58406496,
  "nodes": [
    724173512,
    789816500,
    2745357414,
    2745357413,
    789756832,
    291931435
  ],
  "tags": {
    "cycleway:right": "lane",
    "highway": "residential",
    "lit": "yes",
    "maxspeed": "30",
    "name": "Rue Sainte-Catherine",
    "oneway": "no",
    "source": "cadastre-dgi-fr source : Direction Générale des Impôts - Cadastre. Mise à jour : 2010",
    "source:maxspeed": "FR:zone30",
    "surface": "asphalt"
  }
},
{
  "type": "way",
  "id": 58406516,
  "nodes": [
    147814573,
    3068773583,
    3068773580,
    724173491
  ],
  "tags": {
    "cycleway:right": "lane",
    "highway": "tertiary",
    "name": "Rue Henri Bazin",
    "oneway": "yes",
    "source": "GrandNancy Orthophotographie 2012",
    "surface": "asphalt"
  }
},
{
  "type": "way",
  "id": 58406523,
  "nodes": [
    147814573,
    3068773579,
    724173496,
    724173476
  ],
  "tags": {
    "cycleway:right": "lane",
    "highway": "tertiary",
    "name": "Rue Henri Bazin",
    "oneway": "yes",
    "source": "GrandNancy Orthophotographie 2012",
    "surface": "asphalt"
  }
},
{
  "type": "way",
  "id": 58416036,
  "nodes": [
    724227213,
    2073879859,
    724227128,
    724227178,
    724227182,
    724227150,
    2732080095,
    724227119
  ],
  "tags": {
    "cycleway:right": "lane",
    "highway": "secondary",
    "lanes": "2",
    "maxspeed": "50",
    "name": "Place de la Division de Fer",
    "oneway": "yes",
    "sidewalk": "no",
    "source": "Bing",
    "surface": "asphalt",
    "turn:lanes": "left;through|through"
  }
},
{
  "type": "way",
  "id": 58416043,
  "nodes": [
    724227164,
    5324595693,
    725040009
  ],
  "tags": {
    "cycleway:right": "lane",
    "cycleway:right:width": "0.87",
    "highway": "secondary",
    "lanes": "2",
    "maxspeed": "50",
    "name": "Rue du Tapis Vert",
    "oneway": "yes",
    "source": "cadastre-dgi-fr source : Direction Générale des Impôts - Cadastre. Mise à jour : 2010",
    "surface": "asphalt",
    "turn:lanes": "left;through|through;right"
  }
},
{
  "type": "way",
  "id": 58489130,
  "nodes": [
    710369014,
    710384887,
    710384912,
    4057980430
  ],
  "tags": {
    "cycleway:right": "lane",
    "highway": "residential",
    "name": "Rue de Château-Salins",
    "oneway": "yes",
    "source": "cadastre-dgi-fr source : Direction Générale des Impôts - Cadastre. Mise à jour : 2010",
    "surface": "asphalt"
  }
},
{
  "type": "way",
  "id": 58512346,
  "nodes": [
    224942356,
    3078865667,
    2451392163,
    3077022807
  ],
  "tags": {
    "cycleway:right": "lane",
    "highway": "tertiary",
    "lanes": "2",
    "maxspeed": "50",
    "name": "Rue des Cristalleries",
    "oneway": "yes",
    "source": "GrandNancy Orthophotographie 2012",
    "surface": "asphalt"
  }
},
{
  "type": "way",
  "id": 64971866,
  "nodes": [
    479742218,
    7220731402,
    7220731401,
    1650149865
  ],
  "tags": {
    "cycleway:right": "lane",
    "highway": "tertiary",
    "maxspeed": "30",
    "name": "Rue des Quatre Églises",
    "source": "GrandNancy Orthophotographie 2012",
    "source:maxspeed": "FR:zone30"
  }
},
{
  "type": "way",
  "id": 85028651,
  "nodes": [
    10468261,
    5169115862,
    2069455158,
    1970734606
  ],
  "tags": {
    "cycleway:right": "lane",
    "highway": "tertiary",
    "name": "Rue du Général Duroc",
    "oneway": "yes",
    "surface": "asphalt"
  }
},
{
  "type": "way",
  "id": 85636955,
  "nodes": [
    5978240180,
    5978240162,
    10532172,
    2941412297,
    10533394,
    2941412295,
    2941412292,
    5421914784,
    575963652,
    2941412269,
    2793241959,
    10533069,
    2941412262,
    8564303232,
    2440786077
  ],
  "tags": {
    "cycleway:right": "lane",
    "cycleway:right:lane": "exclusive",
    "highway": "tertiary",
    "lanes": "1",
    "lit": "yes",
    "maxspeed": "30",
    "name": "Rue Désilles",
    "oneway": "yes",
    "parking:lane:right": "parallel",
    "parking:lane:right:parallel": "painted_area_only",
    "sidewalk": "both",
    "smoothness": "good",
    "source": "GrandNancy Orthophotographie 2012",
    "source:maxspeed": "FR:zone30",
    "surface": "asphalt"
  }
},
{
  "type": "way",
  "id": 85692088,
  "nodes": [
    253154488,
    6680536969,
    6680536968,
    2623155775,
    3096245038,
    3096244995,
    247122873
  ],
  "tags": {
    "cycleway:left": "no",
    "cycleway:right": "lane",
    "cycleway:right:lane": "exclusive",
    "highway": "secondary",
    "lanes": "3",
    "lanes:backward": "1",
    "lanes:forward": "2",
    "maxspeed": "50",
    "name": "Rue Grandville",
    "oneway": "no",
    "surface": "asphalt"
  }
},
{
  "type": "way",
  "id": 85692139,
  "nodes": [
    90663670,
    1650287431,
    2411969684,
    90662767,
    2411969677,
    90662174
  ],
  "tags": {
    "cycleway:right": "lane",
    "highway": "secondary",
    "name": "Rue Charles Keller",
    "oneway": "yes",
    "surface": "asphalt"
  }
},
{
  "type": "way",
  "id": 111244647,
  "nodes": [
    500240377,
    500240380,
    7431038023,
    90662321,
    7989276525,
    369434090,
    7001010813,
    9105841585,
    90663408,
    533652665
  ],
  "tags": {
    "cycleway:left": "no",
    "cycleway:right": "lane",
    "cycleway:right:lane": "exclusive",
    "highway": "residential",
    "lanes": "1",
    "lit": "yes",
    "maxspeed": "30",
    "name": "Rue de Serre",
    "oneway": "yes",
    "sidewalk": "both",
    "smoothness": "good",
    "source": "GrandNancy Orthophotographie 2016",
    "source:maxspeed": "FR:zone30",
    "surface": "asphalt"
  }
},
{
  "type": "way",
  "id": 117371183,
  "nodes": [
    240352616,
    1955282359,
    1955733883,
    5703132462
  ],
  "tags": {
    "cycleway:right": "lane",
    "highway": "secondary",
    "lanes": "1",
    "maxspeed": "30",
    "name": "Rue de Nabécor",
    "oneway": "yes",
    "source": "survey",
    "surface": "asphalt"
  }
},
{
  "type": "way",
  "id": 136932993,
  "nodes": [
    1502225469,
    3091275656,
    1502225471
  ],
  "tags": {
    "cycleway:right": "lane",
    "highway": "secondary",
    "lanes": "2",
    "name": "Rue de Tomblaine",
    "oneway": "yes",
    "source": "GrandNancy Orthophotographie 2012",
    "surface": "asphalt"
  }
},
{
  "type": "way",
  "id": 149249424,
  "nodes": [
    276659083,
    2876544840,
    2876544839,
    1976960022,
    2876544838,
    247122865
  ],
  "tags": {
    "cycleway:right": "lane",
    "highway": "secondary",
    "lanes": "2",
    "maxspeed": "50",
    "name": "Rue Molitor",
    "oneway": "yes",
    "source": "Bing;survey",
    "surface": "asphalt",
    "turn:lanes": "left;through|through;right"
  }
},
{
  "type": "way",
  "id": 151691918,
  "nodes": [
    90661862,
    4560851376,
    90661128
  ],
  "tags": {
    "cycleway:right": "lane",
    "highway": "secondary",
    "lanes": "1",
    "name": "Rue du Faubourg des Trois-Maisons",
    "oneway": "yes",
    "source": "cadastre-dgi-fr source : Direction Générale des Impôts - Cadastre. Mise à jour : 2010",
    "surface": "asphalt"
  }
},
{
  "type": "way",
  "id": 151710023,
  "nodes": [
    150899187,
    150899189,
    4452472954,
    2564868667,
    2564868668,
    2564868669,
    4073750582,
    4073750583,
    2564868671
  ],
  "tags": {
    "cycleway:right": "lane",
    "cycleway:right:lane": "advisory",
    "highway": "tertiary",
    "lanes": "1",
    "lit": "yes",
    "maxspeed:type": "FR:urban",
    "name": "Rue Fabert",
    "oneway": "yes",
    "proposed:cycleway:right": "lane",
    "sidewalk": "both",
    "smoothness": "excellent",
    "source": "GrandNancy Orthophotographie 2012",
    "surface": "asphalt"
  }
},
{
  "type": "way",
  "id": 152178739,
  "nodes": [
    6458472844,
    2447521073,
    137828564,
    2447521072,
    137828569,
    544193513,
    544193500,
    544193504,
    137828573
  ],
  "tags": {
    "cycleway:left": "lane",
    "cycleway:left:lane": "exclusive",
    "cycleway:left:oneway": "-1",
    "cycleway:right": "lane",
    "cycleway:right:lane": "exclusive",
    "highway": "secondary",
    "lanes": "1",
    "name": "Rue de Villers",
    "oneway": "yes",
    "oneway:bicycle": "no",
    "smoothness": "excellent",
    "surface": "asphalt"
  }
},
{
  "type": "way",
  "id": 152179982,
  "nodes": [
    1650149865,
    479742219,
    1650149860
  ],
  "tags": {
    "bicycle": "yes",
    "cycleway:right": "lane",
    "highway": "tertiary",
    "maxspeed": "30",
    "name": "Rue des Quatre Églises",
    "source": "GrandNancy Orthophotographie 2012",
    "source:maxspeed": "FR:zone30"
  }
},
{
  "type": "way",
  "id": 152181434,
  "nodes": [
    5320011085,
    3005323036,
    3005323035,
    90661306
  ],
  "tags": {
    "cycleway:right": "lane",
    "highway": "secondary",
    "lanes": "2",
    "name": "Rue Charles Keller",
    "oneway": "yes",
    "surface": "asphalt",
    "turn:lanes": "left|through"
  }
},
{
  "type": "way",
  "id": 152199358,
  "nodes": [
    496104119,
    3093658729,
    6280817948,
    2727563368,
    6280817944,
    6280817945,
    6280817946
  ],
  "tags": {
    "cycleway:right": "lane",
    "cycleway:right:lane": "exclusive",
    "highway": "secondary",
    "lanes": "2",
    "lit": "yes",
    "maxspeed": "30",
    "name": "Rue Mazagran",
    "oneway": "yes",
    "sidewalk": "both",
    "smoothness": "good",
    "source": "GrandNancy Orthophotographie 2016",
    "source:maxspeed": "FR:zone30",
    "surface": "asphalt"
  }
},
{
  "type": "way",
  "id": 152263122,
  "nodes": [
    90661128,
    8396661807,
    5414010665,
    90662861,
    619399023,
    598560433,
    3184285463,
    3192183483,
    90663729,
    598560434,
    4497115136,
    598560435,
    4497115135,
    8082557767,
    90661707,
    9472090890,
    5768789302
  ],
  "tags": {
    "cycleway:right": "lane",
    "highway": "secondary",
    "lanes": "1",
    "maxspeed": "30",
    "name": "Rue du Faubourg des Trois-Maisons",
    "oneway": "yes",
    "source": "cadastre-dgi-fr source : Direction Générale des Impôts - Cadastre. Mise à jour : 2010",
    "surface": "asphalt"
  }
},
{
  "type": "way",
  "id": 155160931,
  "nodes": [
    52718520,
    2777797022
  ],
  "tags": {
    "cycleway:right": "lane",
    "highway": "secondary",
    "maxspeed": "50",
    "name": "Rue de l'Armée Patton",
    "old_ref": "D 400",
    "oneway": "no",
    "source": "GrandNancy Orthophotographie 2012",
    "surface": "asphalt"
  }
},
{
  "type": "way",
  "id": 155160933,
  "nodes": [
    90662618,
    2777797000,
    2777797010,
    617579231
  ],
  "tags": {
    "cycleway:right": "lane",
    "highway": "secondary",
    "lanes": "2",
    "maxspeed": "50",
    "name": "Rue de l'Armée Patton",
    "old_ref": "D 400",
    "oneway": "yes",
    "source": "GrandNancy Orthophotographie 2012",
    "surface": "asphalt",
    "turn:lanes": "left|through"
  }
},
{
  "type": "way",
  "id": 160084288,
  "nodes": [
    10708185,
    2714052106,
    496104119
  ],
  "tags": {
    "cycleway:right": "lane",
    "cycleway:right:lane": "exclusive",
    "highway": "secondary",
    "lanes": "2",
    "lit": "yes",
    "maxspeed": "30",
    "name": "Rue Mazagran",
    "oneway": "yes",
    "sidewalk": "both",
    "smoothness": "excellent",
    "source": "GrandNancy Orthophotographie 2016",
    "source:maxspeed": "FR:zone30",
    "surface": "asphalt",
    "wikidata": "Q16511037",
    "wikipedia": "fr:Rue Mazagran (Nancy)"
  }
},
{
  "type": "way",
  "id": 160202753,
  "nodes": [
    471820017,
    471820011
  ],
  "tags": {
    "cycleway:right": "lane",
    "cycleway:right:lane": "exclusive",
    "cycleway:right:width": "1.5",
    "highway": "secondary",
    "lanes": "3",
    "lit": "yes",
    "maxspeed": "50",
    "name": "Rue Raymond Poincaré",
    "oneway": "yes",
    "sidewalk": "both",
    "smoothness": "excellent",
    "source": "GrandNancy Orthophotographie 2012",
    "surface": "asphalt",
    "turn:lanes": "left|through|through"
  }
},
{
  "type": "way",
  "id": 161855118,
  "nodes": [
    449840916,
    1645409862
  ],
  "tags": {
    "cycleway:right": "lane",
    "cycleway:right:lane": "exclusive",
    "highway": "tertiary",
    "lanes": "2",
    "lit": "yes",
    "maxspeed": "30",
    "name": "Place Carnot",
    "old_ref": "N 57;D 570",
    "oneway": "yes",
    "sidewalk": "right",
    "smoothness": "excellent",
    "source:maxspeed": "FR:zone30",
    "surface": "asphalt"
  }
},
{
  "type": "way",
  "id": 163694342,
  "nodes": [
    1753743313,
    1753743310,
    4017204494,
    2306890910,
    1753743309,
    4017204491,
    245489177
  ],
  "tags": {
    "cycleway:right": "lane",
    "destination": "Jarville;St Nicolas de Port;Musée de l’Histoire du Fer;Collège Albert Camus;Commerces République",
    "highway": "secondary",
    "name": "Avenue de Strasbourg",
    "oneway": "yes",
    "surface": "asphalt"
  }
},
{
  "type": "way",
  "id": 168766038,
  "nodes": [
    2532468050,
    2020455106,
    4060483494,
    252705209
  ],
  "tags": {
    "cycleway:right": "lane",
    "cycleway:right:width": "1.5",
    "highway": "secondary",
    "lanes": "2",
    "maxspeed": "50",
    "name": "Avenue Paul Déroulède",
    "oneway": "yes",
    "source": "GrandNancy Orthophotographie 2012",
    "surface": "asphalt"
  }
},
{
  "type": "way",
  "id": 168885945,
  "nodes": [
    491248998,
    7025292536,
    1650149833,
    2853174349,
    10533836
  ],
  "tags": {
    "cycleway:right": "lane",
    "highway": "residential",
    "lanes": "3",
    "lanes:backward": "1",
    "name": "Rue Aristide Briand",
    "surface": "asphalt",
    "turn:lanes:forward": "left|through"
  }
},
{
  "type": "way",
  "id": 173668176,
  "nodes": [
    1619488243,
    1225761790,
    276659089
  ],
  "tags": {
    "cycleway:right": "lane",
    "highway": "secondary",
    "maxspeed": "50",
    "name": "Rue Molitor",
    "source": "Bing + survey",
    "surface": "asphalt"
  }
},
{
  "type": "way",
  "id": 173866997,
  "nodes": [
    90662512,
    2332019271,
    90662309,
    6560114773,
    6560114774,
    90661166
  ],
  "tags": {
    "cycleway:right": "lane",
    "destination": "Malzéville;St Max;Quartier Stanislas",
    "highway": "secondary",
    "lanes": "1",
    "maxspeed": "50",
    "name": "Rue Jean Lamour",
    "oneway": "yes",
    "source": "cadastre-dgi-fr source : Direction Générale des Impôts - Cadastre. Mise à jour : 2012",
    "surface": "asphalt"
  }
},
{
  "type": "way",
  "id": 174823080,
  "nodes": [
    450177661,
    2714052130,
    8532075004,
    4622056845,
    10533254
  ],
  "tags": {
    "cycleway:right": "lane",
    "cycleway:right:lane": "exclusive",
    "highway": "tertiary",
    "lanes": "1",
    "lit": "yes",
    "maxspeed": "30",
    "name": "Rue des Michottes",
    "old_ref": "N 57;D 570",
    "oneway": "yes",
    "sidewalk": "both",
    "smoothness": "good",
    "source:maxspeed": "FR:zone30",
    "surface": "asphalt"
  }
},
{
  "type": "way",
  "id": 180819883,
  "nodes": [
    10533254,
    2623485515
  ],
  "tags": {
    "cycleway:right": "lane",
    "cycleway:right:lane": "exclusive",
    "highway": "tertiary",
    "lanes": "2",
    "lit": "yes",
    "maxspeed": "30",
    "name": "Place Carnot",
    "old_ref": "N 57;D 570",
    "oneway": "yes",
    "sidewalk": "right",
    "smoothness": "excellent",
    "source:maxspeed": "FR:zone30",
    "surface": "asphalt"
  }
},
{
  "type": "way",
  "id": 198769999,
  "nodes": [
    253150556,
    2514288936,
    575270488,
    8148551304,
    129994266
  ],
  "tags": {
    "cycleway:right": "lane",
    "highway": "tertiary",
    "name": "Rue Émile Gebhart",
    "oneway": "yes",
    "source": "GrandNancy Orthophotographie 2012",
    "surface": "asphalt"
  }
},
{
  "type": "way",
  "id": 205961486,
  "nodes": [
    2159641740,
    240352608
  ],
  "tags": {
    "cycleway:right": "lane",
    "highway": "secondary",
    "lanes": "1",
    "layer": "-1",
    "maxheight": "4",
    "maxspeed": "30",
    "name": "Rue de Nabécor",
    "oneway": "yes",
    "source": "survey",
    "tunnel": "yes"
  }
},
{
  "type": "way",
  "id": 208066695,
  "nodes": [
    4689443826,
    2183718844,
    5742890277
  ],
  "tags": {
    "cycleway:right": "lane",
    "highway": "tertiary",
    "lanes": "4",
    "maxspeed": "50",
    "name": "Rue Mansuy-Gauvain",
    "surface": "asphalt",
    "turn:lanes:backward": "through|right",
    "turn:lanes:forward": "left|through;right"
  }
},
{
  "type": "way",
  "id": 217920254,
  "nodes": [
    710369021,
    147814546
  ],
  "tags": {
    "cycleway:right": "lane",
    "highway": "tertiary",
    "lanes": "2",
    "name": "Rue Henri Bazin",
    "oneway": "yes",
    "source": "cadastre-dgi-fr source : Direction Générale des Impôts - Cadastre. Mise à jour : 2010",
    "surface": "asphalt"
  }
},
{
  "type": "way",
  "id": 217920255,
  "nodes": [
    1895608894,
    3068773591,
    147814573
  ],
  "tags": {
    "cycleway:right": "lane",
    "highway": "tertiary",
    "lanes": "2",
    "name": "Rue Henri Bazin",
    "oneway": "yes",
    "source": "GrandNancy Orthophotographie 2012",
    "surface": "asphalt"
  }
},
{
  "type": "way",
  "id": 220002756,
  "nodes": [
    533586263,
    240352610,
    240352614,
    1953335579,
    1953335583,
    4422606303,
    4422606304,
    4422606308,
    4422606309,
    240352616
  ],
  "tags": {
    "cycleway:right": "lane",
    "highway": "secondary",
    "lanes": "1",
    "maxspeed": "30",
    "name": "Rue de Nabécor",
    "oneway": "yes",
    "source": "survey",
    "source:maxspeed": "survey"
  }
},
{
  "type": "way",
  "id": 226055221,
  "nodes": [
    611401396,
    5631256146,
    5631256145,
    286305622
  ],
  "tags": {
    "cycleway:right": "lane",
    "highway": "secondary",
    "lanes": "2",
    "maxspeed": "50",
    "name": "Boulevard Georges Clemenceau",
    "oneway": "yes",
    "source:maxspeed": "FR:urban",
    "surface": "asphalt"
  }
},
{
  "type": "way",
  "id": 229613777,
  "nodes": [
    2381836587,
    6503536598
  ],
  "tags": {
    "cycleway:right": "lane",
    "highway": "tertiary",
    "lanes": "3",
    "lanes:backward": "1",
    "maxspeed": "30",
    "name": "Esplanade Jacques Baudot",
    "proposed:cycleway:right": "lane",
    "source": "GrandNancy Orthophotographie 2012",
    "source:maxspeed": "FR:zone30",
    "surface": "asphalt",
    "turn:lanes:forward": "left|through"
  }
},
{
  "type": "way",
  "id": 230110393,
  "nodes": [
    1665954405,
    1665954409
  ],
  "tags": {
    "cycleway:right": "lane",
    "highway": "secondary",
    "lanes": "2",
    "maxspeed": "50",
    "name": "Avenue de la Libération",
    "old_ref": "D 400",
    "surface": "asphalt"
  }
},
{
  "type": "way",
  "id": 236004195,
  "nodes": [
    2440786036,
    2440786044,
    3145805375,
    2793241853
  ],
  "tags": {
    "cycleway:left": "no",
    "cycleway:right": "lane",
    "cycleway:right:lane": "exclusive",
    "highway": "residential",
    "lit": "yes",
    "maxspeed": "30",
    "name": "Rue Baron Louis",
    "sidewalk": "both",
    "source": "GrandNancy Orthophotographie 2012",
    "source:maxspeed": "FR:zone30",
    "surface": "asphalt"
  }
},
{
  "type": "way",
  "id": 236416616,
  "nodes": [
    7431038022,
    4337660778,
    258885019,
    4337660775,
    7431038021
  ],
  "tags": {
    "bicycle": "yes",
    "cycleway:right": "lane",
    "cycleway:right:lane": "exclusive",
    "highway": "secondary",
    "lanes": "2",
    "lit": "yes",
    "maxspeed": "50",
    "name": "Rue de Saint-Lambert",
    "oneway": "yes",
    "sidewalk": "both",
    "smoothness": "excellent",
    "surface": "asphalt",
    "traffic_calming": "table"
  }
},
{
  "type": "way",
  "id": 236676729,
  "nodes": [
    6280817946,
    6456412696,
    6280817947,
    2435344613,
    6280817932,
    500240377
  ],
  "tags": {
    "cycleway:left": "no",
    "cycleway:right": "lane",
    "cycleway:right:lane": "exclusive",
    "destination:forward": "Quartier Ville Vieille-Léopold;Place de la Carrière;Faculté de Droit;Ville Vieille-Carnot",
    "destination:symbol:forward": "parking",
    "highway": "tertiary",
    "lanes": "1",
    "lit": "yes",
    "maxspeed": "30",
    "name": "Rue de Serre",
    "old_ref": "D 400",
    "sidewalk": "both",
    "smoothness": "good",
    "source": "GrandNancy Orthophotographie 2016",
    "source:maxspeed": "FR:zone30",
    "surface": "asphalt"
  }
},
{
  "type": "way",
  "id": 237854536,
  "nodes": [
    129994273,
    2714051840,
    2381836587
  ],
  "tags": {
    "cycleway:right": "lane",
    "highway": "tertiary",
    "maxspeed": "30",
    "name": "Esplanade Jacques Baudot",
    "proposed:cycleway:left": "lane",
    "source": "GrandNancy Orthophotographie 2016",
    "source:maxspeed": "FR:zone30",
    "surface": "asphalt",
    "traffic_calming": "table"
  }
},
{
  "type": "way",
  "id": 238115785,
  "nodes": [
    161917650,
    2625152693,
    7025292537,
    1650149835,
    2853174350,
    10533836
  ],
  "tags": {
    "busway": "opposite_lane",
    "comment": "voir ref B6, de la page FR:Bicycle",
    "cycleway:left": "share_busway",
    "cycleway:right": "lane",
    "highway": "secondary",
    "maxspeed": "50",
    "name": "Rue Aristide Briand",
    "oneway": "yes",
    "oneway:bicycle": "no",
    "surface": "asphalt",
    "turn:lanes": "left|through;right"
  }
},
{
  "type": "way",
  "id": 239255358,
  "nodes": [
    710369014,
    3068773748,
    6767668007,
    6767668006,
    224942369,
    6767668004,
    6767668015,
    6778930299,
    6767668003,
    2992343281
  ],
  "tags": {
    "cycleway:right": "lane",
    "highway": "tertiary",
    "lanes": "2",
    "maxspeed": "50",
    "name": "Rue Henri Bazin",
    "oneway": "yes",
    "source": "GrandNancy Orthophotographie 2016",
    "surface": "asphalt"
  }
},
{
  "type": "way",
  "id": 239483434,
  "nodes": [
    166298379,
    3068773608,
    3068773599,
    710368966,
    3068773595,
    710369021
  ],
  "tags": {
    "cycleway:right": "lane",
    "highway": "tertiary",
    "lanes": "2",
    "name": "Rue Henri Bazin",
    "oneway": "yes",
    "source": "GrandNancy Orthophotographie 2012",
    "surface": "asphalt"
  }
},
{
  "type": "way",
  "id": 239633889,
  "nodes": [
    129999204,
    2069624955,
    2441567394,
    2441567391,
    151205018
  ],
  "tags": {
    "cycleway:right": "lane",
    "destination:backward": "Lycée Jean Prouvé",
    "highway": "secondary",
    "name": "Rue de Bonsecours",
    "old_ref": "N 57;D 570",
    "source": "Bing;survey"
  }
},
{
  "type": "way",
  "id": 246470102,
  "nodes": [
    10535348,
    2535081371,
    6056627878,
    6056627879,
    10533536
  ],
  "tags": {
    "cycleway:right": "lane",
    "cycleway:right:lane": "exclusive",
    "highway": "tertiary",
    "lanes": "2",
    "lit": "yes",
    "maxspeed": "30",
    "name": "Cours Léopold",
    "old_ref": "N 57;D 570",
    "oneway": "yes",
    "sidewalk": "right",
    "smoothness": "excellent",
    "source:maxspeed": "FR:zone30",
    "surface": "asphalt"
  }
},
{
  "type": "way",
  "id": 248314698,
  "nodes": [
    147831617,
    4181069357,
    3201704170,
    710384932,
    725027608
  ],
  "tags": {
    "cycleway:right": "lane",
    "highway": "tertiary",
    "maxspeed": "50",
    "name": "Avenue du 20e Corps",
    "old_ref": "N 74",
    "oneway": "yes",
    "sidewalk": "right",
    "source": "cadastre-dgi-fr source : Direction Générale des Impôts - Cadastre. Mise à jour : 2010",
    "surface": "asphalt"
  }
},
{
  "type": "way",
  "id": 248314699,
  "nodes": [
    724227119,
    2732080094,
    724227193
  ],
  "tags": {
    "cycleway:right": "lane",
    "destination": "Autres directions;Jarville;Quartier Charles Ⅲ;CHU de Nancy;Urgences",
    "destination:symbol": "motorway;hospital",
    "highway": "secondary",
    "lanes": "2",
    "maxspeed": "50",
    "name": "Place de la Division de Fer",
    "oneway": "yes",
    "sidewalk": "no",
    "source": "cadastre-dgi-fr source : Direction Générale des Impôts - Cadastre. Mise à jour : 2010",
    "surface": "asphalt"
  }
},
{
  "type": "way",
  "id": 250842905,
  "nodes": [
    130121088,
    311417590,
    3169158289,
    130121094,
    130121095,
    130121096,
    5503781613,
    3169158267,
    4247948414,
    130121050
  ],
  "tags": {
    "cycleway:right": "lane",
    "highway": "residential",
    "maxspeed": "30",
    "name": "Rue de la Paix",
    "oneway": "yes",
    "sidewalk": "right",
    "source:maxspeed": "FR:zone30",
    "surface": "asphalt"
  }
},
{
  "type": "way",
  "id": 255861688,
  "nodes": [
    260090353,
    707509439,
    260090354,
    2796855789,
    2796855785,
    2796855781,
    260090356
  ],
  "tags": {
    "cycleway:right": "lane",
    "cycleway:right:width": "1",
    "highway": "secondary",
    "maxspeed": "50",
    "name": "Rue Sigisbert Adam",
    "oneway": "yes",
    "source": "GrandNancy Orthophotographie 2012",
    "surface": "asphalt"
  }
},
{
  "type": "way",
  "id": 256008545,
  "nodes": [
    247122873,
    3096244703,
    3096244620,
    2772127702,
    4958420766,
    247122871
  ],
  "tags": {
    "cycleway:left": "no",
    "cycleway:right": "lane",
    "cycleway:right:lane": "exclusive",
    "cycleway:right:width": "0.93",
    "highway": "secondary",
    "lanes": "3",
    "lanes:forward": "2",
    "maxspeed": "50",
    "name": "Rue Grandville",
    "oneway": "no",
    "surface": "asphalt",
    "turn:lanes:forward": "through|right"
  }
},
{
  "type": "way",
  "id": 259808199,
  "nodes": [
    142089,
    7623513415,
    2652651134,
    7025287383,
    7623513419,
    2652651131
  ],
  "tags": {
    "cycleway:right": "lane",
    "highway": "secondary",
    "lanes": "3",
    "lanes:backward": "1",
    "lanes:forward": "2",
    "lit": "yes",
    "maxspeed": "50",
    "name": "Avenue de la Libération",
    "old_ref": "D 400",
    "sidewalk": "right",
    "source": "Bing;survey",
    "surface": "asphalt",
    "turn:lanes:forward": "left|through"
  }
},
{
  "type": "way",
  "id": 259808201,
  "nodes": [
    1665954409,
    1665954413,
    7623513420,
    7623513421,
    1732954650,
    2652651092,
    10708847
  ],
  "tags": {
    "cycleway:right": "lane",
    "highway": "secondary",
    "lanes": "1",
    "maxspeed": "50",
    "name": "Avenue de la Libération",
    "old_ref": "D 400",
    "oneway": "yes",
    "surface": "asphalt"
  }
},
{
  "type": "way",
  "id": 261117556,
  "nodes": [
    2667397593,
    7623513423,
    7623513422,
    1732954601,
    2396330017,
    1665954405
  ],
  "tags": {
    "cycleway:right": "lane",
    "highway": "secondary",
    "maxspeed": "50",
    "name": "Avenue de la Libération",
    "old_ref": "D 400",
    "surface": "asphalt"
  }
},
{
  "type": "way",
  "id": 265788253,
  "nodes": [
    2020455110,
    6950725896,
    10532408,
    2727563340,
    129997260,
    2714052039,
    7067367534,
    10532863,
    3299320176,
    2642561780,
    2727563346,
    258885039
  ],
  "tags": {
    "cycleway:right": "lane",
    "cycleway:right:lane": "exclusive",
    "highway": "secondary",
    "lanes": "2",
    "lit": "yes",
    "maxspeed": "50",
    "name": "Rue de Laxou",
    "oneway": "yes",
    "sidewalk": "both",
    "source": "GrandNancy Orthophotographie 2012",
    "surface": "asphalt"
  }
},
{
  "type": "way",
  "id": 265788254,
  "nodes": [
    10532524,
    2714052006,
    531550085,
    2642561777,
    2642561778,
    531550101,
    10532117,
    2714052017,
    7037145615,
    7157029623,
    2020455110
  ],
  "tags": {
    "cycleway:right": "lane",
    "cycleway:right:lane": "exclusive",
    "destination": "Nancy-Centre",
    "highway": "secondary",
    "lanes": "1",
    "lit": "yes",
    "maxspeed": "30",
    "name": "Rue de Laxou",
    "oneway": "yes",
    "sidewalk": "both",
    "source": "GrandNancy Orthophotographie 2012",
    "surface": "asphalt"
  }
},
{
  "type": "way",
  "id": 265788271,
  "nodes": [
    3061564540,
    129994274,
    2727563224,
    129994273
  ],
  "tags": {
    "cycleway:right": "lane",
    "highway": "tertiary",
    "maxspeed": "30",
    "name": "Rue du Sergent Blandan",
    "smoothness": "excellent",
    "source": "GrandNancy Orthophotographie 2016",
    "source:maxspeed": "FR:zone30",
    "surface": "asphalt"
  }
},
{
  "type": "way",
  "id": 265788272,
  "nodes": [
    2714051875,
    2714051874,
    149398024,
    2714051872
  ],
  "tags": {
    "cycleway:right": "lane",
    "highway": "tertiary",
    "maxspeed": "30",
    "name": "Rue du Sergent Blandan",
    "smoothness": "excellent",
    "source:maxspeed": "FR:zone30",
    "surface": "asphalt",
    "traffic_calming": "table"
  }
},
{
  "type": "way",
  "id": 267803521,
  "nodes": [
    276659089,
    2732079821,
    1225761157
  ],
  "tags": {
    "cycleway:right": "lane",
    "highway": "secondary",
    "lanes": "1",
    "maxspeed": "50",
    "name": "Rue Molitor",
    "oneway": "yes",
    "source": "GrandNancy Orthophotographie 2012",
    "surface": "asphalt"
  }
},
{
  "type": "way",
  "id": 272854769,
  "nodes": [
    2401247149,
    1665954386,
    1732954627,
    10708093,
    1665954391
  ],
  "tags": {
    "cycleway:right": "lane",
    "highway": "secondary",
    "maxspeed": "50",
    "name": "Avenue de la Libération",
    "old_ref": "D 400",
    "oneway": "no",
    "surface": "asphalt"
  }
},
{
  "type": "way",
  "id": 272854770,
  "nodes": [
    90661700,
    2777797035,
    2777797036,
    2777797054,
    2777797059,
    2777797061,
    2777797063,
    2777797068,
    303742848
  ],
  "tags": {
    "cycleway:right": "lane",
    "highway": "secondary",
    "lanes": "2",
    "name": "Avenue de la Libération",
    "old_ref": "D 400",
    "oneway": "yes",
    "source": "GrandNancy Orthophotographie 2012",
    "surface": "asphalt",
    "turn:lanes": "merge_to_right|none"
  }
},
{
  "type": "way",
  "id": 272854771,
  "nodes": [
    2777797022,
    90661700
  ],
  "tags": {
    "busway:left": "lane",
    "cycleway:left": "share_busway",
    "cycleway:right": "lane",
    "highway": "secondary",
    "lanes": "5",
    "lanes:backward": "3",
    "name": "Rue de l'Armée Patton",
    "old_ref": "D 400",
    "oneway": "no",
    "source": "GrandNancy Orthophotographie 2012",
    "surface": "asphalt",
    "turn:lanes:backward": "left|through|through;right"
  }
},
{
  "type": "way",
  "id": 274327507,
  "nodes": [
    1844415295,
    2714052147,
    2714052152,
    420569405
  ],
  "tags": {
    "cycleway": "opposite",
    "cycleway:right": "lane",
    "highway": "residential",
    "lit": "yes",
    "maxspeed": "30",
    "name": "Rue Préfet Claude Érignac",
    "oneway": "yes",
    "sidewalk": "both",
    "source": "GrandNancy Orthophotographie 2012",
    "source:maxspeed": "FR:zone30",
    "surface": "asphalt"
  }
},
{
  "type": "way",
  "id": 275021289,
  "nodes": [
    2796855806,
    2796855807,
    1650922154,
    4263391795
  ],
  "tags": {
    "cycleway:right": "lane",
    "highway": "secondary",
    "name": "Boulevard du 26e Régiment d'Infanterie",
    "oneway": "yes",
    "source": "GrandNancy Orthophotographie 2012",
    "surface": "asphalt"
  }
},
{
  "type": "way",
  "id": 277629119,
  "nodes": [
    296327176,
    2745357353,
    542500479,
    2745357354,
    4622060229,
    10532279
  ],
  "tags": {
    "cycleway:right": "lane",
    "cycleway:right:lane": "exclusive",
    "destination": "Quartier Ville Vieille-Léopold;Vaudémont;Dom Calmet",
    "destination:symbol": "parking",
    "highway": "tertiary",
    "lanes": "2",
    "lit": "yes",
    "maxspeed": "30",
    "name": "Rue Saint-Dizier",
    "old_ref": "D 400",
    "oneway": "yes",
    "sidewalk": "both",
    "source": "cadastre-dgi-fr source : Direction Générale des Impôts - Cadastre. Mise à jour : 2012",
    "source:maxspeed": "FR:zone30",
    "surface": "asphalt",
    "turn:lanes": "left|through"
  }
},
{
  "type": "way",
  "id": 279054972,
  "nodes": [
    7961042642,
    7961042640,
    4177163844,
    566606072,
    598561962,
    7961042641,
    7961042643
  ],
  "tags": {
    "cycleway:right": "lane",
    "cycleway:right:lane": "exclusive",
    "highway": "tertiary",
    "lanes": "2",
    "lit": "yes",
    "maxspeed": "30",
    "name": "Cours Léopold",
    "old_ref": "N 57;D 570",
    "oneway": "yes",
    "sidewalk": "right",
    "smoothness": "excellent",
    "source": "GrandNancy Orthophotographie 2016",
    "source:maxspeed": "FR:zone30",
    "surface": "asphalt",
    "traffic_calming": "table"
  }
},
{
  "type": "way",
  "id": 294041249,
  "nodes": [
    2976118899,
    1673468900,
    2514288935,
    253150556
  ],
  "tags": {
    "bicycle": "yes",
    "cycleway:right": "lane",
    "highway": "tertiary",
    "name": "Rue Émile Gebhart",
    "oneway": "yes",
    "source": "GrandNancy Orthophotographie 2012",
    "surface": "asphalt"
  }
},
{
  "type": "way",
  "id": 294041250,
  "nodes": [
    2976118890,
    2976118891,
    129994265,
    2976118899
  ],
  "tags": {
    "bicycle": "yes",
    "cycleway:right": "lane",
    "highway": "tertiary",
    "name": "Rue Émile Gebhart",
    "oneway": "yes",
    "source": "GrandNancy Orthophotographie 2012",
    "surface": "asphalt",
    "traffic_calming": "table"
  }
},
{
  "type": "way",
  "id": 295022999,
  "nodes": [
    157102373,
    3953373460
  ],
  "tags": {
    "bridge": "yes",
    "cycleway:right": "lane",
    "highway": "tertiary",
    "lanes": "2",
    "layer": "1",
    "maxweight:signed": "no",
    "name": "Rue Charles Keller",
    "source": "cadastre-dgi-fr source : Direction Générale des Impôts - Cadastre. Mise à jour : 2010",
    "surface": "asphalt"
  }
},
{
  "type": "way",
  "id": 302629873,
  "nodes": [
    3068773611,
    166298379
  ],
  "tags": {
    "cycleway:right": "lane",
    "highway": "tertiary",
    "lanes": "2",
    "maxspeed": "50",
    "name": "Rue Henri Bazin",
    "oneway": "yes",
    "source": "GrandNancy Orthophotographie 2012",
    "surface": "asphalt"
  }
},
{
  "type": "way",
  "id": 304569566,
  "nodes": [
    1012083740,
    3091275661,
    332549387
  ],
  "tags": {
    "cycleway:right": "lane",
    "highway": "secondary",
    "lanes": "2",
    "name": "Rue de Tomblaine",
    "oneway": "yes",
    "source": "GrandNancy Orthophotographie 2012",
    "surface": "asphalt",
    "turn:lanes": "left|left;through"
  }
},
{
  "type": "way",
  "id": 323311965,
  "nodes": [
    1625980093,
    6757977856,
    6443960551
  ],
  "tags": {
    "bridge": "yes",
    "cycleway:right": "lane",
    "highway": "secondary",
    "lanes": "2",
    "layer": "1",
    "maxspeed": "30",
    "name": "Pont des Fusillés",
    "oneway": "yes",
    "source": "GrandNancy Orthophotographie 2012",
    "surface": "asphalt"
  }
},
{
  "type": "way",
  "id": 323311971,
  "nodes": [
    3295217691,
    2440785816,
    1627460452
  ],
  "tags": {
    "bridge": "yes",
    "comment": "La voie de bus a été remplacé par une bande cyclable",
    "cycleway:right": "lane",
    "highway": "secondary",
    "lanes": "2",
    "layer": "1",
    "loc_name": "Pont Saint-Léon",
    "maxspeed": "50",
    "name": "Rue Raymond Poincaré",
    "old_ref": "D 400",
    "oneway": "yes",
    "source": "GrandNancy Orthophotographie 2012",
    "surface": "asphalt"
  }
},
{
  "type": "way",
  "id": 323311977,
  "nodes": [
    3295217690,
    1012083716,
    6113890552,
    5908620271,
    2981372647,
    4551516052,
    4551516058,
    2171047763,
    276659095
  ],
  "tags": {
    "cycleway:right": "lane",
    "highway": "secondary",
    "lanes": "2",
    "name": "Rue Molitor",
    "oneway": "yes",
    "source": "GrandNancy Orthophotographie 2016",
    "surface": "asphalt"
  }
},
{
  "type": "way",
  "id": 325079386,
  "nodes": [
    2942099396,
    137828525,
    245049841,
    2447521074,
    137828542,
    1770695479,
    6569713701,
    1770695478,
    140564717,
    6569713700,
    137828553,
    1770695476,
    6581109268,
    1650149841,
    4100530041,
    137828559
  ],
  "tags": {
    "bicycle": "yes",
    "cycleway:right": "lane",
    "cycleway:right:lane": "exclusive",
    "highway": "secondary",
    "lanes": "1",
    "lit": "yes",
    "maxspeed": "30",
    "name": "Rue de Villers",
    "oneway": "yes",
    "sidewalk": "both",
    "smoothness": "excellent",
    "source": "GrandNancy Orthophotographie 2012",
    "source:maxspeed": "FR:zone30",
    "surface": "asphalt"
  }
},
{
  "type": "way",
  "id": 335274716,
  "nodes": [
    253154482,
    2440786123,
    610516895,
    2440786129,
    3423895872,
    8091600512,
    4274029639,
    8091600516,
    8091600515,
    253154483
  ],
  "tags": {
    "cycleway:right": "lane",
    "highway": "secondary",
    "lanes": "1",
    "maxspeed": "50",
    "name": "Rue du Chanoine Jacob",
    "oneway": "yes",
    "surface": "asphalt"
  }
},
{
  "type": "way",
  "id": 346040746,
  "nodes": [
    241898856,
    7905903930,
    2714051828,
    2727563168,
    10535022
  ],
  "tags": {
    "cycleway:right": "lane",
    "highway": "tertiary",
    "maxspeed": "50",
    "maxspeed:type": "FR:urban",
    "name": "Rue du Sergent Blandan",
    "source:maxspeed": "FR:urban",
    "surface": "asphalt"
  }
},
{
  "type": "way",
  "id": 362731536,
  "nodes": [
    724173492,
    724173507
  ],
  "tags": {
    "cycleway:right": "lane",
    "highway": "tertiary",
    "maxspeed": "50",
    "name": "Rue de l'Ile de Corse",
    "oneway": "yes",
    "source": "cadastre-dgi-fr source : Direction Générale des Impôts - Cadastre. Mise à jour : 2010",
    "surface": "asphalt"
  }
},
{
  "type": "way",
  "id": 362775336,
  "nodes": [
    2724035499,
    2724035495,
    1895049250,
    120307151,
    2724035504,
    4194134621,
    2724035507,
    2724035525,
    2714051935,
    2745357290,
    120307159
  ],
  "tags": {
    "cycleway:right": "lane",
    "highway": "secondary",
    "lanes": "2",
    "maxspeed": "50",
    "name": "Rue Aristide Briand",
    "old_ref": "D 39",
    "oneway": "yes",
    "source": "GrandNancy Orthophotographie 2016",
    "surface": "asphalt"
  }
},
{
  "type": "way",
  "id": 363454155,
  "nodes": [
    150897974,
    1722624093,
    611401392,
    7638392774,
    1721769092,
    2765479292
  ],
  "tags": {
    "cycleway:right": "lane",
    "highway": "secondary",
    "lanes": "2",
    "maxspeed": "30",
    "name": "Rue du Maréchal Oudinot",
    "source": "survey",
    "surface": "asphalt"
  }
},
{
  "type": "way",
  "id": 383059760,
  "nodes": [
    3862594029,
    3862594031
  ],
  "tags": {
    "cycleway:right": "lane",
    "highway": "secondary",
    "name": "Rue de Bonsecours",
    "old_ref": "N 57;D 570",
    "oneway": "yes",
    "parking:lane:right": "parallel",
    "source": "GrandNancy Orthophotographie 2012;survey",
    "surface": "asphalt"
  }
},
{
  "type": "way",
  "id": 383059765,
  "nodes": [
    3862594031,
    3862594030,
    8188814880,
    3862594028,
    3862594026,
    6381145142,
    6381145143,
    3862594024
  ],
  "tags": {
    "cycleway:right": "lane",
    "cycleway:right:width": "1.15",
    "highway": "secondary",
    "name": "Rue de Bonsecours",
    "old_ref": "N 57;D 570",
    "oneway": "yes",
    "source": "GrandNancy Orthophotographie 2012;survey"
  }
},
{
  "type": "way",
  "id": 387177211,
  "nodes": [
    151200731,
    6589997686,
    151200711
  ],
  "tags": {
    "bicycle": "yes",
    "cycleway:right": "lane",
    "highway": "residential",
    "maxspeed": "30",
    "name": "Avenue Boffrand",
    "oneway": "yes",
    "source:maxspeed": "FR:zone30",
    "surface": "asphalt"
  }
},
{
  "type": "way",
  "id": 405154625,
  "nodes": [
    4073750726,
    2567131719
  ],
  "tags": {
    "cycleway:right": "lane",
    "highway": "residential",
    "name": "Rue Raymond Poincaré",
    "surface": "asphalt"
  }
},
{
  "type": "way",
  "id": 407334659,
  "nodes": [
    10708207,
    2745357323,
    1721571112,
    471820017
  ],
  "tags": {
    "cycleway:right": "lane",
    "cycleway:right:lane": "exclusive",
    "cycleway:right:width": "1.5",
    "highway": "secondary",
    "lanes": "4",
    "lit": "yes",
    "maxspeed": "50",
    "name": "Rue Raymond Poincaré",
    "oneway": "yes",
    "sidewalk": "both",
    "smoothness": "excellent",
    "source": "GrandNancy Orthophotographie 2012",
    "surface": "asphalt",
    "turn:lanes": "left|through|through|right"
  }
},
{
  "type": "way",
  "id": 417581998,
  "nodes": [
    4057980430,
    2073854703,
    725027612,
    710384932
  ],
  "tags": {
    "cycleway:right": "lane",
    "highway": "residential",
    "name": "Rue de Château-Salins",
    "oneway": "yes",
    "sidewalk": "no",
    "source": "cadastre-dgi-fr source : Direction Générale des Impôts - Cadastre. Mise à jour : 2010",
    "surface": "asphalt"
  }
},
{
  "type": "way",
  "id": 419829952,
  "nodes": [
    724227193,
    724227164
  ],
  "tags": {
    "cycleway:right": "lane",
    "highway": "secondary",
    "lanes": "2",
    "maxspeed": "50",
    "name": "Place de la Division de Fer",
    "oneway": "yes",
    "source": "cadastre-dgi-fr source : Direction Générale des Impôts - Cadastre. Mise à jour : 2010",
    "surface": "asphalt"
  }
},
{
  "type": "way",
  "id": 419829953,
  "nodes": [
    724227168,
    4119241561,
    724227213
  ],
  "tags": {
    "cycleway:right": "lane",
    "highway": "secondary",
    "lanes": "2",
    "maxspeed": "50",
    "name": "Place de la Division de Fer",
    "oneway": "yes",
    "source": "Bing",
    "surface": "asphalt",
    "turn:lanes": "left;through|through"
  }
},
{
  "type": "way",
  "id": 425191874,
  "nodes": [
    4244962028,
    7507111824,
    4244962029
  ],
  "tags": {
    "cycleway:right": "lane",
    "highway": "secondary",
    "lanes": "2",
    "name": "Avenue du Maréchal de Lattre de Tassigny",
    "old_ref": "D 400",
    "oneway": "yes",
    "source": "survey;BDOrtho IGN"
  }
},
{
  "type": "way",
  "id": 425191875,
  "nodes": [
    4244962029,
    7507111823
  ],
  "tags": {
    "busway:left": "lane",
    "cycleway:left": "share_busway",
    "cycleway:right": "lane",
    "highway": "secondary",
    "lanes": "5",
    "lanes:backward": "3",
    "name": "Avenue du Maréchal de Lattre de Tassigny",
    "old_ref": "D 400",
    "source": "survey;BDOrtho IGN",
    "surface": "asphalt",
    "turn:lanes:backward": "left|through|",
    "turn:lanes:forward": "left|through;right"
  }
},
{
  "type": "way",
  "id": 425490465,
  "nodes": [
    4247948444,
    4247948442
  ],
  "tags": {
    "cycleway:right": "lane",
    "highway": "residential",
    "maxspeed": "30",
    "name": "Rue de la Paix",
    "oneway": "yes",
    "surface": "asphalt"
  }
},
{
  "type": "way",
  "id": 425490470,
  "nodes": [
    4247948442,
    130121081,
    4247948441
  ],
  "tags": {
    "cycleway:left": "opposite_lane",
    "cycleway:right": "lane",
    "highway": "residential",
    "maxspeed": "30",
    "name": "Rue de la Paix",
    "oneway": "yes",
    "source:maxspeed": "FR:zone30",
    "surface": "asphalt"
  }
},
{
  "type": "way",
  "id": 432790018,
  "nodes": [
    654086148,
    90662104,
    666887497,
    1722812376,
    157102373
  ],
  "tags": {
    "cycleway:right": "lane",
    "highway": "tertiary",
    "lanes": "2",
    "name": "Rue Charles Dusaulx",
    "oneway": "no",
    "surface": "asphalt"
  }
},
{
  "type": "way",
  "id": 449909646,
  "nodes": [
    2745357313,
    2745357314,
    2745357318,
    10710587
  ],
  "tags": {
    "cycleway:right": "lane",
    "description:covid19": "Bande cyclable temporaire",
    "highway": "residential",
    "lanes": "1",
    "maxspeed": "50",
    "name": "Rue de la Commanderie",
    "oneway": "yes",
    "smoothness": "good",
    "source": "GrandNancy Orthophotographie 2012;survey",
    "surface": "asphalt"
  }
},
{
  "type": "way",
  "id": 459185295,
  "nodes": [
    4550962485,
    4556990674,
    1650922150,
    2796855806
  ],
  "tags": {
    "cycleway:right": "lane",
    "highway": "secondary",
    "maxspeed": "50",
    "name": "Boulevard du 26e Régiment d'Infanterie",
    "oneway": "yes",
    "source": "GrandNancy Orthophotographie 2012",
    "surface": "asphalt"
  }
},
{
  "type": "way",
  "id": 459185297,
  "nodes": [
    707509443,
    2796855566,
    1458005226,
    7606827389,
    707509438,
    4263391791
  ],
  "tags": {
    "cycleway:right": "lane",
    "cycleway:right:width": "0.83",
    "highway": "secondary",
    "lanes": "2",
    "maxspeed": "50",
    "name": "Boulevard du 26e Régiment d'Infanterie",
    "oneway": "yes",
    "source": "GrandNancy Orthophotographie 2012",
    "surface": "asphalt"
  }
},
{
  "type": "way",
  "id": 459185299,
  "nodes": [
    707509432,
    4565201314,
    2796855530,
    707509434,
    2796855540,
    1917421338,
    2796855543,
    707509433
  ],
  "tags": {
    "cycleway:right": "lane",
    "cycleway:right:width": "1.04",
    "highway": "secondary",
    "lanes": "2",
    "maxspeed": "50",
    "name": "Boulevard du 26e Régiment d'Infanterie",
    "oneway": "yes",
    "parking:lane:right": "parallel",
    "source": "GrandNancy Orthophotographie 2012",
    "surface": "asphalt"
  }
},
{
  "type": "way",
  "id": 459185301,
  "nodes": [
    4550962486,
    4565201313,
    2796855518,
    4565201315
  ],
  "tags": {
    "cycleway:right": "lane",
    "cycleway:right:width": "0.95",
    "highway": "secondary",
    "lanes": "2",
    "maxspeed": "50",
    "name": "Boulevard du 26e Régiment d'Infanterie",
    "oneway": "yes",
    "source": "GrandNancy Orthophotographie 2012",
    "surface": "asphalt"
  }
},
{
  "type": "way",
  "id": 459185302,
  "nodes": [
    2796855542,
    2796855531,
    5333796247,
    4550962487
  ],
  "tags": {
    "cycleway:right": "lane",
    "cycleway:right:width": "0.9",
    "highway": "secondary",
    "lanes": "2",
    "maxspeed": "50",
    "name": "Boulevard du 26e Régiment d'Infanterie",
    "oneway": "yes",
    "parking:lane:right": "parallel",
    "source": "GrandNancy Orthophotographie 2012",
    "surface": "asphalt"
  }
},
{
  "type": "way",
  "id": 459185304,
  "nodes": [
    4550962488,
    1917421339,
    247122867
  ],
  "tags": {
    "cycleway:right": "lane",
    "cycleway:right:width": "1.15",
    "highway": "secondary",
    "lanes": "2",
    "maxspeed": "50",
    "name": "Boulevard du 26e Régiment d'Infanterie",
    "oneway": "yes",
    "source": "GrandNancy Orthophotographie 2012",
    "surface": "asphalt",
    "turn:lanes": "left;through|through"
  }
},
{
  "type": "way",
  "id": 459185306,
  "nodes": [
    260090356,
    90664110,
    1928700308,
    1917421340
  ],
  "tags": {
    "cycleway:right": "lane",
    "cycleway:right:width": "1.15",
    "highway": "secondary",
    "lanes": "2",
    "maxspeed": "50",
    "name": "Boulevard du 26e Régiment d'Infanterie",
    "oneway": "yes",
    "parking:lane:right": "parallel",
    "source": "GrandNancy Orthophotographie 2012",
    "surface": "asphalt"
  }
},
{
  "type": "way",
  "id": 534660178,
  "nodes": [
    2511301749,
    4553073987,
    4553074891,
    5184735146,
    2533793251
  ],
  "tags": {
    "cycleway:right": "lane",
    "highway": "tertiary",
    "incline": "7%",
    "name": "Avenue Raymond Pinchard",
    "oneway": "yes",
    "source": "GrandNancy Orthophotographie 2016",
    "surface": "asphalt"
  }
},
{
  "type": "way",
  "id": 534660179,
  "nodes": [
    2533793251,
    5184735147,
    5184735148,
    5184735149,
    2511301749
  ],
  "tags": {
    "cycleway:right": "lane",
    "highway": "tertiary",
    "incline": "-7%",
    "lanes": "2",
    "name": "Avenue Raymond Pinchard",
    "oneway": "yes",
    "source": "GrandNancy Orthophotographie 2016",
    "surface": "asphalt",
    "turn:lanes": "left|through"
  }
},
{
  "type": "way",
  "id": 545092978,
  "nodes": [
    129994260,
    8829549251,
    1673468865,
    600738008,
    2498959724,
    2498963543,
    2498963544,
    5268634671
  ],
  "tags": {
    "cycleway:right": "lane",
    "highway": "tertiary",
    "maxspeed": "50",
    "maxspeed:type": "sign",
    "name": "Rue du Général Chevert",
    "oneway": "yes",
    "source": "GrandNancy Orthophotographie 2012",
    "surface": "asphalt"
  }
},
{
  "type": "way",
  "id": 545092979,
  "nodes": [
    5268634671,
    986742963,
    5268634669,
    5268634670
  ],
  "tags": {
    "cycleway:right": "lane",
    "highway": "tertiary",
    "maxspeed": "50",
    "maxspeed:type": "sign",
    "name": "Rue du Général Chevert",
    "oneway": "yes",
    "source": "GrandNancy Orthophotographie 2012",
    "surface": "asphalt",
    "traffic_calming": "table"
  }
},
{
  "type": "way",
  "id": 550841266,
  "nodes": [
    5320011081,
    5320011085
  ],
  "tags": {
    "cycleway:right": "lane",
    "highway": "secondary",
    "lanes": "2",
    "name": "Rue Charles Keller",
    "oneway": "yes",
    "parking:lane:right": "parallel",
    "surface": "asphalt",
    "turn:lanes": "left|through"
  }
},
{
  "type": "way",
  "id": 550841269,
  "nodes": [
    5320011080,
    5320011084
  ],
  "tags": {
    "cycleway:right": "lane",
    "highway": "secondary",
    "name": "Rue Charles Keller",
    "oneway": "yes",
    "parking:lane:left": "parallel",
    "parking:lane:left:capacity:disabled": "1",
    "surface": "asphalt"
  }
},
{
  "type": "way",
  "id": 550841272,
  "nodes": [
    5320011084,
    5320011081
  ],
  "tags": {
    "cycleway:right": "lane",
    "highway": "secondary",
    "name": "Rue Charles Keller",
    "oneway": "yes",
    "parking:lane:both": "parallel",
    "surface": "asphalt"
  }
},
{
  "type": "way",
  "id": 550841275,
  "nodes": [
    5320011083,
    619396299,
    5320011080
  ],
  "tags": {
    "cycleway:right": "lane",
    "highway": "secondary",
    "name": "Rue Charles Keller",
    "oneway": "yes",
    "surface": "asphalt"
  }
},
{
  "type": "way",
  "id": 550841279,
  "nodes": [
    5320011082,
    5320011083
  ],
  "tags": {
    "cycleway:right": "lane",
    "highway": "secondary",
    "name": "Rue Charles Keller",
    "oneway": "yes",
    "parking:lane:both": "parallel",
    "parking:lane:right:capacity:disabled": "1",
    "surface": "asphalt"
  }
},
{
  "type": "way",
  "id": 550841284,
  "nodes": [
    90662174,
    7350118319,
    598560431,
    5320011082
  ],
  "tags": {
    "cycleway:right": "lane",
    "highway": "secondary",
    "name": "Rue Charles Keller",
    "oneway": "yes",
    "surface": "asphalt"
  }
},
{
  "type": "way",
  "id": 599455790,
  "nodes": [
    4244962031,
    6518987412,
    1753894368
  ],
  "tags": {
    "busway:left": "left|through|",
    "cycleway:left": "share_busway",
    "cycleway:right": "lane",
    "highway": "secondary",
    "lanes": "4",
    "name": "Avenue du Maréchal de Lattre de Tassigny",
    "old_ref": "D 400",
    "source": "survey;BDOrtho IGN",
    "surface": "asphalt",
    "traffic_calming": "island"
  }
},
{
  "type": "way",
  "id": 599455792,
  "nodes": [
    5703132462,
    2469170456,
    2469170463
  ],
  "tags": {
    "cycleway:right": "lane",
    "cycleway:right:lane": "advisory",
    "highway": "secondary",
    "lanes": "1",
    "maxspeed": "30",
    "name": "Rue de Nabécor",
    "oneway": "yes",
    "source": "survey",
    "surface": "asphalt"
  }
},
{
  "type": "way",
  "id": 601949674,
  "nodes": [
    286305622,
    2537961141
  ],
  "tags": {
    "cycleway:right": "lane",
    "highway": "secondary",
    "lanes": "2",
    "maxspeed": "50",
    "name": "Boulevard Georges Clemenceau",
    "oneway": "yes",
    "source:maxspeed": "FR:urban",
    "surface": "asphalt",
    "turn:lanes": "left;through|right"
  }
},
{
  "type": "way",
  "id": 601949677,
  "nodes": [
    1722624045,
    611401396
  ],
  "tags": {
    "cycleway:right": "lane",
    "highway": "secondary",
    "lanes": "2",
    "maxspeed": "50",
    "name": "Boulevard Georges Clemenceau",
    "oneway": "yes",
    "source:maxspeed": "FR:urban",
    "surface": "asphalt"
  }
},
{
  "type": "way",
  "id": 601949680,
  "nodes": [
    150897974,
    5631256144,
    1722624045
  ],
  "tags": {
    "cycleway:right": "lane",
    "highway": "secondary",
    "lanes": "3",
    "maxspeed": "50",
    "name": "Boulevard Georges Clemenceau",
    "oneway": "yes",
    "psv:lanes": "no|no|designated",
    "source:maxspeed": "FR:urban",
    "surface": "asphalt"
  }
},
{
  "type": "way",
  "id": 604855848,
  "nodes": [
    5738318521,
    2942099402,
    2942099401,
    129997264
  ],
  "tags": {
    "cycleway:right": "lane",
    "cycleway:right:width": "1.5",
    "highway": "secondary",
    "lanes": "2",
    "maxspeed": "50",
    "name": "Avenue Anatole France",
    "oneway": "yes",
    "surface": "asphalt",
    "turn:lanes": "through|through;right"
  }
},
{
  "type": "way",
  "id": 604855849,
  "nodes": [
    129997264,
    2942099400,
    3678933397,
    120318849
  ],
  "tags": {
    "cycleway:right": "lane",
    "cycleway:right:width": "1.5",
    "highway": "secondary",
    "lanes": "2",
    "maxspeed": "50",
    "name": "Avenue Anatole France",
    "oneway": "yes",
    "surface": "asphalt",
    "turn:lanes": "through|through;right"
  }
},
{
  "type": "way",
  "id": 604855851,
  "nodes": [
    120318849,
    3678933396,
    2020455096,
    2941412232,
    2941412231,
    10707561
  ],
  "tags": {
    "cycleway:right": "lane",
    "cycleway:right:width": "1.5",
    "highway": "secondary",
    "lanes": "2",
    "maxspeed": "50",
    "name": "Avenue Anatole France",
    "oneway": "yes",
    "surface": "asphalt",
    "turn:lanes": "left;through|through"
  }
},
{
  "type": "way",
  "id": 604855852,
  "nodes": [
    10707561,
    2941412230,
    3005322861,
    10707924,
    3005322860,
    4060483593,
    148472357,
    4060483526,
    2532468050
  ],
  "tags": {
    "cycleway:right": "lane",
    "cycleway:right:width": "1.5",
    "highway": "secondary",
    "lanes": "2",
    "maxspeed": "50",
    "name": "Avenue Anatole France",
    "oneway": "yes",
    "surface": "asphalt"
  }
},
{
  "type": "way",
  "id": 604855882,
  "nodes": [
    2567131719,
    491248998
  ],
  "tags": {
    "cycleway:right": "lane",
    "highway": "residential",
    "name": "Rue Aristide Briand",
    "surface": "asphalt"
  }
},
{
  "type": "way",
  "id": 604855885,
  "nodes": [
    129997266,
    3317506470,
    5738318531
  ],
  "tags": {
    "cycleway:right": "lane",
    "highway": "residential",
    "name": "Rue Dupont des Loges",
    "oneway": "yes",
    "source": "Bing;survey",
    "surface": "asphalt"
  }
},
{
  "type": "way",
  "id": 604855899,
  "nodes": [
    148482645,
    3312732434,
    3312732432,
    161917650
  ],
  "tags": {
    "busway": "opposite_lane",
    "comment": "voir ref B6, de la page FR:Bicycle",
    "cycleway:left": "share_busway",
    "cycleway:right": "lane",
    "highway": "secondary",
    "lanes": "2",
    "maxspeed": "50",
    "name": "Rue Aristide Briand",
    "oneway": "yes",
    "oneway:bicycle": "no",
    "surface": "asphalt"
  }
},
{
  "type": "way",
  "id": 604855904,
  "nodes": [
    120307170,
    2714051993,
    2020455102,
    7051330358,
    2714052004,
    2727563326,
    10532524
  ],
  "tags": {
    "cycleway:right": "lane",
    "highway": "secondary",
    "lanes": "2",
    "maxspeed": "50",
    "name": "Rue de Laxou",
    "oneway": "yes",
    "source": "GrandNancy Orthophotographie 2012",
    "surface": "asphalt",
    "turn:lanes": "through|through;right"
  }
},
{
  "type": "way",
  "id": 604855906,
  "nodes": [
    2977716661,
    2977716618,
    1653241659,
    6560114722,
    2977716590,
    10709070
  ],
  "tags": {
    "bicycle": "yes",
    "cycleway:right": "lane",
    "cycleway:right:lane": "exclusive",
    "highway": "secondary",
    "lanes": "2",
    "lit": "yes",
    "maxspeed": "50",
    "name": "Rue de Saint-Lambert",
    "oneway": "yes",
    "sidewalk": "both",
    "smoothness": "excellent",
    "surface": "asphalt",
    "turn:lanes": "left;through|through"
  }
},
{
  "type": "way",
  "id": 605179787,
  "nodes": [
    150897975,
    2765479286,
    1721769090,
    7638392773,
    2600974687,
    290459641
  ],
  "tags": {
    "cycleway:right": "lane",
    "highway": "tertiary",
    "lanes": "2",
    "maxspeed": "30",
    "name": "Rue du Maréchal Oudinot",
    "source": "survey",
    "surface": "asphalt"
  }
},
{
  "type": "way",
  "id": 605504169,
  "nodes": [
    303742848,
    2401247149
  ],
  "tags": {
    "cycleway:right": "lane",
    "highway": "secondary",
    "lanes": "3",
    "lanes:backward": "2",
    "lanes:forward": "1",
    "maxspeed": "50",
    "name": "Avenue de la Libération",
    "old_ref": "D 400",
    "oneway": "no",
    "surface": "asphalt"
  }
},
{
  "type": "way",
  "id": 605504171,
  "nodes": [
    617579231,
    1675847759,
    2777797016,
    52718520
  ],
  "tags": {
    "cycleway:right": "lane",
    "destination": "Toul;Paris;Lyon;Plateau de Haye;Palais des Sports de Gentilly",
    "highway": "secondary",
    "lanes": "2",
    "maxspeed": "50",
    "name": "Rue de l'Armée Patton",
    "old_ref": "D 400",
    "oneway": "yes",
    "source": "GrandNancy Orthophotographie 2012",
    "surface": "asphalt"
  }
},
{
  "type": "way",
  "id": 605504199,
  "nodes": [
    5742890277,
    1753743346,
    1753743345
  ],
  "tags": {
    "cycleway:right": "lane",
    "destination:backward": "Nancy-Essey",
    "highway": "tertiary",
    "lanes": "3",
    "lanes:backward": "1",
    "maxspeed": "50",
    "name": "Rue Mansuy-Gauvain",
    "surface": "asphalt",
    "turn:lanes:forward": "left|through;right"
  }
},
{
  "type": "way",
  "id": 608841904,
  "nodes": [
    5767469666,
    6395819239,
    9386718441,
    4088940824
  ],
  "tags": {
    "cycleway:right": "lane",
    "highway": "tertiary",
    "lanes": "3",
    "lanes:forward": "2",
    "name": "Rue du Capitaine Guynemer",
    "source": "GrandNancy Orthophotographie 2016",
    "turn:lanes:forward": "left|through"
  }
},
{
  "type": "way",
  "id": 608841914,
  "nodes": [
    10708136,
    2747791841,
    2747791844,
    610516883
  ],
  "tags": {
    "cycleway:right": "lane",
    "destination": "Malzéville;St Max;St Fiacre - 3 Maisons;Quartier Stanislas;Bus de Tourisme",
    "destination:symbol": "parking",
    "highway": "secondary",
    "lanes": "1",
    "maxspeed": "50",
    "name": "Rue de Boudonville",
    "oneway": "yes",
    "smoothness": "excellent",
    "source": "GrandNancy Orthophotographie 2012",
    "surface": "asphalt"
  }
},
{
  "type": "way",
  "id": 608841921,
  "nodes": [
    533652665,
    3096244218,
    517430121,
    240378541
  ],
  "tags": {
    "cycleway:left": "no",
    "cycleway:right": "lane",
    "cycleway:right:lane": "exclusive",
    "highway": "residential",
    "lanes": "2",
    "lit": "yes",
    "maxspeed": "30",
    "name": "Rue de Serre",
    "oneway": "yes",
    "source": "Bing + survey",
    "source:maxspeed": "FR:zone30",
    "surface": "asphalt",
    "turn:lanes": "through|through"
  }
},
{
  "type": "way",
  "id": 608841927,
  "nodes": [
    368234346,
    2440786054,
    2795049392,
    8603656978,
    2795049364
  ],
  "tags": {
    "cycleway:left": "no",
    "cycleway:right": "lane",
    "cycleway:right:lane": "advisory",
    "highway": "tertiary",
    "lanes": "2",
    "lit": "yes",
    "maxspeed": "30",
    "name": "Rue de Verdun",
    "sidewalk": "both",
    "source": "GrandNancy Orthophotographie 2012",
    "source:maxspeed": "FR:zone30",
    "surface": "asphalt"
  }
},
{
  "type": "way",
  "id": 608841932,
  "nodes": [
    2795049364,
    8978442541,
    2795049358,
    2795049353,
    10708590
  ],
  "tags": {
    "cycleway:left": "no",
    "cycleway:right": "lane",
    "cycleway:right:lane": "exclusive",
    "highway": "tertiary",
    "lanes": "3",
    "lanes:backward": "1",
    "lanes:forward": "2",
    "lit": "yes",
    "maxspeed": "30",
    "name": "Rue de Verdun",
    "sidewalk": "both",
    "source": "GrandNancy Orthophotographie 2012",
    "source:maxspeed": "FR:zone30",
    "surface": "asphalt",
    "turn:lanes:forward": "left|through;right"
  }
},
{
  "type": "way",
  "id": 608841943,
  "nodes": [
    7623513400,
    1732954744,
    7623513403,
    1732954742,
    7623513404,
    7623513405
  ],
  "tags": {
    "cycleway:right": "lane",
    "highway": "secondary",
    "name": "Avenue de la Libération",
    "old_ref": "D 400",
    "sidewalk": "right"
  }
},
{
  "type": "way",
  "id": 609003363,
  "nodes": [
    1756990010,
    1756990012,
    5819848138
  ],
  "tags": {
    "cycleway:right": "lane",
    "highway": "secondary",
    "lanes": "1",
    "maxspeed": "30",
    "name": "Rue du Faubourg des Trois-Maisons",
    "oneway": "yes",
    "source": "cadastre-dgi-fr source : Direction Générale des Impôts - Cadastre. Mise à jour : 2010",
    "surface": "asphalt"
  }
},
{
  "type": "way",
  "id": 609003364,
  "nodes": [
    5768789302,
    2694334302,
    1756990010
  ],
  "tags": {
    "cycleway:right": "lane",
    "highway": "secondary",
    "lanes": "2",
    "maxspeed": "30",
    "name": "Rue du Faubourg des Trois-Maisons",
    "oneway": "yes",
    "source": "cadastre-dgi-fr source : Direction Générale des Impôts - Cadastre. Mise à jour : 2010",
    "surface": "asphalt",
    "turn:lanes": "left|through"
  }
},
{
  "type": "way",
  "id": 609003369,
  "nodes": [
    260090350,
    577543802,
    1650922135,
    260090351,
    1650922136,
    260090367
  ],
  "tags": {
    "cycleway:right": "lane",
    "cycleway:right:width": "0.75",
    "highway": "secondary",
    "lanes": "2",
    "maxspeed": "50",
    "name": "Rue Sigisbert Adam",
    "oneway": "yes",
    "surface": "asphalt"
  }
},
{
  "type": "way",
  "id": 609003370,
  "nodes": [
    258741855,
    5768789303
  ],
  "tags": {
    "bicycle": "yes",
    "cycleway:right": "lane",
    "highway": "residential",
    "lanes": "2",
    "maxspeed": "30",
    "name": "Rue Braconnot",
    "oneway": "yes",
    "source:maxspeed": "FR:zone30",
    "surface": "asphalt",
    "turn:lanes": "left;through|through"
  }
},
{
  "type": "way",
  "id": 609413313,
  "nodes": [
    1622567383,
    2020232598,
    276659085,
    2876544841,
    276659083
  ],
  "tags": {
    "cycleway:right": "lane",
    "highway": "secondary",
    "maxspeed": "50",
    "name": "Rue Molitor",
    "oneway": "yes",
    "source": "Bing;survey",
    "surface": "asphalt"
  }
},
{
  "type": "way",
  "id": 609413319,
  "nodes": [
    276659096,
    1502225469
  ],
  "tags": {
    "cycleway:right": "lane",
    "highway": "secondary",
    "lanes": "2",
    "name": "Rue de Tomblaine",
    "oneway": "yes",
    "source": "GrandNancy Orthophotographie 2012",
    "surface": "asphalt",
    "turn:lanes": "left;through|through"
  }
},
{
  "type": "way",
  "id": 609413444,
  "nodes": [
    724212805,
    3992747183,
    724227168
  ],
  "tags": {
    "cycleway:right": "lane",
    "highway": "secondary",
    "lanes": "2",
    "maxspeed": "50",
    "name": "Rue de l'Ile de Corse",
    "oneway": "yes",
    "source": "cadastre-dgi-fr source : Direction Générale des Impôts - Cadastre. Mise à jour : 2010",
    "surface": "asphalt",
    "turn:lanes": "left;through|through"
  }
},
{
  "type": "way",
  "id": 609413445,
  "nodes": [
    147814599,
    2171856282,
    9123151905,
    9123151915
  ],
  "tags": {
    "cycleway:right": "lane",
    "highway": "secondary",
    "lanes": "3",
    "maxspeed": "50",
    "name": "Rue de l'Ile de Corse",
    "oneway": "yes",
    "source": "cadastre-dgi-fr source : Direction Générale des Impôts - Cadastre. Mise à jour : 2010",
    "surface": "asphalt",
    "turn:lanes": "left|through|through"
  }
},
{
  "type": "way",
  "id": 612165825,
  "nodes": [
    10708847,
    2652651101,
    8978438737,
    2652651131
  ],
  "tags": {
    "cycleway:right": "lane",
    "destination": "Toutes directions;Plateau de Haye;Palais des Sports de Gentilly;Restaurant Universitaire",
    "highway": "secondary",
    "lanes": "1",
    "maxspeed": "50",
    "name": "Avenue de la Libération",
    "old_ref": "D 400",
    "oneway": "yes",
    "sidewalk": "no",
    "source": "Bing;survey",
    "surface": "asphalt"
  }
},
{
  "type": "way",
  "id": 612520314,
  "nodes": [
    2623485515,
    551574953
  ],
  "tags": {
    "cycleway:right": "lane",
    "cycleway:right:lane": "exclusive",
    "destination": "Toutes directions;Faculté de Droit;La Manufacture;Bus de Tourisme",
    "destination:symbol": "parking;motorway",
    "highway": "tertiary",
    "lanes": "2",
    "lit": "yes",
    "maxspeed": "30",
    "name": "Place Carnot",
    "old_ref": "N 57;D 570",
    "oneway": "yes",
    "sidewalk": "right",
    "smoothness": "excellent",
    "source:maxspeed": "FR:zone30",
    "surface": "asphalt"
  }
},
{
  "type": "way",
  "id": 612520320,
  "nodes": [
    90663431,
    610516893,
    8612358606,
    8612358605,
    10532139
  ],
  "tags": {
    "cycleway:left": "shared_lane",
    "cycleway:left:lane": "pictogram",
    "cycleway:right": "lane",
    "cycleway:right:lane": "exclusive",
    "destination:forward": "Toutes directions",
    "highway": "tertiary",
    "lanes": "3",
    "lanes:backward": "1",
    "lanes:forward": "2",
    "lit": "yes",
    "maxheight": "4.1",
    "maxspeed": "30",
    "name": "Rue de Verdun",
    "sidewalk": "both",
    "source": "GrandNancy Orthophotographie 2012",
    "source:maxspeed": "FR:zone30",
    "surface": "asphalt",
    "turn:lanes:backward": "left;right",
    "turn:lanes:forward": "left;through|through;right"
  }
},
{
  "type": "way",
  "id": 615113904,
  "nodes": [
    247122867,
    2796855542
  ],
  "tags": {
    "cycleway:right": "lane",
    "cycleway:right:width": "1.15",
    "highway": "secondary",
    "lanes": "2",
    "maxspeed": "50",
    "name": "Boulevard du 26e Régiment d'Infanterie",
    "oneway": "yes",
    "source": "GrandNancy Orthophotographie 2012",
    "surface": "asphalt"
  }
},
{
  "type": "way",
  "id": 615113905,
  "nodes": [
    1917421340,
    4550962488
  ],
  "tags": {
    "cycleway:right": "lane",
    "cycleway:right:width": "1.15",
    "highway": "secondary",
    "lanes": "2",
    "maxspeed": "50",
    "name": "Boulevard du 26e Régiment d'Infanterie",
    "oneway": "yes",
    "parking:lane:right": "parallel",
    "source": "GrandNancy Orthophotographie 2012",
    "surface": "asphalt",
    "turn:lanes": "left;through|through"
  }
},
{
  "type": "way",
  "id": 615113906,
  "nodes": [
    707509433,
    707509443
  ],
  "tags": {
    "cycleway:right": "lane",
    "cycleway:right:width": "0.83",
    "highway": "secondary",
    "lanes": "2",
    "maxspeed": "50",
    "name": "Boulevard du 26e Régiment d'Infanterie",
    "oneway": "yes",
    "source": "GrandNancy Orthophotographie 2012",
    "surface": "asphalt"
  }
},
{
  "type": "way",
  "id": 615113907,
  "nodes": [
    4565201315,
    2796855502,
    2796855501,
    90662287
  ],
  "tags": {
    "cycleway:right": "lane",
    "cycleway:right:width": "0.95",
    "highway": "secondary",
    "lanes": "2",
    "maxspeed": "50",
    "name": "Boulevard du 26e Régiment d'Infanterie",
    "oneway": "yes",
    "source": "GrandNancy Orthophotographie 2012",
    "surface": "asphalt",
    "turn:lanes": "through|through;right"
  }
},
{
  "type": "way",
  "id": 615113911,
  "nodes": [
    3077022807,
    3078865664,
    3078865661,
    2470583836
  ],
  "tags": {
    "cycleway:right": "lane",
    "highway": "tertiary",
    "lanes": "2",
    "maxspeed": "50",
    "name": "Rue des Cristalleries",
    "oneway": "yes",
    "source": "GrandNancy Orthophotographie 2012",
    "turn:lanes": "through|through;right"
  }
},
{
  "type": "way",
  "id": 645171914,
  "nodes": [
    6056627881,
    4560880749,
    571819835
  ],
  "tags": {
    "cycleway:right": "lane",
    "highway": "tertiary",
    "maxspeed": "30",
    "name": "Boulevard Charles V",
    "source": "cadastre-dgi-fr source : Direction Generale des Impots - Cadastre ; mise a jour : 2010",
    "source:maxspeed": "FR:zone30",
    "surface": "asphalt",
    "turn:lanes:backward": "right|right"
  }
},
{
  "type": "way",
  "id": 671097944,
  "nodes": [
    129994257,
    9007307918,
    2611616894,
    129994259
  ],
  "tags": {
    "cycleway:right": "lane",
    "highway": "tertiary",
    "name": "Rue Wilson",
    "old_ref": "D 93B",
    "oneway": "yes",
    "source": "GrandNancy Orthophotographie 2016",
    "surface": "asphalt"
  }
},
{
  "type": "way",
  "id": 687443121,
  "nodes": [
    6443960551,
    6443960547
  ],
  "tags": {
    "bridge": "yes",
    "cycleway:right": "lane",
    "highway": "tertiary",
    "layer": "1",
    "maxspeed": "30",
    "name": "Pont des Fusillés",
    "oneway": "yes",
    "source": "Mapillary;survey",
    "surface": "asphalt"
  }
},
{
  "type": "way",
  "id": 688650263,
  "nodes": [
    137828559,
    6458472843,
    6458472844
  ],
  "tags": {
    "cycleway:left": "track",
    "cycleway:left:oneway": "-1",
    "cycleway:right": "lane",
    "cycleway:right:lane": "exclusive",
    "highway": "secondary",
    "lanes": "1",
    "name": "Rue de Villers",
    "oneway": "yes",
    "oneway:bicycle": "no",
    "smoothness": "excellent",
    "surface": "asphalt"
  }
},
{
  "type": "way",
  "id": 692730565,
  "nodes": [
    6503536597,
    986742135,
    2727563090,
    10707940
  ],
  "tags": {
    "cycleway:right": "lane",
    "highway": "tertiary",
    "lanes": "2",
    "maxspeed": "50",
    "name": "Rue du Sergent Blandan",
    "oneway": "yes",
    "source": "GrandNancy Orthophotographie 2012",
    "source:maxspeed": "FR:urban",
    "surface": "asphalt",
    "turn:lanes": "through|right"
  }
},
{
  "type": "way",
  "id": 692730566,
  "nodes": [
    6503536598,
    147831884
  ],
  "tags": {
    "cycleway:right": "lane",
    "highway": "tertiary",
    "lanes": "3",
    "lanes:backward": "1",
    "maxspeed": "50",
    "name": "Esplanade Jacques Baudot",
    "source": "GrandNancy Orthophotographie 2012",
    "surface": "asphalt",
    "turn:lanes:forward": "left|through"
  }
},
{
  "type": "way",
  "id": 702304588,
  "nodes": [
    1650149860,
    1650149858
  ],
  "tags": {
    "bicycle": "yes",
    "cycleway:right": "lane",
    "highway": "tertiary",
    "maxspeed": "30",
    "name": "Rue des Quatre Églises",
    "source": "GrandNancy Orthophotographie 2012",
    "source:maxspeed": "FR:zone30"
  }
},
{
  "type": "way",
  "id": 719604993,
  "nodes": [
    1645409862,
    10532258
  ],
  "tags": {
    "cycleway:right": "lane",
    "cycleway:right:lane": "exclusive",
    "highway": "tertiary",
    "lanes": "2",
    "lit": "yes",
    "maxspeed": "30",
    "name": "Place Carnot",
    "old_ref": "N 57;D 570",
    "oneway": "yes",
    "sidewalk": "right",
    "smoothness": "excellent",
    "source:maxspeed": "FR:zone30",
    "surface": "asphalt"
  }
},
{
  "type": "way",
  "id": 748888462,
  "nodes": [
    4263391791,
    7956087476,
    4550962485
  ],
  "tags": {
    "cycleway:right": "lane",
    "cycleway:right:width": "0.83",
    "highway": "secondary",
    "lanes": "2",
    "maxspeed": "50",
    "name": "Boulevard du 26e Régiment d'Infanterie",
    "oneway": "yes",
    "source": "GrandNancy Orthophotographie 2012",
    "surface": "asphalt"
  }
},
{
  "type": "way",
  "id": 748888463,
  "nodes": [
    4263391795,
    2796855815,
    90662961
  ],
  "tags": {
    "cycleway:right": "lane",
    "highway": "secondary",
    "name": "Boulevard du 26e Régiment d'Infanterie",
    "oneway": "yes",
    "source": "GrandNancy Orthophotographie 2012",
    "surface": "asphalt"
  }
},
{
  "type": "way",
  "id": 748979185,
  "nodes": [
    2874693614,
    559175632
  ],
  "tags": {
    "cycleway:right": "lane",
    "cycleway:right:lane": "exclusive",
    "highway": "secondary",
    "lanes": "2",
    "lit": "yes",
    "maxspeed": "50",
    "name": "Rue de Saint-Lambert",
    "oneway": "yes",
    "sidewalk": "both",
    "smoothness": "excellent",
    "surface": "asphalt"
  }
},
{
  "type": "way",
  "id": 748979771,
  "nodes": [
    150541280,
    2727563290,
    2727563276,
    2727563269,
    2727563264,
    150541281,
    3312732445,
    2444524805,
    150541282
  ],
  "tags": {
    "cycleway:right": "lane",
    "highway": "secondary",
    "lanes": "1",
    "maxspeed": "50",
    "name": "Place Paul Painlevé",
    "oneway": "yes",
    "source": "GrandNancy Orthophotographie 2012",
    "surface": "asphalt"
  }
},
{
  "type": "way",
  "id": 754413945,
  "nodes": [
    5767469671,
    4538228272,
    7623513412,
    7025287372
  ],
  "tags": {
    "cycleway:right": "lane",
    "highway": "secondary",
    "lanes": "3",
    "lanes:backward": "1",
    "lanes:forward": "2",
    "name": "Avenue de la Libération",
    "old_ref": "D 400",
    "sidewalk": "right",
    "turn:lanes:forward": "left|through"
  }
},
{
  "type": "way",
  "id": 754413946,
  "nodes": [
    7025287372,
    1732954604,
    7623513413,
    7452305577,
    7623513414
  ],
  "tags": {
    "cycleway:right": "lane",
    "highway": "secondary",
    "name": "Avenue de la Libération",
    "old_ref": "D 400",
    "sidewalk": "right"
  }
},
{
  "type": "way",
  "id": 763332316,
  "nodes": [
    3317506516,
    137828512,
    7132816553,
    137828518,
    2942099396
  ],
  "tags": {
    "bicycle": "yes",
    "cycleway:right": "lane",
    "cycleway:right:lane": "exclusive",
    "highway": "secondary",
    "lanes": "1",
    "lit": "yes",
    "maxspeed": "30",
    "name": "Rue de Villers",
    "oneway": "yes",
    "sidewalk": "both",
    "smoothness": "excellent",
    "source": "GrandNancy Orthophotographie 2012",
    "surface": "asphalt"
  }
},
{
  "type": "way",
  "id": 794489141,
  "nodes": [
    7431038021,
    10707360,
    2977716661
  ],
  "tags": {
    "bicycle": "yes",
    "cycleway:right": "lane",
    "cycleway:right:lane": "exclusive",
    "highway": "secondary",
    "lanes": "2",
    "lit": "yes",
    "maxspeed": "50",
    "name": "Rue de Saint-Lambert",
    "oneway": "yes",
    "sidewalk": "both",
    "smoothness": "excellent",
    "surface": "asphalt"
  }
},
{
  "type": "way",
  "id": 794489142,
  "nodes": [
    559175632,
    7431038022
  ],
  "tags": {
    "bicycle": "yes",
    "cycleway:right": "lane",
    "cycleway:right:lane": "exclusive",
    "highway": "secondary",
    "lanes": "2",
    "lit": "yes",
    "maxspeed": "50",
    "name": "Rue de Saint-Lambert",
    "oneway": "yes",
    "sidewalk": "both",
    "smoothness": "excellent",
    "surface": "asphalt"
  }
},
{
  "type": "way",
  "id": 794545345,
  "nodes": [
    3862594024,
    3862594023,
    6381145144,
    2069624964
  ],
  "tags": {
    "cycleway:right": "lane",
    "cycleway:right:width": "1.15",
    "highway": "secondary",
    "name": "Rue de Bonsecours",
    "old_ref": "N 57;D 570",
    "oneway": "yes",
    "source": "GrandNancy Orthophotographie 2012;survey"
  }
},
{
  "type": "way",
  "id": 802555400,
  "nodes": [
    7507111823,
    4244962031
  ],
  "tags": {
    "busway:left": "lane",
    "cycleway:left": "share_busway",
    "cycleway:right": "lane",
    "highway": "secondary",
    "lanes": "4",
    "lanes:backward": "2",
    "name": "Avenue du Maréchal de Lattre de Tassigny",
    "old_ref": "D 400",
    "source": "survey;BDOrtho IGN",
    "surface": "asphalt",
    "turn:lanes:forward": "left|through;right"
  }
},
{
  "type": "way",
  "id": 812531206,
  "nodes": [
    4177163597,
    4023988498,
    2833164403,
    4177163610,
    10531981
  ],
  "tags": {
    "cycleway:right": "lane",
    "cycleway:right:lane": "exclusive",
    "highway": "tertiary",
    "lanes": "2",
    "lit": "yes",
    "maxspeed": "30",
    "name": "Cours Léopold",
    "old_ref": "N 57;D 570",
    "oneway": "yes",
    "sidewalk": "right",
    "smoothness": "excellent",
    "source:maxspeed": "FR:zone30",
    "surface": "asphalt"
  }
},
{
  "type": "way",
  "id": 812531207,
  "nodes": [
    4177163594,
    7589230947,
    4177163597
  ],
  "tags": {
    "cycleway:right": "lane",
    "cycleway:right:lane": "exclusive",
    "highway": "tertiary",
    "lanes": "2",
    "lit": "yes",
    "maxspeed": "30",
    "name": "Cours Léopold",
    "old_ref": "N 57;D 570",
    "oneway": "yes",
    "sidewalk": "right",
    "smoothness": "excellent",
    "source": "GrandNancy Orthophotographie 2016",
    "source:maxspeed": "FR:zone30",
    "surface": "asphalt",
    "traffic_calming": "table"
  }
},
{
  "type": "way",
  "id": 816266456,
  "nodes": [
    7623513399,
    7623513401
  ],
  "tags": {
    "cycleway:right": "lane",
    "highway": "secondary",
    "name": "Avenue de la Libération",
    "old_ref": "D 400",
    "sidewalk": "right"
  }
},
{
  "type": "way",
  "id": 816266459,
  "nodes": [
    7623513401,
    1732954632,
    7623513400
  ],
  "tags": {
    "cycleway:right": "lane",
    "highway": "secondary",
    "name": "Avenue de la Libération",
    "old_ref": "D 400",
    "sidewalk": "both"
  }
},
{
  "type": "way",
  "id": 816266460,
  "nodes": [
    10707925,
    7623513398,
    7623513399
  ],
  "tags": {
    "cycleway:right": "lane",
    "highway": "secondary",
    "name": "Avenue de la Libération",
    "old_ref": "D 400",
    "sidewalk": "right"
  }
},
{
  "type": "way",
  "id": 816266465,
  "nodes": [
    7623513405,
    2386398457,
    1732954712,
    7623513406
  ],
  "tags": {
    "cycleway:right": "lane",
    "highway": "secondary",
    "lanes": "2",
    "maxspeed": "50",
    "name": "Avenue de la Libération",
    "old_ref": "D 400",
    "parking:lane:left": "parallel",
    "sidewalk": "right",
    "surface": "asphalt"
  }
},
{
  "type": "way",
  "id": 816266466,
  "nodes": [
    7623513406,
    7623513407,
    6995981982,
    5767469671
  ],
  "tags": {
    "cycleway:right": "lane",
    "highway": "secondary",
    "name": "Avenue de la Libération",
    "old_ref": "D 400",
    "sidewalk": "right"
  }
},
{
  "type": "way",
  "id": 816266469,
  "nodes": [
    7623513414,
    5767469670,
    142089
  ],
  "tags": {
    "cycleway:right": "lane",
    "highway": "secondary",
    "lanes": "2",
    "maxspeed": "50",
    "name": "Avenue de la Libération",
    "old_ref": "D 400",
    "parking:lane:left": "parallel",
    "sidewalk": "right"
  }
},
{
  "type": "way",
  "id": 816275807,
  "nodes": [
    2765479292,
    150897975
  ],
  "tags": {
    "cycleway:right": "lane",
    "highway": "secondary",
    "lanes": "2",
    "maxspeed": "30",
    "name": "Rue du Maréchal Oudinot",
    "sidewalk": "left",
    "source": "survey",
    "surface": "asphalt"
  }
},
{
  "type": "way",
  "id": 844823474,
  "nodes": [
    2992343281,
    3068773629,
    5298281004,
    710384950,
    3068773621
  ],
  "tags": {
    "cycleway:right": "lane",
    "highway": "tertiary",
    "lanes": "2",
    "maxspeed": "50",
    "name": "Rue Henri Bazin",
    "oneway": "yes",
    "source": "GrandNancy Orthophotographie 2016",
    "surface": "asphalt"
  }
},
{
  "type": "way",
  "id": 849087530,
  "nodes": [
    2714051872,
    2727563228,
    2727563226,
    3061564540
  ],
  "tags": {
    "cycleway:right": "lane",
    "highway": "tertiary",
    "maxspeed": "30",
    "name": "Rue du Sergent Blandan",
    "smoothness": "excellent",
    "source": "GrandNancy Orthophotographie 2016",
    "source:maxspeed": "FR:zone30",
    "surface": "asphalt"
  }
},
{
  "type": "way",
  "id": 853521480,
  "nodes": [
    7961042643,
    4023988499,
    2535081361,
    10535348
  ],
  "tags": {
    "cycleway:right": "lane",
    "cycleway:right:lane": "exclusive",
    "highway": "tertiary",
    "lanes": "2",
    "lit": "yes",
    "maxspeed": "30",
    "name": "Cours Léopold",
    "old_ref": "N 57;D 570",
    "oneway": "yes",
    "sidewalk": "right",
    "smoothness": "excellent",
    "source:maxspeed": "FR:zone30",
    "surface": "asphalt"
  }
},
{
  "type": "way",
  "id": 853521481,
  "nodes": [
    10531981,
    2925156609,
    1645409856,
    7961042642
  ],
  "tags": {
    "cycleway:right": "lane",
    "cycleway:right:lane": "exclusive",
    "highway": "tertiary",
    "lanes": "2",
    "lit": "yes",
    "maxspeed": "30",
    "name": "Cours Léopold",
    "old_ref": "N 57;D 570",
    "oneway": "yes",
    "sidewalk": "right",
    "smoothness": "excellent",
    "source:maxspeed": "FR:zone30",
    "surface": "asphalt"
  }
},
{
  "type": "way",
  "id": 868092011,
  "nodes": [
    8091600509,
    4497087091,
    8091600510
  ],
  "tags": {
    "cycleway:right": "lane",
    "cycleway:right:width": "0.7",
    "highway": "secondary",
    "maxspeed": "30",
    "name": "Rue de Metz",
    "old_ref": "N 57;D 570",
    "surface": "asphalt"
  }
},
{
  "type": "way",
  "id": 1001352357,
  "nodes": [
    9242752640,
    10532776
  ],
  "tags": {
    "cycleway:right": "lane",
    "highway": "tertiary",
    "maxspeed": "30",
    "name": "Rue du Placieux",
    "oneway": "yes",
    "source": "GrandNancy Orthophotographie 2012",
    "surface": "asphalt"
  }
},
{
  "type": "way",
  "id": 1001352358,
  "nodes": [
    10535022,
    2714051826,
    490727318,
    9242752638
  ],
  "tags": {
    "cycleway:right": "lane",
    "highway": "tertiary",
    "maxspeed": "30",
    "name": "Rue du Placieux",
    "oneway": "yes",
    "source": "GrandNancy Orthophotographie 2012",
    "surface": "asphalt"
  }
},
{
  "type": "area",
  "id": 3600052399,
  "tags": {
    "admin_level": "8",
    "boundary": "administrative",
    "name": "Nancy",
    "name:an": "ናንሲ",
    "name:ar": "نانسي",
    "name:az": "Nansi",
    "name:be": "Нансі",
    "name:bg": "Нанси",
    "name:bo": "ནཱན་སི།",
    "name:de": "Nancy",
    "name:el": "Νανσί",
    "name:eo": "Nancio",
    "name:fa": "نانسی",
    "name:fr": "Nancy",
    "name:he": "נאנסי",
    "name:hi": "नांसी",
    "name:hy": "Նանսի",
    "name:ja": "ナンシー",
    "name:ka": "ნანსი",
    "name:kk": "Нанси",
    "name:ko": "낭시",
    "name:la": "Nanceium",
    "name:lb": "Nanzeg",
    "name:lt": "Nansi",
    "name:lv": "Nansī",
    "name:mk": "Нанси",
    "name:mr": "नान्सी",
    "name:mzn": "نانسی",
    "name:oc": "Nancí",
    "name:pa": "ਨਾਨਸੀ",
    "name:pnb": "نینسی",
    "name:ru": "Нанси",
    "name:sr": "Нанси",
    "name:tg": "Нанси",
    "name:th": "น็องซี",
    "name:uk": "Нансі",
    "name:zh": "南锡",
    "old_name:de": "Nanzig",
    "population": "105058",
    "population:date": "2019",
    "postal_code": "54000;54100",
    "ref:FR:SIREN": "215403957",
    "ref:INSEE": "54395",
    "source:population": "INSEE 2022",
    "source:postal_code": "La Poste - 12/2014",
    "type": "boundary",
    "wikidata": "Q40898",
    "wikipedia": "fr:Nancy"
  }
},
{
  "type": "node",
  "id": 130121048,
  "lat": 48.6689745,
  "lon": 6.1638883
},
{
  "type": "node",
  "id": 130121049,
  "lat": 48.6691706,
  "lon": 6.1639374
},
{
  "type": "node",
  "id": 130121050,
  "lat": 48.6692167,
  "lon": 6.1638307
},
{
  "type": "node",
  "id": 130121052,
  "lat": 48.6691992,
  "lon": 6.1636673
},
{
  "type": "node",
  "id": 130121053,
  "lat": 48.6691389,
  "lon": 6.1635915
},
{
  "type": "node",
  "id": 130121054,
  "lat": 48.6690498,
  "lon": 6.1635839
},
{
  "type": "node",
  "id": 130121055,
  "lat": 48.6689747,
  "lon": 6.1636684
},
{
  "type": "node",
  "id": 130121057,
  "lat": 48.6689584,
  "lon": 6.1638344
},
{
  "type": "node",
  "id": 130121058,
  "lat": 48.6690780,
  "lon": 6.1639810
},
{
  "type": "node",
  "id": 130121095,
  "lat": 48.6703125,
  "lon": 6.1642973
},
{
  "type": "node",
  "id": 130121096,
  "lat": 48.6700081,
  "lon": 6.1641825
},
{
  "type": "node",
  "id": 279894431,
  "lat": 48.6691951,
  "lon": 6.1638989
},
{
  "type": "node",
  "id": 1732705957,
  "lat": 48.6689549,
  "lon": 6.1637470
},
{
  "type": "node",
  "id": 1732705959,
  "lat": 48.6689935,
  "lon": 6.1639236
},
{
  "type": "node",
  "id": 1732705963,
  "lat": 48.6690058,
  "lon": 6.1636175
},
{
  "type": "node",
  "id": 1732705966,
  "lat": 48.6690278,
  "lon": 6.1639605
},
{
  "type": "node",
  "id": 1732705969,
  "lat": 48.6690968,
  "lon": 6.1635763
},
{
  "type": "node",
  "id": 1732705970,
  "lat": 48.6691257,
  "lon": 6.1639729
},
{
  "type": "node",
  "id": 1732705972,
  "lat": 48.6691715,
  "lon": 6.1636211
},
{
  "type": "node",
  "id": 1732705975,
  "lat": 48.6692196,
  "lon": 6.1637478
},
{
  "type": "node",
  "id": 2957398628,
  "lat": 48.6690092,
  "lon": 6.1639436
},
{
  "type": "node",
  "id": 2957398631,
  "lat": 48.6690516,
  "lon": 6.1639742
},
{
  "type": "node",
  "id": 2957398742,
  "lat": 48.6691502,
  "lon": 6.1639577
},
{
  "type": "node",
  "id": 2957398743,
  "lat": 48.6691828,
  "lon": 6.1639208
},
{
  "type": "node",
  "id": 2957398746,
  "lat": 48.6692080,
  "lon": 6.1638665
},
{
  "type": "node",
  "id": 3169158267,
  "lat": 48.6693449,
  "lon": 6.1639022
},
{
  "type": "node",
  "id": 4247948414,
  "lat": 48.6692912,
  "lon": 6.1638722
},
{
  "type": "node",
  "id": 5503781613,
  "lat": 48.6697335,
  "lon": 6.1640665
},
{
  "type": "node",
  "id": 10707924,
  "lat": 48.6861941,
  "lon": 6.1592296
},
{
  "type": "node",
  "id": 120307151,
  "lat": 48.6844837,
  "lon": 6.1577964
},
{
  "type": "node",
  "id": 120307159,
  "lat": 48.6847451,
  "lon": 6.1587954
},
{
  "type": "node",
  "id": 120307170,
  "lat": 48.6851764,
  "lon": 6.1599345
},
{
  "type": "node",
  "id": 137234342,
  "lat": 48.6848713,
  "lon": 6.1591517
},
{
  "type": "node",
  "id": 148472357,
  "lat": 48.6858315,
  "lon": 6.1580386
},
{
  "type": "node",
  "id": 252705209,
  "lat": 48.6851524,
  "lon": 6.1558178
},
{
  "type": "node",
  "id": 1895049250,
  "lat": 48.6844819,
  "lon": 6.1577245
},
{
  "type": "node",
  "id": 2020455102,
  "lat": 48.6853204,
  "lon": 6.1602855
},
{
  "type": "node",
  "id": 2020455106,
  "lat": 48.6857413,
  "lon": 6.1577420
},
{
  "type": "node",
  "id": 2532468050,
  "lat": 48.6857805,
  "lon": 6.1578701
},
{
  "type": "node",
  "id": 2714051935,
  "lat": 48.6847177,
  "lon": 6.1587182
},
{
  "type": "node",
  "id": 2714051970,
  "lat": 48.6848395,
  "lon": 6.1590555
},
{
  "type": "node",
  "id": 2714051990,
  "lat": 48.6851303,
  "lon": 6.1598229
},
{
  "type": "node",
  "id": 2714051993,
  "lat": 48.6852175,
  "lon": 6.1600328
},
{
  "type": "node",
  "id": 2724035495,
  "lat": 48.6844840,
  "lon": 6.1576772
},
{
  "type": "node",
  "id": 2724035499,
  "lat": 48.6845130,
  "lon": 6.1574893
},
{
  "type": "node",
  "id": 2724035504,
  "lat": 48.6844895,
  "lon": 6.1578617
},
{
  "type": "node",
  "id": 2724035507,
  "lat": 48.6845109,
  "lon": 6.1580124
},
{
  "type": "node",
  "id": 2724035525,
  "lat": 48.6846031,
  "lon": 6.1583793
},
{
  "type": "node",
  "id": 2724035596,
  "lat": 48.6849480,
  "lon": 6.1593668
},
{
  "type": "node",
  "id": 2724035601,
  "lat": 48.6850159,
  "lon": 6.1595402
},
{
  "type": "node",
  "id": 2745357290,
  "lat": 48.6847236,
  "lon": 6.1587349
},
{
  "type": "node",
  "id": 2941412230,
  "lat": 48.6865410,
  "lon": 6.1603689
},
{
  "type": "node",
  "id": 3005322860,
  "lat": 48.6861720,
  "lon": 6.1591569
},
{
  "type": "node",
  "id": 3005322861,
  "lat": 48.6862163,
  "lon": 6.1593023
},
{
  "type": "node",
  "id": 4060483494,
  "lat": 48.6851920,
  "lon": 6.1559471
},
{
  "type": "node",
  "id": 4060483526,
  "lat": 48.6858076,
  "lon": 6.1579595
},
{
  "type": "node",
  "id": 4060483593,
  "lat": 48.6858552,
  "lon": 6.1581166
},
{
  "type": "node",
  "id": 4194134621,
  "lat": 48.6844972,
  "lon": 6.1579161
},
{
  "type": "node",
  "id": 10532776,
  "lat": 48.6763723,
  "lon": 6.1634252
},
{
  "type": "node",
  "id": 10536038,
  "lat": 48.6761616,
  "lon": 6.1627616
},
{
  "type": "node",
  "id": 10707871,
  "lat": 48.6753678,
  "lon": 6.1630324
},
{
  "type": "node",
  "id": 10708114,
  "lat": 48.6748478,
  "lon": 6.1632581
},
{
  "type": "node",
  "id": 130121081,
  "lat": 48.6724869,
  "lon": 6.1642738
},
{
  "type": "node",
  "id": 130121088,
  "lat": 48.6717634,
  "lon": 6.1642214
},
{
  "type": "node",
  "id": 130121094,
  "lat": 48.6703808,
  "lon": 6.1643230
},
{
  "type": "node",
  "id": 130121131,
  "lat": 48.6738794,
  "lon": 6.1639293
},
{
  "type": "node",
  "id": 242544831,
  "lat": 48.6746247,
  "lon": 6.1634426
},
{
  "type": "node",
  "id": 311417590,
  "lat": 48.6708761,
  "lon": 6.1643178
},
{
  "type": "node",
  "id": 554161468,
  "lat": 48.6768665,
  "lon": 6.1650437
},
{
  "type": "node",
  "id": 2285844498,
  "lat": 48.6742689,
  "lon": 6.1637142
},
{
  "type": "node",
  "id": 2285844500,
  "lat": 48.6745322,
  "lon": 6.1635135
},
{
  "type": "node",
  "id": 2285844504,
  "lat": 48.6747850,
  "lon": 6.1633085
},
{
  "type": "node",
  "id": 2285844512,
  "lat": 48.6752797,
  "lon": 6.1630708
},
{
  "type": "node",
  "id": 3169158289,
  "lat": 48.6704618,
  "lon": 6.1643409
},
{
  "type": "node",
  "id": 3859687896,
  "lat": 48.6761963,
  "lon": 6.1628709
},
{
  "type": "node",
  "id": 3859687897,
  "lat": 48.6762021,
  "lon": 6.1628892
},
{
  "type": "node",
  "id": 4247948441,
  "lat": 48.6722784,
  "lon": 6.1642099
},
{
  "type": "node",
  "id": 4247948442,
  "lat": 48.6728109,
  "lon": 6.1644042
},
{
  "type": "node",
  "id": 4247948444,
  "lat": 48.6728529,
  "lon": 6.1644211
},
{
  "type": "node",
  "id": 4315688675,
  "lat": 48.6768432,
  "lon": 6.1649673
},
{
  "type": "node",
  "id": 4654061015,
  "lat": 48.6749232,
  "lon": 6.1632163
},
{
  "type": "node",
  "id": 4654061020,
  "lat": 48.6748408,
  "lon": 6.1632637
},
{
  "type": "node",
  "id": 4654061080,
  "lat": 48.6739544,
  "lon": 6.1639461
},
{
  "type": "node",
  "id": 9242752640,
  "lat": 48.6768196,
  "lon": 6.1648900
},
{
  "type": "node",
  "id": 10467284,
  "lat": 48.6723079,
  "lon": 6.1727100
},
{
  "type": "node",
  "id": 10707940,
  "lat": 48.6750833,
  "lon": 6.1703984
},
{
  "type": "node",
  "id": 129994265,
  "lat": 48.6741079,
  "lon": 6.1730249
},
{
  "type": "node",
  "id": 129994266,
  "lat": 48.6755556,
  "lon": 6.1717998
},
{
  "type": "node",
  "id": 149398019,
  "lat": 48.6763992,
  "lon": 6.1711840
},
{
  "type": "node",
  "id": 253150556,
  "lat": 48.6749664,
  "lon": 6.1721944
},
{
  "type": "node",
  "id": 254291018,
  "lat": 48.6722816,
  "lon": 6.1728301
},
{
  "type": "node",
  "id": 290459703,
  "lat": 48.6723771,
  "lon": 6.1724554
},
{
  "type": "node",
  "id": 292432422,
  "lat": 48.6759418,
  "lon": 6.1697775
},
{
  "type": "node",
  "id": 575270488,
  "lat": 48.6754479,
  "lon": 6.1718623
},
{
  "type": "node",
  "id": 986741910,
  "lat": 48.6723359,
  "lon": 6.1725824
},
{
  "type": "node",
  "id": 986742135,
  "lat": 48.6751716,
  "lon": 6.1703351
},
{
  "type": "node",
  "id": 986743139,
  "lat": 48.6722663,
  "lon": 6.1728910
},
{
  "type": "node",
  "id": 1673468900,
  "lat": 48.6748314,
  "lon": 6.1722733
},
{
  "type": "node",
  "id": 2073915537,
  "lat": 48.6722917,
  "lon": 6.1727841
},
{
  "type": "node",
  "id": 2514288935,
  "lat": 48.6749142,
  "lon": 6.1722180
},
{
  "type": "node",
  "id": 2514288936,
  "lat": 48.6750620,
  "lon": 6.1721538
},
{
  "type": "node",
  "id": 2614070097,
  "lat": 48.6763118,
  "lon": 6.1712319
},
{
  "type": "node",
  "id": 2714051811,
  "lat": 48.6759926,
  "lon": 6.1697380
},
{
  "type": "node",
  "id": 2727563090,
  "lat": 48.6751581,
  "lon": 6.1703462
},
{
  "type": "node",
  "id": 2727563091,
  "lat": 48.6756034,
  "lon": 6.1717658
},
{
  "type": "node",
  "id": 2727563097,
  "lat": 48.6759348,
  "lon": 6.1715171
},
{
  "type": "node",
  "id": 2727563110,
  "lat": 48.6763579,
  "lon": 6.1712064
},
{
  "type": "node",
  "id": 2727563111,
  "lat": 48.6764901,
  "lon": 6.1711154
},
{
  "type": "node",
  "id": 2727563113,
  "lat": 48.6766019,
  "lon": 6.1710402
},
{
  "type": "node",
  "id": 2976118890,
  "lat": 48.6740264,
  "lon": 6.1731075
},
{
  "type": "node",
  "id": 2976118891,
  "lat": 48.6740591,
  "lon": 6.1730743
},
{
  "type": "node",
  "id": 2976118899,
  "lat": 48.6741839,
  "lon": 6.1729459
},
{
  "type": "node",
  "id": 4913349959,
  "lat": 48.6723415,
  "lon": 6.1725614
},
{
  "type": "node",
  "id": 6503536597,
  "lat": 48.6753209,
  "lon": 6.1702270
},
{
  "type": "node",
  "id": 8148551304,
  "lat": 48.6755140,
  "lon": 6.1718240
},
{
  "type": "node",
  "id": 10533836,
  "lat": 48.6817425,
  "lon": 6.1625869
},
{
  "type": "node",
  "id": 129994273,
  "lat": 48.6802464,
  "lon": 6.1665508
},
{
  "type": "node",
  "id": 129994274,
  "lat": 48.6805754,
  "lon": 6.1663803
},
{
  "type": "node",
  "id": 129994276,
  "lat": 48.6822587,
  "lon": 6.1658511
},
{
  "type": "node",
  "id": 137828559,
  "lat": 48.6832110,
  "lon": 6.1662737
},
{
  "type": "node",
  "id": 137828564,
  "lat": 48.6829176,
  "lon": 6.1661931
},
{
  "type": "node",
  "id": 137828569,
  "lat": 48.6827730,
  "lon": 6.1661194
},
{
  "type": "node",
  "id": 137828573,
  "lat": 48.6826132,
  "lon": 6.1659691
},
{
  "type": "node",
  "id": 147831884,
  "lat": 48.6798142,
  "lon": 6.1668065
},
{
  "type": "node",
  "id": 148482645,
  "lat": 48.6819397,
  "lon": 6.1639712
},
{
  "type": "node",
  "id": 149398024,
  "lat": 48.6813128,
  "lon": 6.1661451
},
{
  "type": "node",
  "id": 150541279,
  "lat": 48.6825320,
  "lon": 6.1658313
},
{
  "type": "node",
  "id": 150541280,
  "lat": 48.6824336,
  "lon": 6.1656762
},
{
  "type": "node",
  "id": 150541281,
  "lat": 48.6822363,
  "lon": 6.1653009
},
{
  "type": "node",
  "id": 150541282,
  "lat": 48.6820828,
  "lon": 6.1648849
},
{
  "type": "node",
  "id": 150899187,
  "lat": 48.6770462,
  "lon": 6.1624546
},
{
  "type": "node",
  "id": 150899189,
  "lat": 48.6772868,
  "lon": 6.1623760
},
{
  "type": "node",
  "id": 161917650,
  "lat": 48.6818260,
  "lon": 6.1632329
},
{
  "type": "node",
  "id": 490727318,
  "lat": 48.6769784,
  "lon": 6.1653960
},
{
  "type": "node",
  "id": 491248998,
  "lat": 48.6816694,
  "lon": 6.1621228
},
{
  "type": "node",
  "id": 544193500,
  "lat": 48.6827182,
  "lon": 6.1660774
},
{
  "type": "node",
  "id": 544193504,
  "lat": 48.6826495,
  "lon": 6.1660027
},
{
  "type": "node",
  "id": 544193513,
  "lat": 48.6827435,
  "lon": 6.1660998
},
{
  "type": "node",
  "id": 1645514927,
  "lat": 48.6821664,
  "lon": 6.1658793
},
{
  "type": "node",
  "id": 1650149833,
  "lat": 48.6817202,
  "lon": 6.1624495
},
{
  "type": "node",
  "id": 1650149835,
  "lat": 48.6817657,
  "lon": 6.1627453
},
{
  "type": "node",
  "id": 1650149841,
  "lat": 48.6832785,
  "lon": 6.1662830
},
{
  "type": "node",
  "id": 2381836587,
  "lat": 48.6800112,
  "lon": 6.1666953
},
{
  "type": "node",
  "id": 2444524805,
  "lat": 48.6821376,
  "lon": 6.1650214
},
{
  "type": "node",
  "id": 2447521072,
  "lat": 48.6828315,
  "lon": 6.1661572
},
{
  "type": "node",
  "id": 2447521073,
  "lat": 48.6829933,
  "lon": 6.1662185
},
{
  "type": "node",
  "id": 2459484105,
  "lat": 48.6820229,
  "lon": 6.1644963
},
{
  "type": "node",
  "id": 2564868667,
  "lat": 48.6778764,
  "lon": 6.1621656
},
{
  "type": "node",
  "id": 2564868668,
  "lat": 48.6782062,
  "lon": 6.1620405
},
{
  "type": "node",
  "id": 2564868669,
  "lat": 48.6782468,
  "lon": 6.1620166
},
{
  "type": "node",
  "id": 2564868671,
  "lat": 48.6791990,
  "lon": 6.1613088
},
{
  "type": "node",
  "id": 2567131719,
  "lat": 48.6816131,
  "lon": 6.1617620
},
{
  "type": "node",
  "id": 2625152693,
  "lat": 48.6818072,
  "lon": 6.1630950
},
{
  "type": "node",
  "id": 2714051840,
  "lat": 48.6801159,
  "lon": 6.1666308
},
{
  "type": "node",
  "id": 2714051872,
  "lat": 48.6812097,
  "lon": 6.1661769
},
{
  "type": "node",
  "id": 2714051874,
  "lat": 48.6813552,
  "lon": 6.1661327
},
{
  "type": "node",
  "id": 2714051875,
  "lat": 48.6814349,
  "lon": 6.1661095
},
{
  "type": "node",
  "id": 2714051879,
  "lat": 48.6825188,
  "lon": 6.1658087
},
{
  "type": "node",
  "id": 2727563224,
  "lat": 48.6804452,
  "lon": 6.1664451
},
{
  "type": "node",
  "id": 2727563226,
  "lat": 48.6807381,
  "lon": 6.1663259
},
{
  "type": "node",
  "id": 2727563228,
  "lat": 48.6808865,
  "lon": 6.1662792
},
{
  "type": "node",
  "id": 2727563251,
  "lat": 48.6821835,
  "lon": 6.1658737
},
{
  "type": "node",
  "id": 2727563264,
  "lat": 48.6822698,
  "lon": 6.1653898
},
{
  "type": "node",
  "id": 2727563269,
  "lat": 48.6822918,
  "lon": 6.1654452
},
{
  "type": "node",
  "id": 2727563276,
  "lat": 48.6823184,
  "lon": 6.1655006
},
{
  "type": "node",
  "id": 2727563290,
  "lat": 48.6823524,
  "lon": 6.1655619
},
{
  "type": "node",
  "id": 2727563313,
  "lat": 48.6825004,
  "lon": 6.1657800
},
{
  "type": "node",
  "id": 2853174349,
  "lat": 48.6817235,
  "lon": 6.1624698
},
{
  "type": "node",
  "id": 2853174350,
  "lat": 48.6817624,
  "lon": 6.1627199
},
{
  "type": "node",
  "id": 3061564540,
  "lat": 48.6806275,
  "lon": 6.1663601
},
{
  "type": "node",
  "id": 3312732432,
  "lat": 48.6818378,
  "lon": 6.1633096
},
{
  "type": "node",
  "id": 3312732434,
  "lat": 48.6819235,
  "lon": 6.1638659
},
{
  "type": "node",
  "id": 3312732435,
  "lat": 48.6819600,
  "lon": 6.1640991
},
{
  "type": "node",
  "id": 3312732445,
  "lat": 48.6821451,
  "lon": 6.1650426
},
{
  "type": "node",
  "id": 4073750582,
  "lat": 48.6791083,
  "lon": 6.1613661
},
{
  "type": "node",
  "id": 4073750583,
  "lat": 48.6791274,
  "lon": 6.1613540
},
{
  "type": "node",
  "id": 4073750726,
  "lat": 48.6815540,
  "lon": 6.1613906
},
{
  "type": "node",
  "id": 4100530041,
  "lat": 48.6832631,
  "lon": 6.1662856
},
{
  "type": "node",
  "id": 4315688677,
  "lat": 48.6768870,
  "lon": 6.1651081
},
{
  "type": "node",
  "id": 4452472954,
  "lat": 48.6773743,
  "lon": 6.1623491
},
{
  "type": "node",
  "id": 6458472843,
  "lat": 48.6831519,
  "lon": 6.1662568
},
{
  "type": "node",
  "id": 6458472844,
  "lat": 48.6830863,
  "lon": 6.1662410
},
{
  "type": "node",
  "id": 6458472845,
  "lat": 48.6825100,
  "lon": 6.1657950
},
{
  "type": "node",
  "id": 6503536598,
  "lat": 48.6799049,
  "lon": 6.1667553
},
{
  "type": "node",
  "id": 6581109268,
  "lat": 48.6833021,
  "lon": 6.1662766
},
{
  "type": "node",
  "id": 7025292536,
  "lat": 48.6817139,
  "lon": 6.1624091
},
{
  "type": "node",
  "id": 7025292537,
  "lat": 48.6817706,
  "lon": 6.1627868
},
{
  "type": "node",
  "id": 9242752638,
  "lat": 48.6769282,
  "lon": 6.1652379
},
{
  "type": "node",
  "id": 10535022,
  "lat": 48.6778911,
  "lon": 6.1683101
},
{
  "type": "node",
  "id": 129997266,
  "lat": 48.6827131,
  "lon": 6.1688148
},
{
  "type": "node",
  "id": 149398030,
  "lat": 48.6819421,
  "lon": 6.1690630
},
{
  "type": "node",
  "id": 150638800,
  "lat": 48.6773439,
  "lon": 6.1704759
},
{
  "type": "node",
  "id": 241898856,
  "lat": 48.6786419,
  "lon": 6.1676626
},
{
  "type": "node",
  "id": 249819564,
  "lat": 48.6816021,
  "lon": 6.1689998
},
{
  "type": "node",
  "id": 575270492,
  "lat": 48.6776741,
  "lon": 6.1702290
},
{
  "type": "node",
  "id": 1662139572,
  "lat": 48.6779329,
  "lon": 6.1700333
},
{
  "type": "node",
  "id": 2714051824,
  "lat": 48.6778392,
  "lon": 6.1683575
},
{
  "type": "node",
  "id": 2714051826,
  "lat": 48.6778622,
  "lon": 6.1682322
},
{
  "type": "node",
  "id": 2714051828,
  "lat": 48.6779675,
  "lon": 6.1682439
},
{
  "type": "node",
  "id": 2727563126,
  "lat": 48.6769175,
  "lon": 6.1708028
},
{
  "type": "node",
  "id": 2727563168,
  "lat": 48.6779486,
  "lon": 6.1682623
},
{
  "type": "node",
  "id": 3317506158,
  "lat": 48.6818872,
  "lon": 6.1690528
},
{
  "type": "node",
  "id": 3317506470,
  "lat": 48.6827741,
  "lon": 6.1687942
},
{
  "type": "node",
  "id": 5738318531,
  "lat": 48.6833534,
  "lon": 6.1685872
},
{
  "type": "node",
  "id": 7905903930,
  "lat": 48.6780618,
  "lon": 6.1681636
},
{
  "type": "node",
  "id": 8883257245,
  "lat": 48.6774346,
  "lon": 6.1686600
},
{
  "type": "node",
  "id": 9049260471,
  "lat": 48.6773634,
  "lon": 6.1687133
},
{
  "type": "node",
  "id": 10468261,
  "lat": 48.6717819,
  "lon": 6.1745367
},
{
  "type": "node",
  "id": 129994257,
  "lat": 48.6712281,
  "lon": 6.1782966
},
{
  "type": "node",
  "id": 129994259,
  "lat": 48.6725920,
  "lon": 6.1769894
},
{
  "type": "node",
  "id": 129994260,
  "lat": 48.6726985,
  "lon": 6.1766150
},
{
  "type": "node",
  "id": 129994261,
  "lat": 48.6733458,
  "lon": 6.1742164
},
{
  "type": "node",
  "id": 129994262,
  "lat": 48.6733791,
  "lon": 6.1739260
},
{
  "type": "node",
  "id": 129994264,
  "lat": 48.6734489,
  "lon": 6.1736991
},
{
  "type": "node",
  "id": 254291017,
  "lat": 48.6733775,
  "lon": 6.1740396
},
{
  "type": "node",
  "id": 290459641,
  "lat": 48.6742700,
  "lon": 6.1794799
},
{
  "type": "node",
  "id": 600738008,
  "lat": 48.6728797,
  "lon": 6.1759395
},
{
  "type": "node",
  "id": 609748913,
  "lat": 48.6735619,
  "lon": 6.1735785
},
{
  "type": "node",
  "id": 986742288,
  "lat": 48.6718253,
  "lon": 6.1744012
},
{
  "type": "node",
  "id": 986742963,
  "lat": 48.6731348,
  "lon": 6.1750008
},
{
  "type": "node",
  "id": 1673468852,
  "lat": 48.6726578,
  "lon": 6.1767199
},
{
  "type": "node",
  "id": 1673468865,
  "lat": 48.6727508,
  "lon": 6.1764001
},
{
  "type": "node",
  "id": 1673468886,
  "lat": 48.6733632,
  "lon": 6.1741317
},
{
  "type": "node",
  "id": 1673468891,
  "lat": 48.6733841,
  "lon": 6.1738233
},
{
  "type": "node",
  "id": 1970734606,
  "lat": 48.6716519,
  "lon": 6.1750063
},
{
  "type": "node",
  "id": 2069455158,
  "lat": 48.6716625,
  "lon": 6.1749679
},
{
  "type": "node",
  "id": 2069540000,
  "lat": 48.6720752,
  "lon": 6.1735525
},
{
  "type": "node",
  "id": 2073915538,
  "lat": 48.6733803,
  "lon": 6.1739882
},
{
  "type": "node",
  "id": 2498959724,
  "lat": 48.6729899,
  "lon": 6.1755456
},
{
  "type": "node",
  "id": 2498963543,
  "lat": 48.6730382,
  "lon": 6.1753688
},
{
  "type": "node",
  "id": 2498963544,
  "lat": 48.6730583,
  "lon": 6.1753013
},
{
  "type": "node",
  "id": 2514288933,
  "lat": 48.6733913,
  "lon": 6.1737887
},
{
  "type": "node",
  "id": 2514288934,
  "lat": 48.6734107,
  "lon": 6.1737497
},
{
  "type": "node",
  "id": 2600974687,
  "lat": 48.6743567,
  "lon": 6.1796260
},
{
  "type": "node",
  "id": 2611616894,
  "lat": 48.6721551,
  "lon": 6.1774565
},
{
  "type": "node",
  "id": 2959735163,
  "lat": 48.6731616,
  "lon": 6.1748857
},
{
  "type": "node",
  "id": 2976118865,
  "lat": 48.6726651,
  "lon": 6.1766960
},
{
  "type": "node",
  "id": 2976118873,
  "lat": 48.6732322,
  "lon": 6.1746111
},
{
  "type": "node",
  "id": 2976118879,
  "lat": 48.6733697,
  "lon": 6.1740976
},
{
  "type": "node",
  "id": 5169115862,
  "lat": 48.6717447,
  "lon": 6.1746712
},
{
  "type": "node",
  "id": 5268634669,
  "lat": 48.6731434,
  "lon": 6.1749678
},
{
  "type": "node",
  "id": 5268634670,
  "lat": 48.6731545,
  "lon": 6.1749188
},
{
  "type": "node",
  "id": 5268634671,
  "lat": 48.6731092,
  "lon": 6.1751022
},
{
  "type": "node",
  "id": 5268634676,
  "lat": 48.6731711,
  "lon": 6.1748489
},
{
  "type": "node",
  "id": 8829549251,
  "lat": 48.6727247,
  "lon": 6.1765076
},
{
  "type": "node",
  "id": 9007307918,
  "lat": 48.6713951,
  "lon": 6.1781444
},
{
  "type": "node",
  "id": 150897974,
  "lat": 48.6756798,
  "lon": 6.1820608
},
{
  "type": "node",
  "id": 150897975,
  "lat": 48.6748148,
  "lon": 6.1804922
},
{
  "type": "node",
  "id": 286305615,
  "lat": 48.6762787,
  "lon": 6.1836021
},
{
  "type": "node",
  "id": 286305624,
  "lat": 48.6760049,
  "lon": 6.1828457
},
{
  "type": "node",
  "id": 286511993,
  "lat": 48.6767958,
  "lon": 6.1849603
},
{
  "type": "node",
  "id": 611401392,
  "lat": 48.6754188,
  "lon": 6.1815747
},
{
  "type": "node",
  "id": 611401396,
  "lat": 48.6762392,
  "lon": 6.1816886
},
{
  "type": "node",
  "id": 624083213,
  "lat": 48.6742155,
  "lon": 6.1818146
},
{
  "type": "node",
  "id": 1721769059,
  "lat": 48.6744184,
  "lon": 6.1813457
},
{
  "type": "node",
  "id": 1721769090,
  "lat": 48.6747227,
  "lon": 6.1803221
},
{
  "type": "node",
  "id": 1721769092,
  "lat": 48.6749086,
  "lon": 6.1806650
},
{
  "type": "node",
  "id": 1722624045,
  "lat": 48.6760798,
  "lon": 6.1817946
},
{
  "type": "node",
  "id": 1722624093,
  "lat": 48.6755510,
  "lon": 6.1818210
},
{
  "type": "node",
  "id": 2611049238,
  "lat": 48.6765393,
  "lon": 6.1842865
},
{
  "type": "node",
  "id": 2611049242,
  "lat": 48.6766350,
  "lon": 6.1845379
},
{
  "type": "node",
  "id": 2719977466,
  "lat": 48.6743478,
  "lon": 6.1815050
},
{
  "type": "node",
  "id": 2719977468,
  "lat": 48.6747506,
  "lon": 6.1805977
},
{
  "type": "node",
  "id": 2765479286,
  "lat": 48.6747308,
  "lon": 6.1803372
},
{
  "type": "node",
  "id": 2765479292,
  "lat": 48.6748960,
  "lon": 6.1806418
},
{
  "type": "node",
  "id": 5631256144,
  "lat": 48.6757775,
  "lon": 6.1819958
},
{
  "type": "node",
  "id": 6443878194,
  "lat": 48.6767732,
  "lon": 6.1849009
},
{
  "type": "node",
  "id": 6443878195,
  "lat": 48.6762540,
  "lon": 6.1835338
},
{
  "type": "node",
  "id": 6443878196,
  "lat": 48.6759748,
  "lon": 6.1827731
},
{
  "type": "node",
  "id": 7638392773,
  "lat": 48.6747091,
  "lon": 6.1802963
},
{
  "type": "node",
  "id": 7638392774,
  "lat": 48.6749229,
  "lon": 6.1806904
},
{
  "type": "node",
  "id": 151200711,
  "lat": 48.6822300,
  "lon": 6.1738985
},
{
  "type": "node",
  "id": 151200731,
  "lat": 48.6820933,
  "lon": 6.1739937
},
{
  "type": "node",
  "id": 6589997686,
  "lat": 48.6821580,
  "lon": 6.1739496
},
{
  "type": "node",
  "id": 240352606,
  "lat": 48.6773991,
  "lon": 6.1865494
},
{
  "type": "node",
  "id": 286305622,
  "lat": 48.6775060,
  "lon": 6.1808734
},
{
  "type": "node",
  "id": 2537961141,
  "lat": 48.6782515,
  "lon": 6.1804006
},
{
  "type": "node",
  "id": 5631256145,
  "lat": 48.6774319,
  "lon": 6.1809211
},
{
  "type": "node",
  "id": 5631256146,
  "lat": 48.6774089,
  "lon": 6.1809359
},
{
  "type": "node",
  "id": 5703132461,
  "lat": 48.6772065,
  "lon": 6.1860418
},
{
  "type": "node",
  "id": 10532117,
  "lat": 48.6861381,
  "lon": 6.1623139
},
{
  "type": "node",
  "id": 10532408,
  "lat": 48.6864174,
  "lon": 6.1636225
},
{
  "type": "node",
  "id": 10532524,
  "lat": 48.6856393,
  "lon": 6.1610431
},
{
  "type": "node",
  "id": 10532863,
  "lat": 48.6865070,
  "lon": 6.1646285
},
{
  "type": "node",
  "id": 10707360,
  "lat": 48.6870576,
  "lon": 6.1664836
},
{
  "type": "node",
  "id": 10707515,
  "lat": 48.6882200,
  "lon": 6.1658600
},
{
  "type": "node",
  "id": 10707561,
  "lat": 48.6865654,
  "lon": 6.1604497
},
{
  "type": "node",
  "id": 10708207,
  "lat": 48.6885129,
  "lon": 6.1668169
},
{
  "type": "node",
  "id": 10709070,
  "lat": 48.6860104,
  "lon": 6.1668900
},
{
  "type": "node",
  "id": 120318849,
  "lat": 48.6869526,
  "lon": 6.1617083
},
{
  "type": "node",
  "id": 129997260,
  "lat": 48.6864450,
  "lon": 6.1637788
},
{
  "type": "node",
  "id": 129997264,
  "lat": 48.6873458,
  "lon": 6.1630078
},
{
  "type": "node",
  "id": 137828506,
  "lat": 48.6855631,
  "lon": 6.1668779
},
{
  "type": "node",
  "id": 137828512,
  "lat": 48.6853824,
  "lon": 6.1666304
},
{
  "type": "node",
  "id": 137828518,
  "lat": 48.6852508,
  "lon": 6.1665213
},
{
  "type": "node",
  "id": 137828525,
  "lat": 48.6850126,
  "lon": 6.1663598
},
{
  "type": "node",
  "id": 137828542,
  "lat": 48.6843849,
  "lon": 6.1660183
},
{
  "type": "node",
  "id": 137828553,
  "lat": 48.6836868,
  "lon": 6.1661770
},
{
  "type": "node",
  "id": 140564717,
  "lat": 48.6841096,
  "lon": 6.1660579
},
{
  "type": "node",
  "id": 245049841,
  "lat": 48.6846849,
  "lon": 6.1661697
},
{
  "type": "node",
  "id": 258885019,
  "lat": 48.6873666,
  "lon": 6.1663330
},
{
  "type": "node",
  "id": 258885039,
  "lat": 48.6865053,
  "lon": 6.1648427
},
{
  "type": "node",
  "id": 471820011,
  "lat": 48.6883032,
  "lon": 6.1661220
},
{
  "type": "node",
  "id": 471820015,
  "lat": 48.6881018,
  "lon": 6.1659827
},
{
  "type": "node",
  "id": 471820017,
  "lat": 48.6883407,
  "lon": 6.1662442
},
{
  "type": "node",
  "id": 531550085,
  "lat": 48.6859837,
  "lon": 6.1618615
},
{
  "type": "node",
  "id": 531550101,
  "lat": 48.6860998,
  "lon": 6.1621642
},
{
  "type": "node",
  "id": 559175632,
  "lat": 48.6875617,
  "lon": 6.1662429
},
{
  "type": "node",
  "id": 660760153,
  "lat": 48.6854617,
  "lon": 6.1667346
},
{
  "type": "node",
  "id": 1653241659,
  "lat": 48.6861681,
  "lon": 6.1668053
},
{
  "type": "node",
  "id": 1653241680,
  "lat": 48.6882604,
  "lon": 6.1659842
},
{
  "type": "node",
  "id": 1721571111,
  "lat": 48.6880808,
  "lon": 6.1654159
},
{
  "type": "node",
  "id": 1721571112,
  "lat": 48.6884190,
  "lon": 6.1665063
},
{
  "type": "node",
  "id": 1770695476,
  "lat": 48.6835780,
  "lon": 6.1662023
},
{
  "type": "node",
  "id": 1770695478,
  "lat": 48.6841727,
  "lon": 6.1660412
},
{
  "type": "node",
  "id": 1770695479,
  "lat": 48.6843179,
  "lon": 6.1660170
},
{
  "type": "node",
  "id": 2020455096,
  "lat": 48.6866576,
  "lon": 6.1607534
},
{
  "type": "node",
  "id": 2020455110,
  "lat": 48.6862552,
  "lon": 6.1628537
},
{
  "type": "node",
  "id": 2447521074,
  "lat": 48.6844654,
  "lon": 6.1660492
},
{
  "type": "node",
  "id": 2642561777,
  "lat": 48.6860416,
  "lon": 6.1620026
},
{
  "type": "node",
  "id": 2642561778,
  "lat": 48.6860745,
  "lon": 6.1620892
},
{
  "type": "node",
  "id": 2642561780,
  "lat": 48.6865105,
  "lon": 6.1647221
},
{
  "type": "node",
  "id": 2714052004,
  "lat": 48.6855689,
  "lon": 6.1608794
},
{
  "type": "node",
  "id": 2714052006,
  "lat": 48.6856781,
  "lon": 6.1611337
},
{
  "type": "node",
  "id": 2714052017,
  "lat": 48.6861627,
  "lon": 6.1624198
},
{
  "type": "node",
  "id": 2714052039,
  "lat": 48.6864536,
  "lon": 6.1638826
},
{
  "type": "node",
  "id": 2725502610,
  "lat": 48.6881374,
  "lon": 6.1659587
},
{
  "type": "node",
  "id": 2725502611,
  "lat": 48.6881600,
  "lon": 6.1659360
},
{
  "type": "node",
  "id": 2725502612,
  "lat": 48.6881793,
  "lon": 6.1659099
},
{
  "type": "node",
  "id": 2727563326,
  "lat": 48.6855776,
  "lon": 6.1609006
},
{
  "type": "node",
  "id": 2727563340,
  "lat": 48.6864244,
  "lon": 6.1636527
},
{
  "type": "node",
  "id": 2727563346,
  "lat": 48.6865093,
  "lon": 6.1647773
},
{
  "type": "node",
  "id": 2745357300,
  "lat": 48.6881739,
  "lon": 6.1657172
},
{
  "type": "node",
  "id": 2745357310,
  "lat": 48.6882523,
  "lon": 6.1659595
},
{
  "type": "node",
  "id": 2745357323,
  "lat": 48.6884830,
  "lon": 6.1667187
},
{
  "type": "node",
  "id": 2874693614,
  "lat": 48.6879806,
  "lon": 6.1660411
},
{
  "type": "node",
  "id": 2941412231,
  "lat": 48.6865885,
  "lon": 6.1605259
},
{
  "type": "node",
  "id": 2941412232,
  "lat": 48.6865954,
  "lon": 6.1605485
},
{
  "type": "node",
  "id": 2942099396,
  "lat": 48.6851402,
  "lon": 6.1664417
},
{
  "type": "node",
  "id": 2942099400,
  "lat": 48.6873125,
  "lon": 6.1628978
},
{
  "type": "node",
  "id": 2942099401,
  "lat": 48.6873818,
  "lon": 6.1631258
},
{
  "type": "node",
  "id": 2942099402,
  "lat": 48.6873882,
  "lon": 6.1631468
},
{
  "type": "node",
  "id": 2977716590,
  "lat": 48.6861030,
  "lon": 6.1668327
},
{
  "type": "node",
  "id": 2977716618,
  "lat": 48.6866077,
  "lon": 6.1666584
},
{
  "type": "node",
  "id": 2977716661,
  "lat": 48.6868901,
  "lon": 6.1665551
},
{
  "type": "node",
  "id": 3299320176,
  "lat": 48.6865083,
  "lon": 6.1646597
},
{
  "type": "node",
  "id": 3317506516,
  "lat": 48.6854218,
  "lon": 6.1666772
},
{
  "type": "node",
  "id": 3678933396,
  "lat": 48.6869201,
  "lon": 6.1616054
},
{
  "type": "node",
  "id": 3678933397,
  "lat": 48.6869873,
  "lon": 6.1618233
},
{
  "type": "node",
  "id": 4337660775,
  "lat": 48.6873010,
  "lon": 6.1663624
},
{
  "type": "node",
  "id": 4337660778,
  "lat": 48.6874092,
  "lon": 6.1663133
},
{
  "type": "node",
  "id": 5738318521,
  "lat": 48.6877502,
  "lon": 6.1643225
},
{
  "type": "node",
  "id": 6560114722,
  "lat": 48.6861384,
  "lon": 6.1668156
},
{
  "type": "node",
  "id": 6569713700,
  "lat": 48.6840466,
  "lon": 6.1660757
},
{
  "type": "node",
  "id": 6569713701,
  "lat": 48.6842787,
  "lon": 6.1660210
},
{
  "type": "node",
  "id": 6950725896,
  "lat": 48.6862748,
  "lon": 6.1629463
},
{
  "type": "node",
  "id": 7037145615,
  "lat": 48.6861983,
  "lon": 6.1625882
},
{
  "type": "node",
  "id": 7051330358,
  "lat": 48.6854569,
  "lon": 6.1606116
},
{
  "type": "node",
  "id": 7067367534,
  "lat": 48.6864663,
  "lon": 6.1641085
},
{
  "type": "node",
  "id": 7132816553,
  "lat": 48.6852896,
  "lon": 6.1665534
},
{
  "type": "node",
  "id": 7157029623,
  "lat": 48.6862456,
  "lon": 6.1628090
},
{
  "type": "node",
  "id": 7431038021,
  "lat": 48.6872600,
  "lon": 6.1663828
},
{
  "type": "node",
  "id": 7431038022,
  "lat": 48.6874460,
  "lon": 6.1662963
},
{
  "type": "node",
  "id": 10710587,
  "lat": 48.6884291,
  "lon": 6.1732952
},
{
  "type": "node",
  "id": 129997267,
  "lat": 48.6835566,
  "lon": 6.1685170
},
{
  "type": "node",
  "id": 129997269,
  "lat": 48.6844351,
  "lon": 6.1681578
},
{
  "type": "node",
  "id": 241900479,
  "lat": 48.6849518,
  "lon": 6.1679507
},
{
  "type": "node",
  "id": 493347191,
  "lat": 48.6892379,
  "lon": 6.1725301
},
{
  "type": "node",
  "id": 660881021,
  "lat": 48.6846664,
  "lon": 6.1680635
},
{
  "type": "node",
  "id": 1650149842,
  "lat": 48.6834491,
  "lon": 6.1685574
},
{
  "type": "node",
  "id": 1653241651,
  "lat": 48.6857235,
  "lon": 6.1676627
},
{
  "type": "node",
  "id": 1653241936,
  "lat": 48.6899249,
  "lon": 6.1719052
},
{
  "type": "node",
  "id": 1787898372,
  "lat": 48.6857435,
  "lon": 6.1670705
},
{
  "type": "node",
  "id": 1787898374,
  "lat": 48.6858131,
  "lon": 6.1676360
},
{
  "type": "node",
  "id": 2445785142,
  "lat": 48.6891068,
  "lon": 6.1726496
},
{
  "type": "node",
  "id": 2445785145,
  "lat": 48.6895477,
  "lon": 6.1722463
},
{
  "type": "node",
  "id": 2714052092,
  "lat": 48.6885197,
  "lon": 6.1731978
},
{
  "type": "node",
  "id": 2745357313,
  "lat": 48.6882909,
  "lon": 6.1732887
},
{
  "type": "node",
  "id": 2745357314,
  "lat": 48.6883385,
  "lon": 6.1732880
},
{
  "type": "node",
  "id": 2745357318,
  "lat": 48.6883766,
  "lon": 6.1732919
},
{
  "type": "node",
  "id": 2745357327,
  "lat": 48.6885947,
  "lon": 6.1731127
},
{
  "type": "node",
  "id": 2745357329,
  "lat": 48.6886283,
  "lon": 6.1730798
},
{
  "type": "node",
  "id": 2745357334,
  "lat": 48.6888133,
  "lon": 6.1729132
},
{
  "type": "node",
  "id": 2745357341,
  "lat": 48.6894734,
  "lon": 6.1723130
},
{
  "type": "node",
  "id": 2745357343,
  "lat": 48.6896471,
  "lon": 6.1721562
},
{
  "type": "node",
  "id": 2780137432,
  "lat": 48.6857576,
  "lon": 6.1676523
},
{
  "type": "node",
  "id": 3092682284,
  "lat": 48.6899710,
  "lon": 6.1718671
},
{
  "type": "node",
  "id": 3312732572,
  "lat": 48.6849169,
  "lon": 6.1679645
},
{
  "type": "node",
  "id": 3312732579,
  "lat": 48.6850000,
  "lon": 6.1679327
},
{
  "type": "node",
  "id": 3317506510,
  "lat": 48.6835080,
  "lon": 6.1685352
},
{
  "type": "node",
  "id": 3317506513,
  "lat": 48.6836141,
  "lon": 6.1684935
},
{
  "type": "node",
  "id": 3317506520,
  "lat": 48.6856206,
  "lon": 6.1669453
},
{
  "type": "node",
  "id": 4516033282,
  "lat": 48.6894892,
  "lon": 6.1722999
},
{
  "type": "node",
  "id": 6560114723,
  "lat": 48.6857354,
  "lon": 6.1676590
},
{
  "type": "node",
  "id": 142089,
  "lat": 48.6959569,
  "lon": 6.1639399
},
{
  "type": "node",
  "id": 10708093,
  "lat": 48.6927769,
  "lon": 6.1663161
},
{
  "type": "node",
  "id": 10708847,
  "lat": 48.6956404,
  "lon": 6.1648160
},
{
  "type": "node",
  "id": 1665954386,
  "lat": 48.6926482,
  "lon": 6.1667852
},
{
  "type": "node",
  "id": 1665954391,
  "lat": 48.6928382,
  "lon": 6.1661287
},
{
  "type": "node",
  "id": 1665954405,
  "lat": 48.6950617,
  "lon": 6.1649604
},
{
  "type": "node",
  "id": 1665954409,
  "lat": 48.6953348,
  "lon": 6.1648893
},
{
  "type": "node",
  "id": 1665954413,
  "lat": 48.6954407,
  "lon": 6.1648706
},
{
  "type": "node",
  "id": 1732954601,
  "lat": 48.6942363,
  "lon": 6.1651698
},
{
  "type": "node",
  "id": 1732954604,
  "lat": 48.6961729,
  "lon": 6.1628809
},
{
  "type": "node",
  "id": 1732954627,
  "lat": 48.6927161,
  "lon": 6.1665282
},
{
  "type": "node",
  "id": 1732954650,
  "lat": 48.6955509,
  "lon": 6.1648543
},
{
  "type": "node",
  "id": 2396330017,
  "lat": 48.6946697,
  "lon": 6.1650630
},
{
  "type": "node",
  "id": 2401247149,
  "lat": 48.6926142,
  "lon": 6.1669291
},
{
  "type": "node",
  "id": 2652651092,
  "lat": 48.6956012,
  "lon": 6.1648398
},
{
  "type": "node",
  "id": 2652651101,
  "lat": 48.6956752,
  "lon": 6.1647613
},
{
  "type": "node",
  "id": 2652651131,
  "lat": 48.6957273,
  "lon": 6.1645944
},
{
  "type": "node",
  "id": 2652651134,
  "lat": 48.6958758,
  "lon": 6.1642641
},
{
  "type": "node",
  "id": 2667397593,
  "lat": 48.6938352,
  "lon": 6.1652770
},
{
  "type": "node",
  "id": 4538228272,
  "lat": 48.6962684,
  "lon": 6.1624443
},
{
  "type": "node",
  "id": 5767469670,
  "lat": 48.6959689,
  "lon": 6.1638775
},
{
  "type": "node",
  "id": 5767469671,
  "lat": 48.6963136,
  "lon": 6.1622117
},
{
  "type": "node",
  "id": 6995981982,
  "lat": 48.6963384,
  "lon": 6.1620861
},
{
  "type": "node",
  "id": 7025287372,
  "lat": 48.6962151,
  "lon": 6.1627115
},
{
  "type": "node",
  "id": 7025287383,
  "lat": 48.6958138,
  "lon": 6.1644191
},
{
  "type": "node",
  "id": 7452305577,
  "lat": 48.6961240,
  "lon": 6.1631199
},
{
  "type": "node",
  "id": 7623513406,
  "lat": 48.6963889,
  "lon": 6.1618350
},
{
  "type": "node",
  "id": 7623513407,
  "lat": 48.6963610,
  "lon": 6.1619736
},
{
  "type": "node",
  "id": 7623513412,
  "lat": 48.6962298,
  "lon": 6.1626342
},
{
  "type": "node",
  "id": 7623513413,
  "lat": 48.6961514,
  "lon": 6.1629858
},
{
  "type": "node",
  "id": 7623513414,
  "lat": 48.6960871,
  "lon": 6.1633000
},
{
  "type": "node",
  "id": 7623513415,
  "lat": 48.6959213,
  "lon": 6.1641153
},
{
  "type": "node",
  "id": 7623513419,
  "lat": 48.6957591,
  "lon": 6.1645317
},
{
  "type": "node",
  "id": 7623513420,
  "lat": 48.6955197,
  "lon": 6.1648599
},
{
  "type": "node",
  "id": 7623513421,
  "lat": 48.6955359,
  "lon": 6.1648577
},
{
  "type": "node",
  "id": 7623513422,
  "lat": 48.6941647,
  "lon": 6.1651889
},
{
  "type": "node",
  "id": 7623513423,
  "lat": 48.6940497,
  "lon": 6.1652197
},
{
  "type": "node",
  "id": 8978438737,
  "lat": 48.6956955,
  "lon": 6.1647215
},
{
  "type": "node",
  "id": 10708590,
  "lat": 48.6963433,
  "lon": 6.1672725
},
{
  "type": "node",
  "id": 10709995,
  "lat": 48.6926705,
  "lon": 6.1677598
},
{
  "type": "node",
  "id": 52718520,
  "lat": 48.6923148,
  "lon": 6.1681155
},
{
  "type": "node",
  "id": 52719198,
  "lat": 48.6923557,
  "lon": 6.1682305
},
{
  "type": "node",
  "id": 90661700,
  "lat": 48.6923854,
  "lon": 6.1678616
},
{
  "type": "node",
  "id": 90662618,
  "lat": 48.6921554,
  "lon": 6.1686122
},
{
  "type": "node",
  "id": 90663817,
  "lat": 48.6900330,
  "lon": 6.1718200
},
{
  "type": "node",
  "id": 283160935,
  "lat": 48.6925938,
  "lon": 6.1676538
},
{
  "type": "node",
  "id": 303742848,
  "lat": 48.6925500,
  "lon": 6.1672255
},
{
  "type": "node",
  "id": 617579231,
  "lat": 48.6922123,
  "lon": 6.1683977
},
{
  "type": "node",
  "id": 1627460452,
  "lat": 48.6904009,
  "lon": 6.1730238
},
{
  "type": "node",
  "id": 1675847759,
  "lat": 48.6922552,
  "lon": 6.1682756
},
{
  "type": "node",
  "id": 1675847763,
  "lat": 48.6923366,
  "lon": 6.1681793
},
{
  "type": "node",
  "id": 1675847765,
  "lat": 48.6923943,
  "lon": 6.1683091
},
{
  "type": "node",
  "id": 1675847767,
  "lat": 48.6924891,
  "lon": 6.1684346
},
{
  "type": "node",
  "id": 2440785816,
  "lat": 48.6904075,
  "lon": 6.1730456
},
{
  "type": "node",
  "id": 2440786023,
  "lat": 48.6957158,
  "lon": 6.1710523
},
{
  "type": "node",
  "id": 2440786025,
  "lat": 48.6957471,
  "lon": 6.1711494
},
{
  "type": "node",
  "id": 2440786032,
  "lat": 48.6958031,
  "lon": 6.1713194
},
{
  "type": "node",
  "id": 2440786036,
  "lat": 48.6958396,
  "lon": 6.1713725
},
{
  "type": "node",
  "id": 2440786044,
  "lat": 48.6961734,
  "lon": 6.1723957
},
{
  "type": "node",
  "id": 2777797000,
  "lat": 48.6921835,
  "lon": 6.1684912
},
{
  "type": "node",
  "id": 2777797010,
  "lat": 48.6922037,
  "lon": 6.1684250
},
{
  "type": "node",
  "id": 2777797016,
  "lat": 48.6922639,
  "lon": 6.1682514
},
{
  "type": "node",
  "id": 2777797022,
  "lat": 48.6923597,
  "lon": 6.1679510
},
{
  "type": "node",
  "id": 2777797033,
  "lat": 48.6924335,
  "lon": 6.1683671
},
{
  "type": "node",
  "id": 2777797035,
  "lat": 48.6924459,
  "lon": 6.1677937
},
{
  "type": "node",
  "id": 2777797036,
  "lat": 48.6924674,
  "lon": 6.1677274
},
{
  "type": "node",
  "id": 2777797054,
  "lat": 48.6924805,
  "lon": 6.1676786
},
{
  "type": "node",
  "id": 2777797059,
  "lat": 48.6924975,
  "lon": 6.1676105
},
{
  "type": "node",
  "id": 2777797061,
  "lat": 48.6925180,
  "lon": 6.1675256
},
{
  "type": "node",
  "id": 2777797063,
  "lat": 48.6925291,
  "lon": 6.1674808
},
{
  "type": "node",
  "id": 2777797068,
  "lat": 48.6925445,
  "lon": 6.1674080
},
{
  "type": "node",
  "id": 2777797072,
  "lat": 48.6925834,
  "lon": 6.1676345
},
{
  "type": "node",
  "id": 2777797073,
  "lat": 48.6926143,
  "lon": 6.1676965
},
{
  "type": "node",
  "id": 2793241853,
  "lat": 48.6962067,
  "lon": 6.1725011
},
{
  "type": "node",
  "id": 2795049353,
  "lat": 48.6964022,
  "lon": 6.1674836
},
{
  "type": "node",
  "id": 2795049358,
  "lat": 48.6964143,
  "lon": 6.1675218
},
{
  "type": "node",
  "id": 2795049364,
  "lat": 48.6964700,
  "lon": 6.1677176
},
{
  "type": "node",
  "id": 3145805375,
  "lat": 48.6961963,
  "lon": 6.1724681
},
{
  "type": "node",
  "id": 3295217691,
  "lat": 48.6904927,
  "lon": 6.1733319
},
{
  "type": "node",
  "id": 8978442541,
  "lat": 48.6964206,
  "lon": 6.1675441
},
{
  "type": "node",
  "id": 9096968356,
  "lat": 48.6924493,
  "lon": 6.1683863
},
{
  "type": "node",
  "id": 1625980093,
  "lat": 48.6847956,
  "lon": 6.1797191
},
{
  "type": "node",
  "id": 6443960547,
  "lat": 48.6849207,
  "lon": 6.1797407
},
{
  "type": "node",
  "id": 6443960551,
  "lat": 48.6849604,
  "lon": 6.1798685
},
{
  "type": "node",
  "id": 6757977856,
  "lat": 48.6848657,
  "lon": 6.1797763
},
{
  "type": "node",
  "id": 479742218,
  "lat": 48.6881018,
  "lon": 6.1830319
},
{
  "type": "node",
  "id": 479742219,
  "lat": 48.6874955,
  "lon": 6.1834816
},
{
  "type": "node",
  "id": 1650149858,
  "lat": 48.6874039,
  "lon": 6.1835494
},
{
  "type": "node",
  "id": 1650149860,
  "lat": 48.6874726,
  "lon": 6.1834961
},
{
  "type": "node",
  "id": 1650149865,
  "lat": 48.6876015,
  "lon": 6.1834085
},
{
  "type": "node",
  "id": 7220731401,
  "lat": 48.6880509,
  "lon": 6.1830702
},
{
  "type": "node",
  "id": 7220731402,
  "lat": 48.6880704,
  "lon": 6.1830555
},
{
  "type": "node",
  "id": 10531881,
  "lat": 48.6908396,
  "lon": 6.1745178
},
{
  "type": "node",
  "id": 10531981,
  "lat": 48.6956951,
  "lon": 6.1765829
},
{
  "type": "node",
  "id": 10532258,
  "lat": 48.6943022,
  "lon": 6.1775840
},
{
  "type": "node",
  "id": 10533254,
  "lat": 48.6930339,
  "lon": 6.1785053
},
{
  "type": "node",
  "id": 10533916,
  "lat": 48.6926196,
  "lon": 6.1771784
},
{
  "type": "node",
  "id": 10708185,
  "lat": 48.6906030,
  "lon": 6.1755173
},
{
  "type": "node",
  "id": 90662321,
  "lat": 48.6914987,
  "lon": 6.1754402
},
{
  "type": "node",
  "id": 90663408,
  "lat": 48.6920638,
  "lon": 6.1761511
},
{
  "type": "node",
  "id": 240378541,
  "lat": 48.6924160,
  "lon": 6.1765838
},
{
  "type": "node",
  "id": 291870369,
  "lat": 48.6905671,
  "lon": 6.1735752
},
{
  "type": "node",
  "id": 369434090,
  "lat": 48.6918248,
  "lon": 6.1758448
},
{
  "type": "node",
  "id": 449840916,
  "lat": 48.6937125,
  "lon": 6.1780359
},
{
  "type": "node",
  "id": 450177661,
  "lat": 48.6922520,
  "lon": 6.1790648
},
{
  "type": "node",
  "id": 496104119,
  "lat": 48.6908921,
  "lon": 6.1753084
},
{
  "type": "node",
  "id": 500240377,
  "lat": 48.6912621,
  "lon": 6.1752660
},
{
  "type": "node",
  "id": 500240380,
  "lat": 48.6913219,
  "lon": 6.1753068
},
{
  "type": "node",
  "id": 517430121,
  "lat": 48.6923168,
  "lon": 6.1764646
},
{
  "type": "node",
  "id": 533652665,
  "lat": 48.6921198,
  "lon": 6.1762193
},
{
  "type": "node",
  "id": 551574953,
  "lat": 48.6931633,
  "lon": 6.1784174
},
{
  "type": "node",
  "id": 551574978,
  "lat": 48.6928768,
  "lon": 6.1780011
},
{
  "type": "node",
  "id": 552929297,
  "lat": 48.6943499,
  "lon": 6.1775494
},
{
  "type": "node",
  "id": 566606072,
  "lat": 48.6964316,
  "lon": 6.1760575
},
{
  "type": "node",
  "id": 598561962,
  "lat": 48.6964612,
  "lon": 6.1760363
},
{
  "type": "node",
  "id": 1645409856,
  "lat": 48.6959660,
  "lon": 6.1763915
},
{
  "type": "node",
  "id": 1645409862,
  "lat": 48.6942809,
  "lon": 6.1775992
},
{
  "type": "node",
  "id": 1645409903,
  "lat": 48.6943726,
  "lon": 6.1775311
},
{
  "type": "node",
  "id": 2435344613,
  "lat": 48.6911403,
  "lon": 6.1751792
},
{
  "type": "node",
  "id": 2623485515,
  "lat": 48.6931227,
  "lon": 6.1784449
},
{
  "type": "node",
  "id": 2714052106,
  "lat": 48.6906687,
  "lon": 6.1754703
},
{
  "type": "node",
  "id": 2714052130,
  "lat": 48.6923321,
  "lon": 6.1790158
},
{
  "type": "node",
  "id": 2727563368,
  "lat": 48.6909523,
  "lon": 6.1752661
},
{
  "type": "node",
  "id": 2727563464,
  "lat": 48.6926451,
  "lon": 6.1772579
},
{
  "type": "node",
  "id": 2727563466,
  "lat": 48.6927538,
  "lon": 6.1776042
},
{
  "type": "node",
  "id": 2833164402,
  "lat": 48.6936198,
  "lon": 6.1781031
},
{
  "type": "node",
  "id": 2833164403,
  "lat": 48.6956473,
  "lon": 6.1766173
},
{
  "type": "node",
  "id": 2925156609,
  "lat": 48.6957356,
  "lon": 6.1765546
},
{
  "type": "node",
  "id": 3093658729,
  "lat": 48.6909149,
  "lon": 6.1752935
},
{
  "type": "node",
  "id": 3096244218,
  "lat": 48.6922223,
  "lon": 6.1763395
},
{
  "type": "node",
  "id": 4023988497,
  "lat": 48.6936130,
  "lon": 6.1781080
},
{
  "type": "node",
  "id": 4023988498,
  "lat": 48.6956319,
  "lon": 6.1766285
},
{
  "type": "node",
  "id": 4177162674,
  "lat": 48.6943885,
  "lon": 6.1775197
},
{
  "type": "node",
  "id": 4177163594,
  "lat": 48.6948962,
  "lon": 6.1771553
},
{
  "type": "node",
  "id": 4177163597,
  "lat": 48.6950245,
  "lon": 6.1770630
},
{
  "type": "node",
  "id": 4177163610,
  "lat": 48.6956705,
  "lon": 6.1765998
},
{
  "type": "node",
  "id": 4177163844,
  "lat": 48.6964139,
  "lon": 6.1760702
},
{
  "type": "node",
  "id": 4622056845,
  "lat": 48.6930053,
  "lon": 6.1785261
},
{
  "type": "node",
  "id": 6280817929,
  "lat": 48.6909859,
  "lon": 6.1750004
},
{
  "type": "node",
  "id": 6280817930,
  "lat": 48.6910122,
  "lon": 6.1750825
},
{
  "type": "node",
  "id": 6280817932,
  "lat": 48.6911667,
  "lon": 6.1751980
},
{
  "type": "node",
  "id": 6280817944,
  "lat": 48.6909909,
  "lon": 6.1752344
},
{
  "type": "node",
  "id": 6280817945,
  "lat": 48.6910138,
  "lon": 6.1752081
},
{
  "type": "node",
  "id": 6280817946,
  "lat": 48.6910288,
  "lon": 6.1751735
},
{
  "type": "node",
  "id": 6280817947,
  "lat": 48.6911100,
  "lon": 6.1751647
},
{
  "type": "node",
  "id": 6280817948,
  "lat": 48.6909293,
  "lon": 6.1752830
},
{
  "type": "node",
  "id": 6456412695,
  "lat": 48.6910250,
  "lon": 6.1751253
},
{
  "type": "node",
  "id": 6456412696,
  "lat": 48.6910776,
  "lon": 6.1751624
},
{
  "type": "node",
  "id": 7001010813,
  "lat": 48.6918595,
  "lon": 6.1758892
},
{
  "type": "node",
  "id": 7431038023,
  "lat": 48.6913534,
  "lon": 6.1753305
},
{
  "type": "node",
  "id": 7589230947,
  "lat": 48.6949632,
  "lon": 6.1771069
},
{
  "type": "node",
  "id": 7961042640,
  "lat": 48.6963478,
  "lon": 6.1761176
},
{
  "type": "node",
  "id": 7961042641,
  "lat": 48.6964885,
  "lon": 6.1760170
},
{
  "type": "node",
  "id": 7961042642,
  "lat": 48.6963120,
  "lon": 6.1761433
},
{
  "type": "node",
  "id": 7961042643,
  "lat": 48.6965251,
  "lon": 6.1759910
},
{
  "type": "node",
  "id": 7989276525,
  "lat": 48.6917083,
  "lon": 6.1757002
},
{
  "type": "node",
  "id": 8532075003,
  "lat": 48.6931927,
  "lon": 6.1783973
},
{
  "type": "node",
  "id": 8532075004,
  "lat": 48.6929595,
  "lon": 6.1785594
},
{
  "type": "node",
  "id": 8532075005,
  "lat": 48.6930081,
  "lon": 6.1784225
},
{
  "type": "node",
  "id": 9105841585,
  "lat": 48.6920149,
  "lon": 6.1760885
},
{
  "type": "node",
  "id": 10532279,
  "lat": 48.6928250,
  "lon": 6.1809458
},
{
  "type": "node",
  "id": 296327176,
  "lat": 48.6924487,
  "lon": 6.1812132
},
{
  "type": "node",
  "id": 420569405,
  "lat": 48.6932534,
  "lon": 6.1842903
},
{
  "type": "node",
  "id": 542500479,
  "lat": 48.6927016,
  "lon": 6.1810389
},
{
  "type": "node",
  "id": 1844415295,
  "lat": 48.6929139,
  "lon": 6.1845831
},
{
  "type": "node",
  "id": 2714052147,
  "lat": 48.6929202,
  "lon": 6.1845781
},
{
  "type": "node",
  "id": 2714052152,
  "lat": 48.6929413,
  "lon": 6.1845629
},
{
  "type": "node",
  "id": 2745357353,
  "lat": 48.6924936,
  "lon": 6.1811808
},
{
  "type": "node",
  "id": 2745357354,
  "lat": 48.6927495,
  "lon": 6.1810027
},
{
  "type": "node",
  "id": 4622060229,
  "lat": 48.6927894,
  "lon": 6.1809726
},
{
  "type": "node",
  "id": 10468252,
  "lat": 48.6996748,
  "lon": 6.1391411
},
{
  "type": "node",
  "id": 269040981,
  "lat": 48.6997562,
  "lon": 6.1399703
},
{
  "type": "node",
  "id": 276954955,
  "lat": 48.6997046,
  "lon": 6.1393577
},
{
  "type": "node",
  "id": 1681252521,
  "lat": 48.6995696,
  "lon": 6.1384599
},
{
  "type": "node",
  "id": 1681252523,
  "lat": 48.6998045,
  "lon": 6.1405571
},
{
  "type": "node",
  "id": 4088940824,
  "lat": 48.6993809,
  "lon": 6.1372199
},
{
  "type": "node",
  "id": 4600776828,
  "lat": 48.6996462,
  "lon": 6.1389488
},
{
  "type": "node",
  "id": 4600776829,
  "lat": 48.6996954,
  "lon": 6.1392876
},
{
  "type": "node",
  "id": 4774234590,
  "lat": 48.6997635,
  "lon": 6.1400585
},
{
  "type": "node",
  "id": 5767469666,
  "lat": 48.6995311,
  "lon": 6.1381809
},
{
  "type": "node",
  "id": 6395819239,
  "lat": 48.6994784,
  "lon": 6.1378565
},
{
  "type": "node",
  "id": 6395819241,
  "lat": 48.6997333,
  "lon": 6.1396683
},
{
  "type": "node",
  "id": 9386718441,
  "lat": 48.6994063,
  "lon": 6.1373857
},
{
  "type": "node",
  "id": 10467304,
  "lat": 48.6999274,
  "lon": 6.1421092
},
{
  "type": "node",
  "id": 269040926,
  "lat": 48.6999556,
  "lon": 6.1424604
},
{
  "type": "node",
  "id": 269254771,
  "lat": 48.6998371,
  "lon": 6.1409780
},
{
  "type": "node",
  "id": 2511301749,
  "lat": 48.7004603,
  "lon": 6.1449654
},
{
  "type": "node",
  "id": 2533793251,
  "lat": 48.7002880,
  "lon": 6.1442574
},
{
  "type": "node",
  "id": 4553073987,
  "lat": 48.7004374,
  "lon": 6.1447750
},
{
  "type": "node",
  "id": 4553074891,
  "lat": 48.7003474,
  "lon": 6.1443672
},
{
  "type": "node",
  "id": 4600776831,
  "lat": 48.6998248,
  "lon": 6.1408081
},
{
  "type": "node",
  "id": 5184735146,
  "lat": 48.7003270,
  "lon": 6.1443154
},
{
  "type": "node",
  "id": 5184735147,
  "lat": 48.7002927,
  "lon": 6.1443888
},
{
  "type": "node",
  "id": 5184735148,
  "lat": 48.7003667,
  "lon": 6.1447345
},
{
  "type": "node",
  "id": 5184735149,
  "lat": 48.7003815,
  "lon": 6.1448018
},
{
  "type": "node",
  "id": 10707925,
  "lat": 48.6969975,
  "lon": 6.1585866
},
{
  "type": "node",
  "id": 1732954632,
  "lat": 48.6969300,
  "lon": 6.1591700
},
{
  "type": "node",
  "id": 1732954742,
  "lat": 48.6968476,
  "lon": 6.1596536
},
{
  "type": "node",
  "id": 1732954744,
  "lat": 48.6968837,
  "lon": 6.1594845
},
{
  "type": "node",
  "id": 2386398457,
  "lat": 48.6966826,
  "lon": 6.1603829
},
{
  "type": "node",
  "id": 7623513398,
  "lat": 48.6969953,
  "lon": 6.1586080
},
{
  "type": "node",
  "id": 7623513399,
  "lat": 48.6969947,
  "lon": 6.1586347
},
{
  "type": "node",
  "id": 7623513400,
  "lat": 48.6969123,
  "lon": 6.1592939
},
{
  "type": "node",
  "id": 7623513401,
  "lat": 48.6969643,
  "lon": 6.1589119
},
{
  "type": "node",
  "id": 7623513403,
  "lat": 48.6968644,
  "lon": 6.1595820
},
{
  "type": "node",
  "id": 7623513404,
  "lat": 48.6968295,
  "lon": 6.1597359
},
{
  "type": "node",
  "id": 7623513405,
  "lat": 48.6968048,
  "lon": 6.1598206
},
{
  "type": "node",
  "id": 10708136,
  "lat": 48.6984850,
  "lon": 6.1668029
},
{
  "type": "node",
  "id": 1732954712,
  "lat": 48.6965949,
  "lon": 6.1608100
},
{
  "type": "node",
  "id": 10532139,
  "lat": 48.6971647,
  "lon": 6.1701402
},
{
  "type": "node",
  "id": 10533069,
  "lat": 48.6976653,
  "lon": 6.1717534
},
{
  "type": "node",
  "id": 10533394,
  "lat": 48.6980449,
  "lon": 6.1730321
},
{
  "type": "node",
  "id": 90661306,
  "lat": 48.7016668,
  "lon": 6.1715173
},
{
  "type": "node",
  "id": 90662512,
  "lat": 48.7001759,
  "lon": 6.1725862
},
{
  "type": "node",
  "id": 90663431,
  "lat": 48.6972528,
  "lon": 6.1704391
},
{
  "type": "node",
  "id": 253154479,
  "lat": 48.6989335,
  "lon": 6.1679822
},
{
  "type": "node",
  "id": 253154480,
  "lat": 48.6991078,
  "lon": 6.1683893
},
{
  "type": "node",
  "id": 253154481,
  "lat": 48.6993506,
  "lon": 6.1692837
},
{
  "type": "node",
  "id": 253154482,
  "lat": 48.6993745,
  "lon": 6.1693961
},
{
  "type": "node",
  "id": 253154483,
  "lat": 48.6999687,
  "lon": 6.1720878
},
{
  "type": "node",
  "id": 368234346,
  "lat": 48.6969533,
  "lon": 6.1694129
},
{
  "type": "node",
  "id": 575963652,
  "lat": 48.6978097,
  "lon": 6.1722302
},
{
  "type": "node",
  "id": 610516883,
  "lat": 48.6986192,
  "lon": 6.1672406
},
{
  "type": "node",
  "id": 610516884,
  "lat": 48.6988975,
  "lon": 6.1678995
},
{
  "type": "node",
  "id": 610516893,
  "lat": 48.6972209,
  "lon": 6.1703271
},
{
  "type": "node",
  "id": 610516895,
  "lat": 48.6994108,
  "lon": 6.1695758
},
{
  "type": "node",
  "id": 610521802,
  "lat": 48.6993118,
  "lon": 6.1691180
},
{
  "type": "node",
  "id": 619396299,
  "lat": 48.7020067,
  "lon": 6.1732361
},
{
  "type": "node",
  "id": 2332019271,
  "lat": 48.7002244,
  "lon": 6.1726872
},
{
  "type": "node",
  "id": 2440786054,
  "lat": 48.6969226,
  "lon": 6.1693032
},
{
  "type": "node",
  "id": 2440786057,
  "lat": 48.6969891,
  "lon": 6.1695373
},
{
  "type": "node",
  "id": 2440786077,
  "lat": 48.6973975,
  "lon": 6.1708919
},
{
  "type": "node",
  "id": 2440786101,
  "lat": 48.6988529,
  "lon": 6.1677922
},
{
  "type": "node",
  "id": 2440786108,
  "lat": 48.6990890,
  "lon": 6.1683405
},
{
  "type": "node",
  "id": 2440786110,
  "lat": 48.6992851,
  "lon": 6.1690145
},
{
  "type": "node",
  "id": 2440786123,
  "lat": 48.6993791,
  "lon": 6.1694210
},
{
  "type": "node",
  "id": 2440786129,
  "lat": 48.6994349,
  "lon": 6.1696863
},
{
  "type": "node",
  "id": 2702942187,
  "lat": 48.6991659,
  "lon": 6.1685279
},
{
  "type": "node",
  "id": 2702942188,
  "lat": 48.6991873,
  "lon": 6.1685904
},
{
  "type": "node",
  "id": 2747791841,
  "lat": 48.6985269,
  "lon": 6.1669502
},
{
  "type": "node",
  "id": 2747791844,
  "lat": 48.6985672,
  "lon": 6.1670836
},
{
  "type": "node",
  "id": 2747791853,
  "lat": 48.6987330,
  "lon": 6.1675120
},
{
  "type": "node",
  "id": 2747791866,
  "lat": 48.6990813,
  "lon": 6.1683229
},
{
  "type": "node",
  "id": 2793241959,
  "lat": 48.6977007,
  "lon": 6.1718716
},
{
  "type": "node",
  "id": 2795049392,
  "lat": 48.6969167,
  "lon": 6.1692825
},
{
  "type": "node",
  "id": 2795049397,
  "lat": 48.6970058,
  "lon": 6.1695961
},
{
  "type": "node",
  "id": 2941412262,
  "lat": 48.6975284,
  "lon": 6.1713248
},
{
  "type": "node",
  "id": 2941412269,
  "lat": 48.6977187,
  "lon": 6.1719310
},
{
  "type": "node",
  "id": 2941412292,
  "lat": 48.6979952,
  "lon": 6.1728393
},
{
  "type": "node",
  "id": 2941412295,
  "lat": 48.6980259,
  "lon": 6.1729460
},
{
  "type": "node",
  "id": 2941412297,
  "lat": 48.6980529,
  "lon": 6.1730775
},
{
  "type": "node",
  "id": 3005323035,
  "lat": 48.7016866,
  "lon": 6.1716176
},
{
  "type": "node",
  "id": 3005323036,
  "lat": 48.7016946,
  "lon": 6.1716580
},
{
  "type": "node",
  "id": 3423895872,
  "lat": 48.6994627,
  "lon": 6.1697957
},
{
  "type": "node",
  "id": 4274029639,
  "lat": 48.6996916,
  "lon": 6.1707732
},
{
  "type": "node",
  "id": 4497087091,
  "lat": 48.7002788,
  "lon": 6.1725119
},
{
  "type": "node",
  "id": 5320011080,
  "lat": 48.7019873,
  "lon": 6.1731378
},
{
  "type": "node",
  "id": 5320011081,
  "lat": 48.7017570,
  "lon": 6.1719735
},
{
  "type": "node",
  "id": 5320011083,
  "lat": 48.7020380,
  "lon": 6.1733888
},
{
  "type": "node",
  "id": 5320011084,
  "lat": 48.7019115,
  "lon": 6.1727545
},
{
  "type": "node",
  "id": 5320011085,
  "lat": 48.7017063,
  "lon": 6.1717173
},
{
  "type": "node",
  "id": 5421914784,
  "lat": 48.6978401,
  "lon": 6.1723299
},
{
  "type": "node",
  "id": 8091600509,
  "lat": 48.7003661,
  "lon": 6.1724496
},
{
  "type": "node",
  "id": 8091600510,
  "lat": 48.7002690,
  "lon": 6.1725188
},
{
  "type": "node",
  "id": 8091600511,
  "lat": 48.6993640,
  "lon": 6.1693466
},
{
  "type": "node",
  "id": 8091600512,
  "lat": 48.6995846,
  "lon": 6.1702810
},
{
  "type": "node",
  "id": 8091600515,
  "lat": 48.6999532,
  "lon": 6.1720077
},
{
  "type": "node",
  "id": 8091600516,
  "lat": 48.6999478,
  "lon": 6.1719794
},
{
  "type": "node",
  "id": 8104334288,
  "lat": 48.6992739,
  "lon": 6.1689658
},
{
  "type": "node",
  "id": 8104334289,
  "lat": 48.6990638,
  "lon": 6.1682826
},
{
  "type": "node",
  "id": 8104334290,
  "lat": 48.6988286,
  "lon": 6.1677353
},
{
  "type": "node",
  "id": 8564303230,
  "lat": 48.6970179,
  "lon": 6.1696377
},
{
  "type": "node",
  "id": 8564303232,
  "lat": 48.6974043,
  "lon": 6.1709143
},
{
  "type": "node",
  "id": 8603656978,
  "lat": 48.6969066,
  "lon": 6.1692473
},
{
  "type": "node",
  "id": 8612358605,
  "lat": 48.6971965,
  "lon": 6.1702459
},
{
  "type": "node",
  "id": 8612358606,
  "lat": 48.6972077,
  "lon": 6.1702832
},
{
  "type": "node",
  "id": 90661707,
  "lat": 48.7045758,
  "lon": 6.1698978
},
{
  "type": "node",
  "id": 90663729,
  "lat": 48.7040336,
  "lon": 6.1718426
},
{
  "type": "node",
  "id": 598560433,
  "lat": 48.7037046,
  "lon": 6.1729712
},
{
  "type": "node",
  "id": 598560434,
  "lat": 48.7041093,
  "lon": 6.1714907
},
{
  "type": "node",
  "id": 598560435,
  "lat": 48.7043060,
  "lon": 6.1706474
},
{
  "type": "node",
  "id": 619399023,
  "lat": 48.7035834,
  "lon": 6.1733021
},
{
  "type": "node",
  "id": 1756990010,
  "lat": 48.7046839,
  "lon": 6.1696569
},
{
  "type": "node",
  "id": 1756990012,
  "lat": 48.7047853,
  "lon": 6.1694733
},
{
  "type": "node",
  "id": 2694334302,
  "lat": 48.7046510,
  "lon": 6.1697283
},
{
  "type": "node",
  "id": 3184285463,
  "lat": 48.7038500,
  "lon": 6.1725143
},
{
  "type": "node",
  "id": 3192183483,
  "lat": 48.7040091,
  "lon": 6.1719766
},
{
  "type": "node",
  "id": 4497115135,
  "lat": 48.7043596,
  "lon": 6.1704894
},
{
  "type": "node",
  "id": 4497115136,
  "lat": 48.7041856,
  "lon": 6.1710993
},
{
  "type": "node",
  "id": 5768789302,
  "lat": 48.7046150,
  "lon": 6.1698103
},
{
  "type": "node",
  "id": 5819848138,
  "lat": 48.7047962,
  "lon": 6.1694539
},
{
  "type": "node",
  "id": 8082557767,
  "lat": 48.7044610,
  "lon": 6.1701965
},
{
  "type": "node",
  "id": 9472090890,
  "lat": 48.7045858,
  "lon": 6.1698755
},
{
  "type": "node",
  "id": 10532172,
  "lat": 48.6981639,
  "lon": 6.1737000
},
{
  "type": "node",
  "id": 10533536,
  "lat": 48.6977318,
  "lon": 6.1751432
},
{
  "type": "node",
  "id": 10535348,
  "lat": 48.6970405,
  "lon": 6.1756217
},
{
  "type": "node",
  "id": 90661128,
  "lat": 48.7028478,
  "lon": 6.1751252
},
{
  "type": "node",
  "id": 90661166,
  "lat": 48.7009570,
  "lon": 6.1744700
},
{
  "type": "node",
  "id": 90661565,
  "lat": 48.7029500,
  "lon": 6.1752993
},
{
  "type": "node",
  "id": 90661862,
  "lat": 48.7027050,
  "lon": 6.1753702
},
{
  "type": "node",
  "id": 90662174,
  "lat": 48.7021989,
  "lon": 6.1739761
},
{
  "type": "node",
  "id": 90662309,
  "lat": 48.7007273,
  "lon": 6.1738848
},
{
  "type": "node",
  "id": 90662767,
  "lat": 48.7023742,
  "lon": 6.1744372
},
{
  "type": "node",
  "id": 90663670,
  "lat": 48.7026680,
  "lon": 6.1750685
},
{
  "type": "node",
  "id": 253154488,
  "lat": 48.7007560,
  "lon": 6.1796394
},
{
  "type": "node",
  "id": 258741848,
  "lat": 48.6988773,
  "lon": 6.1789798
},
{
  "type": "node",
  "id": 258741851,
  "lat": 48.6989229,
  "lon": 6.1792268
},
{
  "type": "node",
  "id": 258741855,
  "lat": 48.6990013,
  "lon": 6.1796968
},
{
  "type": "node",
  "id": 571819835,
  "lat": 48.6984157,
  "lon": 6.1752366
},
{
  "type": "node",
  "id": 598560431,
  "lat": 48.7021033,
  "lon": 6.1736872
},
{
  "type": "node",
  "id": 1645296833,
  "lat": 48.7030690,
  "lon": 6.1752541
},
{
  "type": "node",
  "id": 1650287431,
  "lat": 48.7026077,
  "lon": 6.1749642
},
{
  "type": "node",
  "id": 2411969677,
  "lat": 48.7023362,
  "lon": 6.1743372
},
{
  "type": "node",
  "id": 2411969684,
  "lat": 48.7024487,
  "lon": 6.1746052
},
{
  "type": "node",
  "id": 2535081361,
  "lat": 48.6969941,
  "lon": 6.1756577
},
{
  "type": "node",
  "id": 2535081371,
  "lat": 48.6970815,
  "lon": 6.1755898
},
{
  "type": "node",
  "id": 2623155775,
  "lat": 48.7004488,
  "lon": 6.1798106
},
{
  "type": "node",
  "id": 3096244995,
  "lat": 48.7000979,
  "lon": 6.1800003
},
{
  "type": "node",
  "id": 3096245038,
  "lat": 48.7001668,
  "lon": 6.1799617
},
{
  "type": "node",
  "id": 4023988499,
  "lat": 48.6969807,
  "lon": 6.1756682
},
{
  "type": "node",
  "id": 4560851374,
  "lat": 48.7028582,
  "lon": 6.1753259
},
{
  "type": "node",
  "id": 4560851376,
  "lat": 48.7027969,
  "lon": 6.1752439
},
{
  "type": "node",
  "id": 4560880749,
  "lat": 48.6984027,
  "lon": 6.1752280
},
{
  "type": "node",
  "id": 5320011082,
  "lat": 48.7020943,
  "lon": 6.1736492
},
{
  "type": "node",
  "id": 5414010665,
  "lat": 48.7029797,
  "lon": 6.1748043
},
{
  "type": "node",
  "id": 5978240162,
  "lat": 48.6981714,
  "lon": 6.1737530
},
{
  "type": "node",
  "id": 5978240180,
  "lat": 48.6981872,
  "lon": 6.1738121
},
{
  "type": "node",
  "id": 6056627878,
  "lat": 48.6976499,
  "lon": 6.1751963
},
{
  "type": "node",
  "id": 6056627879,
  "lat": 48.6976949,
  "lon": 6.1751679
},
{
  "type": "node",
  "id": 6056627881,
  "lat": 48.6983647,
  "lon": 6.1752109
},
{
  "type": "node",
  "id": 6560114773,
  "lat": 48.7008043,
  "lon": 6.1740656
},
{
  "type": "node",
  "id": 6560114774,
  "lat": 48.7009123,
  "lon": 6.1743405
},
{
  "type": "node",
  "id": 6680536968,
  "lat": 48.7006751,
  "lon": 6.1796823
},
{
  "type": "node",
  "id": 6680536969,
  "lat": 48.7006882,
  "lon": 6.1796754
},
{
  "type": "node",
  "id": 7350118319,
  "lat": 48.7021212,
  "lon": 6.1737460
},
{
  "type": "node",
  "id": 8396661807,
  "lat": 48.7029089,
  "lon": 6.1749766
},
{
  "type": "node",
  "id": 90662961,
  "lat": 48.7009883,
  "lon": 6.1861890
},
{
  "type": "node",
  "id": 247122871,
  "lat": 48.6992677,
  "lon": 6.1804804
},
{
  "type": "node",
  "id": 247122873,
  "lat": 48.7000263,
  "lon": 6.1800452
},
{
  "type": "node",
  "id": 260090349,
  "lat": 48.6991298,
  "lon": 6.1803336
},
{
  "type": "node",
  "id": 260090350,
  "lat": 48.6991705,
  "lon": 6.1805593
},
{
  "type": "node",
  "id": 260090351,
  "lat": 48.6992565,
  "lon": 6.1809460
},
{
  "type": "node",
  "id": 260090352,
  "lat": 48.7001066,
  "lon": 6.1839503
},
{
  "type": "node",
  "id": 260090353,
  "lat": 48.7007039,
  "lon": 6.1859292
},
{
  "type": "node",
  "id": 260090354,
  "lat": 48.7006882,
  "lon": 6.1860562
},
{
  "type": "node",
  "id": 260090356,
  "lat": 48.7004197,
  "lon": 6.1865028
},
{
  "type": "node",
  "id": 260090361,
  "lat": 48.7010248,
  "lon": 6.1858920
},
{
  "type": "node",
  "id": 260090367,
  "lat": 48.6996273,
  "lon": 6.1822172
},
{
  "type": "node",
  "id": 577543802,
  "lat": 48.6992023,
  "lon": 6.1807330
},
{
  "type": "node",
  "id": 579524609,
  "lat": 48.6997829,
  "lon": 6.1828210
},
{
  "type": "node",
  "id": 707509438,
  "lat": 48.7006853,
  "lon": 6.1865443
},
{
  "type": "node",
  "id": 707509439,
  "lat": 48.7007026,
  "lon": 6.1859975
},
{
  "type": "node",
  "id": 1650922135,
  "lat": 48.6992258,
  "lon": 6.1808375
},
{
  "type": "node",
  "id": 1650922136,
  "lat": 48.6993705,
  "lon": 6.1813228
},
{
  "type": "node",
  "id": 1650922141,
  "lat": 48.7004033,
  "lon": 6.1849164
},
{
  "type": "node",
  "id": 1650922150,
  "lat": 48.7008184,
  "lon": 6.1864631
},
{
  "type": "node",
  "id": 1650922154,
  "lat": 48.7008936,
  "lon": 6.1863852
},
{
  "type": "node",
  "id": 1650922156,
  "lat": 48.7010134,
  "lon": 6.1860558
},
{
  "type": "node",
  "id": 2505301799,
  "lat": 48.7001962,
  "lon": 6.1842586
},
{
  "type": "node",
  "id": 2772127702,
  "lat": 48.6994309,
  "lon": 6.1803774
},
{
  "type": "node",
  "id": 2796855778,
  "lat": 48.7005648,
  "lon": 6.1854116
},
{
  "type": "node",
  "id": 2796855781,
  "lat": 48.7006055,
  "lon": 6.1862658
},
{
  "type": "node",
  "id": 2796855785,
  "lat": 48.7006447,
  "lon": 6.1861951
},
{
  "type": "node",
  "id": 2796855786,
  "lat": 48.7006597,
  "lon": 6.1857296
},
{
  "type": "node",
  "id": 2796855789,
  "lat": 48.7006737,
  "lon": 6.1861225
},
{
  "type": "node",
  "id": 2796855792,
  "lat": 48.7006870,
  "lon": 6.1858258
},
{
  "type": "node",
  "id": 2796855793,
  "lat": 48.7006972,
  "lon": 6.1858707
},
{
  "type": "node",
  "id": 2796855806,
  "lat": 48.7008430,
  "lon": 6.1864462
},
{
  "type": "node",
  "id": 2796855807,
  "lat": 48.7008524,
  "lon": 6.1864384
},
{
  "type": "node",
  "id": 2796855815,
  "lat": 48.7009657,
  "lon": 6.1862611
},
{
  "type": "node",
  "id": 2796855816,
  "lat": 48.7010007,
  "lon": 6.1861361
},
{
  "type": "node",
  "id": 3096244602,
  "lat": 48.6996498,
  "lon": 6.1823653
},
{
  "type": "node",
  "id": 3096244620,
  "lat": 48.6997169,
  "lon": 6.1802206
},
{
  "type": "node",
  "id": 3096244703,
  "lat": 48.6999371,
  "lon": 6.1801009
},
{
  "type": "node",
  "id": 4263391791,
  "lat": 48.7007241,
  "lon": 6.1865206
},
{
  "type": "node",
  "id": 4263391795,
  "lat": 48.7009400,
  "lon": 6.1863072
},
{
  "type": "node",
  "id": 4550962485,
  "lat": 48.7007672,
  "lon": 6.1864943
},
{
  "type": "node",
  "id": 4556990674,
  "lat": 48.7007800,
  "lon": 6.1864865
},
{
  "type": "node",
  "id": 4958420766,
  "lat": 48.6993602,
  "lon": 6.1804184
},
{
  "type": "node",
  "id": 4958420767,
  "lat": 48.6991437,
  "lon": 6.1804107
},
{
  "type": "node",
  "id": 5768789303,
  "lat": 48.6990743,
  "lon": 6.1800630
},
{
  "type": "node",
  "id": 7956087476,
  "lat": 48.7007326,
  "lon": 6.1865154
},
{
  "type": "node",
  "id": 90661189,
  "lat": 48.7032591,
  "lon": 6.1752378
},
{
  "type": "node",
  "id": 90662104,
  "lat": 48.7035720,
  "lon": 6.1752423
},
{
  "type": "node",
  "id": 90662861,
  "lat": 48.7034721,
  "lon": 6.1736059
},
{
  "type": "node",
  "id": 157102373,
  "lat": 48.7041422,
  "lon": 6.1748213
},
{
  "type": "node",
  "id": 654086144,
  "lat": 48.7034254,
  "lon": 6.1752626
},
{
  "type": "node",
  "id": 654086148,
  "lat": 48.7034885,
  "lon": 6.1752637
},
{
  "type": "node",
  "id": 666887497,
  "lat": 48.7039514,
  "lon": 6.1749818
},
{
  "type": "node",
  "id": 1650869951,
  "lat": 48.7031206,
  "lon": 6.1752467
},
{
  "type": "node",
  "id": 1722812376,
  "lat": 48.7040984,
  "lon": 6.1748572
},
{
  "type": "node",
  "id": 3953373460,
  "lat": 48.7043324,
  "lon": 6.1746646
},
{
  "type": "node",
  "id": 129999204,
  "lat": 48.6741370,
  "lon": 6.1947672
},
{
  "type": "node",
  "id": 129999207,
  "lat": 48.6751431,
  "lon": 6.1960391
},
{
  "type": "node",
  "id": 151205018,
  "lat": 48.6738865,
  "lon": 6.1944617
},
{
  "type": "node",
  "id": 245489177,
  "lat": 48.6767583,
  "lon": 6.1995322
},
{
  "type": "node",
  "id": 289139666,
  "lat": 48.6749730,
  "lon": 6.1960366
},
{
  "type": "node",
  "id": 2069624955,
  "lat": 48.6740414,
  "lon": 6.1946159
},
{
  "type": "node",
  "id": 2069624964,
  "lat": 48.6757676,
  "lon": 6.1959810
},
{
  "type": "node",
  "id": 2146465242,
  "lat": 48.6755344,
  "lon": 6.1960038
},
{
  "type": "node",
  "id": 2441567391,
  "lat": 48.6739347,
  "lon": 6.1944950
},
{
  "type": "node",
  "id": 2441567394,
  "lat": 48.6739954,
  "lon": 6.1945557
},
{
  "type": "node",
  "id": 2441567455,
  "lat": 48.6750066,
  "lon": 6.1960451
},
{
  "type": "node",
  "id": 3862594023,
  "lat": 48.6758806,
  "lon": 6.1959423
},
{
  "type": "node",
  "id": 3862594024,
  "lat": 48.6759268,
  "lon": 6.1959553
},
{
  "type": "node",
  "id": 3862594026,
  "lat": 48.6760731,
  "lon": 6.1960568
},
{
  "type": "node",
  "id": 3862594028,
  "lat": 48.6761474,
  "lon": 6.1961781
},
{
  "type": "node",
  "id": 3862594029,
  "lat": 48.6762356,
  "lon": 6.1965331
},
{
  "type": "node",
  "id": 3862594030,
  "lat": 48.6762766,
  "lon": 6.1965064
},
{
  "type": "node",
  "id": 3862594031,
  "lat": 48.6762995,
  "lon": 6.1966524
},
{
  "type": "node",
  "id": 4017204491,
  "lat": 48.6768434,
  "lon": 6.1994411
},
{
  "type": "node",
  "id": 6381145142,
  "lat": 48.6760317,
  "lon": 6.1960182
},
{
  "type": "node",
  "id": 6381145143,
  "lat": 48.6759733,
  "lon": 6.1959773
},
{
  "type": "node",
  "id": 6381145144,
  "lat": 48.6758360,
  "lon": 6.1959437
},
{
  "type": "node",
  "id": 6381145148,
  "lat": 48.6750510,
  "lon": 6.1960463
},
{
  "type": "node",
  "id": 6381145151,
  "lat": 48.6754526,
  "lon": 6.1960115
},
{
  "type": "node",
  "id": 8188814880,
  "lat": 48.6761926,
  "lon": 6.1962743
},
{
  "type": "node",
  "id": 240352597,
  "lat": 48.6777992,
  "lon": 6.1874834
},
{
  "type": "node",
  "id": 240352599,
  "lat": 48.6781408,
  "lon": 6.1878966
},
{
  "type": "node",
  "id": 240352608,
  "lat": 48.6795353,
  "lon": 6.1897052
},
{
  "type": "node",
  "id": 240352610,
  "lat": 48.6801609,
  "lon": 6.1910380
},
{
  "type": "node",
  "id": 240352614,
  "lat": 48.6802598,
  "lon": 6.1913322
},
{
  "type": "node",
  "id": 240352616,
  "lat": 48.6804479,
  "lon": 6.1923636
},
{
  "type": "node",
  "id": 340436880,
  "lat": 48.6795700,
  "lon": 6.1897728
},
{
  "type": "node",
  "id": 533586263,
  "lat": 48.6801068,
  "lon": 6.1909068
},
{
  "type": "node",
  "id": 1510359379,
  "lat": 48.6776817,
  "lon": 6.1872587
},
{
  "type": "node",
  "id": 1510359383,
  "lat": 48.6777500,
  "lon": 6.1873995
},
{
  "type": "node",
  "id": 1526006330,
  "lat": 48.6784911,
  "lon": 6.1883150
},
{
  "type": "node",
  "id": 1953335579,
  "lat": 48.6803192,
  "lon": 6.1915253
},
{
  "type": "node",
  "id": 1953335583,
  "lat": 48.6803499,
  "lon": 6.1916795
},
{
  "type": "node",
  "id": 1955282359,
  "lat": 48.6805638,
  "lon": 6.1925268
},
{
  "type": "node",
  "id": 1955733883,
  "lat": 48.6806486,
  "lon": 6.1926464
},
{
  "type": "node",
  "id": 2080524556,
  "lat": 48.6788410,
  "lon": 6.1887592
},
{
  "type": "node",
  "id": 2159641654,
  "lat": 48.6783777,
  "lon": 6.1881842
},
{
  "type": "node",
  "id": 2159641740,
  "lat": 48.6793853,
  "lon": 6.1894274
},
{
  "type": "node",
  "id": 2216216421,
  "lat": 48.6796213,
  "lon": 6.1898803
},
{
  "type": "node",
  "id": 4422606088,
  "lat": 48.6795435,
  "lon": 6.1897178
},
{
  "type": "node",
  "id": 4422606291,
  "lat": 48.6799551,
  "lon": 6.1905886
},
{
  "type": "node",
  "id": 4422606292,
  "lat": 48.6800594,
  "lon": 6.1908074
},
{
  "type": "node",
  "id": 4422606303,
  "lat": 48.6803875,
  "lon": 6.1919091
},
{
  "type": "node",
  "id": 4422606304,
  "lat": 48.6804013,
  "lon": 6.1920082
},
{
  "type": "node",
  "id": 4422606308,
  "lat": 48.6804314,
  "lon": 6.1922884
},
{
  "type": "node",
  "id": 4422606309,
  "lat": 48.6804338,
  "lon": 6.1923102
},
{
  "type": "node",
  "id": 4639989977,
  "lat": 48.6779458,
  "lon": 6.1876608
},
{
  "type": "node",
  "id": 4639989978,
  "lat": 48.6779961,
  "lon": 6.1877216
},
{
  "type": "node",
  "id": 4639991289,
  "lat": 48.6782545,
  "lon": 6.1880347
},
{
  "type": "node",
  "id": 5703132463,
  "lat": 48.6789123,
  "lon": 6.1888432
},
{
  "type": "node",
  "id": 6131425055,
  "lat": 48.6774522,
  "lon": 6.1866828
},
{
  "type": "node",
  "id": 6443878192,
  "lat": 48.6785299,
  "lon": 6.1883643
},
{
  "type": "node",
  "id": 6443878193,
  "lat": 48.6779042,
  "lon": 6.1876105
},
{
  "type": "node",
  "id": 90663962,
  "lat": 48.6795909,
  "lon": 6.1988031
},
{
  "type": "node",
  "id": 1753743309,
  "lat": 48.6769381,
  "lon": 6.1993399
},
{
  "type": "node",
  "id": 1753743310,
  "lat": 48.6771090,
  "lon": 6.1991480
},
{
  "type": "node",
  "id": 1753743313,
  "lat": 48.6771931,
  "lon": 6.1990394
},
{
  "type": "node",
  "id": 1753743345,
  "lat": 48.6788045,
  "lon": 6.1973238
},
{
  "type": "node",
  "id": 1753743346,
  "lat": 48.6788620,
  "lon": 6.1974219
},
{
  "type": "node",
  "id": 2183718844,
  "lat": 48.6793743,
  "lon": 6.1983443
},
{
  "type": "node",
  "id": 2306890910,
  "lat": 48.6770490,
  "lon": 6.1992266
},
{
  "type": "node",
  "id": 2469170456,
  "lat": 48.6811774,
  "lon": 6.1933737
},
{
  "type": "node",
  "id": 2469170463,
  "lat": 48.6812565,
  "lon": 6.1934864
},
{
  "type": "node",
  "id": 4017204494,
  "lat": 48.6770850,
  "lon": 6.1991794
},
{
  "type": "node",
  "id": 4689443825,
  "lat": 48.6795501,
  "lon": 6.1986082
},
{
  "type": "node",
  "id": 4689443826,
  "lat": 48.6794554,
  "lon": 6.1984933
},
{
  "type": "node",
  "id": 5703132462,
  "lat": 48.6811481,
  "lon": 6.1933334
},
{
  "type": "node",
  "id": 5742890277,
  "lat": 48.6791395,
  "lon": 6.1979252
},
{
  "type": "node",
  "id": 5742890278,
  "lat": 48.6795070,
  "lon": 6.1985179
},
{
  "type": "node",
  "id": 276659089,
  "lat": 48.6860842,
  "lon": 6.1923441
},
{
  "type": "node",
  "id": 1225761157,
  "lat": 48.6861842,
  "lon": 6.1921115
},
{
  "type": "node",
  "id": 1225761790,
  "lat": 48.6860298,
  "lon": 6.1925612
},
{
  "type": "node",
  "id": 1619488243,
  "lat": 48.6859673,
  "lon": 6.1928159
},
{
  "type": "node",
  "id": 1753894368,
  "lat": 48.6841987,
  "lon": 6.1887271
},
{
  "type": "node",
  "id": 1844378132,
  "lat": 48.6859892,
  "lon": 6.1930871
},
{
  "type": "node",
  "id": 2732079810,
  "lat": 48.6859689,
  "lon": 6.1929493
},
{
  "type": "node",
  "id": 2732079811,
  "lat": 48.6859741,
  "lon": 6.1930160
},
{
  "type": "node",
  "id": 2732079821,
  "lat": 48.6861264,
  "lon": 6.1922456
},
{
  "type": "node",
  "id": 4244962028,
  "lat": 48.6838624,
  "lon": 6.1894206
},
{
  "type": "node",
  "id": 4244962029,
  "lat": 48.6839070,
  "lon": 6.1892387
},
{
  "type": "node",
  "id": 4244962031,
  "lat": 48.6841717,
  "lon": 6.1887769
},
{
  "type": "node",
  "id": 6518987412,
  "lat": 48.6841806,
  "lon": 6.1887605
},
{
  "type": "node",
  "id": 7507111823,
  "lat": 48.6840640,
  "lon": 6.1889648
},
{
  "type": "node",
  "id": 7507111824,
  "lat": 48.6839046,
  "lon": 6.1893374
},
{
  "type": "node",
  "id": 166345035,
  "lat": 48.6869632,
  "lon": 6.1950421
},
{
  "type": "node",
  "id": 247122865,
  "lat": 48.6856229,
  "lon": 6.1957063
},
{
  "type": "node",
  "id": 276659083,
  "lat": 48.6856169,
  "lon": 6.1944672
},
{
  "type": "node",
  "id": 276659085,
  "lat": 48.6856449,
  "lon": 6.1942809
},
{
  "type": "node",
  "id": 276659095,
  "lat": 48.6859490,
  "lon": 6.1972492
},
{
  "type": "node",
  "id": 276659096,
  "lat": 48.6860544,
  "lon": 6.1977535
},
{
  "type": "node",
  "id": 280574749,
  "lat": 48.6868928,
  "lon": 6.1948410
},
{
  "type": "node",
  "id": 280574753,
  "lat": 48.6860192,
  "lon": 6.1931993
},
{
  "type": "node",
  "id": 332549387,
  "lat": 48.6863179,
  "lon": 6.1990199
},
{
  "type": "node",
  "id": 1012083716,
  "lat": 48.6856515,
  "lon": 6.1958354
},
{
  "type": "node",
  "id": 1012083740,
  "lat": 48.6863008,
  "lon": 6.1989440
},
{
  "type": "node",
  "id": 1502225469,
  "lat": 48.6860680,
  "lon": 6.1978167
},
{
  "type": "node",
  "id": 1502225471,
  "lat": 48.6862589,
  "lon": 6.1987439
},
{
  "type": "node",
  "id": 1622567383,
  "lat": 48.6858159,
  "lon": 6.1935764
},
{
  "type": "node",
  "id": 1976960022,
  "lat": 48.6856009,
  "lon": 6.1955393
},
{
  "type": "node",
  "id": 1976960061,
  "lat": 48.6862400,
  "lon": 6.1936379
},
{
  "type": "node",
  "id": 1976960063,
  "lat": 48.6863008,
  "lon": 6.1937516
},
{
  "type": "node",
  "id": 2020232598,
  "lat": 48.6857486,
  "lon": 6.1938603
},
{
  "type": "node",
  "id": 2171047763,
  "lat": 48.6858752,
  "lon": 6.1968917
},
{
  "type": "node",
  "id": 2876544838,
  "lat": 48.6856026,
  "lon": 6.1956145
},
{
  "type": "node",
  "id": 2876544839,
  "lat": 48.6856054,
  "lon": 6.1951301
},
{
  "type": "node",
  "id": 2876544840,
  "lat": 48.6856057,
  "lon": 6.1951107
},
{
  "type": "node",
  "id": 2876544841,
  "lat": 48.6856285,
  "lon": 6.1943734
},
{
  "type": "node",
  "id": 2981372647,
  "lat": 48.6857737,
  "lon": 6.1964038
},
{
  "type": "node",
  "id": 3091275656,
  "lat": 48.6860893,
  "lon": 6.1979194
},
{
  "type": "node",
  "id": 3091275661,
  "lat": 48.6863112,
  "lon": 6.1989882
},
{
  "type": "node",
  "id": 3295217690,
  "lat": 48.6856419,
  "lon": 6.1957922
},
{
  "type": "node",
  "id": 4551516052,
  "lat": 48.6857891,
  "lon": 6.1964775
},
{
  "type": "node",
  "id": 4551516058,
  "lat": 48.6858062,
  "lon": 6.1965618
},
{
  "type": "node",
  "id": 4689443838,
  "lat": 48.6869375,
  "lon": 6.1949415
},
{
  "type": "node",
  "id": 5908620271,
  "lat": 48.6857513,
  "lon": 6.1962986
},
{
  "type": "node",
  "id": 6113890552,
  "lat": 48.6856789,
  "lon": 6.1959596
},
{
  "type": "node",
  "id": 90662287,
  "lat": 48.6957487,
  "lon": 6.1897913
},
{
  "type": "node",
  "id": 147814546,
  "lat": 48.6960807,
  "lon": 6.1916414
},
{
  "type": "node",
  "id": 147814557,
  "lat": 48.6960204,
  "lon": 6.1914432
},
{
  "type": "node",
  "id": 147814573,
  "lat": 48.6957156,
  "lon": 6.1904002
},
{
  "type": "node",
  "id": 147814599,
  "lat": 48.6951280,
  "lon": 6.1899980
},
{
  "type": "node",
  "id": 147814614,
  "lat": 48.6939330,
  "lon": 6.1895167
},
{
  "type": "node",
  "id": 166298379,
  "lat": 48.6964715,
  "lon": 6.1929554
},
{
  "type": "node",
  "id": 291931431,
  "lat": 48.6954253,
  "lon": 6.1894398
},
{
  "type": "node",
  "id": 291931435,
  "lat": 48.6948250,
  "lon": 6.1875166
},
{
  "type": "node",
  "id": 707509430,
  "lat": 48.6958409,
  "lon": 6.1898356
},
{
  "type": "node",
  "id": 707509432,
  "lat": 48.6963575,
  "lon": 6.1894821
},
{
  "type": "node",
  "id": 710368966,
  "lat": 48.6961237,
  "lon": 6.1917810
},
{
  "type": "node",
  "id": 710369021,
  "lat": 48.6961015,
  "lon": 6.1917092
},
{
  "type": "node",
  "id": 724173476,
  "lat": 48.6955470,
  "lon": 6.1902447
},
{
  "type": "node",
  "id": 724173491,
  "lat": 48.6956306,
  "lon": 6.1901255
},
{
  "type": "node",
  "id": 724173492,
  "lat": 48.6954324,
  "lon": 6.1901779
},
{
  "type": "node",
  "id": 724173496,
  "lat": 48.6955967,
  "lon": 6.1902906
},
{
  "type": "node",
  "id": 724173507,
  "lat": 48.6953498,
  "lon": 6.1901331
},
{
  "type": "node",
  "id": 724173509,
  "lat": 48.6955953,
  "lon": 6.1897555
},
{
  "type": "node",
  "id": 724173512,
  "lat": 48.6953545,
  "lon": 6.1893068
},
{
  "type": "node",
  "id": 724173515,
  "lat": 48.6952592,
  "lon": 6.1900358
},
{
  "type": "node",
  "id": 724173520,
  "lat": 48.6956284,
  "lon": 6.1898107
},
{
  "type": "node",
  "id": 724173535,
  "lat": 48.6955431,
  "lon": 6.1897168
},
{
  "type": "node",
  "id": 724212805,
  "lat": 48.6937988,
  "lon": 6.1895104
},
{
  "type": "node",
  "id": 724227119,
  "lat": 48.6927770,
  "lon": 6.1898775
},
{
  "type": "node",
  "id": 724227128,
  "lat": 48.6929862,
  "lon": 6.1896362
},
{
  "type": "node",
  "id": 724227150,
  "lat": 48.6928377,
  "lon": 6.1897708
},
{
  "type": "node",
  "id": 724227164,
  "lat": 48.6926366,
  "lon": 6.1901391
},
{
  "type": "node",
  "id": 724227168,
  "lat": 48.6931622,
  "lon": 6.1895865
},
{
  "type": "node",
  "id": 724227178,
  "lat": 48.6929519,
  "lon": 6.1896695
},
{
  "type": "node",
  "id": 724227182,
  "lat": 48.6928814,
  "lon": 6.1897317
},
{
  "type": "node",
  "id": 724227193,
  "lat": 48.6926740,
  "lon": 6.1900465
},
{
  "type": "node",
  "id": 724227213,
  "lat": 48.6930574,
  "lon": 6.1896070
},
{
  "type": "node",
  "id": 725040009,
  "lat": 48.6917571,
  "lon": 6.1926158
},
{
  "type": "node",
  "id": 789756832,
  "lat": 48.6948953,
  "lon": 6.1877830
},
{
  "type": "node",
  "id": 789816500,
  "lat": 48.6952049,
  "lon": 6.1888288
},
{
  "type": "node",
  "id": 1895608894,
  "lat": 48.6960050,
  "lon": 6.1913941
},
{
  "type": "node",
  "id": 1917427284,
  "lat": 48.6947677,
  "lon": 6.1898643
},
{
  "type": "node",
  "id": 2073879859,
  "lat": 48.6930202,
  "lon": 6.1896200
},
{
  "type": "node",
  "id": 2171856282,
  "lat": 48.6949572,
  "lon": 6.1899408
},
{
  "type": "node",
  "id": 2531053963,
  "lat": 48.6955008,
  "lon": 6.1902110
},
{
  "type": "node",
  "id": 2732080094,
  "lat": 48.6927243,
  "lon": 6.1899559
},
{
  "type": "node",
  "id": 2732080095,
  "lat": 48.6928049,
  "lon": 6.1898182
},
{
  "type": "node",
  "id": 2745357413,
  "lat": 48.6949113,
  "lon": 6.1878373
},
{
  "type": "node",
  "id": 2745357414,
  "lat": 48.6949359,
  "lon": 6.1879202
},
{
  "type": "node",
  "id": 2796855501,
  "lat": 48.6957696,
  "lon": 6.1897770
},
{
  "type": "node",
  "id": 2796855502,
  "lat": 48.6957847,
  "lon": 6.1897663
},
{
  "type": "node",
  "id": 2796855518,
  "lat": 48.6965206,
  "lon": 6.1892682
},
{
  "type": "node",
  "id": 3068773579,
  "lat": 48.6956119,
  "lon": 6.1903051
},
{
  "type": "node",
  "id": 3068773580,
  "lat": 48.6956605,
  "lon": 6.1902206
},
{
  "type": "node",
  "id": 3068773583,
  "lat": 48.6956853,
  "lon": 6.1902994
},
{
  "type": "node",
  "id": 3068773591,
  "lat": 48.6958696,
  "lon": 6.1909478
},
{
  "type": "node",
  "id": 3068773595,
  "lat": 48.6961104,
  "lon": 6.1917377
},
{
  "type": "node",
  "id": 3068773599,
  "lat": 48.6961510,
  "lon": 6.1918731
},
{
  "type": "node",
  "id": 3068773608,
  "lat": 48.6964202,
  "lon": 6.1927821
},
{
  "type": "node",
  "id": 3992747183,
  "lat": 48.6932570,
  "lon": 6.1895759
},
{
  "type": "node",
  "id": 3992747188,
  "lat": 48.6944592,
  "lon": 6.1897284
},
{
  "type": "node",
  "id": 4119241561,
  "lat": 48.6931303,
  "lon": 6.1895905
},
{
  "type": "node",
  "id": 4565201315,
  "lat": 48.6961636,
  "lon": 6.1895098
},
{
  "type": "node",
  "id": 4565201316,
  "lat": 48.6961888,
  "lon": 6.1895975
},
{
  "type": "node",
  "id": 4565201317,
  "lat": 48.6961476,
  "lon": 6.1896257
},
{
  "type": "node",
  "id": 5324595693,
  "lat": 48.6917798,
  "lon": 6.1925518
},
{
  "type": "node",
  "id": 5817184171,
  "lat": 48.6938649,
  "lon": 6.1895031
},
{
  "type": "node",
  "id": 9123151905,
  "lat": 48.6949475,
  "lon": 6.1899366
},
{
  "type": "node",
  "id": 9123151915,
  "lat": 48.6949039,
  "lon": 6.1899175
},
{
  "type": "node",
  "id": 147831617,
  "lat": 48.6958382,
  "lon": 6.1957828
},
{
  "type": "node",
  "id": 710384912,
  "lat": 48.6962119,
  "lon": 6.1960810
},
{
  "type": "node",
  "id": 710384932,
  "lat": 48.6960791,
  "lon": 6.1962240
},
{
  "type": "node",
  "id": 725027608,
  "lat": 48.6961307,
  "lon": 6.1963179
},
{
  "type": "node",
  "id": 725027612,
  "lat": 48.6961005,
  "lon": 6.1961989
},
{
  "type": "node",
  "id": 2073854703,
  "lat": 48.6961249,
  "lon": 6.1961680
},
{
  "type": "node",
  "id": 3068773611,
  "lat": 48.6965272,
  "lon": 6.1931654
},
{
  "type": "node",
  "id": 3201704170,
  "lat": 48.6960521,
  "lon": 6.1961751
},
{
  "type": "node",
  "id": 4057980430,
  "lat": 48.6961747,
  "lon": 6.1961182
},
{
  "type": "node",
  "id": 4181069357,
  "lat": 48.6959289,
  "lon": 6.1959358
},
{
  "type": "node",
  "id": 90664110,
  "lat": 48.7001254,
  "lon": 6.1867007
},
{
  "type": "node",
  "id": 247122867,
  "lat": 48.6987888,
  "lon": 6.1876973
},
{
  "type": "node",
  "id": 707509433,
  "lat": 48.6988213,
  "lon": 6.1878002
},
{
  "type": "node",
  "id": 707509434,
  "lat": 48.6975978,
  "lon": 6.1886307
},
{
  "type": "node",
  "id": 707509443,
  "lat": 48.6990588,
  "lon": 6.1876516
},
{
  "type": "node",
  "id": 1458005226,
  "lat": 48.7000707,
  "lon": 6.1869584
},
{
  "type": "node",
  "id": 1917421338,
  "lat": 48.6987065,
  "lon": 6.1878719
},
{
  "type": "node",
  "id": 1917421339,
  "lat": 48.6988457,
  "lon": 6.1876566
},
{
  "type": "node",
  "id": 1917421340,
  "lat": 48.6990305,
  "lon": 6.1875281
},
{
  "type": "node",
  "id": 1928700308,
  "lat": 48.6990849,
  "lon": 6.1874872
},
{
  "type": "node",
  "id": 2796855529,
  "lat": 48.6972564,
  "lon": 6.1887490
},
{
  "type": "node",
  "id": 2796855530,
  "lat": 48.6972652,
  "lon": 6.1888578
},
{
  "type": "node",
  "id": 2796855531,
  "lat": 48.6979373,
  "lon": 6.1882804
},
{
  "type": "node",
  "id": 2796855540,
  "lat": 48.6984722,
  "lon": 6.1880295
},
{
  "type": "node",
  "id": 2796855542,
  "lat": 48.6987279,
  "lon": 6.1877390
},
{
  "type": "node",
  "id": 2796855543,
  "lat": 48.6987567,
  "lon": 6.1878405
},
{
  "type": "node",
  "id": 2796855566,
  "lat": 48.6996391,
  "lon": 6.1872599
},
{
  "type": "node",
  "id": 4550962486,
  "lat": 48.6971608,
  "lon": 6.1888148
},
{
  "type": "node",
  "id": 4550962487,
  "lat": 48.6973734,
  "lon": 6.1886685
},
{
  "type": "node",
  "id": 4550962488,
  "lat": 48.6989641,
  "lon": 6.1875742
},
{
  "type": "node",
  "id": 4565201313,
  "lat": 48.6970368,
  "lon": 6.1889026
},
{
  "type": "node",
  "id": 4565201314,
  "lat": 48.6970648,
  "lon": 6.1889942
},
{
  "type": "node",
  "id": 5333796247,
  "lat": 48.6975707,
  "lon": 6.1885327
},
{
  "type": "node",
  "id": 7606827389,
  "lat": 48.7001311,
  "lon": 6.1869177
},
{
  "type": "node",
  "id": 224942356,
  "lat": 48.6977361,
  "lon": 6.1991090
},
{
  "type": "node",
  "id": 224942369,
  "lat": 48.6970972,
  "lon": 6.1949864
},
{
  "type": "node",
  "id": 710369014,
  "lat": 48.6973302,
  "lon": 6.1957285
},
{
  "type": "node",
  "id": 710384887,
  "lat": 48.6972484,
  "lon": 6.1957378
},
{
  "type": "node",
  "id": 710384950,
  "lat": 48.6966882,
  "lon": 6.1936490
},
{
  "type": "node",
  "id": 2451392163,
  "lat": 48.6977109,
  "lon": 6.1989763
},
{
  "type": "node",
  "id": 2470583836,
  "lat": 48.6975721,
  "lon": 6.1969366
},
{
  "type": "node",
  "id": 2992343281,
  "lat": 48.6969297,
  "lon": 6.1944417
},
{
  "type": "node",
  "id": 3068773621,
  "lat": 48.6966305,
  "lon": 6.1934723
},
{
  "type": "node",
  "id": 3068773629,
  "lat": 48.6968147,
  "lon": 6.1940632
},
{
  "type": "node",
  "id": 3068773748,
  "lat": 48.6972838,
  "lon": 6.1955784
},
{
  "type": "node",
  "id": 3077022807,
  "lat": 48.6976614,
  "lon": 6.1981799
},
{
  "type": "node",
  "id": 3078865661,
  "lat": 48.6976087,
  "lon": 6.1973394
},
{
  "type": "node",
  "id": 3078865664,
  "lat": 48.6976276,
  "lon": 6.1976045
},
{
  "type": "node",
  "id": 3078865667,
  "lat": 48.6977187,
  "lon": 6.1990333
},
{
  "type": "node",
  "id": 5298281004,
  "lat": 48.6967127,
  "lon": 6.1937293
},
{
  "type": "node",
  "id": 6767668003,
  "lat": 48.6970344,
  "lon": 6.1947821
},
{
  "type": "node",
  "id": 6767668004,
  "lat": 48.6970963,
  "lon": 6.1949834
},
{
  "type": "node",
  "id": 6767668006,
  "lat": 48.6971025,
  "lon": 6.1950033
},
{
  "type": "node",
  "id": 6767668007,
  "lat": 48.6971129,
  "lon": 6.1950385
},
{
  "type": "node",
  "id": 6767668015,
  "lat": 48.6970698,
  "lon": 6.1948975
},
{
  "type": "node",
  "id": 6778930299,
  "lat": 48.6970455,
  "lon": 6.1948181
}

  ]
}
