{
  "version": 0.6,
  "generator": "Overpass API 0.7.57.1 74a55df1",
  "osm3s": {
    "timestamp_osm_base": "2022-02-13T13:18:30Z",
    "timestamp_areas_base": "2022-02-13T02:36:10Z",
    "copyright": "The data included in this document is from www.openstreetmap.org. The data is made available under ODbL."
  },
  "elements": [

{
  "type": "way",
  "id": 58406514,
  "nodes": [
    724173493,
    724173485,
    724173535,
    724173513,
    2796855498,
    291931431
  ],
  "tags": {
    "highway": "cycleway",
    "oneway": "yes",
    "source": "cadastre-dgi-fr source : Direction Générale des Impôts - Cadastre. Mise à jour : 2010"
  }
},
{
  "type": "way",
  "id": 58406521,
  "nodes": [
    724173511,
    724173493
  ],
  "tags": {
    "highway": "cycleway",
    "oneway": "yes",
    "source": "cadastre-dgi-fr source : Direction Générale des Impôts - Cadastre. Mise à jour : 2010",
    "tunnel": "yes"
  }
},
{
  "type": "way",
  "id": 58406531,
  "nodes": [
    724173507,
    724173515
  ],
  "tags": {
    "highway": "cycleway",
    "source": "cadastre-dgi-fr source : Direction Générale des Impôts - Cadastre. Mise à jour : 2010"
  }
},
{
  "type": "way",
  "id": 85028701,
  "nodes": [
    1970734606,
    5169115864,
    5169115865,
    5169115866,
    5169115868,
    5169115861,
    1970734618,
    5169115860,
    5169115867,
    5169115859,
    986742624
  ],
  "tags": {
    "highway": "cycleway",
    "oneway": "yes",
    "source": "GrandNancy Orthophotographie 2016"
  }
},
{
  "type": "way",
  "id": 86985714,
  "nodes": [
    1012083774,
    1012083740,
    3091275664,
    1012083779,
    3327633861,
    1012083713,
    3327633862,
    3091275674,
    1012083763,
    1012083700,
    1012083731,
    1502225490,
    1012083775,
    3327633864,
    1012083708,
    1502225493,
    3327633868,
    1012083757,
    3327633871,
    1012083786,
    1502225494,
    1012083721,
    3327633875,
    3327633876,
    3327633880,
    1012083771,
    1012083735,
    3057806346,
    1012083776,
    3327633884,
    3327633885,
    1012083709,
    3327633889,
    1012083712,
    1012083762,
    1012083691,
    3057806354,
    3327633890,
    3495002084,
    1012083730
  ],
  "tags": {
    "highway": "cycleway",
    "source": "survey;GrandNancy Orthophotographie 2012",
    "surface": "paved"
  }
},
{
  "type": "way",
  "id": 86985717,
  "nodes": [
    1012083712,
    3495002081,
    3327633887,
    1012083745
  ],
  "tags": {
    "highway": "cycleway",
    "oneway": "yes",
    "source": "GrandNancy Orthophotographie 2012"
  }
},
{
  "type": "way",
  "id": 136932991,
  "nodes": [
    1502225513,
    1502225512
  ],
  "tags": {
    "highway": "cycleway",
    "oneway": "yes",
    "source": "Bing + survey"
  }
},
{
  "type": "way",
  "id": 136932992,
  "nodes": [
    1502225471,
    3327633860,
    1012083707,
    1012083774
  ],
  "tags": {
    "highway": "cycleway",
    "oneway": "yes",
    "source": "Bing + survey"
  }
},
{
  "type": "way",
  "id": 166045897,
  "nodes": [
    666887519,
    5308512040,
    4487548404,
    1747708406
  ],
  "tags": {
    "highway": "cycleway",
    "surface": "asphalt"
  }
},
{
  "type": "way",
  "id": 229927433,
  "nodes": [
    2272257267,
    4166341087,
    2384634350
  ],
  "tags": {
    "highway": "cycleway",
    "source": "Bing;survey",
    "surface": "asphalt"
  }
},
{
  "type": "way",
  "id": 241785214,
  "nodes": [
    312625998,
    2493756860,
    2493756859
  ],
  "tags": {
    "highway": "cycleway",
    "lit": "yes",
    "motor_vehicle": "no",
    "oneway": "yes",
    "smoothness": "good",
    "source": "Bing",
    "surface": "asphalt"
  }
},
{
  "type": "way",
  "id": 250842912,
  "nodes": [
    6100800971,
    6100800990,
    6100800988,
    6100800989,
    2485126706,
    4247948392,
    2485126728,
    2485126739,
    4247948398,
    6100800999,
    4247948399,
    6100801004,
    4247948400
  ],
  "tags": {
    "highway": "cycleway",
    "lit": "yes",
    "source": "GrandNancy Orthophotographie 2016",
    "surface": "paving_stones"
  }
},
{
  "type": "way",
  "id": 250842916,
  "nodes": [
    4247948441,
    4247948440,
    4247948438,
    4247948436,
    4247948434,
    309530262,
    4247948431,
    2571993394,
    4247948429,
    4247948427,
    4247948424,
    130121088
  ],
  "tags": {
    "highway": "cycleway",
    "oneway": "yes"
  }
},
{
  "type": "way",
  "id": 264635720,
  "nodes": [
    1627460452,
    3803265747,
    4515701721,
    2440785822,
    2440785829,
    2440785830,
    369433688
  ],
  "tags": {
    "highway": "cycleway",
    "oneway": "yes",
    "oneway:bicycle": "yes",
    "source": "survey;GrandNancy Orthophotographie 2012",
    "surface": "asphalt"
  }
},
{
  "type": "way",
  "id": 265788276,
  "nodes": [
    2714051879,
    137828579
  ],
  "tags": {
    "highway": "cycleway",
    "oneway": "yes",
    "source": "GrandNancy Orthophotographie 2012"
  }
},
{
  "type": "way",
  "id": 302629888,
  "nodes": [
    724173523,
    724173479,
    724173511
  ],
  "tags": {
    "highway": "cycleway",
    "oneway": "yes",
    "source": "cadastre-dgi-fr source : Direction Générale des Impôts - Cadastre. Mise à jour : 2010"
  }
},
{
  "type": "way",
  "id": 302629890,
  "nodes": [
    3068773621,
    3068773625,
    3068773617,
    3068773611
  ],
  "tags": {
    "highway": "cycleway",
    "oneway": "yes",
    "source": "GrandNancy Orthophotographie 2012"
  }
},
{
  "type": "way",
  "id": 354360672,
  "nodes": [
    3600963154,
    3600963152,
    3600963151
  ],
  "tags": {
    "highway": "cycleway",
    "source": "survey",
    "surface": "paved"
  }
},
{
  "type": "way",
  "id": 384423959,
  "nodes": [
    3877157847,
    3877157845,
    3877157843
  ],
  "tags": {
    "highway": "cycleway",
    "incline": "down",
    "indoor": "yes",
    "level": "-1",
    "oneway": "yes"
  }
},
{
  "type": "way",
  "id": 386626225,
  "nodes": [
    3898242683,
    3877173887
  ],
  "tags": {
    "highway": "cycleway",
    "indoor": "yes",
    "level": "-1"
  }
},
{
  "type": "way",
  "id": 386626226,
  "nodes": [
    3898242711,
    3899731920,
    3877157846
  ],
  "tags": {
    "highway": "cycleway",
    "indoor": "yes",
    "level": "-1",
    "oneway": "yes"
  }
},
{
  "type": "way",
  "id": 403449763,
  "nodes": [
    2551118630,
    4057980422
  ],
  "tags": {
    "highway": "cycleway",
    "lit": "yes",
    "oneway": "yes",
    "smoothness": "excellent",
    "surface": "asphalt"
  }
},
{
  "type": "way",
  "id": 417582010,
  "nodes": [
    725027608,
    2551118644
  ],
  "tags": {
    "highway": "cycleway",
    "oneway": "yes",
    "surface": "asphalt"
  }
},
{
  "type": "way",
  "id": 419829378,
  "nodes": [
    2551118591,
    2551118588
  ],
  "tags": {
    "highway": "cycleway",
    "oneway:bicycle": "yes",
    "source": "GrandNancy Orthophotographie 2012",
    "surface": "asphalt"
  }
},
{
  "type": "way",
  "id": 425490475,
  "nodes": [
    4247948421,
    4247948423
  ],
  "tags": {
    "highway": "cycleway",
    "oneway": "yes"
  }
},
{
  "type": "way",
  "id": 425490478,
  "nodes": [
    4247948442,
    4247948443,
    4247948445,
    6781042709,
    10851193
  ],
  "tags": {
    "highway": "cycleway",
    "oneway": "yes"
  }
},
{
  "type": "way",
  "id": 425490482,
  "nodes": [
    4247948430,
    4247948432,
    4247948435,
    4247948437,
    4247948439,
    4247948441
  ],
  "tags": {
    "highway": "cycleway",
    "oneway": "yes"
  }
},
{
  "type": "way",
  "id": 449909651,
  "nodes": [
    5333794414,
    4468298061,
    5333794412,
    2745357313
  ],
  "tags": {
    "highway": "cycleway",
    "oneway": "yes",
    "source": "survey"
  }
},
{
  "type": "way",
  "id": 451950970,
  "nodes": [
    561145778,
    4487548393,
    4487548392,
    4487548391,
    1876448733
  ],
  "tags": {
    "highway": "cycleway",
    "oneway": "yes",
    "smoothness": "good",
    "source": "survey;BDOrtho IGN",
    "width": "1.24"
  }
},
{
  "type": "way",
  "id": 471442281,
  "nodes": [
    4655887276,
    4617030694
  ],
  "tags": {
    "highway": "cycleway"
  }
},
{
  "type": "way",
  "id": 480602321,
  "nodes": [
    247122877,
    4735808703,
    4735808705,
    4735808706,
    4735808713,
    4735808712,
    4735808711
  ],
  "tags": {
    "highway": "cycleway",
    "oneway": "yes",
    "source": "GrandNancy Orthophotographie 2012;survey",
    "surface": "paving_stones"
  }
},
{
  "type": "way",
  "id": 480602323,
  "nodes": [
    4735808710,
    4735808709,
    4735808708,
    4497444496
  ],
  "tags": {
    "highway": "cycleway",
    "note": "continuité cyclable fictive",
    "oneway": "yes",
    "smoothness": "good",
    "surface": "asphalt"
  }
},
{
  "type": "way",
  "id": 481282980,
  "nodes": [
    3600963151,
    3600963150,
    3373691653
  ],
  "tags": {
    "highway": "cycleway",
    "source": "survey",
    "surface": "paved"
  }
},
{
  "type": "way",
  "id": 631486442,
  "nodes": [
    7277902509,
    7280510232,
    7277902507,
    7280510231,
    7277902506,
    7280510230,
    8946010310,
    7277902504,
    8946010297,
    7277902495,
    7277902496,
    7277902497,
    7280510229,
    10532166
  ],
  "tags": {
    "highway": "cycleway",
    "oneway": "no",
    "smoothness": "excellent",
    "source": "Mapillary",
    "surface": "asphalt",
    "width": "2.5"
  }
},
{
  "type": "way",
  "id": 643642604,
  "nodes": [
    5978240168,
    6056627881
  ],
  "tags": {
    "highway": "cycleway",
    "oneway": "yes",
    "source": "survey"
  }
},
{
  "type": "way",
  "id": 668990157,
  "nodes": [
    6264610796,
    4247948407,
    4247948404
  ],
  "tags": {
    "highway": "cycleway",
    "lit": "yes",
    "smoothness": "excellent",
    "source": "GrandNancy Orthophotographie 2016",
    "surface": "asphalt"
  }
},
{
  "type": "way",
  "id": 668990163,
  "nodes": [
    4247948408,
    4247948402,
    4247948400,
    6264610798
  ],
  "tags": {
    "highway": "cycleway",
    "source": "GrandNancy Orthophotographie 2016"
  }
},
{
  "type": "way",
  "id": 668990170,
  "nodes": [
    4247948406,
    4247948409,
    4247948410
  ],
  "tags": {
    "highway": "cycleway",
    "source": "GrandNancy Orthophotographie 2016"
  }
},
{
  "type": "way",
  "id": 686584028,
  "nodes": [
    1902659253,
    1902659257
  ],
  "tags": {
    "highway": "cycleway",
    "oneway": "yes",
    "smoothness": "good",
    "source": "survey",
    "surface": "asphalt"
  }
},
{
  "type": "way",
  "id": 687443117,
  "nodes": [
    6443960542,
    6753878047,
    6443960536,
    6443960535,
    6443960533,
    6443960534,
    6753878048,
    6443960532,
    6443960531
  ],
  "tags": {
    "highway": "cycleway",
    "oneway": "yes",
    "source": "Mapillary;survey"
  }
},
{
  "type": "way",
  "id": 687443127,
  "nodes": [
    6443960559,
    6755512754,
    6443960558,
    6443960557,
    6755512753,
    6443960526
  ],
  "tags": {
    "highway": "cycleway",
    "oneway": "yes",
    "source": "Mapillary;survey"
  }
},
{
  "type": "way",
  "id": 720972452,
  "nodes": [
    5978240165,
    6764582685,
    6764449684,
    6764449683,
    6764449682
  ],
  "tags": {
    "highway": "cycleway",
    "oneway": "yes",
    "source": "GrandNancy Orthophotographie 2019"
  }
},
{
  "type": "way",
  "id": 733824300,
  "nodes": [
    2795049335,
    6872786688,
    7187440384,
    7187440381,
    6872786686,
    6872786687,
    8978438735
  ],
  "tags": {
    "highway": "cycleway",
    "oneway": "yes",
    "surface": "asphalt"
  }
},
{
  "type": "way",
  "id": 758046942,
  "nodes": [
    5962059295,
    8946010314,
    7079282096,
    7079282097
  ],
  "tags": {
    "highway": "cycleway",
    "lit": "yes",
    "oneway": "yes",
    "source": "Mapillary",
    "surface": "asphalt"
  }
},
{
  "type": "way",
  "id": 762671031,
  "nodes": [
    1012083730,
    3495002087,
    7479706595,
    7479706594,
    1844248408,
    7479706593,
    7479706592,
    1502225512,
    3495002494,
    2957398810
  ],
  "tags": {
    "highway": "cycleway",
    "smoothness": "good",
    "source": "survey;GrandNancy Orthophotographie 2012",
    "surface": "asphalt",
    "traffic_sign": "FR:B22a"
  }
},
{
  "type": "way",
  "id": 775705048,
  "nodes": [
    7236632118,
    7236632127,
    8971525153,
    7236632119,
    7236632120,
    7236632125
  ],
  "tags": {
    "highway": "cycleway",
    "oneway": "yes",
    "smoothness": "excellent",
    "surface": "asphalt"
  }
},
{
  "type": "way",
  "id": 779373897,
  "nodes": [
    7057970906,
    7277654963
  ],
  "tags": {
    "highway": "cycleway",
    "lit": "yes",
    "oneway": "yes",
    "smoothness": "excellent",
    "surface": "asphalt"
  }
},
{
  "type": "way",
  "id": 779386191,
  "nodes": [
    7277902495,
    7280510228,
    7277902494
  ],
  "tags": {
    "highway": "cycleway",
    "oneway": "yes"
  }
},
{
  "type": "way",
  "id": 779386200,
  "nodes": [
    7277902516,
    7280510234,
    7277902517
  ],
  "tags": {
    "highway": "cycleway",
    "oneway": "yes",
    "source": "Mapillary"
  }
},
{
  "type": "way",
  "id": 779386203,
  "nodes": [
    7277902522,
    7280510237,
    7277902523
  ],
  "tags": {
    "highway": "cycleway",
    "oneway": "yes",
    "source": "Mapillary"
  }
},
{
  "type": "way",
  "id": 779386207,
  "nodes": [
    2714052079,
    7280510238,
    8946010306
  ],
  "tags": {
    "highway": "cycleway",
    "lit": "yes",
    "oneway": "yes",
    "source": "Mapillary",
    "surface": "asphalt"
  }
},
{
  "type": "way",
  "id": 781755336,
  "nodes": [
    2652651101,
    7025287375
  ],
  "tags": {
    "highway": "cycleway",
    "oneway": "yes",
    "smoothness": "excellent",
    "surface": "asphalt"
  }
},
{
  "type": "way",
  "id": 799761104,
  "nodes": [
    7479706592,
    4250057427
  ],
  "tags": {
    "highway": "cycleway"
  }
},
{
  "type": "way",
  "id": 816266429,
  "nodes": [
    7623513052,
    1732954716
  ],
  "tags": {
    "description:covid19": "Piste cyclable temporaire",
    "highway": "cycleway",
    "oneway": "yes",
    "smoothness": "good",
    "surface": "asphalt"
  }
},
{
  "type": "way",
  "id": 816266441,
  "nodes": [
    7623513060,
    7623513059
  ],
  "tags": {
    "description:covid19": "Piste cyclable temporaire",
    "highway": "cycleway",
    "oneway": "yes",
    "smoothness": "good",
    "surface": "asphalt"
  }
},
{
  "type": "way",
  "id": 816266442,
  "nodes": [
    2540575293,
    7623513067
  ],
  "tags": {
    "description:covid19": "Piste cyclable temporaire",
    "highway": "cycleway",
    "oneway": "yes",
    "smoothness": "good",
    "surface": "asphalt"
  }
},
{
  "type": "way",
  "id": 816266444,
  "nodes": [
    7623513396,
    7623513068
  ],
  "tags": {
    "description:covid19": "Piste cyclable temporaire",
    "highway": "cycleway",
    "oneway": "yes",
    "smoothness": "good",
    "surface": "asphalt"
  }
},
{
  "type": "way",
  "id": 816266445,
  "nodes": [
    7623513082,
    7623513081
  ],
  "tags": {
    "description:covid19": "Piste cyclable temporaire",
    "highway": "cycleway",
    "oneway": "yes",
    "smoothness": "good",
    "surface": "asphalt"
  }
},
{
  "type": "way",
  "id": 816266448,
  "nodes": [
    7623513074,
    7623513072
  ],
  "tags": {
    "description:covid19": "Piste cyclable temporaire",
    "highway": "cycleway",
    "oneway": "yes",
    "smoothness": "good",
    "surface": "asphalt"
  }
},
{
  "type": "way",
  "id": 816266457,
  "nodes": [
    7025287374,
    7623513399
  ],
  "tags": {
    "highway": "cycleway",
    "oneway": "yes"
  }
},
{
  "type": "way",
  "id": 816266464,
  "nodes": [
    7025287381,
    9018246497,
    9018246498,
    7623513402
  ],
  "tags": {
    "highway": "cycleway",
    "oneway": "yes",
    "smoothness": "excellent",
    "surface": "asphalt"
  }
},
{
  "type": "way",
  "id": 816266473,
  "nodes": [
    2667397537,
    7623513424
  ],
  "tags": {
    "highway": "cycleway",
    "oneway": "yes"
  }
},
{
  "type": "way",
  "id": 816275810,
  "nodes": [
    151206473,
    9177762293,
    9177762292,
    7623563079,
    7623563072,
    7652344889,
    7623563078,
    7623563071,
    7623563073,
    150897975
  ],
  "tags": {
    "highway": "cycleway",
    "smoothness": "good",
    "surface": "asphalt"
  }
},
{
  "type": "way",
  "id": 841039307,
  "nodes": [
    8946010306,
    7277902522,
    7277902524,
    7277902525,
    7280510236,
    7277902519
  ],
  "tags": {
    "highway": "cycleway",
    "oneway": "no",
    "smoothness": "excellent",
    "source": "Mapillary",
    "surface": "asphalt",
    "width": "2.5"
  }
},
{
  "type": "way",
  "id": 842416096,
  "nodes": [
    7277902519,
    7280510235,
    5962059293,
    7277902518,
    7277902516,
    7277902513,
    5962059292,
    7277902512,
    7280510233,
    7277902509
  ],
  "tags": {
    "highway": "cycleway",
    "oneway": "no",
    "smoothness": "excellent",
    "source": "Mapillary",
    "surface": "asphalt",
    "width": "2.5"
  }
},
{
  "type": "way",
  "id": 953812316,
  "nodes": [
    7236632131,
    7236632128,
    7236632118
  ],
  "tags": {
    "highway": "cycleway",
    "oneway": "yes",
    "smoothness": "excellent",
    "surface": "asphalt"
  }
},
{
  "type": "way",
  "id": 966945564,
  "nodes": [
    8946010306,
    7277902529,
    5962059295
  ],
  "tags": {
    "highway": "cycleway",
    "oneway": "no",
    "smoothness": "excellent",
    "source": "Mapillary",
    "surface": "asphalt",
    "width": "2.5"
  }
},
{
  "type": "way",
  "id": 967059572,
  "nodes": [
    8595115692,
    8946942288,
    8946942292
  ],
  "tags": {
    "highway": "cycleway",
    "oneway": "yes",
    "smoothness": "excellent",
    "surface": "asphalt"
  }
},
{
  "type": "way",
  "id": 967059576,
  "nodes": [
    7198221419,
    8946942300,
    6767668009
  ],
  "tags": {
    "highway": "cycleway",
    "oneway": "yes",
    "smoothness": "excellent",
    "surface": "asphalt"
  }
},
{
  "type": "way",
  "id": 967059577,
  "nodes": [
    7028684179,
    8946942302,
    8946942304
  ],
  "tags": {
    "highway": "cycleway",
    "oneway": "yes",
    "smoothness": "excellent",
    "surface": "asphalt"
  }
},
{
  "type": "way",
  "id": 975304943,
  "nodes": [
    9025860053,
    9025491788,
    9025491787,
    9025491786,
    9025491785,
    9025491784,
    9025491783,
    2667397372
  ],
  "tags": {
    "highway": "cycleway",
    "oneway": "yes",
    "smoothness": "good",
    "source": "GrandNancy Orthophotographie 2020",
    "surface": "asphalt"
  }
},
{
  "type": "way",
  "id": 975341457,
  "nodes": [
    9025491793,
    9025491792,
    9025491791,
    7148460449
  ],
  "tags": {
    "highway": "cycleway",
    "oneway": "yes",
    "smoothness": "good",
    "source": "GrandNancy Orthophotographie 2020",
    "surface": "asphalt"
  }
},
{
  "type": "way",
  "id": 975343133,
  "nodes": [
    9025878132,
    9025878130,
    9025878129,
    9025878128,
    9025878127,
    9025878126,
    9025878125
  ],
  "tags": {
    "highway": "cycleway",
    "oneway": "yes",
    "smoothness": "excellent",
    "surface": "asphalt"
  }
},
{
  "type": "area",
  "id": 3600052399,
  "tags": {
    "admin_level": "8",
    "boundary": "administrative",
    "name": "Nancy",
    "name:an": "ናንሲ",
    "name:ar": "نانسي",
    "name:az": "Nansi",
    "name:be": "Нансі",
    "name:bg": "Нанси",
    "name:bo": "ནཱན་སི།",
    "name:de": "Nancy",
    "name:el": "Νανσί",
    "name:eo": "Nancio",
    "name:fa": "نانسی",
    "name:fr": "Nancy",
    "name:he": "נאנסי",
    "name:hi": "नांसी",
    "name:hy": "Նանսի",
    "name:ja": "ナンシー",
    "name:ka": "ნანსი",
    "name:kk": "Нанси",
    "name:ko": "낭시",
    "name:la": "Nanceium",
    "name:lb": "Nanzeg",
    "name:lt": "Nansi",
    "name:lv": "Nansī",
    "name:mk": "Нанси",
    "name:mr": "नान्सी",
    "name:mzn": "نانسی",
    "name:oc": "Nancí",
    "name:pa": "ਨਾਨਸੀ",
    "name:pnb": "نینسی",
    "name:ru": "Нанси",
    "name:sr": "Нанси",
    "name:tg": "Нанси",
    "name:th": "น็องซี",
    "name:uk": "Нансі",
    "name:zh": "南锡",
    "old_name:de": "Nanzig",
    "population": "105058",
    "population:date": "2019",
    "postal_code": "54000;54100",
    "ref:FR:SIREN": "215403957",
    "ref:INSEE": "54395",
    "source:population": "INSEE 2022",
    "source:postal_code": "La Poste - 12/2014",
    "type": "boundary",
    "wikidata": "Q40898",
    "wikipedia": "fr:Nancy"
  }
},
{
  "type": "node",
  "id": 312625998,
  "lat": 48.6685732,
  "lon": 6.1642482
},
{
  "type": "node",
  "id": 2485126706,
  "lat": 48.6664326,
  "lon": 6.1658434
},
{
  "type": "node",
  "id": 2485126728,
  "lat": 48.6667396,
  "lon": 6.1653440
},
{
  "type": "node",
  "id": 2485126739,
  "lat": 48.6668592,
  "lon": 6.1651366
},
{
  "type": "node",
  "id": 2493756859,
  "lat": 48.6681058,
  "lon": 6.1645506
},
{
  "type": "node",
  "id": 2493756860,
  "lat": 48.6684638,
  "lon": 6.1642111
},
{
  "type": "node",
  "id": 4247948392,
  "lat": 48.6665804,
  "lon": 6.1656003
},
{
  "type": "node",
  "id": 4247948398,
  "lat": 48.6668965,
  "lon": 6.1650560
},
{
  "type": "node",
  "id": 4247948399,
  "lat": 48.6669524,
  "lon": 6.1649145
},
{
  "type": "node",
  "id": 4247948400,
  "lat": 48.6670156,
  "lon": 6.1646976
},
{
  "type": "node",
  "id": 4247948402,
  "lat": 48.6670893,
  "lon": 6.1647503
},
{
  "type": "node",
  "id": 4247948404,
  "lat": 48.6670968,
  "lon": 6.1651793
},
{
  "type": "node",
  "id": 4247948406,
  "lat": 48.6671098,
  "lon": 6.1648328
},
{
  "type": "node",
  "id": 4247948407,
  "lat": 48.6671181,
  "lon": 6.1651109
},
{
  "type": "node",
  "id": 4247948408,
  "lat": 48.6671279,
  "lon": 6.1647793
},
{
  "type": "node",
  "id": 4247948409,
  "lat": 48.6671455,
  "lon": 6.1648605
},
{
  "type": "node",
  "id": 4247948410,
  "lat": 48.6671874,
  "lon": 6.1648919
},
{
  "type": "node",
  "id": 6100800971,
  "lat": 48.6662029,
  "lon": 6.1657769
},
{
  "type": "node",
  "id": 6100800988,
  "lat": 48.6663938,
  "lon": 6.1658587
},
{
  "type": "node",
  "id": 6100800989,
  "lat": 48.6664128,
  "lon": 6.1658581
},
{
  "type": "node",
  "id": 6100800990,
  "lat": 48.6662601,
  "lon": 6.1658084
},
{
  "type": "node",
  "id": 6100800999,
  "lat": 48.6669348,
  "lon": 6.1649590
},
{
  "type": "node",
  "id": 6100801004,
  "lat": 48.6669718,
  "lon": 6.1648453
},
{
  "type": "node",
  "id": 6264610796,
  "lat": 48.6671475,
  "lon": 6.1650145
},
{
  "type": "node",
  "id": 6264610798,
  "lat": 48.6669671,
  "lon": 6.1646586
},
{
  "type": "node",
  "id": 7623513059,
  "lat": 48.6964349,
  "lon": 6.1515278
},
{
  "type": "node",
  "id": 7623513060,
  "lat": 48.6965033,
  "lon": 6.1516249
},
{
  "type": "node",
  "id": 10851193,
  "lat": 48.6731285,
  "lon": 6.1645925
},
{
  "type": "node",
  "id": 130121088,
  "lat": 48.6717634,
  "lon": 6.1642214
},
{
  "type": "node",
  "id": 309530262,
  "lat": 48.6720609,
  "lon": 6.1640560
},
{
  "type": "node",
  "id": 2571993394,
  "lat": 48.6719908,
  "lon": 6.1641274
},
{
  "type": "node",
  "id": 4247948421,
  "lat": 48.6717846,
  "lon": 6.1642762
},
{
  "type": "node",
  "id": 4247948423,
  "lat": 48.6718101,
  "lon": 6.1642314
},
{
  "type": "node",
  "id": 4247948424,
  "lat": 48.6718112,
  "lon": 6.1641655
},
{
  "type": "node",
  "id": 4247948427,
  "lat": 48.6718378,
  "lon": 6.1641616
},
{
  "type": "node",
  "id": 4247948429,
  "lat": 48.6718811,
  "lon": 6.1641406
},
{
  "type": "node",
  "id": 4247948430,
  "lat": 48.6720077,
  "lon": 6.1642422
},
{
  "type": "node",
  "id": 4247948431,
  "lat": 48.6720299,
  "lon": 6.1640692
},
{
  "type": "node",
  "id": 4247948432,
  "lat": 48.6720609,
  "lon": 6.1642425
},
{
  "type": "node",
  "id": 4247948434,
  "lat": 48.6721073,
  "lon": 6.1640313
},
{
  "type": "node",
  "id": 4247948435,
  "lat": 48.6721329,
  "lon": 6.1642247
},
{
  "type": "node",
  "id": 4247948436,
  "lat": 48.6721545,
  "lon": 6.1640925
},
{
  "type": "node",
  "id": 4247948437,
  "lat": 48.6721986,
  "lon": 6.1642287
},
{
  "type": "node",
  "id": 4247948438,
  "lat": 48.6722103,
  "lon": 6.1641462
},
{
  "type": "node",
  "id": 4247948439,
  "lat": 48.6722288,
  "lon": 6.1642365
},
{
  "type": "node",
  "id": 4247948440,
  "lat": 48.6722374,
  "lon": 6.1641572
},
{
  "type": "node",
  "id": 4247948441,
  "lat": 48.6722784,
  "lon": 6.1642099
},
{
  "type": "node",
  "id": 4247948442,
  "lat": 48.6728109,
  "lon": 6.1644042
},
{
  "type": "node",
  "id": 4247948443,
  "lat": 48.6728472,
  "lon": 6.1644573
},
{
  "type": "node",
  "id": 4247948445,
  "lat": 48.6729457,
  "lon": 6.1645134
},
{
  "type": "node",
  "id": 6781042709,
  "lat": 48.6730254,
  "lon": 6.1645589
},
{
  "type": "node",
  "id": 137828579,
  "lat": 48.6824741,
  "lon": 6.1659042
},
{
  "type": "node",
  "id": 2714051879,
  "lat": 48.6825188,
  "lon": 6.1658087
},
{
  "type": "node",
  "id": 4617030694,
  "lat": 48.6788868,
  "lon": 6.1714549
},
{
  "type": "node",
  "id": 4655887276,
  "lat": 48.6788354,
  "lon": 6.1714758
},
{
  "type": "node",
  "id": 986742624,
  "lat": 48.6718807,
  "lon": 6.1747739
},
{
  "type": "node",
  "id": 1970734606,
  "lat": 48.6716519,
  "lon": 6.1750063
},
{
  "type": "node",
  "id": 1970734618,
  "lat": 48.6717965,
  "lon": 6.1747537
},
{
  "type": "node",
  "id": 5169115859,
  "lat": 48.6718637,
  "lon": 6.1747610
},
{
  "type": "node",
  "id": 5169115860,
  "lat": 48.6718203,
  "lon": 6.1747496
},
{
  "type": "node",
  "id": 5169115861,
  "lat": 48.6717785,
  "lon": 6.1747583
},
{
  "type": "node",
  "id": 5169115864,
  "lat": 48.6716813,
  "lon": 6.1749943
},
{
  "type": "node",
  "id": 5169115865,
  "lat": 48.6716923,
  "lon": 6.1749796
},
{
  "type": "node",
  "id": 5169115866,
  "lat": 48.6717446,
  "lon": 6.1747948
},
{
  "type": "node",
  "id": 5169115867,
  "lat": 48.6718440,
  "lon": 6.1747529
},
{
  "type": "node",
  "id": 5169115868,
  "lat": 48.6717601,
  "lon": 6.1747714
},
{
  "type": "node",
  "id": 7652344889,
  "lat": 48.6766816,
  "lon": 6.1783341
},
{
  "type": "node",
  "id": 150897975,
  "lat": 48.6748148,
  "lon": 6.1804922
},
{
  "type": "node",
  "id": 7623563071,
  "lat": 48.6749375,
  "lon": 6.1803952
},
{
  "type": "node",
  "id": 7623563073,
  "lat": 48.6749159,
  "lon": 6.1804216
},
{
  "type": "node",
  "id": 7623563078,
  "lat": 48.6750368,
  "lon": 6.1802796
},
{
  "type": "node",
  "id": 151206473,
  "lat": 48.6769760,
  "lon": 6.1779308
},
{
  "type": "node",
  "id": 7623563072,
  "lat": 48.6768802,
  "lon": 6.1780992
},
{
  "type": "node",
  "id": 7623563079,
  "lat": 48.6769002,
  "lon": 6.1780756
},
{
  "type": "node",
  "id": 9177762292,
  "lat": 48.6769308,
  "lon": 6.1780172
},
{
  "type": "node",
  "id": 9177762293,
  "lat": 48.6769513,
  "lon": 6.1779780
},
{
  "type": "node",
  "id": 10532166,
  "lat": 48.6844057,
  "lon": 6.1727857
},
{
  "type": "node",
  "id": 2714052079,
  "lat": 48.6875077,
  "lon": 6.1707836
},
{
  "type": "node",
  "id": 2745357313,
  "lat": 48.6882909,
  "lon": 6.1732887
},
{
  "type": "node",
  "id": 4468298061,
  "lat": 48.6883869,
  "lon": 6.1732004
},
{
  "type": "node",
  "id": 5333794412,
  "lat": 48.6883467,
  "lon": 6.1732302
},
{
  "type": "node",
  "id": 5333794414,
  "lat": 48.6884924,
  "lon": 6.1731144
},
{
  "type": "node",
  "id": 5962059292,
  "lat": 48.6858147,
  "lon": 6.1718960
},
{
  "type": "node",
  "id": 5962059293,
  "lat": 48.6865794,
  "lon": 6.1713717
},
{
  "type": "node",
  "id": 5962059295,
  "lat": 48.6875194,
  "lon": 6.1708382
},
{
  "type": "node",
  "id": 7079282096,
  "lat": 48.6875672,
  "lon": 6.1708422
},
{
  "type": "node",
  "id": 7079282097,
  "lat": 48.6876132,
  "lon": 6.1708126
},
{
  "type": "node",
  "id": 7277902494,
  "lat": 48.6844994,
  "lon": 6.1727270
},
{
  "type": "node",
  "id": 7277902495,
  "lat": 48.6845152,
  "lon": 6.1727834
},
{
  "type": "node",
  "id": 7277902496,
  "lat": 48.6844930,
  "lon": 6.1727980
},
{
  "type": "node",
  "id": 7277902497,
  "lat": 48.6844792,
  "lon": 6.1728066
},
{
  "type": "node",
  "id": 7277902504,
  "lat": 48.6851428,
  "lon": 6.1723564
},
{
  "type": "node",
  "id": 7277902506,
  "lat": 48.6854015,
  "lon": 6.1721913
},
{
  "type": "node",
  "id": 7277902507,
  "lat": 48.6854677,
  "lon": 6.1721463
},
{
  "type": "node",
  "id": 7277902509,
  "lat": 48.6855356,
  "lon": 6.1720973
},
{
  "type": "node",
  "id": 7277902512,
  "lat": 48.6857905,
  "lon": 6.1719123
},
{
  "type": "node",
  "id": 7277902513,
  "lat": 48.6858275,
  "lon": 6.1718869
},
{
  "type": "node",
  "id": 7277902516,
  "lat": 48.6858501,
  "lon": 6.1718693
},
{
  "type": "node",
  "id": 7277902517,
  "lat": 48.6858358,
  "lon": 6.1718172
},
{
  "type": "node",
  "id": 7277902518,
  "lat": 48.6865636,
  "lon": 6.1713809
},
{
  "type": "node",
  "id": 7277902519,
  "lat": 48.6866470,
  "lon": 6.1713264
},
{
  "type": "node",
  "id": 7277902522,
  "lat": 48.6867533,
  "lon": 6.1712615
},
{
  "type": "node",
  "id": 7277902523,
  "lat": 48.6867403,
  "lon": 6.1712084
},
{
  "type": "node",
  "id": 7277902524,
  "lat": 48.6867304,
  "lon": 6.1712746
},
{
  "type": "node",
  "id": 7277902525,
  "lat": 48.6867162,
  "lon": 6.1712827
},
{
  "type": "node",
  "id": 7277902529,
  "lat": 48.6875038,
  "lon": 6.1708467
},
{
  "type": "node",
  "id": 7280510228,
  "lat": 48.6845090,
  "lon": 6.1727613
},
{
  "type": "node",
  "id": 7280510229,
  "lat": 48.6844495,
  "lon": 6.1728252
},
{
  "type": "node",
  "id": 7280510230,
  "lat": 48.6853766,
  "lon": 6.1722078
},
{
  "type": "node",
  "id": 7280510231,
  "lat": 48.6854289,
  "lon": 6.1721739
},
{
  "type": "node",
  "id": 7280510232,
  "lat": 48.6855092,
  "lon": 6.1721161
},
{
  "type": "node",
  "id": 7280510233,
  "lat": 48.6855696,
  "lon": 6.1720702
},
{
  "type": "node",
  "id": 7280510234,
  "lat": 48.6858454,
  "lon": 6.1718505
},
{
  "type": "node",
  "id": 7280510235,
  "lat": 48.6866174,
  "lon": 6.1713439
},
{
  "type": "node",
  "id": 7280510236,
  "lat": 48.6866784,
  "lon": 6.1713063
},
{
  "type": "node",
  "id": 7280510237,
  "lat": 48.6867484,
  "lon": 6.1712416
},
{
  "type": "node",
  "id": 7280510238,
  "lat": 48.6874845,
  "lon": 6.1708313
},
{
  "type": "node",
  "id": 8946010297,
  "lat": 48.6846255,
  "lon": 6.1727104
},
{
  "type": "node",
  "id": 8946010306,
  "lat": 48.6874896,
  "lon": 6.1708545
},
{
  "type": "node",
  "id": 8946010310,
  "lat": 48.6853420,
  "lon": 6.1722216
},
{
  "type": "node",
  "id": 8946010314,
  "lat": 48.6875446,
  "lon": 6.1708272
},
{
  "type": "node",
  "id": 2652651101,
  "lat": 48.6956752,
  "lon": 6.1647613
},
{
  "type": "node",
  "id": 2667397537,
  "lat": 48.6930974,
  "lon": 6.1657161
},
{
  "type": "node",
  "id": 6872786686,
  "lat": 48.6960144,
  "lon": 6.1659618
},
{
  "type": "node",
  "id": 6872786687,
  "lat": 48.6957496,
  "lon": 6.1650343
},
{
  "type": "node",
  "id": 6872786688,
  "lat": 48.6962701,
  "lon": 6.1668612
},
{
  "type": "node",
  "id": 7025287375,
  "lat": 48.6957188,
  "lon": 6.1647513
},
{
  "type": "node",
  "id": 7187440381,
  "lat": 48.6961423,
  "lon": 6.1664115
},
{
  "type": "node",
  "id": 7187440384,
  "lat": 48.6961822,
  "lon": 6.1665519
},
{
  "type": "node",
  "id": 7623513424,
  "lat": 48.6930563,
  "lon": 6.1656423
},
{
  "type": "node",
  "id": 8978438735,
  "lat": 48.6957007,
  "lon": 6.1650356
},
{
  "type": "node",
  "id": 369433688,
  "lat": 48.6906668,
  "lon": 6.1728364
},
{
  "type": "node",
  "id": 1627460452,
  "lat": 48.6904009,
  "lon": 6.1730238
},
{
  "type": "node",
  "id": 2440785822,
  "lat": 48.6906218,
  "lon": 6.1729049
},
{
  "type": "node",
  "id": 2440785829,
  "lat": 48.6906566,
  "lon": 6.1728871
},
{
  "type": "node",
  "id": 2440785830,
  "lat": 48.6906696,
  "lon": 6.1728634
},
{
  "type": "node",
  "id": 2795049335,
  "lat": 48.6962581,
  "lon": 6.1669825
},
{
  "type": "node",
  "id": 3803265747,
  "lat": 48.6904335,
  "lon": 6.1729627
},
{
  "type": "node",
  "id": 4515701721,
  "lat": 48.6904526,
  "lon": 6.1729563
},
{
  "type": "node",
  "id": 3373691653,
  "lat": 48.6872647,
  "lon": 6.1776483
},
{
  "type": "node",
  "id": 3600963150,
  "lat": 48.6872986,
  "lon": 6.1776428
},
{
  "type": "node",
  "id": 3600963151,
  "lat": 48.6874464,
  "lon": 6.1779939
},
{
  "type": "node",
  "id": 3600963152,
  "lat": 48.6883229,
  "lon": 6.1773486
},
{
  "type": "node",
  "id": 3600963154,
  "lat": 48.6884728,
  "lon": 6.1772376
},
{
  "type": "node",
  "id": 3877173887,
  "lat": 48.6897520,
  "lon": 6.1748232
},
{
  "type": "node",
  "id": 3898242683,
  "lat": 48.6898187,
  "lon": 6.1748936
},
{
  "type": "node",
  "id": 6443960526,
  "lat": 48.6864367,
  "lon": 6.1795701
},
{
  "type": "node",
  "id": 6443960531,
  "lat": 48.6858518,
  "lon": 6.1800073
},
{
  "type": "node",
  "id": 6443960557,
  "lat": 48.6864479,
  "lon": 6.1794756
},
{
  "type": "node",
  "id": 6443960558,
  "lat": 48.6867185,
  "lon": 6.1792725
},
{
  "type": "node",
  "id": 6443960559,
  "lat": 48.6868394,
  "lon": 6.1792873
},
{
  "type": "node",
  "id": 6755512753,
  "lat": 48.6864333,
  "lon": 6.1795179
},
{
  "type": "node",
  "id": 6755512754,
  "lat": 48.6867905,
  "lon": 6.1792631
},
{
  "type": "node",
  "id": 6443960532,
  "lat": 48.6858454,
  "lon": 6.1800785
},
{
  "type": "node",
  "id": 6443960533,
  "lat": 48.6854691,
  "lon": 6.1803481
},
{
  "type": "node",
  "id": 6443960534,
  "lat": 48.6855164,
  "lon": 6.1803527
},
{
  "type": "node",
  "id": 6443960535,
  "lat": 48.6854239,
  "lon": 6.1803809
},
{
  "type": "node",
  "id": 6443960536,
  "lat": 48.6853867,
  "lon": 6.1804198
},
{
  "type": "node",
  "id": 6443960542,
  "lat": 48.6853365,
  "lon": 6.1806065
},
{
  "type": "node",
  "id": 6753878047,
  "lat": 48.6853664,
  "lon": 6.1804788
},
{
  "type": "node",
  "id": 6753878048,
  "lat": 48.6857905,
  "lon": 6.1801549
},
{
  "type": "node",
  "id": 9025878125,
  "lat": 48.6888721,
  "lon": 6.1856462
},
{
  "type": "node",
  "id": 9025878126,
  "lat": 48.6888549,
  "lon": 6.1856977
},
{
  "type": "node",
  "id": 9025878127,
  "lat": 48.6886608,
  "lon": 6.1859079
},
{
  "type": "node",
  "id": 9025878128,
  "lat": 48.6886199,
  "lon": 6.1859652
},
{
  "type": "node",
  "id": 9025878129,
  "lat": 48.6885665,
  "lon": 6.1860668
},
{
  "type": "node",
  "id": 9025878130,
  "lat": 48.6884488,
  "lon": 6.1863434
},
{
  "type": "node",
  "id": 9025878132,
  "lat": 48.6884181,
  "lon": 6.1863631
},
{
  "type": "node",
  "id": 3877157843,
  "lat": 48.6900710,
  "lon": 6.1746351
},
{
  "type": "node",
  "id": 3877157845,
  "lat": 48.6901156,
  "lon": 6.1745915
},
{
  "type": "node",
  "id": 3877157846,
  "lat": 48.6901156,
  "lon": 6.1747310
},
{
  "type": "node",
  "id": 3877157847,
  "lat": 48.6901325,
  "lon": 6.1746033
},
{
  "type": "node",
  "id": 3898242711,
  "lat": 48.6900547,
  "lon": 6.1747215
},
{
  "type": "node",
  "id": 3899731920,
  "lat": 48.6900826,
  "lon": 6.1747251
},
{
  "type": "node",
  "id": 1732954716,
  "lat": 48.6966687,
  "lon": 6.1478290
},
{
  "type": "node",
  "id": 7623513052,
  "lat": 48.6967339,
  "lon": 6.1479101
},
{
  "type": "node",
  "id": 2540575293,
  "lat": 48.6972662,
  "lon": 6.1545727
},
{
  "type": "node",
  "id": 7025287374,
  "lat": 48.6970335,
  "lon": 6.1586440
},
{
  "type": "node",
  "id": 7025287381,
  "lat": 48.6969777,
  "lon": 6.1593063
},
{
  "type": "node",
  "id": 7623513067,
  "lat": 48.6972934,
  "lon": 6.1544285
},
{
  "type": "node",
  "id": 7623513068,
  "lat": 48.6973578,
  "lon": 6.1550396
},
{
  "type": "node",
  "id": 7623513072,
  "lat": 48.6973651,
  "lon": 6.1561190
},
{
  "type": "node",
  "id": 7623513074,
  "lat": 48.6972985,
  "lon": 6.1561782
},
{
  "type": "node",
  "id": 7623513081,
  "lat": 48.6972398,
  "lon": 6.1565676
},
{
  "type": "node",
  "id": 7623513082,
  "lat": 48.6972827,
  "lon": 6.1566527
},
{
  "type": "node",
  "id": 7623513396,
  "lat": 48.6974403,
  "lon": 6.1551658
},
{
  "type": "node",
  "id": 7623513399,
  "lat": 48.6969947,
  "lon": 6.1586347
},
{
  "type": "node",
  "id": 7623513402,
  "lat": 48.6970258,
  "lon": 6.1589050
},
{
  "type": "node",
  "id": 9018246497,
  "lat": 48.6969964,
  "lon": 6.1592260
},
{
  "type": "node",
  "id": 9018246498,
  "lat": 48.6970254,
  "lon": 6.1589906
},
{
  "type": "node",
  "id": 247122877,
  "lat": 48.6993501,
  "lon": 6.1777729
},
{
  "type": "node",
  "id": 4497444496,
  "lat": 48.7003761,
  "lon": 6.1781413
},
{
  "type": "node",
  "id": 4735808703,
  "lat": 48.6993482,
  "lon": 6.1778040
},
{
  "type": "node",
  "id": 4735808705,
  "lat": 48.6993442,
  "lon": 6.1778675
},
{
  "type": "node",
  "id": 4735808706,
  "lat": 48.6997133,
  "lon": 6.1780381
},
{
  "type": "node",
  "id": 4735808708,
  "lat": 48.7003369,
  "lon": 6.1781484
},
{
  "type": "node",
  "id": 4735808709,
  "lat": 48.7002979,
  "lon": 6.1781082
},
{
  "type": "node",
  "id": 4735808710,
  "lat": 48.7002661,
  "lon": 6.1781065
},
{
  "type": "node",
  "id": 4735808711,
  "lat": 48.7000208,
  "lon": 6.1781702
},
{
  "type": "node",
  "id": 4735808712,
  "lat": 48.6998418,
  "lon": 6.1780612
},
{
  "type": "node",
  "id": 4735808713,
  "lat": 48.6997991,
  "lon": 6.1780616
},
{
  "type": "node",
  "id": 5978240165,
  "lat": 48.6981685,
  "lon": 6.1752711
},
{
  "type": "node",
  "id": 5978240168,
  "lat": 48.6982201,
  "lon": 6.1752511
},
{
  "type": "node",
  "id": 6056627881,
  "lat": 48.6983647,
  "lon": 6.1752109
},
{
  "type": "node",
  "id": 6764449682,
  "lat": 48.6983209,
  "lon": 6.1756066
},
{
  "type": "node",
  "id": 6764449683,
  "lat": 48.6982684,
  "lon": 6.1755430
},
{
  "type": "node",
  "id": 6764449684,
  "lat": 48.6982226,
  "lon": 6.1754509
},
{
  "type": "node",
  "id": 6764582685,
  "lat": 48.6981872,
  "lon": 6.1753418
},
{
  "type": "node",
  "id": 7057970906,
  "lat": 48.7026436,
  "lon": 6.1754850
},
{
  "type": "node",
  "id": 7236632118,
  "lat": 48.7010322,
  "lon": 6.1769054
},
{
  "type": "node",
  "id": 7236632119,
  "lat": 48.7009789,
  "lon": 6.1771624
},
{
  "type": "node",
  "id": 7236632120,
  "lat": 48.7009468,
  "lon": 6.1772749
},
{
  "type": "node",
  "id": 7236632125,
  "lat": 48.7008791,
  "lon": 6.1775907
},
{
  "type": "node",
  "id": 7236632127,
  "lat": 48.7010336,
  "lon": 6.1769659
},
{
  "type": "node",
  "id": 7236632128,
  "lat": 48.7010107,
  "lon": 6.1768460
},
{
  "type": "node",
  "id": 7236632131,
  "lat": 48.7009746,
  "lon": 6.1767928
},
{
  "type": "node",
  "id": 7277654963,
  "lat": 48.7026745,
  "lon": 6.1754007
},
{
  "type": "node",
  "id": 8971525153,
  "lat": 48.7010220,
  "lon": 6.1770293
},
{
  "type": "node",
  "id": 666887519,
  "lat": 48.7030242,
  "lon": 6.1814950
},
{
  "type": "node",
  "id": 1747708406,
  "lat": 48.7029511,
  "lon": 6.1816577
},
{
  "type": "node",
  "id": 4487548404,
  "lat": 48.7029935,
  "lon": 6.1815634
},
{
  "type": "node",
  "id": 5308512040,
  "lat": 48.7030035,
  "lon": 6.1815411
},
{
  "type": "node",
  "id": 1902659253,
  "lat": 48.6871478,
  "lon": 6.1885938
},
{
  "type": "node",
  "id": 1902659257,
  "lat": 48.6876641,
  "lon": 6.1879000
},
{
  "type": "node",
  "id": 2667397372,
  "lat": 48.6871154,
  "lon": 6.1886877
},
{
  "type": "node",
  "id": 7148460449,
  "lat": 48.6868002,
  "lon": 6.1895039
},
{
  "type": "node",
  "id": 9025491783,
  "lat": 48.6870862,
  "lon": 6.1887413
},
{
  "type": "node",
  "id": 9025491784,
  "lat": 48.6870652,
  "lon": 6.1887614
},
{
  "type": "node",
  "id": 9025491785,
  "lat": 48.6870402,
  "lon": 6.1887923
},
{
  "type": "node",
  "id": 9025491786,
  "lat": 48.6869908,
  "lon": 6.1889016
},
{
  "type": "node",
  "id": 9025491787,
  "lat": 48.6869780,
  "lon": 6.1889428
},
{
  "type": "node",
  "id": 9025491788,
  "lat": 48.6869063,
  "lon": 6.1892335
},
{
  "type": "node",
  "id": 9025491791,
  "lat": 48.6868222,
  "lon": 6.1895705
},
{
  "type": "node",
  "id": 9025491792,
  "lat": 48.6865563,
  "lon": 6.1906675
},
{
  "type": "node",
  "id": 9025491793,
  "lat": 48.6865199,
  "lon": 6.1906954
},
{
  "type": "node",
  "id": 9025860053,
  "lat": 48.6868581,
  "lon": 6.1892669
},
{
  "type": "node",
  "id": 1012083691,
  "lat": 48.6878630,
  "lon": 6.1989445
},
{
  "type": "node",
  "id": 1012083700,
  "lat": 48.6865721,
  "lon": 6.1990878
},
{
  "type": "node",
  "id": 1012083707,
  "lat": 48.6862352,
  "lon": 6.1988451
},
{
  "type": "node",
  "id": 1012083708,
  "lat": 48.6873495,
  "lon": 6.1988908
},
{
  "type": "node",
  "id": 1012083709,
  "lat": 48.6877521,
  "lon": 6.1987059
},
{
  "type": "node",
  "id": 1012083712,
  "lat": 48.6878008,
  "lon": 6.1986803
},
{
  "type": "node",
  "id": 1012083713,
  "lat": 48.6863844,
  "lon": 6.1989251
},
{
  "type": "node",
  "id": 1012083721,
  "lat": 48.6876107,
  "lon": 6.1986110
},
{
  "type": "node",
  "id": 1012083730,
  "lat": 48.6880878,
  "lon": 6.1993670
},
{
  "type": "node",
  "id": 1012083731,
  "lat": 48.6867531,
  "lon": 6.1991314
},
{
  "type": "node",
  "id": 1012083735,
  "lat": 48.6876651,
  "lon": 6.1986906
},
{
  "type": "node",
  "id": 1012083740,
  "lat": 48.6863008,
  "lon": 6.1989440
},
{
  "type": "node",
  "id": 1012083745,
  "lat": 48.6876979,
  "lon": 6.1982548
},
{
  "type": "node",
  "id": 1012083757,
  "lat": 48.6874278,
  "lon": 6.1988289
},
{
  "type": "node",
  "id": 1012083762,
  "lat": 48.6878504,
  "lon": 6.1988995
},
{
  "type": "node",
  "id": 1012083763,
  "lat": 48.6865498,
  "lon": 6.1990736
},
{
  "type": "node",
  "id": 1012083771,
  "lat": 48.6876457,
  "lon": 6.1986556
},
{
  "type": "node",
  "id": 1012083774,
  "lat": 48.6862585,
  "lon": 6.1989611
},
{
  "type": "node",
  "id": 1012083775,
  "lat": 48.6868313,
  "lon": 6.1991379
},
{
  "type": "node",
  "id": 1012083776,
  "lat": 48.6876905,
  "lon": 6.1987191
},
{
  "type": "node",
  "id": 1012083779,
  "lat": 48.6863633,
  "lon": 6.1989188
},
{
  "type": "node",
  "id": 1012083786,
  "lat": 48.6875844,
  "lon": 6.1986171
},
{
  "type": "node",
  "id": 1502225471,
  "lat": 48.6862589,
  "lon": 6.1987439
},
{
  "type": "node",
  "id": 1502225490,
  "lat": 48.6867949,
  "lon": 6.1991391
},
{
  "type": "node",
  "id": 1502225493,
  "lat": 48.6873858,
  "lon": 6.1988721
},
{
  "type": "node",
  "id": 1502225494,
  "lat": 48.6875983,
  "lon": 6.1986114
},
{
  "type": "node",
  "id": 3057806346,
  "lat": 48.6876766,
  "lon": 6.1987093
},
{
  "type": "node",
  "id": 3057806354,
  "lat": 48.6878767,
  "lon": 6.1989874
},
{
  "type": "node",
  "id": 3091275664,
  "lat": 48.6863467,
  "lon": 6.1989254
},
{
  "type": "node",
  "id": 3091275674,
  "lat": 48.6864533,
  "lon": 6.1989898
},
{
  "type": "node",
  "id": 3327633860,
  "lat": 48.6862404,
  "lon": 6.1988039
},
{
  "type": "node",
  "id": 3327633861,
  "lat": 48.6863722,
  "lon": 6.1989198
},
{
  "type": "node",
  "id": 3327633862,
  "lat": 48.6864020,
  "lon": 6.1989434
},
{
  "type": "node",
  "id": 3327633864,
  "lat": 48.6871116,
  "lon": 6.1990061
},
{
  "type": "node",
  "id": 3327633868,
  "lat": 48.6874062,
  "lon": 6.1988536
},
{
  "type": "node",
  "id": 3327633871,
  "lat": 48.6875679,
  "lon": 6.1986396
},
{
  "type": "node",
  "id": 3327633875,
  "lat": 48.6876183,
  "lon": 6.1986150
},
{
  "type": "node",
  "id": 3327633876,
  "lat": 48.6876248,
  "lon": 6.1986185
},
{
  "type": "node",
  "id": 3327633880,
  "lat": 48.6876350,
  "lon": 6.1986328
},
{
  "type": "node",
  "id": 3327633884,
  "lat": 48.6877029,
  "lon": 6.1987242
},
{
  "type": "node",
  "id": 3327633885,
  "lat": 48.6877162,
  "lon": 6.1987226
},
{
  "type": "node",
  "id": 3327633887,
  "lat": 48.6877533,
  "lon": 6.1984471
},
{
  "type": "node",
  "id": 3327633889,
  "lat": 48.6877884,
  "lon": 6.1986864
},
{
  "type": "node",
  "id": 3327633890,
  "lat": 48.6879549,
  "lon": 6.1991373
},
{
  "type": "node",
  "id": 3495002081,
  "lat": 48.6877914,
  "lon": 6.1986333
},
{
  "type": "node",
  "id": 3495002084,
  "lat": 48.6880253,
  "lon": 6.1992610
},
{
  "type": "node",
  "id": 3495002087,
  "lat": 48.6881621,
  "lon": 6.1995039
},
{
  "type": "node",
  "id": 291931431,
  "lat": 48.6954253,
  "lon": 6.1894398
},
{
  "type": "node",
  "id": 561145778,
  "lat": 48.6902344,
  "lon": 6.1914729
},
{
  "type": "node",
  "id": 724173479,
  "lat": 48.6956204,
  "lon": 6.1899882
},
{
  "type": "node",
  "id": 724173485,
  "lat": 48.6955762,
  "lon": 6.1898321
},
{
  "type": "node",
  "id": 724173493,
  "lat": 48.6955928,
  "lon": 6.1898892
},
{
  "type": "node",
  "id": 724173507,
  "lat": 48.6953498,
  "lon": 6.1901331
},
{
  "type": "node",
  "id": 724173511,
  "lat": 48.6956068,
  "lon": 6.1899370
},
{
  "type": "node",
  "id": 724173513,
  "lat": 48.6954812,
  "lon": 6.1895141
},
{
  "type": "node",
  "id": 724173515,
  "lat": 48.6952592,
  "lon": 6.1900358
},
{
  "type": "node",
  "id": 724173523,
  "lat": 48.6956444,
  "lon": 6.1900978
},
{
  "type": "node",
  "id": 724173535,
  "lat": 48.6955431,
  "lon": 6.1897168
},
{
  "type": "node",
  "id": 1876448733,
  "lat": 48.6899868,
  "lon": 6.1919033
},
{
  "type": "node",
  "id": 2551118588,
  "lat": 48.6928588,
  "lon": 6.1902211
},
{
  "type": "node",
  "id": 2551118591,
  "lat": 48.6928528,
  "lon": 6.1900660
},
{
  "type": "node",
  "id": 2796855498,
  "lat": 48.6954583,
  "lon": 6.1894765
},
{
  "type": "node",
  "id": 4487548391,
  "lat": 48.6900246,
  "lon": 6.1917852
},
{
  "type": "node",
  "id": 4487548392,
  "lat": 48.6901012,
  "lon": 6.1916428
},
{
  "type": "node",
  "id": 4487548393,
  "lat": 48.6901423,
  "lon": 6.1915666
},
{
  "type": "node",
  "id": 725027608,
  "lat": 48.6961307,
  "lon": 6.1963179
},
{
  "type": "node",
  "id": 2551118630,
  "lat": 48.6956672,
  "lon": 6.1955765
},
{
  "type": "node",
  "id": 2551118644,
  "lat": 48.6961361,
  "lon": 6.1963860
},
{
  "type": "node",
  "id": 3068773611,
  "lat": 48.6965272,
  "lon": 6.1931654
},
{
  "type": "node",
  "id": 4057980422,
  "lat": 48.6957021,
  "lon": 6.1955329
},
{
  "type": "node",
  "id": 7028684179,
  "lat": 48.6959057,
  "lon": 6.1955951
},
{
  "type": "node",
  "id": 8946942302,
  "lat": 48.6959346,
  "lon": 6.1955994
},
{
  "type": "node",
  "id": 8946942304,
  "lat": 48.6959525,
  "lon": 6.1955997
},
{
  "type": "node",
  "id": 1502225512,
  "lat": 48.6898548,
  "lon": 6.2024819
},
{
  "type": "node",
  "id": 1502225513,
  "lat": 48.6898448,
  "lon": 6.2026519
},
{
  "type": "node",
  "id": 1844248408,
  "lat": 48.6891394,
  "lon": 6.2012311
},
{
  "type": "node",
  "id": 3495002494,
  "lat": 48.6899430,
  "lon": 6.2026428
},
{
  "type": "node",
  "id": 4250057427,
  "lat": 48.6892354,
  "lon": 6.2013209
},
{
  "type": "node",
  "id": 7479706592,
  "lat": 48.6892100,
  "lon": 6.2013546
},
{
  "type": "node",
  "id": 7479706593,
  "lat": 48.6891744,
  "lon": 6.2012923
},
{
  "type": "node",
  "id": 7479706594,
  "lat": 48.6891122,
  "lon": 6.2011831
},
{
  "type": "node",
  "id": 7479706595,
  "lat": 48.6883605,
  "lon": 6.1998541
},
{
  "type": "node",
  "id": 2957398810,
  "lat": 48.6899994,
  "lon": 6.2026732
},
{
  "type": "node",
  "id": 3068773617,
  "lat": 48.6965718,
  "lon": 6.1931360
},
{
  "type": "node",
  "id": 3068773621,
  "lat": 48.6966305,
  "lon": 6.1934723
},
{
  "type": "node",
  "id": 3068773625,
  "lat": 48.6966496,
  "lon": 6.1933932
},
{
  "type": "node",
  "id": 6767668009,
  "lat": 48.6969443,
  "lon": 6.1949526
},
{
  "type": "node",
  "id": 7198221419,
  "lat": 48.6969546,
  "lon": 6.1950102
},
{
  "type": "node",
  "id": 8595115692,
  "lat": 48.6971405,
  "lon": 6.1948611
},
{
  "type": "node",
  "id": 8946942288,
  "lat": 48.6971702,
  "lon": 6.1948855
},
{
  "type": "node",
  "id": 8946942292,
  "lat": 48.6971896,
  "lon": 6.1949014
},
{
  "type": "node",
  "id": 8946942300,
  "lat": 48.6969511,
  "lon": 6.1949903
},
{
  "type": "node",
  "id": 2272257267,
  "lat": 48.6984356,
  "lon": 6.2032695
},
{
  "type": "node",
  "id": 2384634350,
  "lat": 48.6980580,
  "lon": 6.2032232
},
{
  "type": "node",
  "id": 4166341087,
  "lat": 48.6981196,
  "lon": 6.2032561
}

  ]
}
