{
  "version": 0.6,
  "generator": "Overpass API 0.7.57.1 74a55df1",
  "osm3s": {
    "timestamp_osm_base": "2022-02-13T13:18:30Z",
    "timestamp_areas_base": "2022-02-13T02:36:10Z",
    "copyright": "The data included in this document is from www.openstreetmap.org. The data is made available under ODbL."
  },
  "elements": [

{
  "type": "way",
  "id": 26193479,
  "nodes": [
    2528983439,
    2528983436,
    2522006128,
    2528983452,
    2522006131,
    2522006135,
    2562891380,
    2562891378,
    2528983461,
    2528983442,
    2528983430
  ],
  "tags": {
    "highway": "cycleway",
    "oneway": "no",
    "surface": "asphalt",
    "width": "3.5"
  }
},
{
  "type": "way",
  "id": 35987726,
  "nodes": [
    6993037911,
    6993037910,
    356506856
  ],
  "tags": {
    "bicycle": "yes",
    "foot": "yes",
    "highway": "cycleway",
    "oneway": "yes",
    "segregated": "no",
    "source": "cadastre-dgi-fr source : Direction Générale des Impôts - Cadastre;mise à jour : 2009",
    "surface": "concrete"
  }
},
{
  "type": "way",
  "id": 213265637,
  "nodes": [
    715611655,
    6875996237,
    6875996236,
    2229963576,
    5254766614,
    6875996242,
    5254766613,
    6875996240,
    5254766612,
    6875996241,
    2229963539,
    2229963535,
    2229963523,
    6875996239,
    6875996238,
    2229963516,
    2229963511
  ],
  "tags": {
    "highway": "cycleway",
    "oneway": "no",
    "segregated": "no",
    "surface": "asphalt",
    "width": "2.4"
  }
},
{
  "type": "way",
  "id": 215255786,
  "nodes": [
    6822067489,
    6822067498,
    6993116767,
    7376201834,
    6822067500,
    6822067501,
    6822067502,
    6822067503,
    6822067504,
    7376201835,
    2306156426,
    7376201836,
    2306156427,
    7376201837,
    7376201838,
    2246604197,
    2246604198
  ],
  "tags": {
    "highway": "cycleway",
    "oneway": "yes",
    "start_date": "2018",
    "surface": "concrete",
    "width": "1.5"
  }
},
{
  "type": "way",
  "id": 234759973,
  "nodes": [
    2528983442,
    286817705,
    2428994085,
    2428994083,
    2428994081,
    6838834754
  ],
  "tags": {
    "highway": "cycleway",
    "oneway": "yes",
    "surface": "concrete",
    "width": "1.7"
  }
},
{
  "type": "way",
  "id": 234759976,
  "nodes": [
    2428994047,
    2428994050,
    2428994052,
    2428994053,
    2428994055,
    2428994054
  ],
  "tags": {
    "highway": "cycleway",
    "lit": "yes",
    "oneway": "no",
    "surface": "concrete",
    "width": "3.4"
  }
},
{
  "type": "way",
  "id": 234759980,
  "nodes": [
    6150139096,
    6369789344,
    2428993907,
    6821726904,
    5856146916,
    6821726905,
    2428993910,
    2562891266,
    2562891268,
    2562891269,
    2562891270,
    2562891271,
    7213883092,
    2562891272,
    2562891273,
    2562891274,
    6821726906,
    8118721852,
    2562891275,
    2562891276,
    6821726907,
    2562891277,
    6821726908,
    2562891278,
    8118721854,
    6821726909,
    9389139785,
    6821726910,
    6821726911,
    6388874792,
    6918448019,
    6993051305,
    6396864147,
    4510491004,
    6821726912,
    6821726913,
    6388874786,
    8173375567,
    6993051312,
    6387893135,
    6387893134,
    6387893136,
    6993116738,
    6821726914
  ],
  "tags": {
    "highway": "cycleway",
    "oneway": "yes",
    "start_date": "2018",
    "surface": "concrete",
    "width": "1.5"
  }
},
{
  "type": "way",
  "id": 245767379,
  "nodes": [
    2562891375,
    2528983419,
    6838834736,
    2528983430
  ],
  "tags": {
    "highway": "cycleway",
    "oneway": "no",
    "surface": "asphalt",
    "width": "3"
  }
},
{
  "type": "way",
  "id": 245767382,
  "nodes": [
    6376335890,
    6376335889,
    6993160352,
    2246604215,
    6105586959,
    6387479605
  ],
  "tags": {
    "highway": "cycleway",
    "oneway": "yes",
    "surface": "concrete",
    "width": "1.5"
  }
},
{
  "type": "way",
  "id": 249716845,
  "nodes": [
    2246604178,
    2246604180,
    2246604182,
    2246604188,
    2246604190,
    2246604191,
    2246604193,
    2246604185,
    2246604186,
    6838834735
  ],
  "tags": {
    "highway": "cycleway",
    "oneway": "no",
    "surface": "asphalt",
    "width": "3.3"
  }
},
{
  "type": "way",
  "id": 249716847,
  "nodes": [
    2428993915,
    2428993922,
    2428993936,
    9364505941,
    2428993981,
    2428993986,
    2428994013,
    2428994016,
    2428994036,
    2428994038,
    2428994043,
    2428994047
  ],
  "tags": {
    "bicycle": "designated",
    "foot": "designated",
    "highway": "cycleway",
    "lit": "yes",
    "oneway": "yes",
    "segregated": "no",
    "surface": "concrete",
    "width": "1.7"
  }
},
{
  "type": "way",
  "id": 258110611,
  "nodes": [
    2635190634,
    2635190630,
    2635190619,
    2635190617,
    2635190613,
    7741747295,
    2635190616,
    2635190611,
    2635190604,
    2635190607
  ],
  "tags": {
    "bicycle": "designated",
    "foot": "designated",
    "highway": "cycleway",
    "oneway": "yes",
    "segregated": "no"
  }
},
{
  "type": "way",
  "id": 288163944,
  "nodes": [
    766878121,
    2917124703,
    2917124731,
    2917124736,
    7417206210,
    2917124741,
    2917124753,
    2917124757,
    2917124760,
    2917124762,
    2917124763,
    6375487783,
    6375488791,
    6375488790,
    6375488789,
    2628327447
  ],
  "tags": {
    "bicycle": "designated",
    "highway": "cycleway",
    "name": "piste cyclable Léon Blum",
    "oneway": "no",
    "surface": "asphalt",
    "width": "2.7"
  }
},
{
  "type": "way",
  "id": 300918534,
  "nodes": [
    3050212867,
    3050212863,
    3050212861,
    3390705479
  ],
  "tags": {
    "highway": "cycleway"
  }
},
{
  "type": "way",
  "id": 375075265,
  "nodes": [
    5980994120,
    8943628545,
    8426763358,
    3784647876,
    3784647875
  ],
  "tags": {
    "foot": "yes",
    "highway": "cycleway",
    "lit": "yes",
    "oneway": "yes",
    "surface": "paved",
    "width": "2"
  }
},
{
  "type": "way",
  "id": 454332472,
  "nodes": [
    5971884575,
    6588117404,
    4508977253,
    5856146951,
    5856146952,
    4508977252,
    4508977251,
    2525058002,
    4508977250,
    5856146947,
    5856146946,
    6875996248,
    4508977249,
    6875996247,
    5856146944,
    2229963582
  ],
  "tags": {
    "highway": "cycleway",
    "oneway": "no",
    "surface": "asphalt",
    "width": "2.4"
  }
},
{
  "type": "way",
  "id": 454333875,
  "nodes": [
    286678893,
    5254766606,
    6818084767,
    6818084766,
    6391689668,
    6818084768,
    4508990047,
    6875979957
  ],
  "tags": {
    "highway": "cycleway",
    "oneway": "yes",
    "source": "BDOrtho IGN",
    "surface": "asphalt",
    "width": "2"
  }
},
{
  "type": "way",
  "id": 454334276,
  "nodes": [
    4508994548,
    5254766615,
    4508994545,
    5254766619,
    5254767621,
    4508994544,
    5254767623,
    446277342
  ],
  "tags": {
    "highway": "cycleway",
    "oneway": "yes",
    "source": "BDOrtho IGN",
    "surface": "asphalt",
    "width": "2"
  }
},
{
  "type": "way",
  "id": 454447658,
  "nodes": [
    2926383605,
    8409373215,
    4510091907,
    4510091908,
    4510091910,
    5505553912,
    4510091913,
    5856146943
  ],
  "tags": {
    "highway": "cycleway",
    "oneway": "yes",
    "surface": "concrete",
    "width": "1.5"
  }
},
{
  "type": "way",
  "id": 454494420,
  "nodes": [
    7231395799,
    7231395798,
    7231395797,
    7231395787,
    7231395800,
    7231395801,
    7231395802,
    9380553765,
    7231395803,
    4510491007,
    5505541854,
    8503612503,
    2921672713,
    5505544812,
    4510491006,
    5505544813,
    4510491005,
    5108274143,
    5394352768,
    7004247585,
    4510491004
  ],
  "tags": {
    "bicycle": "designated",
    "foot": "designated",
    "highway": "cycleway",
    "motor_vehicle": "no",
    "surface": "concrete",
    "width": "3.5"
  }
},
{
  "type": "way",
  "id": 454494510,
  "nodes": [
    6993051305,
    7004243983,
    9389139797,
    9389166383,
    9389139784,
    9389139782,
    9393652575,
    9393741553,
    9393652572,
    4510489154,
    5505544814,
    5129216741,
    5129216743,
    5129216742,
    4510489152,
    7231395789,
    7231395788,
    7231395796,
    7231395795,
    7231395790,
    7231395791,
    2443807587,
    7231395792,
    7231395538,
    7231395794,
    7231395793,
    2859691903
  ],
  "tags": {
    "bicycle": "designated",
    "foot": "designated",
    "highway": "cycleway",
    "motor_vehicle": "no",
    "surface": "concrete",
    "width": "3.5"
  }
},
{
  "type": "way",
  "id": 454540453,
  "nodes": [
    286988762,
    4510896052,
    4510896051,
    7140814704,
    6362800674,
    4510896050,
    6362800673,
    4510896049,
    6362800672,
    4510896048,
    4510896047,
    6362800671,
    4510896046,
    4510896045,
    5790011246,
    7777727029,
    3426690391
  ],
  "tags": {
    "highway": "cycleway",
    "oneway": "yes",
    "surface": "concrete",
    "width": "1.3"
  }
},
{
  "type": "way",
  "id": 454541122,
  "nodes": [
    3426690390,
    7158591343,
    4510899053,
    4510899052,
    4510899051,
    6362800668,
    4510899050,
    6362800669,
    4510899049,
    6775404373,
    6362800670,
    6775404358,
    6775404361,
    4510899048,
    4510899047,
    4510899046,
    6362800675,
    286988762
  ],
  "tags": {
    "highway": "cycleway",
    "oneway": "yes",
    "surface": "concrete",
    "width": "1.3"
  }
},
{
  "type": "way",
  "id": 543575647,
  "nodes": [
    5254766600,
    5254766601,
    5254766603,
    5505553233,
    5254766594,
    7741747297,
    5254766595,
    5254766596,
    446277329,
    4510053739
  ],
  "tags": {
    "bicycle": "designated",
    "foot": "designated",
    "highway": "cycleway",
    "oneway:bicycle": "yes",
    "segregated": "no",
    "source": "BDOrtho IGN"
  }
},
{
  "type": "way",
  "id": 543575653,
  "nodes": [
    5254766598,
    5254766599,
    5254766600
  ],
  "tags": {
    "highway": "cycleway",
    "oneway": "yes",
    "source": "BDOrtho IGN",
    "surface": "asphalt",
    "width": "1.5"
  }
},
{
  "type": "way",
  "id": 559765814,
  "nodes": [
    446277342,
    5254767630,
    4510439254,
    5254767628,
    5254767626,
    5254767624
  ],
  "tags": {
    "highway": "cycleway",
    "oneway": "yes",
    "source": "BDOrtho IGN",
    "surface": "asphalt",
    "width": "2"
  }
},
{
  "type": "way",
  "id": 560657035,
  "nodes": [
    2237548162,
    5406772650,
    6790125829,
    5406772649,
    6387479599,
    6387479598,
    6387479600,
    2246604198,
    7248082160,
    6387479611,
    6387479607,
    6387479606,
    6387479605,
    6830374441,
    6993160361,
    6387463388,
    6387479602,
    6387479604,
    6830374438,
    420618359,
    6387462980,
    420618358,
    6830374439,
    5540532065,
    6387479614,
    6387479613,
    2237548162
  ],
  "tags": {
    "highway": "cycleway",
    "oneway": "no",
    "start_date": "2018",
    "surface": "concrete",
    "width": "3"
  }
},
{
  "type": "way",
  "id": 560756677,
  "nodes": [
    6375779100,
    5407574809,
    5407574808,
    5407574807,
    8376048093,
    5407574806,
    5407574805,
    5407574804,
    5407574803,
    5407574802,
    5407574801,
    5407574800,
    286678874
  ],
  "tags": {
    "highway": "cycleway",
    "lit": "yes",
    "name": "Avenue Édouard VII",
    "oneway": "yes",
    "surface": "asphalt",
    "width": "2"
  }
},
{
  "type": "way",
  "id": 563888474,
  "nodes": [
    286680625,
    5433599341
  ],
  "tags": {
    "bicycle": "designated",
    "foot": "designated",
    "highway": "cycleway",
    "segregated": "no"
  }
},
{
  "type": "way",
  "id": 579180493,
  "nodes": [
    8521637897,
    8521637898,
    5547452475,
    5547452476,
    5547452477,
    5547452478,
    7005893159,
    5547452480,
    5547452481,
    5547452482,
    5547452483,
    5547452484,
    5547452485,
    5547452486,
    5547452487,
    5547452488,
    5547452489,
    5547452490,
    2915955783
  ],
  "tags": {
    "highway": "cycleway",
    "incline": "0%",
    "mtb:scale": "0",
    "sac_scale": "hiking",
    "surface": "fine_gravel",
    "trail_visibility": "excellent",
    "width": "2.5"
  }
},
{
  "type": "way",
  "id": 591377209,
  "nodes": [
    429367991,
    8373403796,
    6485259837
  ],
  "tags": {
    "alt_name": "Véloroute du Piémont Pyrénéen",
    "highway": "cycleway",
    "motor_vehicle": "no",
    "name": "V81",
    "segregated": "no",
    "surface": "fine_gravel",
    "width": "1"
  }
},
{
  "type": "way",
  "id": 591726517,
  "nodes": [
    2428994050,
    6487397998,
    8868951570,
    2428994074,
    2428994076,
    6838834751,
    6838834743,
    6838834746,
    6838834747,
    6838834748,
    8164359225,
    6838834749,
    8164359224,
    6838834750,
    8164359223,
    6838834742,
    8164359222,
    6838834741,
    6838834740,
    6838834739,
    6838834738,
    6838834737,
    6838834736
  ],
  "tags": {
    "highway": "cycleway",
    "oneway": "yes",
    "surface": "concrete",
    "width": "1.7"
  }
},
{
  "type": "way",
  "id": 591726520,
  "nodes": [
    2428994054,
    2428994048,
    6482964267,
    2428994037,
    8942241427,
    2428993999,
    2428993994,
    2428993983,
    2428993973,
    2428993940,
    2428993926,
    2428993924
  ],
  "tags": {
    "bicycle": "designated",
    "foot": "designated",
    "highway": "cycleway",
    "lit": "yes",
    "oneway": "yes",
    "segregated": "no",
    "surface": "concrete",
    "width": "1.7"
  }
},
{
  "type": "way",
  "id": 619132077,
  "nodes": [
    2469885292,
    8164359295,
    8164359296,
    8164359297,
    8164359299,
    8164359300,
    6482964269,
    6482964268,
    8164359303,
    5851108197,
    8164359305,
    6918457534,
    8383361575,
    6105568415,
    2428994047
  ],
  "tags": {
    "highway": "cycleway",
    "oneway": "no",
    "surface": "concrete",
    "width": "3"
  }
},
{
  "type": "way",
  "id": 679714021,
  "nodes": [
    6387525607,
    6387525606,
    5695478191,
    2838607417,
    8423673024,
    6387528390,
    6387525608,
    6845216462,
    6845216463,
    6845216464,
    6845216465,
    6387525609,
    2469885313,
    6387525610,
    6845216466,
    2469885308,
    6387525611,
    8124331621,
    6364521145,
    8124331617,
    6364521147,
    6364521146,
    2469885295
  ],
  "tags": {
    "highway": "cycleway",
    "oneway": "yes",
    "surface": "asphalt",
    "width": "1.5"
  }
},
{
  "type": "way",
  "id": 680849581,
  "nodes": [
    6375376214,
    6375376213,
    6426708419,
    6375376212,
    6398374423,
    6375376211
  ],
  "tags": {
    "highway": "cycleway",
    "name": "Rue Lavignotte",
    "oneway": "yes",
    "surface": "concrete",
    "width": "1.55"
  }
},
{
  "type": "way",
  "id": 680859224,
  "nodes": [
    6375487783,
    6375487784,
    6375488785,
    6792921170,
    6375488786
  ],
  "tags": {
    "highway": "cycleway",
    "oneway": "yes",
    "surface": "asphalt",
    "width": "1.6"
  }
},
{
  "type": "way",
  "id": 680859225,
  "nodes": [
    6375488786,
    6375488787,
    6375488788,
    6375488789
  ],
  "tags": {
    "highway": "cycleway",
    "oneway": "yes",
    "surface": "asphalt",
    "width": "1.4"
  }
},
{
  "type": "way",
  "id": 680859395,
  "nodes": [
    6375491388,
    6375491389,
    6375491390,
    8196415030,
    6375491391,
    2917124703
  ],
  "tags": {
    "highway": "cycleway",
    "oneway": "yes",
    "surface": "asphalt",
    "width": "2"
  }
},
{
  "type": "way",
  "id": 682080771,
  "nodes": [
    6387462979,
    6387493925,
    6830491197,
    7004197725,
    7004197743,
    6830491196,
    6993037909
  ],
  "tags": {
    "highway": "cycleway",
    "oneway": "yes",
    "start_date": "2018",
    "surface": "concrete",
    "width": "1.5"
  }
},
{
  "type": "way",
  "id": 682083184,
  "nodes": [
    5540532065,
    6830374466,
    6830374465,
    6789821752,
    6387479619,
    6830374471,
    6830374472,
    6789821751
  ],
  "tags": {
    "highway": "cycleway",
    "oneway": "yes",
    "start_date": "2018",
    "surface": "concrete",
    "width": "1.5"
  }
},
{
  "type": "way",
  "id": 682083186,
  "nodes": [
    6387479611,
    6387479612,
    6376335891,
    6830374436,
    2237548157,
    2306156425
  ],
  "tags": {
    "highway": "cycleway",
    "oneway": "yes",
    "surface": "concrete",
    "width": "1.5"
  }
},
{
  "type": "way",
  "id": 682083188,
  "nodes": [
    6387463388,
    6387479609,
    6830374453,
    6830374452,
    6387463392,
    6830374455,
    6830374459,
    6830374460,
    6830374461,
    6830374462
  ],
  "tags": {
    "highway": "cycleway",
    "oneway": "yes",
    "start_date": "2018",
    "surface": "concrete",
    "width": "1.5"
  }
},
{
  "type": "way",
  "id": 682084745,
  "nodes": [
    6387493898,
    6387493921,
    6845553013,
    6830491230,
    6830491231,
    6830491232
  ],
  "tags": {
    "highway": "cycleway",
    "oneway": "yes",
    "start_date": "2018",
    "surface": "concrete",
    "width": "1.5"
  }
},
{
  "type": "way",
  "id": 682084747,
  "nodes": [
    6013354339,
    6387493919,
    6793563806,
    6793563807,
    6387493920,
    6845553012,
    6387493899
  ],
  "tags": {
    "highway": "cycleway",
    "oneway": "yes",
    "surface": "concrete",
    "width": "1.5"
  }
},
{
  "type": "way",
  "id": 682084755,
  "nodes": [
    6387493906,
    7004163363
  ],
  "tags": {
    "highway": "cycleway",
    "oneway": "yes",
    "surface": "concrete",
    "width": "1.5"
  }
},
{
  "type": "way",
  "id": 682084758,
  "nodes": [
    6387493931,
    6830491236,
    6985156388,
    6830491235,
    7004163357,
    7004163362
  ],
  "tags": {
    "highway": "cycleway",
    "oneway": "yes",
    "start_date": "2018",
    "surface": "concrete",
    "width": "1.5"
  }
},
{
  "type": "way",
  "id": 682124192,
  "nodes": [
    286819673,
    6387866850,
    6821814263,
    6993116750,
    6993116751,
    6821814264,
    7004247602,
    6387866851
  ],
  "tags": {
    "highway": "cycleway",
    "oneway": "yes",
    "surface": "concrete",
    "width": "1.5"
  }
},
{
  "type": "way",
  "id": 682124193,
  "nodes": [
    6387866851,
    6387866852,
    6993116752,
    6387866853,
    6387866854,
    6387866866,
    6387866868,
    6821814255,
    6387866855,
    7004243926,
    420618340,
    6821814268,
    7004243931,
    6387866858,
    6387866871,
    6387866872,
    6387866859,
    6387866860,
    6387866861,
    5856146913,
    6387866873,
    6005411787,
    6005408571,
    6387866874,
    6387866862,
    6387866863,
    6821814259,
    6387866864,
    6387866865,
    6387866876,
    6387866877,
    6387866851
  ],
  "tags": {
    "highway": "cycleway",
    "oneway": "no",
    "start_date": "2018",
    "surface": "concrete",
    "width": "3"
  }
},
{
  "type": "way",
  "id": 682124195,
  "nodes": [
    6387866854,
    7004247614
  ],
  "tags": {
    "highway": "cycleway",
    "oneway": "yes",
    "surface": "concrete",
    "width": "1.5"
  }
},
{
  "type": "way",
  "id": 682126532,
  "nodes": [
    6387866865,
    7004247601
  ],
  "tags": {
    "highway": "cycleway",
    "oneway": "yes",
    "surface": "concrete",
    "width": "1.5"
  }
},
{
  "type": "way",
  "id": 682126533,
  "nodes": [
    6387893124,
    6821814267,
    6387893125,
    7004247608,
    6387866859
  ],
  "tags": {
    "highway": "cycleway",
    "oneway": "yes",
    "start_date": "2018",
    "surface": "concrete",
    "width": "1.5"
  }
},
{
  "type": "way",
  "id": 682126534,
  "nodes": [
    5856146913,
    7004247605
  ],
  "tags": {
    "highway": "cycleway",
    "oneway": "yes",
    "surface": "concrete",
    "width": "1.5"
  }
},
{
  "type": "way",
  "id": 682126536,
  "nodes": [
    6387866858,
    7004247609,
    6387893140,
    6822067486,
    8405416832,
    6387893139
  ],
  "tags": {
    "highway": "cycleway",
    "oneway": "yes",
    "start_date": "2018",
    "surface": "concrete",
    "width": "1.5"
  }
},
{
  "type": "way",
  "id": 682228950,
  "nodes": [
    6388869722,
    6838834734,
    7826292508,
    6388869723
  ],
  "tags": {
    "highway": "cycleway",
    "oneway": "yes",
    "surface": "asphalt"
  }
},
{
  "type": "way",
  "id": 682229540,
  "nodes": [
    6388874786,
    6388874793,
    6388874795,
    6388874796,
    2921672729,
    6387893126
  ],
  "tags": {
    "highway": "cycleway",
    "oneway": "yes",
    "surface": "concrete",
    "width": "1.6"
  }
},
{
  "type": "way",
  "id": 682234678,
  "nodes": [
    459149781,
    6388922485,
    6841770946
  ],
  "tags": {
    "highway": "cycleway",
    "oneway": "no",
    "start_date": "2018",
    "surface": "concrete",
    "width": "2.5"
  }
},
{
  "type": "way",
  "id": 683116716,
  "nodes": [
    6398374423,
    2443807561,
    7016742268,
    7016742266
  ],
  "tags": {
    "highway": "cycleway"
  }
},
{
  "type": "way",
  "id": 690950117,
  "nodes": [
    2630187370,
    6482947183,
    6482947184,
    6482948300
  ],
  "tags": {
    "foot": "yes",
    "highway": "cycleway",
    "oneway": "no"
  }
},
{
  "type": "way",
  "id": 690950118,
  "nodes": [
    6482948300,
    6482948285,
    6482948288,
    6482948287,
    6482948289,
    6482948290,
    6482948292,
    6482948291,
    6482948293,
    6482948297,
    6482948296,
    6482948295,
    6482948294,
    6482948299,
    6482948298,
    8199607042,
    2630252093
  ],
  "tags": {
    "foot": "yes",
    "highway": "cycleway",
    "oneway": "yes"
  }
},
{
  "type": "way",
  "id": 690950214,
  "nodes": [
    6482950219,
    5818169809
  ],
  "tags": {
    "highway": "cycleway"
  }
},
{
  "type": "way",
  "id": 691018799,
  "nodes": [
    286680639,
    5442221900
  ],
  "tags": {
    "highway": "cycleway"
  }
},
{
  "type": "way",
  "id": 691175397,
  "nodes": [
    5645933865,
    5645933866
  ],
  "tags": {
    "alt_name": "Véloroute du Piémont Pyrénéen",
    "bicycle": "designated",
    "bridge": "yes",
    "foot": "designated",
    "highway": "cycleway",
    "layer": "1",
    "motor_vehicle": "no",
    "name": "V81",
    "segregated": "no"
  }
},
{
  "type": "way",
  "id": 715172101,
  "nodes": [
    2630252093,
    8587796727,
    2630252092,
    2630252090,
    8199607040,
    6398606207,
    2630252095,
    6485194577,
    2630252096,
    2630252097,
    6482950219,
    2630252098,
    2630252099,
    8199607037,
    8584192258,
    2630252103,
    2630252106
  ],
  "tags": {
    "bicycle": "designated",
    "foot": "designated",
    "highway": "cycleway",
    "motor_vehicle": "no",
    "name": "Allée de la Laïcité",
    "segregated": "no",
    "surface": "asphalt"
  }
},
{
  "type": "way",
  "id": 719042430,
  "nodes": [
    6485259837,
    7696189883,
    5645933861,
    5645933863,
    5645933865
  ],
  "tags": {
    "alt_name": "Véloroute du Piémont Pyrénéen",
    "highway": "cycleway",
    "motor_vehicle": "no",
    "name": "V81",
    "segregated": "no",
    "surface": "fine_gravel",
    "width": "3"
  }
},
{
  "type": "way",
  "id": 720574584,
  "nodes": [
    459832059,
    7929236258,
    8423673019,
    459832060,
    6762262838,
    6762262840
  ],
  "tags": {
    "highway": "cycleway",
    "name": "Boulevard Hauterive",
    "oneway": "no",
    "source": "cadastre-dgi-fr source : Direction Générale des Impôts - Cadastre;mise à jour : 2009",
    "surface": "concrete",
    "width": "3"
  }
},
{
  "type": "way",
  "id": 720574585,
  "nodes": [
    6762262840,
    6762262841,
    6762262846,
    6762262859
  ],
  "tags": {
    "highway": "cycleway",
    "name": "Avenue de Buros",
    "oneway": "no",
    "source": "cadastre-dgi-fr source : Direction Générale des Impôts - Cadastre;mise à jour : 2009",
    "surface": "concrete",
    "width": "2.8"
  }
},
{
  "type": "way",
  "id": 720574586,
  "nodes": [
    6762262859,
    6762262860,
    6762262857,
    6762262847,
    6762262848,
    6762262849,
    6762262850,
    6762262851,
    6762262852,
    6762262853,
    6762262854,
    6762262855,
    6762262856,
    6939265677
  ],
  "tags": {
    "highway": "cycleway",
    "name": "Avenue de Buros",
    "oneway": "no",
    "source": "cadastre-dgi-fr source : Direction Générale des Impôts - Cadastre;mise à jour : 2009",
    "surface": "concrete",
    "width": "3"
  }
},
{
  "type": "way",
  "id": 720585914,
  "nodes": [
    6762351610,
    6762351611
  ],
  "tags": {
    "bicycle": "designated",
    "bridge": "yes",
    "foot": "designated",
    "highway": "cycleway",
    "layer": "1",
    "motor_vehicle": "no",
    "name": "Avenue de Buros",
    "surface": "wood",
    "width": "2.2"
  }
},
{
  "type": "way",
  "id": 720585915,
  "nodes": [
    6762351611,
    7724618504,
    6762351601,
    6762351602,
    6793715943,
    6762351603,
    6762351604,
    6762351608,
    8019416993,
    8525208710,
    8525208711,
    8525208712,
    8525208714,
    8525208713
  ],
  "tags": {
    "bicycle": "designated",
    "foot": "designated",
    "highway": "cycleway",
    "motor_vehicle": "no",
    "name": "Avenue de Buros",
    "surface": "concrete",
    "width": "3"
  }
},
{
  "type": "way",
  "id": 720585916,
  "nodes": [
    6762351610,
    7647114328,
    6762351612,
    6762351594,
    6985124479,
    6762351593,
    6939265673,
    6939265674,
    6939265675,
    6939265676,
    459832060
  ],
  "tags": {
    "bicycle": "designated",
    "foot": "designated",
    "highway": "cycleway",
    "motor_vehicle": "no",
    "name": "Avenue de Buros",
    "surface": "concrete",
    "width": "3"
  }
},
{
  "type": "way",
  "id": 720585917,
  "nodes": [
    6762351641,
    6762351613,
    6762351614,
    6762351615,
    6762351616,
    6762351617,
    6762351638
  ],
  "tags": {
    "highway": "cycleway",
    "oneway": "no",
    "surface": "concrete",
    "width": "3"
  }
},
{
  "type": "way",
  "id": 720585918,
  "nodes": [
    6762351639,
    6762351638
  ],
  "tags": {
    "bridge": "yes",
    "highway": "cycleway",
    "layer": "1",
    "oneway": "no",
    "surface": "fine_gravel",
    "width": "3"
  }
},
{
  "type": "way",
  "id": 720585919,
  "nodes": [
    6762351622,
    6762351623,
    6762351624,
    6762351625,
    6762351626,
    6762351627,
    6762351628,
    6762351629,
    8786107451,
    6762351630,
    6762351631,
    6762351632,
    6762351633,
    6762351634,
    6762351635,
    6762351636,
    6762351637,
    8786107441,
    5980994116
  ],
  "tags": {
    "highway": "cycleway",
    "oneway": "no",
    "surface": "concrete",
    "width": "3"
  }
},
{
  "type": "way",
  "id": 722314050,
  "nodes": [
    6815886540,
    6775404353,
    6775404354,
    6775404355,
    6775404356,
    6775404357,
    6775404359,
    6775404360,
    6775404361
  ],
  "tags": {
    "highway": "cycleway",
    "oneway": "yes",
    "surface": "concrete",
    "width": "1.3"
  }
},
{
  "type": "way",
  "id": 722314051,
  "nodes": [
    7140814704,
    7140814705,
    6775404373,
    6775404362,
    6775404363,
    6775404364,
    6775404365,
    6775404366,
    6775404367,
    6775404368,
    6775404369,
    6775404370,
    6775404371,
    6775404372
  ],
  "tags": {
    "highway": "cycleway",
    "oneway": "yes",
    "surface": "concrete",
    "width": "1.4"
  }
},
{
  "type": "way",
  "id": 722314052,
  "nodes": [
    6775404374,
    6775404375,
    6775404376,
    6775404377,
    6775404382
  ],
  "tags": {
    "highway": "cycleway",
    "oneway": "yes",
    "surface": "concrete",
    "width": "1.4"
  }
},
{
  "type": "way",
  "id": 722314053,
  "nodes": [
    6775404383,
    6775404378,
    6775404379,
    5936939661
  ],
  "tags": {
    "highway": "cycleway",
    "oneway": "yes",
    "surface": "concrete",
    "width": "1.4"
  }
},
{
  "type": "way",
  "id": 722314054,
  "nodes": [
    6775404382,
    6775404381,
    6775404383
  ],
  "tags": {
    "highway": "cycleway",
    "oneway": "yes",
    "surface": "asphalt",
    "width": "1.4"
  }
},
{
  "type": "way",
  "id": 722314055,
  "nodes": [
    6775404372,
    6775404384,
    6775417385,
    6775404374
  ],
  "tags": {
    "highway": "cycleway",
    "oneway": "yes",
    "surface": "asphalt",
    "width": "1.4"
  }
},
{
  "type": "way",
  "id": 723994876,
  "nodes": [
    5829791972,
    6396723491,
    6388921097,
    6388921096,
    5648864957,
    5648864958,
    5648864959,
    7004270577,
    6822067498,
    6388921092
  ],
  "tags": {
    "highway": "cycleway",
    "oneway": "no",
    "surface": "concrete",
    "width": "2.7"
  }
},
{
  "type": "way",
  "id": 723994877,
  "nodes": [
    6388921092,
    6845553017,
    6845553018,
    6845553019,
    6993116766,
    6388921093,
    6388921095,
    6388921094,
    6388921090,
    6845553021
  ],
  "tags": {
    "foot": "yes",
    "highway": "cycleway",
    "oneway": "no",
    "start_date": "2018",
    "surface": "concrete"
  }
},
{
  "type": "way",
  "id": 723994878,
  "nodes": [
    6790125828,
    6993037913,
    8915969877,
    420618320,
    420618323,
    420618354,
    5406772648,
    5406772647,
    420618327,
    5406772644,
    5406772643,
    420618352,
    5406772641,
    420618331,
    8081935568,
    8081935570,
    6841770955,
    420618333,
    420618336,
    420618338,
    8879964360,
    420618347,
    6387866870,
    420618340,
    6993051300,
    6993051301,
    6993051302,
    6993051303,
    420618345,
    8405416833,
    6388869721,
    6388869720
  ],
  "tags": {
    "foot": "yes",
    "highway": "cycleway",
    "name": "piste cyclable UPPA est",
    "oneway": "no",
    "source": "cadastre-dgi-fr source : Direction Générale des Impôts - Cadastre",
    "surface": "asphalt",
    "width": "3"
  }
},
{
  "type": "way",
  "id": 724392399,
  "nodes": [
    6387493897,
    6387493898,
    6387493914,
    6387493913,
    6387493912,
    6387493899,
    6793563808,
    6387493900,
    6793563812,
    6387493901,
    6793563815,
    6793563813,
    2309510902,
    6387493903,
    6793563811,
    6387493904,
    6793563810,
    6387493905,
    6793563809,
    6387493906,
    286815088,
    6387493918,
    6387493907,
    6387493908,
    6830491227,
    6387462979,
    6387493909,
    6387493911,
    6387493910,
    6387463389,
    6387493896,
    6387493897
  ],
  "tags": {
    "highway": "cycleway",
    "oneway": "no",
    "start_date": "2018",
    "surface": "concrete",
    "width": "3"
  }
},
{
  "type": "way",
  "id": 724400698,
  "nodes": [
    6480860272,
    8214141395,
    6762262830,
    6762262831,
    6480860264,
    8214141394,
    6762262832,
    6762262833,
    6762262834,
    6480860263,
    6762262836,
    6762262835,
    8214141393,
    8214141392,
    6762262837,
    8214141391,
    6480860271,
    6480860262
  ],
  "tags": {
    "highway": "cycleway",
    "name": "Boulevard Hauterive",
    "oneway": "no",
    "source": "cadastre-dgi-fr source : Direction Générale des Impôts - Cadastre;mise à jour : 2009",
    "surface": "asphalt",
    "width": "2.8"
  }
},
{
  "type": "way",
  "id": 724400699,
  "nodes": [
    8214141400,
    6480860274,
    8214141401,
    6549851181,
    8214141402,
    8214141403,
    6480860267,
    8214141404,
    6549851182,
    6762262828,
    6762262829,
    6480860273,
    8214141397,
    8214141396,
    6480860272
  ],
  "tags": {
    "highway": "cycleway",
    "name": "Boulevard Hauterive",
    "oneway": "no",
    "source": "cadastre-dgi-fr source : Direction Générale des Impôts - Cadastre;mise à jour : 2009",
    "surface": "asphalt",
    "width": "3"
  }
},
{
  "type": "way",
  "id": 727297497,
  "nodes": [
    5936939668,
    6815886550,
    6815886549,
    6815886548,
    6815886547,
    6815886546,
    6815886545,
    6815886551,
    6815886540
  ],
  "tags": {
    "highway": "cycleway",
    "oneway": "yes",
    "surface": "concrete",
    "width": "1.5"
  }
},
{
  "type": "way",
  "id": 729055081,
  "nodes": [
    5406772649,
    6387482004,
    420618318,
    6790125828
  ],
  "tags": {
    "foot": "yes",
    "highway": "cycleway",
    "oneway": "no",
    "source": "cadastre-dgi-fr source : Direction Générale des Impôts - Cadastre;mise à jour : 2009",
    "start_date": "2018",
    "surface": "concrete",
    "width": "3"
  }
},
{
  "type": "way",
  "id": 729055082,
  "nodes": [
    2306156425,
    2246604206,
    2246604202,
    2306156492
  ],
  "tags": {
    "highway": "cycleway",
    "oneway": "yes",
    "surface": "asphalt",
    "width": "2"
  }
},
{
  "type": "way",
  "id": 729055083,
  "nodes": [
    6830374470,
    6830374468,
    6830374467,
    6830374469,
    2237548162
  ],
  "tags": {
    "highway": "cycleway",
    "oneway": "yes",
    "start_date": "2018",
    "surface": "concrete",
    "width": "1.5"
  }
},
{
  "type": "way",
  "id": 730024506,
  "nodes": [
    6838834735,
    2246604195,
    2246604200,
    2246604201,
    2246604204,
    2306156492
  ],
  "tags": {
    "highway": "cycleway",
    "oneway": "no",
    "surface": "asphalt",
    "width": "3"
  }
},
{
  "type": "way",
  "id": 730311489,
  "nodes": [
    2428994054,
    5648864947,
    5648864948,
    5648864949,
    5648864950,
    5648864951,
    7140787432,
    5648864952,
    5648864953,
    5648864954,
    7140787431,
    5829791972
  ],
  "tags": {
    "highway": "cycleway",
    "oneway": "no",
    "surface": "concrete",
    "width": "3"
  }
},
{
  "type": "way",
  "id": 730311490,
  "nodes": [
    2428994075,
    2428994070,
    2428994059,
    6487397997,
    2428994055
  ],
  "tags": {
    "highway": "cycleway",
    "lit": "yes",
    "oneway": "yes",
    "surface": "concrete",
    "width": "1.7"
  }
},
{
  "type": "way",
  "id": 730311491,
  "nodes": [
    6838834754,
    2428994079,
    6838834745,
    2428994075
  ],
  "tags": {
    "highway": "cycleway",
    "lit": "yes",
    "oneway": "yes",
    "surface": "concrete",
    "width": "1.4"
  }
},
{
  "type": "way",
  "id": 730311492,
  "nodes": [
    6841770946,
    6841770947,
    6841770949,
    6841770945,
    6841770950,
    7004243915,
    420618331
  ],
  "tags": {
    "highway": "cycleway",
    "oneway": "no",
    "start_date": "2018",
    "surface": "concrete",
    "width": "3"
  }
},
{
  "type": "way",
  "id": 730311493,
  "nodes": [
    6841770951,
    6841770956,
    6841770952,
    6841770958,
    6841770953,
    6993051299,
    6841770954,
    6841770957,
    6841770959,
    7004243919,
    6841770955
  ],
  "tags": {
    "highway": "cycleway",
    "oneway": "no",
    "start_date": "2018",
    "surface": "concrete",
    "width": "3"
  }
},
{
  "type": "way",
  "id": 730996851,
  "nodes": [
    6499889174,
    6499879450,
    2339219096,
    7929236260,
    7929236261,
    8542451979,
    8542451980,
    2339219098
  ],
  "tags": {
    "bicycle": "designated",
    "foot": "designated",
    "highway": "cycleway",
    "segregated": "no",
    "surface": "concrete"
  }
},
{
  "type": "way",
  "id": 734242398,
  "nodes": [
    6875979957,
    6876023273,
    6876023272,
    6876023271,
    5254766608,
    4508987736
  ],
  "tags": {
    "highway": "cycleway",
    "oneway": "yes",
    "source": "BDOrtho IGN",
    "surface": "asphalt",
    "width": "1.8"
  }
},
{
  "type": "way",
  "id": 734247530,
  "nodes": [
    4508972183,
    6875996243,
    4508972184,
    6875996244,
    4508972185,
    6875996246,
    6875996245,
    5971884575
  ],
  "tags": {
    "highway": "cycleway",
    "oneway": "no",
    "surface": "asphalt",
    "width": "3"
  }
},
{
  "type": "way",
  "id": 747362799,
  "nodes": [
    6993037911,
    420618360,
    6830374451,
    6387479608,
    420618359
  ],
  "tags": {
    "bicycle": "yes",
    "foot": "yes",
    "highway": "cycleway",
    "oneway": "no",
    "segregated": "no",
    "source": "cadastre-dgi-fr source : Direction Générale des Impôts - Cadastre;mise à jour : 2009",
    "surface": "concrete"
  }
},
{
  "type": "way",
  "id": 747362800,
  "nodes": [
    356506856,
    6993037912,
    6993037911
  ],
  "tags": {
    "highway": "cycleway",
    "oneway": "yes"
  }
},
{
  "type": "way",
  "id": 747368103,
  "nodes": [
    6993051311,
    6993051310,
    6993051309,
    6993051308,
    6993051307,
    6993051306,
    6993051305
  ],
  "tags": {
    "highway": "cycleway",
    "oneway": "no"
  }
},
{
  "type": "way",
  "id": 748984825,
  "nodes": [
    7004163363,
    6830491234,
    6830491233,
    6830491238
  ],
  "tags": {
    "highway": "cycleway",
    "oneway": "yes",
    "start_date": "2018",
    "surface": "concrete",
    "width": "1.5"
  }
},
{
  "type": "way",
  "id": 748984827,
  "nodes": [
    7004163362,
    6387493907
  ],
  "tags": {
    "highway": "cycleway",
    "oneway": "yes",
    "surface": "concrete",
    "width": "1.5"
  }
},
{
  "type": "way",
  "id": 748986228,
  "nodes": [
    6993037908,
    6993037907,
    6830491195,
    6830491193,
    6830491194,
    420618360
  ],
  "tags": {
    "highway": "cycleway",
    "oneway": "yes",
    "start_date": "2018",
    "surface": "concrete",
    "width": "1.5"
  }
},
{
  "type": "way",
  "id": 748986230,
  "nodes": [
    6830374463,
    6985066979,
    7004197745,
    6387463393,
    6830491228,
    6387493926,
    6387463389
  ],
  "tags": {
    "highway": "cycleway",
    "oneway": "yes",
    "start_date": "2018",
    "surface": "concrete",
    "width": "1.5"
  }
},
{
  "type": "way",
  "id": 748989862,
  "nodes": [
    7004247601,
    6821814265,
    6821814266,
    6387893123
  ],
  "tags": {
    "highway": "cycleway",
    "oneway": "yes",
    "surface": "concrete",
    "width": "1.5"
  }
},
{
  "type": "way",
  "id": 748989866,
  "nodes": [
    6821726914,
    6387866862
  ],
  "tags": {
    "highway": "cycleway",
    "oneway": "yes",
    "surface": "concrete",
    "width": "1.5"
  }
},
{
  "type": "way",
  "id": 748989868,
  "nodes": [
    7004247605,
    6387893130,
    8173375570,
    6387893126,
    6387893131,
    6993051311,
    8418818373,
    9316562533,
    6387893128,
    286809545
  ],
  "tags": {
    "highway": "cycleway",
    "oneway": "yes",
    "start_date": "2018",
    "surface": "concrete",
    "width": "1.5"
  }
},
{
  "type": "way",
  "id": 748989874,
  "nodes": [
    7004247614,
    6993116761,
    6822067487
  ],
  "tags": {
    "highway": "cycleway",
    "oneway": "yes",
    "start_date": "2018",
    "surface": "concrete",
    "width": "1.5"
  }
},
{
  "type": "way",
  "id": 756774165,
  "nodes": [
    7126437305,
    7126508228,
    7068123410,
    7068123411,
    7068123412,
    7068123414,
    7068123413,
    286988451
  ],
  "tags": {
    "highway": "cycleway",
    "oneway": "yes",
    "surface": "asphalt"
  }
},
{
  "type": "way",
  "id": 757747286,
  "nodes": [
    7076679632,
    7076679631,
    7076679630,
    7076679629,
    7076679638,
    7076679633,
    7076679634,
    7076679635,
    7076679636,
    7076679637
  ],
  "tags": {
    "highway": "cycleway",
    "oneway": "yes"
  }
},
{
  "type": "way",
  "id": 765814065,
  "nodes": [
    356506868,
    6801875074,
    7152279290,
    7152279291,
    8119145620,
    7152279292,
    7297083336,
    7152279293,
    7297083337,
    7297083335,
    5738774286
  ],
  "tags": {
    "bicycle": "designated",
    "foot": "designated",
    "highway": "cycleway",
    "motor_vehicle": "no",
    "oneway": "no",
    "surface": "fine_gravel"
  }
},
{
  "type": "way",
  "id": 766062705,
  "nodes": [
    7231395788,
    7154671703
  ],
  "tags": {
    "highway": "cycleway",
    "oneway": "no",
    "surface": "asphalt"
  }
},
{
  "type": "way",
  "id": 768814473,
  "nodes": [
    7529458632,
    7177487716,
    7177487717,
    2643575689,
    7177487688,
    7177487689,
    7177487690,
    7177487697,
    7177487692,
    7529458635,
    2643575660
  ],
  "tags": {
    "highway": "cycleway"
  }
},
{
  "type": "way",
  "id": 768814476,
  "nodes": [
    7529458632,
    7529458629,
    7177487704,
    7177487705,
    7177487706,
    8779930587,
    7177487707,
    7177487708,
    7177487709,
    276194739
  ],
  "tags": {
    "highway": "cycleway"
  }
},
{
  "type": "way",
  "id": 768814479,
  "nodes": [
    7529458632,
    2643575702,
    7177483164
  ],
  "tags": {
    "foot": "yes",
    "highway": "cycleway"
  }
},
{
  "type": "way",
  "id": 768814481,
  "nodes": [
    7177487689,
    2643575678,
    7177487685
  ],
  "tags": {
    "foot": "yes",
    "highway": "cycleway"
  }
},
{
  "type": "way",
  "id": 785567615,
  "nodes": [
    6845553021,
    6845553025,
    6845553024,
    6845553023,
    6845553022,
    420618354
  ],
  "tags": {
    "bicycle": "designated",
    "foot": "designated",
    "highway": "cycleway",
    "oneway": "no",
    "surface": "concrete"
  }
},
{
  "type": "way",
  "id": 801573212,
  "nodes": [
    7497342417,
    7497342425,
    7497342418,
    7497342422,
    7497342423,
    7497342424
  ],
  "tags": {
    "highway": "cycleway",
    "oneway": "yes",
    "surface": "asphalt"
  }
},
{
  "type": "way",
  "id": 801573213,
  "nodes": [
    7497342435,
    7497342434,
    7497342428,
    7497342426
  ],
  "tags": {
    "highway": "cycleway",
    "oneway": "yes",
    "surface": "asphalt"
  }
},
{
  "type": "way",
  "id": 802526740,
  "nodes": [
    7506821627,
    7506821628,
    7506821629,
    7506821630,
    7506821631,
    7506821635,
    7506821632,
    7506821634,
    7506821633
  ],
  "tags": {
    "highway": "cycleway",
    "oneway": "yes"
  }
},
{
  "type": "way",
  "id": 829420039,
  "nodes": [
    5254766619,
    5254766617
  ],
  "tags": {
    "highway": "cycleway"
  }
},
{
  "type": "way",
  "id": 833644887,
  "nodes": [
    6821846803,
    2428993910
  ],
  "tags": {
    "highway": "cycleway",
    "oneway": "yes",
    "start_date": "2018"
  }
},
{
  "type": "way",
  "id": 834256598,
  "nodes": [
    420618354,
    7787715866,
    340304154
  ],
  "tags": {
    "bicycle": "designated",
    "highway": "cycleway",
    "oneway": "no",
    "surface": "concrete"
  }
},
{
  "type": "way",
  "id": 887444782,
  "nodes": [
    6480860270,
    8511266965,
    2848408177,
    8214141399
  ],
  "tags": {
    "highway": "cycleway",
    "surface": "concrete",
    "width": "3"
  }
},
{
  "type": "way",
  "id": 890795966,
  "nodes": [
    8279201460,
    8279201459,
    8279201458
  ],
  "tags": {
    "access": "private",
    "highway": "cycleway"
  }
},
{
  "type": "way",
  "id": 907528910,
  "nodes": [
    8426920301,
    8426920302,
    8426920303,
    8426920304,
    8426920305,
    8426920306,
    8426920307
  ],
  "tags": {
    "highway": "cycleway"
  }
},
{
  "type": "way",
  "id": 913608168,
  "nodes": [
    339376877,
    7068123410
  ],
  "tags": {
    "highway": "cycleway",
    "oneway": "yes",
    "surface": "asphalt"
  }
},
{
  "type": "way",
  "id": 916595551,
  "nodes": [
    6762351639,
    6762351618,
    6762351619,
    6762351621,
    6762351622
  ],
  "tags": {
    "highway": "cycleway",
    "oneway": "no",
    "surface": "concrete",
    "width": "3"
  }
},
{
  "type": "way",
  "id": 917899209,
  "nodes": [
    8525208715,
    8525208716,
    8525220417,
    8525220418,
    8525220419
  ],
  "tags": {
    "bicycle": "designated",
    "foot": "designated",
    "highway": "cycleway",
    "motor_vehicle": "no",
    "name": "Avenue de Buros",
    "surface": "concrete",
    "width": "3"
  }
},
{
  "type": "way",
  "id": 919903589,
  "nodes": [
    8542451975,
    8542451973,
    8542451974,
    6762351637
  ],
  "tags": {
    "highway": "cycleway"
  }
},
{
  "type": "way",
  "id": 925333111,
  "nodes": [
    8587796728,
    8587796729,
    6482947184
  ],
  "tags": {
    "highway": "cycleway",
    "oneway": "yes"
  }
},
{
  "type": "way",
  "id": 949184466,
  "nodes": [
    2917124736,
    8786870148,
    2917124740,
    8786870150,
    2917124743
  ],
  "tags": {
    "highway": "cycleway"
  }
},
{
  "type": "way",
  "id": 999737278,
  "nodes": [
    9228769815,
    9228769816,
    9228769817,
    9228769818,
    9228769819,
    9228769820,
    9228769821,
    9228769822
  ],
  "tags": {
    "highway": "cycleway"
  }
},
{
  "type": "way",
  "id": 999737279,
  "nodes": [
    1945774162,
    9228769824,
    9228769825,
    9228769826,
    9228769827,
    9228769828,
    9228769829,
    1842641128
  ],
  "tags": {
    "highway": "cycleway",
    "oneway": "yes"
  }
},
{
  "type": "way",
  "id": 1001705825,
  "nodes": [
    9384179762,
    9245674479,
    9245674478,
    9245674477,
    9245674476,
    9245674475,
    6480860262
  ],
  "tags": {
    "highway": "cycleway",
    "oneway": "yes",
    "start_date": "2021",
    "surface": "concrete",
    "width": "1.85"
  }
},
{
  "type": "way",
  "id": 1001705826,
  "nodes": [
    9380216885,
    9384179743,
    9384179744,
    9384179745,
    9245674480,
    9384179761,
    9384179753,
    9384179748
  ],
  "tags": {
    "highway": "cycleway",
    "oneway": "yes",
    "start_date": "2021",
    "surface": "concrete",
    "width": "1.9"
  }
},
{
  "type": "way",
  "id": 1010035078,
  "nodes": [
    2309868361,
    9319272177,
    9319272181,
    9319272185,
    9319272189,
    9319272193,
    9319272197,
    9319272178,
    9319272201,
    9319272204,
    9380413737,
    9319272179,
    2309868299
  ],
  "tags": {
    "bicycle": "designated",
    "foot": "designated",
    "highway": "cycleway"
  }
},
{
  "type": "way",
  "id": 1016975837,
  "nodes": [
    9380216861,
    9380216867,
    9380216868,
    9380216870,
    9380216869,
    9380216865,
    9380216866,
    9380216871,
    9380216872
  ],
  "tags": {
    "highway": "cycleway",
    "oneway": "yes",
    "start_date": "2021",
    "surface": "concrete",
    "width": "1.9"
  }
},
{
  "type": "way",
  "id": 1016975838,
  "nodes": [
    9380216851,
    9380216852,
    9380216853,
    9380216854,
    9380216855,
    9380216856,
    9380216857,
    9380216858,
    9380216859,
    9380216860
  ],
  "tags": {
    "highway": "cycleway",
    "oneway": "yes",
    "start_date": "2021",
    "surface": "concrete",
    "width": "1.9"
  }
},
{
  "type": "way",
  "id": 1016975839,
  "nodes": [
    9380216860,
    9380216861
  ],
  "tags": {
    "bridge": "yes",
    "highway": "cycleway",
    "layer": "1",
    "oneway": "yes",
    "start_date": "2021",
    "surface": "concrete",
    "width": "1.9"
  }
},
{
  "type": "way",
  "id": 1016975840,
  "nodes": [
    7201142344,
    9380216874,
    9380216873,
    9380216887,
    9380216888,
    9380216889,
    9380216886,
    9380216877
  ],
  "tags": {
    "highway": "cycleway",
    "oneway": "yes",
    "start_date": "2021",
    "surface": "concrete",
    "width": "1.9"
  }
},
{
  "type": "way",
  "id": 1016975841,
  "nodes": [
    9380216878,
    9380216880,
    9380216879,
    9380216881,
    9380216882,
    9380216883,
    9380216884,
    9380216885
  ],
  "tags": {
    "highway": "cycleway",
    "oneway": "yes",
    "start_date": "2021",
    "surface": "concrete",
    "width": "1.9"
  }
},
{
  "type": "way",
  "id": 1016975842,
  "nodes": [
    9380216877,
    9380216878
  ],
  "tags": {
    "bridge": "yes",
    "highway": "cycleway",
    "layer": "1",
    "oneway": "yes",
    "start_date": "2021",
    "surface": "concrete",
    "width": "1.9"
  }
},
{
  "type": "way",
  "id": 1017012908,
  "nodes": [
    9380553752,
    9380553753,
    9380553754,
    9380553769,
    9380553755,
    9380553756,
    9380553768,
    9380553757,
    9380553758,
    9380553767,
    9380553759,
    9380553760,
    9380553766,
    9380553761,
    9380553762,
    9380553763,
    9380553765,
    9380553764
  ],
  "tags": {
    "highway": "cycleway",
    "oneway": "no",
    "start_date": "2021",
    "surface": "concrete",
    "width": "2.9"
  }
},
{
  "type": "area",
  "id": 3600162431,
  "tags": {
    "admin_level": "8",
    "boundary": "administrative",
    "name": "Pau",
    "name:ar": "بو",
    "name:ca": "Pau",
    "name:eo": "Paŭo",
    "name:eu": "Paue",
    "name:ja": "ポー",
    "name:la": "Palum",
    "name:lt": "Po",
    "name:oc": "Pau",
    "name:ru": "По",
    "name:sr": "По",
    "name:zh": "波城",
    "population": "75627",
    "population:date": "2019",
    "postal_code": "64000",
    "ref:INSEE": "64445",
    "source:name:oc": "ieo-bdtopoc",
    "source:population": "INSEE 2022",
    "type": "boundary",
    "website": "https://www.pau.fr/",
    "wikidata": "Q132671",
    "wikipedia": "fr:Pau"
  }
},
{
  "type": "node",
  "id": 429367991,
  "lat": 43.2919553,
  "lon": -0.3776572
},
{
  "type": "node",
  "id": 5645933861,
  "lat": 43.2922380,
  "lon": -0.3771558
},
{
  "type": "node",
  "id": 5645933863,
  "lat": 43.2922614,
  "lon": -0.3770571
},
{
  "type": "node",
  "id": 5645933865,
  "lat": 43.2922624,
  "lon": -0.3769625
},
{
  "type": "node",
  "id": 5645933866,
  "lat": 43.2922388,
  "lon": -0.3766244
},
{
  "type": "node",
  "id": 6485259837,
  "lat": 43.2920256,
  "lon": -0.3775968
},
{
  "type": "node",
  "id": 7696189883,
  "lat": 43.2920624,
  "lon": -0.3775458
},
{
  "type": "node",
  "id": 8373403796,
  "lat": 43.2919640,
  "lon": -0.3776497
},
{
  "type": "node",
  "id": 286680625,
  "lat": 43.2934296,
  "lon": -0.3674476
},
{
  "type": "node",
  "id": 286680639,
  "lat": 43.2933290,
  "lon": -0.3687028
},
{
  "type": "node",
  "id": 5433599341,
  "lat": 43.2934059,
  "lon": -0.3674392
},
{
  "type": "node",
  "id": 5442221900,
  "lat": 43.2933033,
  "lon": -0.3687023
},
{
  "type": "node",
  "id": 286988451,
  "lat": 43.2972699,
  "lon": -0.3745452
},
{
  "type": "node",
  "id": 339376877,
  "lat": 43.2973004,
  "lon": -0.3749067
},
{
  "type": "node",
  "id": 7068123410,
  "lat": 43.2972677,
  "lon": -0.3748666
},
{
  "type": "node",
  "id": 7068123411,
  "lat": 43.2972790,
  "lon": -0.3747285
},
{
  "type": "node",
  "id": 7068123412,
  "lat": 43.2972778,
  "lon": -0.3746843
},
{
  "type": "node",
  "id": 7068123413,
  "lat": 43.2972670,
  "lon": -0.3745779
},
{
  "type": "node",
  "id": 7068123414,
  "lat": 43.2972634,
  "lon": -0.3746155
},
{
  "type": "node",
  "id": 7126437305,
  "lat": 43.2971475,
  "lon": -0.3759427
},
{
  "type": "node",
  "id": 7126508228,
  "lat": 43.2972036,
  "lon": -0.3754646
},
{
  "type": "node",
  "id": 2428993907,
  "lat": 43.3044356,
  "lon": -0.3672280
},
{
  "type": "node",
  "id": 2428993910,
  "lat": 43.3046759,
  "lon": -0.3672823
},
{
  "type": "node",
  "id": 2562891266,
  "lat": 43.3050259,
  "lon": -0.3670821
},
{
  "type": "node",
  "id": 5856146916,
  "lat": 43.3045417,
  "lon": -0.3672887
},
{
  "type": "node",
  "id": 6369789344,
  "lat": 43.3043511,
  "lon": -0.3670385
},
{
  "type": "node",
  "id": 6821726904,
  "lat": 43.3044899,
  "lon": -0.3672682
},
{
  "type": "node",
  "id": 6821726905,
  "lat": 43.3045938,
  "lon": -0.3672934
},
{
  "type": "node",
  "id": 6821846803,
  "lat": 43.3046001,
  "lon": -0.3673551
},
{
  "type": "node",
  "id": 3426690390,
  "lat": 43.3181353,
  "lon": -0.3782367
},
{
  "type": "node",
  "id": 3426690391,
  "lat": 43.3182260,
  "lon": -0.3783385
},
{
  "type": "node",
  "id": 4510896045,
  "lat": 43.3183479,
  "lon": -0.3776215
},
{
  "type": "node",
  "id": 4510896046,
  "lat": 43.3184349,
  "lon": -0.3770728
},
{
  "type": "node",
  "id": 4510896047,
  "lat": 43.3184732,
  "lon": -0.3767969
},
{
  "type": "node",
  "id": 4510896048,
  "lat": 43.3186658,
  "lon": -0.3756040
},
{
  "type": "node",
  "id": 4510896049,
  "lat": 43.3187992,
  "lon": -0.3747890
},
{
  "type": "node",
  "id": 4510896050,
  "lat": 43.3189083,
  "lon": -0.3735897
},
{
  "type": "node",
  "id": 4510899049,
  "lat": 43.3187389,
  "lon": -0.3746965
},
{
  "type": "node",
  "id": 4510899050,
  "lat": 43.3186588,
  "lon": -0.3752132
},
{
  "type": "node",
  "id": 4510899051,
  "lat": 43.3184337,
  "lon": -0.3766055
},
{
  "type": "node",
  "id": 4510899052,
  "lat": 43.3182585,
  "lon": -0.3777570
},
{
  "type": "node",
  "id": 4510899053,
  "lat": 43.3182028,
  "lon": -0.3780935
},
{
  "type": "node",
  "id": 5790011246,
  "lat": 43.3182746,
  "lon": -0.3781237
},
{
  "type": "node",
  "id": 5936939661,
  "lat": 43.3165252,
  "lon": -0.3748237
},
{
  "type": "node",
  "id": 5936939668,
  "lat": 43.3165644,
  "lon": -0.3747064
},
{
  "type": "node",
  "id": 6362800668,
  "lat": 43.3185095,
  "lon": -0.3761270
},
{
  "type": "node",
  "id": 6362800669,
  "lat": 43.3187003,
  "lon": -0.3749456
},
{
  "type": "node",
  "id": 6362800671,
  "lat": 43.3184427,
  "lon": -0.3770163
},
{
  "type": "node",
  "id": 6362800672,
  "lat": 43.3187697,
  "lon": -0.3749689
},
{
  "type": "node",
  "id": 6362800673,
  "lat": 43.3188741,
  "lon": -0.3739658
},
{
  "type": "node",
  "id": 6775404368,
  "lat": 43.3180754,
  "lon": -0.3735848
},
{
  "type": "node",
  "id": 6775404369,
  "lat": 43.3179514,
  "lon": -0.3736814
},
{
  "type": "node",
  "id": 6775404370,
  "lat": 43.3178148,
  "lon": -0.3737866
},
{
  "type": "node",
  "id": 6775404371,
  "lat": 43.3176563,
  "lon": -0.3739047
},
{
  "type": "node",
  "id": 6775404372,
  "lat": 43.3175931,
  "lon": -0.3739530
},
{
  "type": "node",
  "id": 6775404374,
  "lat": 43.3173240,
  "lon": -0.3741635
},
{
  "type": "node",
  "id": 6775404375,
  "lat": 43.3172577,
  "lon": -0.3742151
},
{
  "type": "node",
  "id": 6775404376,
  "lat": 43.3170723,
  "lon": -0.3743620
},
{
  "type": "node",
  "id": 6775404377,
  "lat": 43.3169674,
  "lon": -0.3744411
},
{
  "type": "node",
  "id": 6775404378,
  "lat": 43.3168089,
  "lon": -0.3745598
},
{
  "type": "node",
  "id": 6775404379,
  "lat": 43.3165931,
  "lon": -0.3747462
},
{
  "type": "node",
  "id": 6775404381,
  "lat": 43.3168809,
  "lon": -0.3745059
},
{
  "type": "node",
  "id": 6775404382,
  "lat": 43.3169293,
  "lon": -0.3744696
},
{
  "type": "node",
  "id": 6775404383,
  "lat": 43.3168369,
  "lon": -0.3745389
},
{
  "type": "node",
  "id": 6775404384,
  "lat": 43.3174746,
  "lon": -0.3740421
},
{
  "type": "node",
  "id": 6775417385,
  "lat": 43.3173710,
  "lon": -0.3741236
},
{
  "type": "node",
  "id": 6815886545,
  "lat": 43.3179134,
  "lon": -0.3735936
},
{
  "type": "node",
  "id": 6815886546,
  "lat": 43.3177581,
  "lon": -0.3737133
},
{
  "type": "node",
  "id": 6815886547,
  "lat": 43.3175610,
  "lon": -0.3738628
},
{
  "type": "node",
  "id": 6815886548,
  "lat": 43.3174225,
  "lon": -0.3739640
},
{
  "type": "node",
  "id": 6815886549,
  "lat": 43.3173133,
  "lon": -0.3740424
},
{
  "type": "node",
  "id": 6815886550,
  "lat": 43.3165965,
  "lon": -0.3746085
},
{
  "type": "node",
  "id": 7158591343,
  "lat": 43.3181844,
  "lon": -0.3781525
},
{
  "type": "node",
  "id": 7777727029,
  "lat": 43.3182500,
  "lon": -0.3782288
},
{
  "type": "node",
  "id": 286988762,
  "lat": 43.3190894,
  "lon": -0.3712603
},
{
  "type": "node",
  "id": 356506868,
  "lat": 43.3175392,
  "lon": -0.3710836
},
{
  "type": "node",
  "id": 4510896051,
  "lat": 43.3189977,
  "lon": -0.3726583
},
{
  "type": "node",
  "id": 4510896052,
  "lat": 43.3191099,
  "lon": -0.3714591
},
{
  "type": "node",
  "id": 4510899046,
  "lat": 43.3189768,
  "lon": -0.3718322
},
{
  "type": "node",
  "id": 4510899047,
  "lat": 43.3189814,
  "lon": -0.3719470
},
{
  "type": "node",
  "id": 4510899048,
  "lat": 43.3189791,
  "lon": -0.3720841
},
{
  "type": "node",
  "id": 5738774286,
  "lat": 43.3161802,
  "lon": -0.3730512
},
{
  "type": "node",
  "id": 6362800670,
  "lat": 43.3189048,
  "lon": -0.3728917
},
{
  "type": "node",
  "id": 6362800674,
  "lat": 43.3189490,
  "lon": -0.3731557
},
{
  "type": "node",
  "id": 6362800675,
  "lat": 43.3190119,
  "lon": -0.3714450
},
{
  "type": "node",
  "id": 6775404353,
  "lat": 43.3182876,
  "lon": -0.3733246
},
{
  "type": "node",
  "id": 6775404354,
  "lat": 43.3183754,
  "lon": -0.3732576
},
{
  "type": "node",
  "id": 6775404355,
  "lat": 43.3185022,
  "lon": -0.3731583
},
{
  "type": "node",
  "id": 6775404356,
  "lat": 43.3186730,
  "lon": -0.3730215
},
{
  "type": "node",
  "id": 6775404357,
  "lat": 43.3187145,
  "lon": -0.3729880
},
{
  "type": "node",
  "id": 6775404358,
  "lat": 43.3189107,
  "lon": -0.3728272
},
{
  "type": "node",
  "id": 6775404359,
  "lat": 43.3188696,
  "lon": -0.3728660
},
{
  "type": "node",
  "id": 6775404360,
  "lat": 43.3188998,
  "lon": -0.3728378
},
{
  "type": "node",
  "id": 6775404361,
  "lat": 43.3189119,
  "lon": -0.3728146
},
{
  "type": "node",
  "id": 6775404362,
  "lat": 43.3187457,
  "lon": -0.3730631
},
{
  "type": "node",
  "id": 6775404363,
  "lat": 43.3186391,
  "lon": -0.3731496
},
{
  "type": "node",
  "id": 6775404364,
  "lat": 43.3185583,
  "lon": -0.3732133
},
{
  "type": "node",
  "id": 6775404365,
  "lat": 43.3184344,
  "lon": -0.3733159
},
{
  "type": "node",
  "id": 6775404366,
  "lat": 43.3183032,
  "lon": -0.3734152
},
{
  "type": "node",
  "id": 6775404367,
  "lat": 43.3181822,
  "lon": -0.3735084
},
{
  "type": "node",
  "id": 6775404373,
  "lat": 43.3188999,
  "lon": -0.3729454
},
{
  "type": "node",
  "id": 6801875074,
  "lat": 43.3174581,
  "lon": -0.3712204
},
{
  "type": "node",
  "id": 6815886540,
  "lat": 43.3182161,
  "lon": -0.3733792
},
{
  "type": "node",
  "id": 6815886551,
  "lat": 43.3181927,
  "lon": -0.3733865
},
{
  "type": "node",
  "id": 7140814704,
  "lat": 43.3189761,
  "lon": -0.3728836
},
{
  "type": "node",
  "id": 7140814705,
  "lat": 43.3189417,
  "lon": -0.3729114
},
{
  "type": "node",
  "id": 7152279290,
  "lat": 43.3174312,
  "lon": -0.3713110
},
{
  "type": "node",
  "id": 7152279291,
  "lat": 43.3173919,
  "lon": -0.3718071
},
{
  "type": "node",
  "id": 7152279292,
  "lat": 43.3173411,
  "lon": -0.3719835
},
{
  "type": "node",
  "id": 7152279293,
  "lat": 43.3171829,
  "lon": -0.3722125
},
{
  "type": "node",
  "id": 7297083335,
  "lat": 43.3162655,
  "lon": -0.3729509
},
{
  "type": "node",
  "id": 7297083336,
  "lat": 43.3172604,
  "lon": -0.3721149
},
{
  "type": "node",
  "id": 7297083337,
  "lat": 43.3166681,
  "lon": -0.3726275
},
{
  "type": "node",
  "id": 8119145620,
  "lat": 43.3173708,
  "lon": -0.3719037
},
{
  "type": "node",
  "id": 286678874,
  "lat": 43.2982771,
  "lon": -0.3583692
},
{
  "type": "node",
  "id": 5407574800,
  "lat": 43.2983427,
  "lon": -0.3584135
},
{
  "type": "node",
  "id": 5407574801,
  "lat": 43.2984532,
  "lon": -0.3584229
},
{
  "type": "node",
  "id": 5407574802,
  "lat": 43.2987448,
  "lon": -0.3583807
},
{
  "type": "node",
  "id": 5407574803,
  "lat": 43.2991833,
  "lon": -0.3583165
},
{
  "type": "node",
  "id": 5407574804,
  "lat": 43.2994395,
  "lon": -0.3582774
},
{
  "type": "node",
  "id": 5407574805,
  "lat": 43.2996844,
  "lon": -0.3582382
},
{
  "type": "node",
  "id": 5407574806,
  "lat": 43.2999987,
  "lon": -0.3581929
},
{
  "type": "node",
  "id": 5407574807,
  "lat": 43.3004224,
  "lon": -0.3581287
},
{
  "type": "node",
  "id": 5407574808,
  "lat": 43.3008210,
  "lon": -0.3580645
},
{
  "type": "node",
  "id": 5407574809,
  "lat": 43.3012550,
  "lon": -0.3580082
},
{
  "type": "node",
  "id": 6375779100,
  "lat": 43.3013137,
  "lon": -0.3579382
},
{
  "type": "node",
  "id": 8279201458,
  "lat": 43.2999528,
  "lon": -0.3596028
},
{
  "type": "node",
  "id": 8279201459,
  "lat": 43.2999225,
  "lon": -0.3596413
},
{
  "type": "node",
  "id": 8279201460,
  "lat": 43.2998142,
  "lon": -0.3601199
},
{
  "type": "node",
  "id": 8376048093,
  "lat": 43.3003670,
  "lon": -0.3581371
},
{
  "type": "node",
  "id": 286809545,
  "lat": 43.3068401,
  "lon": -0.3655604
},
{
  "type": "node",
  "id": 2562891268,
  "lat": 43.3051317,
  "lon": -0.3670009
},
{
  "type": "node",
  "id": 2562891269,
  "lat": 43.3053043,
  "lon": -0.3668044
},
{
  "type": "node",
  "id": 2562891270,
  "lat": 43.3054216,
  "lon": -0.3665976
},
{
  "type": "node",
  "id": 2562891271,
  "lat": 43.3054534,
  "lon": -0.3665337
},
{
  "type": "node",
  "id": 2562891272,
  "lat": 43.3056452,
  "lon": -0.3661411
},
{
  "type": "node",
  "id": 2562891273,
  "lat": 43.3057977,
  "lon": -0.3658508
},
{
  "type": "node",
  "id": 2562891274,
  "lat": 43.3058469,
  "lon": -0.3657646
},
{
  "type": "node",
  "id": 2562891275,
  "lat": 43.3062638,
  "lon": -0.3652232
},
{
  "type": "node",
  "id": 2562891276,
  "lat": 43.3063944,
  "lon": -0.3650926
},
{
  "type": "node",
  "id": 2562891277,
  "lat": 43.3066712,
  "lon": -0.3648892
},
{
  "type": "node",
  "id": 2562891278,
  "lat": 43.3070720,
  "lon": -0.3646512
},
{
  "type": "node",
  "id": 2921672729,
  "lat": 43.3094314,
  "lon": -0.3639312
},
{
  "type": "node",
  "id": 4510489154,
  "lat": 43.3081231,
  "lon": -0.3606244
},
{
  "type": "node",
  "id": 4510491004,
  "lat": 43.3087056,
  "lon": -0.3637634
},
{
  "type": "node",
  "id": 4510491005,
  "lat": 43.3085432,
  "lon": -0.3628257
},
{
  "type": "node",
  "id": 4510491006,
  "lat": 43.3082839,
  "lon": -0.3610033
},
{
  "type": "node",
  "id": 5108274143,
  "lat": 43.3085789,
  "lon": -0.3630639
},
{
  "type": "node",
  "id": 5394352768,
  "lat": 43.3086434,
  "lon": -0.3634654
},
{
  "type": "node",
  "id": 5505544813,
  "lat": 43.3083278,
  "lon": -0.3613171
},
{
  "type": "node",
  "id": 5505544814,
  "lat": 43.3081003,
  "lon": -0.3604771
},
{
  "type": "node",
  "id": 6150139096,
  "lat": 43.3042660,
  "lon": -0.3669709
},
{
  "type": "node",
  "id": 6387893126,
  "lat": 43.3094437,
  "lon": -0.3639978
},
{
  "type": "node",
  "id": 6387893128,
  "lat": 43.3069416,
  "lon": -0.3655142
},
{
  "type": "node",
  "id": 6387893131,
  "lat": 43.3093626,
  "lon": -0.3640442
},
{
  "type": "node",
  "id": 6388874786,
  "lat": 43.3093580,
  "lon": -0.3634591
},
{
  "type": "node",
  "id": 6388874792,
  "lat": 43.3085422,
  "lon": -0.3638891
},
{
  "type": "node",
  "id": 6388874793,
  "lat": 43.3093683,
  "lon": -0.3635116
},
{
  "type": "node",
  "id": 6388874795,
  "lat": 43.3093846,
  "lon": -0.3636260
},
{
  "type": "node",
  "id": 6388874796,
  "lat": 43.3094208,
  "lon": -0.3638737
},
{
  "type": "node",
  "id": 6396864147,
  "lat": 43.3086267,
  "lon": -0.3638041
},
{
  "type": "node",
  "id": 6821726906,
  "lat": 43.3059790,
  "lon": -0.3655811
},
{
  "type": "node",
  "id": 6821726907,
  "lat": 43.3065167,
  "lon": -0.3649918
},
{
  "type": "node",
  "id": 6821726908,
  "lat": 43.3067927,
  "lon": -0.3648112
},
{
  "type": "node",
  "id": 6821726909,
  "lat": 43.3074427,
  "lon": -0.3644506
},
{
  "type": "node",
  "id": 6821726910,
  "lat": 43.3080193,
  "lon": -0.3641538
},
{
  "type": "node",
  "id": 6821726911,
  "lat": 43.3084676,
  "lon": -0.3639308
},
{
  "type": "node",
  "id": 6821726912,
  "lat": 43.3087592,
  "lon": -0.3637554
},
{
  "type": "node",
  "id": 6821726913,
  "lat": 43.3092480,
  "lon": -0.3635098
},
{
  "type": "node",
  "id": 6918448019,
  "lat": 43.3085576,
  "lon": -0.3638655
},
{
  "type": "node",
  "id": 6993051305,
  "lat": 43.3085715,
  "lon": -0.3638318
},
{
  "type": "node",
  "id": 6993051306,
  "lat": 43.3085806,
  "lon": -0.3639269
},
{
  "type": "node",
  "id": 6993051307,
  "lat": 43.3085903,
  "lon": -0.3640126
},
{
  "type": "node",
  "id": 6993051308,
  "lat": 43.3086009,
  "lon": -0.3640983
},
{
  "type": "node",
  "id": 6993051309,
  "lat": 43.3086409,
  "lon": -0.3643296
},
{
  "type": "node",
  "id": 6993051310,
  "lat": 43.3086516,
  "lon": -0.3643796
},
{
  "type": "node",
  "id": 6993051311,
  "lat": 43.3086590,
  "lon": -0.3644261
},
{
  "type": "node",
  "id": 7004243983,
  "lat": 43.3085653,
  "lon": -0.3637761
},
{
  "type": "node",
  "id": 7004247585,
  "lat": 43.3086969,
  "lon": -0.3637218
},
{
  "type": "node",
  "id": 7213883092,
  "lat": 43.3055391,
  "lon": -0.3663574
},
{
  "type": "node",
  "id": 8118721852,
  "lat": 43.3061964,
  "lon": -0.3653078
},
{
  "type": "node",
  "id": 8118721854,
  "lat": 43.3073894,
  "lon": -0.3644795
},
{
  "type": "node",
  "id": 8173375567,
  "lat": 43.3093863,
  "lon": -0.3634456
},
{
  "type": "node",
  "id": 8173375570,
  "lat": 43.3094719,
  "lon": -0.3639845
},
{
  "type": "node",
  "id": 8418818373,
  "lat": 43.3075818,
  "lon": -0.3651086
},
{
  "type": "node",
  "id": 9316562533,
  "lat": 43.3074166,
  "lon": -0.3652133
},
{
  "type": "node",
  "id": 9389139782,
  "lat": 43.3084959,
  "lon": -0.3632617
},
{
  "type": "node",
  "id": 9389139784,
  "lat": 43.3085117,
  "lon": -0.3633785
},
{
  "type": "node",
  "id": 9389139785,
  "lat": 43.3074843,
  "lon": -0.3644292
},
{
  "type": "node",
  "id": 9389139797,
  "lat": 43.3085591,
  "lon": -0.3637301
},
{
  "type": "node",
  "id": 9389166383,
  "lat": 43.3085293,
  "lon": -0.3635087
},
{
  "type": "node",
  "id": 9393652572,
  "lat": 43.3082781,
  "lon": -0.3617207
},
{
  "type": "node",
  "id": 9393652575,
  "lat": 43.3083523,
  "lon": -0.3622457
},
{
  "type": "node",
  "id": 9393741553,
  "lat": 43.3082901,
  "lon": -0.3618058
},
{
  "type": "node",
  "id": 2921672713,
  "lat": 43.3079406,
  "lon": -0.3585114
},
{
  "type": "node",
  "id": 4510489152,
  "lat": 43.3075930,
  "lon": -0.3567498
},
{
  "type": "node",
  "id": 4510491007,
  "lat": 43.3076932,
  "lon": -0.3567070
},
{
  "type": "node",
  "id": 5129216741,
  "lat": 43.3078527,
  "lon": -0.3586514
},
{
  "type": "node",
  "id": 5129216742,
  "lat": 43.3076321,
  "lon": -0.3570532
},
{
  "type": "node",
  "id": 5129216743,
  "lat": 43.3077597,
  "lon": -0.3579755
},
{
  "type": "node",
  "id": 5505541854,
  "lat": 43.3078820,
  "lon": -0.3580966
},
{
  "type": "node",
  "id": 5505544812,
  "lat": 43.3081099,
  "lon": -0.3597321
},
{
  "type": "node",
  "id": 7154671703,
  "lat": 43.3062636,
  "lon": -0.3555244
},
{
  "type": "node",
  "id": 7231395788,
  "lat": 43.3072646,
  "lon": -0.3551393
},
{
  "type": "node",
  "id": 7231395789,
  "lat": 43.3075483,
  "lon": -0.3565304
},
{
  "type": "node",
  "id": 7231395796,
  "lat": 43.3072461,
  "lon": -0.3550507
},
{
  "type": "node",
  "id": 7231395802,
  "lat": 43.3073452,
  "lon": -0.3550123
},
{
  "type": "node",
  "id": 7231395803,
  "lat": 43.3076610,
  "lon": -0.3565504
},
{
  "type": "node",
  "id": 8503612503,
  "lat": 43.3079221,
  "lon": -0.3583807
},
{
  "type": "node",
  "id": 9380553760,
  "lat": 43.3094195,
  "lon": -0.3550627
},
{
  "type": "node",
  "id": 9380553761,
  "lat": 43.3091248,
  "lon": -0.3549433
},
{
  "type": "node",
  "id": 9380553762,
  "lat": 43.3086193,
  "lon": -0.3548548
},
{
  "type": "node",
  "id": 9380553763,
  "lat": 43.3078044,
  "lon": -0.3549446
},
{
  "type": "node",
  "id": 9380553764,
  "lat": 43.3073137,
  "lon": -0.3550898
},
{
  "type": "node",
  "id": 9380553765,
  "lat": 43.3073584,
  "lon": -0.3550766
},
{
  "type": "node",
  "id": 9380553766,
  "lat": 43.3093191,
  "lon": -0.3550220
},
{
  "type": "node",
  "id": 2443807561,
  "lat": 43.3007587,
  "lon": -0.3490310
},
{
  "type": "node",
  "id": 6375376211,
  "lat": 43.3021486,
  "lon": -0.3496221
},
{
  "type": "node",
  "id": 6375376212,
  "lat": 43.3007258,
  "lon": -0.3489634
},
{
  "type": "node",
  "id": 6375376213,
  "lat": 43.3010000,
  "lon": -0.3478062
},
{
  "type": "node",
  "id": 6375376214,
  "lat": 43.3010480,
  "lon": -0.3477097
},
{
  "type": "node",
  "id": 6398374423,
  "lat": 43.3007712,
  "lon": -0.3489884
},
{
  "type": "node",
  "id": 6426708419,
  "lat": 43.3007468,
  "lon": -0.3488636
},
{
  "type": "node",
  "id": 7016742266,
  "lat": 43.3006681,
  "lon": -0.3490098
},
{
  "type": "node",
  "id": 7016742268,
  "lat": 43.3007482,
  "lon": -0.3490615
},
{
  "type": "node",
  "id": 2443807587,
  "lat": 43.3063192,
  "lon": -0.3525879
},
{
  "type": "node",
  "id": 2859691903,
  "lat": 43.3049429,
  "lon": -0.3523112
},
{
  "type": "node",
  "id": 7231395538,
  "lat": 43.3053689,
  "lon": -0.3524386
},
{
  "type": "node",
  "id": 7231395787,
  "lat": 43.3068510,
  "lon": -0.3526058
},
{
  "type": "node",
  "id": 7231395790,
  "lat": 43.3067647,
  "lon": -0.3527406
},
{
  "type": "node",
  "id": 7231395791,
  "lat": 43.3066849,
  "lon": -0.3526556
},
{
  "type": "node",
  "id": 7231395792,
  "lat": 43.3061878,
  "lon": -0.3525636
},
{
  "type": "node",
  "id": 7231395793,
  "lat": 43.3049593,
  "lon": -0.3523760
},
{
  "type": "node",
  "id": 7231395794,
  "lat": 43.3051290,
  "lon": -0.3524020
},
{
  "type": "node",
  "id": 7231395795,
  "lat": 43.3068906,
  "lon": -0.3533446
},
{
  "type": "node",
  "id": 7231395797,
  "lat": 43.3067774,
  "lon": -0.3525146
},
{
  "type": "node",
  "id": 7231395798,
  "lat": 43.3064090,
  "lon": -0.3524312
},
{
  "type": "node",
  "id": 7231395799,
  "lat": 43.3062898,
  "lon": -0.3524116
},
{
  "type": "node",
  "id": 7231395800,
  "lat": 43.3068826,
  "lon": -0.3527595
},
{
  "type": "node",
  "id": 7231395801,
  "lat": 43.3069969,
  "lon": -0.3533162
},
{
  "type": "node",
  "id": 2926383605,
  "lat": 43.3064696,
  "lon": -0.3438364
},
{
  "type": "node",
  "id": 4510091907,
  "lat": 43.3067618,
  "lon": -0.3439694
},
{
  "type": "node",
  "id": 4510091908,
  "lat": 43.3069509,
  "lon": -0.3440756
},
{
  "type": "node",
  "id": 4510091910,
  "lat": 43.3071248,
  "lon": -0.3441002
},
{
  "type": "node",
  "id": 4510091913,
  "lat": 43.3090475,
  "lon": -0.3437477
},
{
  "type": "node",
  "id": 5505553912,
  "lat": 43.3073330,
  "lon": -0.3440612
},
{
  "type": "node",
  "id": 5856146943,
  "lat": 43.3091276,
  "lon": -0.3437058
},
{
  "type": "node",
  "id": 8409373215,
  "lat": 43.3065090,
  "lon": -0.3438052
},
{
  "type": "node",
  "id": 286819673,
  "lat": 43.3113082,
  "lon": -0.3614850
},
{
  "type": "node",
  "id": 420618327,
  "lat": 43.3155101,
  "lon": -0.3620195
},
{
  "type": "node",
  "id": 420618331,
  "lat": 43.3143644,
  "lon": -0.3623152
},
{
  "type": "node",
  "id": 420618333,
  "lat": 43.3128621,
  "lon": -0.3626894
},
{
  "type": "node",
  "id": 420618336,
  "lat": 43.3126166,
  "lon": -0.3628185
},
{
  "type": "node",
  "id": 420618338,
  "lat": 43.3122594,
  "lon": -0.3628965
},
{
  "type": "node",
  "id": 420618340,
  "lat": 43.3117231,
  "lon": -0.3633201
},
{
  "type": "node",
  "id": 420618345,
  "lat": 43.3116091,
  "lon": -0.3641936
},
{
  "type": "node",
  "id": 420618347,
  "lat": 43.3119004,
  "lon": -0.3632079
},
{
  "type": "node",
  "id": 420618352,
  "lat": 43.3148098,
  "lon": -0.3623179
},
{
  "type": "node",
  "id": 459149781,
  "lat": 43.3143121,
  "lon": -0.3615120
},
{
  "type": "node",
  "id": 5406772641,
  "lat": 43.3145444,
  "lon": -0.3622983
},
{
  "type": "node",
  "id": 5406772643,
  "lat": 43.3149966,
  "lon": -0.3623024
},
{
  "type": "node",
  "id": 5406772644,
  "lat": 43.3151526,
  "lon": -0.3622419
},
{
  "type": "node",
  "id": 5406772647,
  "lat": 43.3157101,
  "lon": -0.3619660
},
{
  "type": "node",
  "id": 5406772648,
  "lat": 43.3160287,
  "lon": -0.3619581
},
{
  "type": "node",
  "id": 5648864959,
  "lat": 43.3159657,
  "lon": -0.3606448
},
{
  "type": "node",
  "id": 5856146913,
  "lat": 43.3110345,
  "lon": -0.3632465
},
{
  "type": "node",
  "id": 6005408571,
  "lat": 43.3109568,
  "lon": -0.3629354
},
{
  "type": "node",
  "id": 6005411787,
  "lat": 43.3109969,
  "lon": -0.3630956
},
{
  "type": "node",
  "id": 6387866850,
  "lat": 43.3113681,
  "lon": -0.3616541
},
{
  "type": "node",
  "id": 6387866851,
  "lat": 43.3114379,
  "lon": -0.3624323
},
{
  "type": "node",
  "id": 6387866852,
  "lat": 43.3114549,
  "lon": -0.3624773
},
{
  "type": "node",
  "id": 6387866853,
  "lat": 43.3115167,
  "lon": -0.3625268
},
{
  "type": "node",
  "id": 6387866854,
  "lat": 43.3115566,
  "lon": -0.3625240
},
{
  "type": "node",
  "id": 6387866855,
  "lat": 43.3116581,
  "lon": -0.3630296
},
{
  "type": "node",
  "id": 6387866858,
  "lat": 43.3114846,
  "lon": -0.3633654
},
{
  "type": "node",
  "id": 6387866859,
  "lat": 43.3111396,
  "lon": -0.3633548
},
{
  "type": "node",
  "id": 6387866860,
  "lat": 43.3111211,
  "lon": -0.3632994
},
{
  "type": "node",
  "id": 6387866861,
  "lat": 43.3110889,
  "lon": -0.3632661
},
{
  "type": "node",
  "id": 6387866862,
  "lat": 43.3108997,
  "lon": -0.3627129
},
{
  "type": "node",
  "id": 6387866863,
  "lat": 43.3109384,
  "lon": -0.3626878
},
{
  "type": "node",
  "id": 6387866864,
  "lat": 43.3110885,
  "lon": -0.3625651
},
{
  "type": "node",
  "id": 6387866865,
  "lat": 43.3111080,
  "lon": -0.3624710
},
{
  "type": "node",
  "id": 6387866866,
  "lat": 43.3115775,
  "lon": -0.3626344
},
{
  "type": "node",
  "id": 6387866868,
  "lat": 43.3116126,
  "lon": -0.3628035
},
{
  "type": "node",
  "id": 6387866870,
  "lat": 43.3117623,
  "lon": -0.3632961
},
{
  "type": "node",
  "id": 6387866871,
  "lat": 43.3114046,
  "lon": -0.3633685
},
{
  "type": "node",
  "id": 6387866872,
  "lat": 43.3112304,
  "lon": -0.3633716
},
{
  "type": "node",
  "id": 6387866873,
  "lat": 43.3110143,
  "lon": -0.3631647
},
{
  "type": "node",
  "id": 6387866874,
  "lat": 43.3109211,
  "lon": -0.3627983
},
{
  "type": "node",
  "id": 6387866876,
  "lat": 43.3111930,
  "lon": -0.3624597
},
{
  "type": "node",
  "id": 6387866877,
  "lat": 43.3113601,
  "lon": -0.3624418
},
{
  "type": "node",
  "id": 6387893123,
  "lat": 43.3111574,
  "lon": -0.3619256
},
{
  "type": "node",
  "id": 6387893124,
  "lat": 43.3112660,
  "lon": -0.3637618
},
{
  "type": "node",
  "id": 6387893125,
  "lat": 43.3111628,
  "lon": -0.3635064
},
{
  "type": "node",
  "id": 6387893130,
  "lat": 43.3104668,
  "lon": -0.3635139
},
{
  "type": "node",
  "id": 6387893134,
  "lat": 43.3101487,
  "lon": -0.3630792
},
{
  "type": "node",
  "id": 6387893135,
  "lat": 43.3097295,
  "lon": -0.3632867
},
{
  "type": "node",
  "id": 6387893136,
  "lat": 43.3104166,
  "lon": -0.3629548
},
{
  "type": "node",
  "id": 6387893139,
  "lat": 43.3114375,
  "lon": -0.3637809
},
{
  "type": "node",
  "id": 6387893140,
  "lat": 43.3114883,
  "lon": -0.3634994
},
{
  "type": "node",
  "id": 6388869720,
  "lat": 43.3113091,
  "lon": -0.3642801
},
{
  "type": "node",
  "id": 6388869721,
  "lat": 43.3114779,
  "lon": -0.3642296
},
{
  "type": "node",
  "id": 6388869722,
  "lat": 43.3113395,
  "lon": -0.3646819
},
{
  "type": "node",
  "id": 6388869723,
  "lat": 43.3112214,
  "lon": -0.3642451
},
{
  "type": "node",
  "id": 6388921092,
  "lat": 43.3160312,
  "lon": -0.3608341
},
{
  "type": "node",
  "id": 6388922485,
  "lat": 43.3143207,
  "lon": -0.3615786
},
{
  "type": "node",
  "id": 6821726914,
  "lat": 43.3108653,
  "lon": -0.3627456
},
{
  "type": "node",
  "id": 6821814255,
  "lat": 43.3116507,
  "lon": -0.3629896
},
{
  "type": "node",
  "id": 6821814259,
  "lat": 43.3110298,
  "lon": -0.3626340
},
{
  "type": "node",
  "id": 6821814263,
  "lat": 43.3113983,
  "lon": -0.3620990
},
{
  "type": "node",
  "id": 6821814264,
  "lat": 43.3114301,
  "lon": -0.3623155
},
{
  "type": "node",
  "id": 6821814265,
  "lat": 43.3111327,
  "lon": -0.3622101
},
{
  "type": "node",
  "id": 6821814266,
  "lat": 43.3111302,
  "lon": -0.3620958
},
{
  "type": "node",
  "id": 6821814267,
  "lat": 43.3111940,
  "lon": -0.3636304
},
{
  "type": "node",
  "id": 6821814268,
  "lat": 43.3115836,
  "lon": -0.3633577
},
{
  "type": "node",
  "id": 6822067486,
  "lat": 43.3114682,
  "lon": -0.3636421
},
{
  "type": "node",
  "id": 6822067487,
  "lat": 43.3119137,
  "lon": -0.3624124
},
{
  "type": "node",
  "id": 6822067489,
  "lat": 43.3159506,
  "lon": -0.3608059
},
{
  "type": "node",
  "id": 6822067498,
  "lat": 43.3160143,
  "lon": -0.3607804
},
{
  "type": "node",
  "id": 6838834734,
  "lat": 43.3112949,
  "lon": -0.3646035
},
{
  "type": "node",
  "id": 6841770945,
  "lat": 43.3143393,
  "lon": -0.3621255
},
{
  "type": "node",
  "id": 6841770946,
  "lat": 43.3142803,
  "lon": -0.3617643
},
{
  "type": "node",
  "id": 6841770947,
  "lat": 43.3142932,
  "lon": -0.3618423
},
{
  "type": "node",
  "id": 6841770949,
  "lat": 43.3143102,
  "lon": -0.3619384
},
{
  "type": "node",
  "id": 6841770950,
  "lat": 43.3143504,
  "lon": -0.3622157
},
{
  "type": "node",
  "id": 6841770951,
  "lat": 43.3130875,
  "lon": -0.3620194
},
{
  "type": "node",
  "id": 6841770952,
  "lat": 43.3131112,
  "lon": -0.3621925
},
{
  "type": "node",
  "id": 6841770953,
  "lat": 43.3131216,
  "lon": -0.3622949
},
{
  "type": "node",
  "id": 6841770954,
  "lat": 43.3130562,
  "lon": -0.3623897
},
{
  "type": "node",
  "id": 6841770955,
  "lat": 43.3130842,
  "lon": -0.3626352
},
{
  "type": "node",
  "id": 6841770956,
  "lat": 43.3131082,
  "lon": -0.3621650
},
{
  "type": "node",
  "id": 6841770957,
  "lat": 43.3130632,
  "lon": -0.3624452
},
{
  "type": "node",
  "id": 6841770958,
  "lat": 43.3131199,
  "lon": -0.3622584
},
{
  "type": "node",
  "id": 6841770959,
  "lat": 43.3130755,
  "lon": -0.3625348
},
{
  "type": "node",
  "id": 6993051299,
  "lat": 43.3130985,
  "lon": -0.3623433
},
{
  "type": "node",
  "id": 6993051300,
  "lat": 43.3116828,
  "lon": -0.3633924
},
{
  "type": "node",
  "id": 6993051301,
  "lat": 43.3116685,
  "lon": -0.3636064
},
{
  "type": "node",
  "id": 6993051302,
  "lat": 43.3116710,
  "lon": -0.3640092
},
{
  "type": "node",
  "id": 6993051303,
  "lat": 43.3116627,
  "lon": -0.3640921
},
{
  "type": "node",
  "id": 6993051312,
  "lat": 43.3096428,
  "lon": -0.3633231
},
{
  "type": "node",
  "id": 6993116738,
  "lat": 43.3104580,
  "lon": -0.3629366
},
{
  "type": "node",
  "id": 6993116750,
  "lat": 43.3114017,
  "lon": -0.3621635
},
{
  "type": "node",
  "id": 6993116751,
  "lat": 43.3114240,
  "lon": -0.3622690
},
{
  "type": "node",
  "id": 6993116752,
  "lat": 43.3114806,
  "lon": -0.3625092
},
{
  "type": "node",
  "id": 6993116761,
  "lat": 43.3117886,
  "lon": -0.3624382
},
{
  "type": "node",
  "id": 7004243915,
  "lat": 43.3143575,
  "lon": -0.3622665
},
{
  "type": "node",
  "id": 7004243919,
  "lat": 43.3130799,
  "lon": -0.3625851
},
{
  "type": "node",
  "id": 7004243926,
  "lat": 43.3116729,
  "lon": -0.3630957
},
{
  "type": "node",
  "id": 7004243931,
  "lat": 43.3115080,
  "lon": -0.3633636
},
{
  "type": "node",
  "id": 7004247601,
  "lat": 43.3111125,
  "lon": -0.3624106
},
{
  "type": "node",
  "id": 7004247602,
  "lat": 43.3114339,
  "lon": -0.3623727
},
{
  "type": "node",
  "id": 7004247605,
  "lat": 43.3109950,
  "lon": -0.3632591
},
{
  "type": "node",
  "id": 7004247608,
  "lat": 43.3111498,
  "lon": -0.3634214
},
{
  "type": "node",
  "id": 7004247609,
  "lat": 43.3114857,
  "lon": -0.3634035
},
{
  "type": "node",
  "id": 7004247614,
  "lat": 43.3115980,
  "lon": -0.3625065
},
{
  "type": "node",
  "id": 7004270577,
  "lat": 43.3159914,
  "lon": -0.3607125
},
{
  "type": "node",
  "id": 7826292508,
  "lat": 43.3112449,
  "lon": -0.3643572
},
{
  "type": "node",
  "id": 8081935568,
  "lat": 43.3140935,
  "lon": -0.3623829
},
{
  "type": "node",
  "id": 8081935570,
  "lat": 43.3139951,
  "lon": -0.3624075
},
{
  "type": "node",
  "id": 8405416832,
  "lat": 43.3114684,
  "lon": -0.3636952
},
{
  "type": "node",
  "id": 8405416833,
  "lat": 43.3115267,
  "lon": -0.3642162
},
{
  "type": "node",
  "id": 8879964360,
  "lat": 43.3121609,
  "lon": -0.3629599
},
{
  "type": "node",
  "id": 2428993915,
  "lat": 43.3111966,
  "lon": -0.3586044
},
{
  "type": "node",
  "id": 2428993922,
  "lat": 43.3113029,
  "lon": -0.3585896
},
{
  "type": "node",
  "id": 2428993924,
  "lat": 43.3112716,
  "lon": -0.3587324
},
{
  "type": "node",
  "id": 2428993926,
  "lat": 43.3113256,
  "lon": -0.3588222
},
{
  "type": "node",
  "id": 2428993936,
  "lat": 43.3116111,
  "lon": -0.3584794
},
{
  "type": "node",
  "id": 2428993940,
  "lat": 43.3116473,
  "lon": -0.3587140
},
{
  "type": "node",
  "id": 2428993973,
  "lat": 43.3123055,
  "lon": -0.3584819
},
{
  "type": "node",
  "id": 2428993981,
  "lat": 43.3124116,
  "lon": -0.3581822
},
{
  "type": "node",
  "id": 2428993983,
  "lat": 43.3124517,
  "lon": -0.3584220
},
{
  "type": "node",
  "id": 2428993986,
  "lat": 43.3128626,
  "lon": -0.3579948
},
{
  "type": "node",
  "id": 2428993994,
  "lat": 43.3132541,
  "lon": -0.3580936
},
{
  "type": "node",
  "id": 2428993999,
  "lat": 43.3133864,
  "lon": -0.3580384
},
{
  "type": "node",
  "id": 2428994013,
  "lat": 43.3137565,
  "lon": -0.3576348
},
{
  "type": "node",
  "id": 2428994016,
  "lat": 43.3139822,
  "lon": -0.3575465
},
{
  "type": "node",
  "id": 2428994036,
  "lat": 43.3145776,
  "lon": -0.3573200
},
{
  "type": "node",
  "id": 2428994037,
  "lat": 43.3146228,
  "lon": -0.3575391
},
{
  "type": "node",
  "id": 2428994038,
  "lat": 43.3146526,
  "lon": -0.3571310
},
{
  "type": "node",
  "id": 2428994043,
  "lat": 43.3147097,
  "lon": -0.3571094
},
{
  "type": "node",
  "id": 2428994047,
  "lat": 43.3147902,
  "lon": -0.3570778
},
{
  "type": "node",
  "id": 2428994048,
  "lat": 43.3147840,
  "lon": -0.3575224
},
{
  "type": "node",
  "id": 2428994050,
  "lat": 43.3148588,
  "lon": -0.3571201
},
{
  "type": "node",
  "id": 2428994052,
  "lat": 43.3148739,
  "lon": -0.3571956
},
{
  "type": "node",
  "id": 2428994053,
  "lat": 43.3148890,
  "lon": -0.3572694
},
{
  "type": "node",
  "id": 2428994054,
  "lat": 43.3148407,
  "lon": -0.3575008
},
{
  "type": "node",
  "id": 2428994055,
  "lat": 43.3149045,
  "lon": -0.3573517
},
{
  "type": "node",
  "id": 2428994059,
  "lat": 43.3150147,
  "lon": -0.3573106
},
{
  "type": "node",
  "id": 2428994070,
  "lat": 43.3154073,
  "lon": -0.3571445
},
{
  "type": "node",
  "id": 2428994074,
  "lat": 43.3154852,
  "lon": -0.3568538
},
{
  "type": "node",
  "id": 2428994075,
  "lat": 43.3155301,
  "lon": -0.3570934
},
{
  "type": "node",
  "id": 2428994076,
  "lat": 43.3158452,
  "lon": -0.3567196
},
{
  "type": "node",
  "id": 2469885292,
  "lat": 43.3148648,
  "lon": -0.3543845
},
{
  "type": "node",
  "id": 5648864947,
  "lat": 43.3150038,
  "lon": -0.3583095
},
{
  "type": "node",
  "id": 5648864948,
  "lat": 43.3150457,
  "lon": -0.3585169
},
{
  "type": "node",
  "id": 5648864949,
  "lat": 43.3150558,
  "lon": -0.3585728
},
{
  "type": "node",
  "id": 5648864950,
  "lat": 43.3151002,
  "lon": -0.3587416
},
{
  "type": "node",
  "id": 5648864951,
  "lat": 43.3151790,
  "lon": -0.3589005
},
{
  "type": "node",
  "id": 5648864952,
  "lat": 43.3153392,
  "lon": -0.3590886
},
{
  "type": "node",
  "id": 5648864953,
  "lat": 43.3154826,
  "lon": -0.3591710
},
{
  "type": "node",
  "id": 5648864954,
  "lat": 43.3155977,
  "lon": -0.3592018
},
{
  "type": "node",
  "id": 5648864957,
  "lat": 43.3158295,
  "lon": -0.3597283
},
{
  "type": "node",
  "id": 5648864958,
  "lat": 43.3159202,
  "lon": -0.3603308
},
{
  "type": "node",
  "id": 5829791972,
  "lat": 43.3157370,
  "lon": -0.3592214
},
{
  "type": "node",
  "id": 5851108197,
  "lat": 43.3149451,
  "lon": -0.3553333
},
{
  "type": "node",
  "id": 6105568415,
  "lat": 43.3146953,
  "lon": -0.3566442
},
{
  "type": "node",
  "id": 6388921096,
  "lat": 43.3158183,
  "lon": -0.3595810
},
{
  "type": "node",
  "id": 6388921097,
  "lat": 43.3157772,
  "lon": -0.3592839
},
{
  "type": "node",
  "id": 6396723491,
  "lat": 43.3157639,
  "lon": -0.3592469
},
{
  "type": "node",
  "id": 6482964267,
  "lat": 43.3147366,
  "lon": -0.3575399
},
{
  "type": "node",
  "id": 6482964268,
  "lat": 43.3149495,
  "lon": -0.3552215
},
{
  "type": "node",
  "id": 6482964269,
  "lat": 43.3148972,
  "lon": -0.3549783
},
{
  "type": "node",
  "id": 6487397997,
  "lat": 43.3149345,
  "lon": -0.3573405
},
{
  "type": "node",
  "id": 6487397998,
  "lat": 43.3148876,
  "lon": -0.3571076
},
{
  "type": "node",
  "id": 6838834743,
  "lat": 43.3159564,
  "lon": -0.3565900
},
{
  "type": "node",
  "id": 6838834745,
  "lat": 43.3159969,
  "lon": -0.3569080
},
{
  "type": "node",
  "id": 6838834746,
  "lat": 43.3159740,
  "lon": -0.3565823
},
{
  "type": "node",
  "id": 6838834751,
  "lat": 43.3159360,
  "lon": -0.3566020
},
{
  "type": "node",
  "id": 6918457534,
  "lat": 43.3146002,
  "lon": -0.3561454
},
{
  "type": "node",
  "id": 7140787431,
  "lat": 43.3156937,
  "lon": -0.3592099
},
{
  "type": "node",
  "id": 7140787432,
  "lat": 43.3152565,
  "lon": -0.3590060
},
{
  "type": "node",
  "id": 8164359295,
  "lat": 43.3148714,
  "lon": -0.3544693
},
{
  "type": "node",
  "id": 8164359296,
  "lat": 43.3148892,
  "lon": -0.3545005
},
{
  "type": "node",
  "id": 8164359297,
  "lat": 43.3149041,
  "lon": -0.3545886
},
{
  "type": "node",
  "id": 8164359299,
  "lat": 43.3148889,
  "lon": -0.3546846
},
{
  "type": "node",
  "id": 8164359300,
  "lat": 43.3148828,
  "lon": -0.3548180
},
{
  "type": "node",
  "id": 8164359303,
  "lat": 43.3149520,
  "lon": -0.3552514
},
{
  "type": "node",
  "id": 8164359305,
  "lat": 43.3149280,
  "lon": -0.3553974
},
{
  "type": "node",
  "id": 8383361575,
  "lat": 43.3145951,
  "lon": -0.3561928
},
{
  "type": "node",
  "id": 8868951570,
  "lat": 43.3152831,
  "lon": -0.3569396
},
{
  "type": "node",
  "id": 8942241427,
  "lat": 43.3140454,
  "lon": -0.3577723
},
{
  "type": "node",
  "id": 9364505941,
  "lat": 43.3120605,
  "lon": -0.3583126
},
{
  "type": "node",
  "id": 9380553752,
  "lat": 43.3111532,
  "lon": -0.3544430
},
{
  "type": "node",
  "id": 9380553753,
  "lat": 43.3109614,
  "lon": -0.3544766
},
{
  "type": "node",
  "id": 9380553754,
  "lat": 43.3106657,
  "lon": -0.3548843
},
{
  "type": "node",
  "id": 9380553755,
  "lat": 43.3106140,
  "lon": -0.3549393
},
{
  "type": "node",
  "id": 9380553756,
  "lat": 43.3104334,
  "lon": -0.3551190
},
{
  "type": "node",
  "id": 9380553757,
  "lat": 43.3102753,
  "lon": -0.3551981
},
{
  "type": "node",
  "id": 9380553758,
  "lat": 43.3101241,
  "lon": -0.3552223
},
{
  "type": "node",
  "id": 9380553759,
  "lat": 43.3098538,
  "lon": -0.3552021
},
{
  "type": "node",
  "id": 9380553767,
  "lat": 43.3098624,
  "lon": -0.3552028
},
{
  "type": "node",
  "id": 9380553768,
  "lat": 43.3102966,
  "lon": -0.3551875
},
{
  "type": "node",
  "id": 9380553769,
  "lat": 43.3106294,
  "lon": -0.3549229
},
{
  "type": "node",
  "id": 340304154,
  "lat": 43.3162385,
  "lon": -0.3621086
},
{
  "type": "node",
  "id": 420618318,
  "lat": 43.3184276,
  "lon": -0.3605933
},
{
  "type": "node",
  "id": 420618320,
  "lat": 43.3168489,
  "lon": -0.3613892
},
{
  "type": "node",
  "id": 420618323,
  "lat": 43.3164165,
  "lon": -0.3618049
},
{
  "type": "node",
  "id": 420618354,
  "lat": 43.3161956,
  "lon": -0.3619121
},
{
  "type": "node",
  "id": 2237548162,
  "lat": 43.3187253,
  "lon": -0.3606228
},
{
  "type": "node",
  "id": 5406772649,
  "lat": 43.3185474,
  "lon": -0.3605288
},
{
  "type": "node",
  "id": 5406772650,
  "lat": 43.3186822,
  "lon": -0.3605654
},
{
  "type": "node",
  "id": 5540532065,
  "lat": 43.3189476,
  "lon": -0.3605444
},
{
  "type": "node",
  "id": 6387479613,
  "lat": 43.3187862,
  "lon": -0.3605808
},
{
  "type": "node",
  "id": 6387479614,
  "lat": 43.3188765,
  "lon": -0.3605448
},
{
  "type": "node",
  "id": 6387479619,
  "lat": 43.3189556,
  "lon": -0.3611112
},
{
  "type": "node",
  "id": 6387482004,
  "lat": 43.3185120,
  "lon": -0.3605480
},
{
  "type": "node",
  "id": 6388921090,
  "lat": 43.3162266,
  "lon": -0.3615286
},
{
  "type": "node",
  "id": 6388921093,
  "lat": 43.3161440,
  "lon": -0.3611448
},
{
  "type": "node",
  "id": 6388921094,
  "lat": 43.3162081,
  "lon": -0.3614435
},
{
  "type": "node",
  "id": 6388921095,
  "lat": 43.3161638,
  "lon": -0.3612292
},
{
  "type": "node",
  "id": 6789821751,
  "lat": 43.3189122,
  "lon": -0.3617925
},
{
  "type": "node",
  "id": 6789821752,
  "lat": 43.3189432,
  "lon": -0.3608727
},
{
  "type": "node",
  "id": 6790125828,
  "lat": 43.3183273,
  "lon": -0.3606501
},
{
  "type": "node",
  "id": 6790125829,
  "lat": 43.3186088,
  "lon": -0.3605217
},
{
  "type": "node",
  "id": 6822067500,
  "lat": 43.3165880,
  "lon": -0.3605384
},
{
  "type": "node",
  "id": 6822067501,
  "lat": 43.3167106,
  "lon": -0.3604919
},
{
  "type": "node",
  "id": 6822067502,
  "lat": 43.3167835,
  "lon": -0.3604627
},
{
  "type": "node",
  "id": 6830374439,
  "lat": 43.3189558,
  "lon": -0.3604532
},
{
  "type": "node",
  "id": 6830374465,
  "lat": 43.3189433,
  "lon": -0.3607285
},
{
  "type": "node",
  "id": 6830374466,
  "lat": 43.3189442,
  "lon": -0.3605973
},
{
  "type": "node",
  "id": 6830374467,
  "lat": 43.3187562,
  "lon": -0.3606991
},
{
  "type": "node",
  "id": 6830374468,
  "lat": 43.3187952,
  "lon": -0.3608767
},
{
  "type": "node",
  "id": 6830374469,
  "lat": 43.3187429,
  "lon": -0.3606650
},
{
  "type": "node",
  "id": 6830374470,
  "lat": 43.3188746,
  "lon": -0.3610376
},
{
  "type": "node",
  "id": 6830374471,
  "lat": 43.3189601,
  "lon": -0.3612453
},
{
  "type": "node",
  "id": 6830374472,
  "lat": 43.3189445,
  "lon": -0.3616304
},
{
  "type": "node",
  "id": 6845553017,
  "lat": 43.3160407,
  "lon": -0.3608903
},
{
  "type": "node",
  "id": 6845553018,
  "lat": 43.3160628,
  "lon": -0.3609549
},
{
  "type": "node",
  "id": 6845553019,
  "lat": 43.3161064,
  "lon": -0.3610143
},
{
  "type": "node",
  "id": 6845553021,
  "lat": 43.3162389,
  "lon": -0.3615864
},
{
  "type": "node",
  "id": 6845553022,
  "lat": 43.3161969,
  "lon": -0.3618345
},
{
  "type": "node",
  "id": 6845553023,
  "lat": 43.3162124,
  "lon": -0.3617724
},
{
  "type": "node",
  "id": 6845553024,
  "lat": 43.3162485,
  "lon": -0.3617115
},
{
  "type": "node",
  "id": 6845553025,
  "lat": 43.3162540,
  "lon": -0.3616560
},
{
  "type": "node",
  "id": 6993037913,
  "lat": 43.3179387,
  "lon": -0.3608535
},
{
  "type": "node",
  "id": 6993116766,
  "lat": 43.3161271,
  "lon": -0.3610740
},
{
  "type": "node",
  "id": 6993116767,
  "lat": 43.3161150,
  "lon": -0.3607446
},
{
  "type": "node",
  "id": 7376201834,
  "lat": 43.3164125,
  "lon": -0.3606106
},
{
  "type": "node",
  "id": 7497342418,
  "lat": 43.3224022,
  "lon": -0.3635854
},
{
  "type": "node",
  "id": 7497342422,
  "lat": 43.3222915,
  "lon": -0.3637310
},
{
  "type": "node",
  "id": 7497342423,
  "lat": 43.3220026,
  "lon": -0.3637967
},
{
  "type": "node",
  "id": 7497342424,
  "lat": 43.3219330,
  "lon": -0.3637515
},
{
  "type": "node",
  "id": 7497342425,
  "lat": 43.3225027,
  "lon": -0.3635600
},
{
  "type": "node",
  "id": 7497342428,
  "lat": 43.3223939,
  "lon": -0.3634151
},
{
  "type": "node",
  "id": 7497342434,
  "lat": 43.3222222,
  "lon": -0.3633333
},
{
  "type": "node",
  "id": 7497342435,
  "lat": 43.3217667,
  "lon": -0.3634383
},
{
  "type": "node",
  "id": 7787715866,
  "lat": 43.3162364,
  "lon": -0.3619429
},
{
  "type": "node",
  "id": 8915969877,
  "lat": 43.3168878,
  "lon": -0.3613701
},
{
  "type": "node",
  "id": 286815088,
  "lat": 43.3213082,
  "lon": -0.3592846
},
{
  "type": "node",
  "id": 286817705,
  "lat": 43.3173932,
  "lon": -0.3560705
},
{
  "type": "node",
  "id": 356506856,
  "lat": 43.3193871,
  "lon": -0.3601951
},
{
  "type": "node",
  "id": 420618358,
  "lat": 43.3189812,
  "lon": -0.3603758
},
{
  "type": "node",
  "id": 420618359,
  "lat": 43.3190581,
  "lon": -0.3602466
},
{
  "type": "node",
  "id": 420618360,
  "lat": 43.3192401,
  "lon": -0.3601564
},
{
  "type": "node",
  "id": 2237548157,
  "lat": 43.3186391,
  "lon": -0.3593952
},
{
  "type": "node",
  "id": 2246604178,
  "lat": 43.3179807,
  "lon": -0.3558585
},
{
  "type": "node",
  "id": 2246604180,
  "lat": 43.3180243,
  "lon": -0.3559515
},
{
  "type": "node",
  "id": 2246604182,
  "lat": 43.3181003,
  "lon": -0.3559732
},
{
  "type": "node",
  "id": 2246604185,
  "lat": 43.3181437,
  "lon": -0.3564195
},
{
  "type": "node",
  "id": 2246604186,
  "lat": 43.3181319,
  "lon": -0.3565049
},
{
  "type": "node",
  "id": 2246604188,
  "lat": 43.3181684,
  "lon": -0.3560600
},
{
  "type": "node",
  "id": 2246604190,
  "lat": 43.3182069,
  "lon": -0.3561875
},
{
  "type": "node",
  "id": 2246604191,
  "lat": 43.3182030,
  "lon": -0.3562838
},
{
  "type": "node",
  "id": 2246604193,
  "lat": 43.3181807,
  "lon": -0.3563639
},
{
  "type": "node",
  "id": 2246604195,
  "lat": 43.3182799,
  "lon": -0.3570815
},
{
  "type": "node",
  "id": 2246604197,
  "lat": 43.3183601,
  "lon": -0.3599273
},
{
  "type": "node",
  "id": 2246604198,
  "lat": 43.3184014,
  "lon": -0.3599156
},
{
  "type": "node",
  "id": 2246604200,
  "lat": 43.3184696,
  "lon": -0.3577591
},
{
  "type": "node",
  "id": 2246604201,
  "lat": 43.3184981,
  "lon": -0.3578858
},
{
  "type": "node",
  "id": 2246604202,
  "lat": 43.3184951,
  "lon": -0.3583647
},
{
  "type": "node",
  "id": 2246604204,
  "lat": 43.3185886,
  "lon": -0.3583344
},
{
  "type": "node",
  "id": 2246604206,
  "lat": 43.3186007,
  "lon": -0.3590565
},
{
  "type": "node",
  "id": 2246604215,
  "lat": 43.3187978,
  "lon": -0.3596799
},
{
  "type": "node",
  "id": 2306156425,
  "lat": 43.3186197,
  "lon": -0.3591882
},
{
  "type": "node",
  "id": 2306156426,
  "lat": 43.3176445,
  "lon": -0.3601377
},
{
  "type": "node",
  "id": 2306156427,
  "lat": 43.3182495,
  "lon": -0.3599050
},
{
  "type": "node",
  "id": 2306156492,
  "lat": 43.3185365,
  "lon": -0.3583496
},
{
  "type": "node",
  "id": 2309510902,
  "lat": 43.3215102,
  "lon": -0.3589276
},
{
  "type": "node",
  "id": 2428994079,
  "lat": 43.3160829,
  "lon": -0.3568735
},
{
  "type": "node",
  "id": 2428994081,
  "lat": 43.3164004,
  "lon": -0.3565433
},
{
  "type": "node",
  "id": 2428994083,
  "lat": 43.3172127,
  "lon": -0.3562074
},
{
  "type": "node",
  "id": 2428994085,
  "lat": 43.3173934,
  "lon": -0.3561534
},
{
  "type": "node",
  "id": 2522006131,
  "lat": 43.3178030,
  "lon": -0.3553988
},
{
  "type": "node",
  "id": 2522006135,
  "lat": 43.3179024,
  "lon": -0.3558879
},
{
  "type": "node",
  "id": 2528983419,
  "lat": 43.3171546,
  "lon": -0.3552442
},
{
  "type": "node",
  "id": 2528983430,
  "lat": 43.3173069,
  "lon": -0.3560025
},
{
  "type": "node",
  "id": 2528983442,
  "lat": 43.3173940,
  "lon": -0.3560045
},
{
  "type": "node",
  "id": 2528983452,
  "lat": 43.3175352,
  "lon": -0.3540940
},
{
  "type": "node",
  "id": 2528983461,
  "lat": 43.3178651,
  "lon": -0.3560149
},
{
  "type": "node",
  "id": 2562891375,
  "lat": 43.3171438,
  "lon": -0.3551771
},
{
  "type": "node",
  "id": 2562891378,
  "lat": 43.3178940,
  "lon": -0.3559920
},
{
  "type": "node",
  "id": 2562891380,
  "lat": 43.3179098,
  "lon": -0.3559516
},
{
  "type": "node",
  "id": 6013354339,
  "lat": 43.3211996,
  "lon": -0.3578483
},
{
  "type": "node",
  "id": 6105586959,
  "lat": 43.3188086,
  "lon": -0.3597604
},
{
  "type": "node",
  "id": 6376335889,
  "lat": 43.3187496,
  "lon": -0.3593372
},
{
  "type": "node",
  "id": 6376335890,
  "lat": 43.3186840,
  "lon": -0.3592996
},
{
  "type": "node",
  "id": 6376335891,
  "lat": 43.3186239,
  "lon": -0.3596051
},
{
  "type": "node",
  "id": 6387462979,
  "lat": 43.3210090,
  "lon": -0.3592699
},
{
  "type": "node",
  "id": 6387462980,
  "lat": 43.3190129,
  "lon": -0.3603042
},
{
  "type": "node",
  "id": 6387463388,
  "lat": 43.3189506,
  "lon": -0.3598766
},
{
  "type": "node",
  "id": 6387463389,
  "lat": 43.3209085,
  "lon": -0.3588779
},
{
  "type": "node",
  "id": 6387463392,
  "lat": 43.3191399,
  "lon": -0.3597486
},
{
  "type": "node",
  "id": 6387463393,
  "lat": 43.3206469,
  "lon": -0.3590323
},
{
  "type": "node",
  "id": 6387479598,
  "lat": 43.3184972,
  "lon": -0.3603390
},
{
  "type": "node",
  "id": 6387479599,
  "lat": 43.3185244,
  "lon": -0.3604376
},
{
  "type": "node",
  "id": 6387479600,
  "lat": 43.3184596,
  "lon": -0.3601676
},
{
  "type": "node",
  "id": 6387479602,
  "lat": 43.3189769,
  "lon": -0.3599674
},
{
  "type": "node",
  "id": 6387479604,
  "lat": 43.3190028,
  "lon": -0.3600658
},
{
  "type": "node",
  "id": 6387479605,
  "lat": 43.3188151,
  "lon": -0.3597984
},
{
  "type": "node",
  "id": 6387479606,
  "lat": 43.3187489,
  "lon": -0.3598185
},
{
  "type": "node",
  "id": 6387479607,
  "lat": 43.3186678,
  "lon": -0.3598280
},
{
  "type": "node",
  "id": 6387479608,
  "lat": 43.3190886,
  "lon": -0.3602232
},
{
  "type": "node",
  "id": 6387479609,
  "lat": 43.3189822,
  "lon": -0.3598588
},
{
  "type": "node",
  "id": 6387479611,
  "lat": 43.3186017,
  "lon": -0.3598112
},
{
  "type": "node",
  "id": 6387479612,
  "lat": 43.3186054,
  "lon": -0.3597590
},
{
  "type": "node",
  "id": 6387493896,
  "lat": 43.3209631,
  "lon": -0.3587989
},
{
  "type": "node",
  "id": 6387493897,
  "lat": 43.3210289,
  "lon": -0.3586567
},
{
  "type": "node",
  "id": 6387493898,
  "lat": 43.3210614,
  "lon": -0.3585473
},
{
  "type": "node",
  "id": 6387493899,
  "lat": 43.3213462,
  "lon": -0.3585056
},
{
  "type": "node",
  "id": 6387493900,
  "lat": 43.3213749,
  "lon": -0.3585918
},
{
  "type": "node",
  "id": 6387493901,
  "lat": 43.3214288,
  "lon": -0.3586426
},
{
  "type": "node",
  "id": 6387493903,
  "lat": 43.3215200,
  "lon": -0.3589704
},
{
  "type": "node",
  "id": 6387493904,
  "lat": 43.3215157,
  "lon": -0.3590414
},
{
  "type": "node",
  "id": 6387493905,
  "lat": 43.3214161,
  "lon": -0.3591350
},
{
  "type": "node",
  "id": 6387493906,
  "lat": 43.3213781,
  "lon": -0.3592732
},
{
  "type": "node",
  "id": 6387493907,
  "lat": 43.3211805,
  "lon": -0.3593099
},
{
  "type": "node",
  "id": 6387493908,
  "lat": 43.3210832,
  "lon": -0.3592461
},
{
  "type": "node",
  "id": 6387493909,
  "lat": 43.3209839,
  "lon": -0.3591785
},
{
  "type": "node",
  "id": 6387493910,
  "lat": 43.3209327,
  "lon": -0.3589662
},
{
  "type": "node",
  "id": 6387493911,
  "lat": 43.3209623,
  "lon": -0.3590757
},
{
  "type": "node",
  "id": 6387493912,
  "lat": 43.3212795,
  "lon": -0.3585136
},
{
  "type": "node",
  "id": 6387493913,
  "lat": 43.3212054,
  "lon": -0.3585232
},
{
  "type": "node",
  "id": 6387493914,
  "lat": 43.3211328,
  "lon": -0.3585335
},
{
  "type": "node",
  "id": 6387493918,
  "lat": 43.3212453,
  "lon": -0.3592967
},
{
  "type": "node",
  "id": 6387493919,
  "lat": 43.3212411,
  "lon": -0.3579712
},
{
  "type": "node",
  "id": 6387493920,
  "lat": 43.3213316,
  "lon": -0.3583645
},
{
  "type": "node",
  "id": 6387493921,
  "lat": 43.3210638,
  "lon": -0.3584800
},
{
  "type": "node",
  "id": 6387493925,
  "lat": 43.3209739,
  "lon": -0.3592824
},
{
  "type": "node",
  "id": 6387493926,
  "lat": 43.3208715,
  "lon": -0.3588980
},
{
  "type": "node",
  "id": 6387493931,
  "lat": 43.3213614,
  "lon": -0.3601182
},
{
  "type": "node",
  "id": 6793563806,
  "lat": 43.3212742,
  "lon": -0.3580516
},
{
  "type": "node",
  "id": 6793563807,
  "lat": 43.3212984,
  "lon": -0.3582228
},
{
  "type": "node",
  "id": 6793563808,
  "lat": 43.3213564,
  "lon": -0.3585547
},
{
  "type": "node",
  "id": 6793563809,
  "lat": 43.3213865,
  "lon": -0.3592141
},
{
  "type": "node",
  "id": 6793563810,
  "lat": 43.3214533,
  "lon": -0.3590838
},
{
  "type": "node",
  "id": 6793563811,
  "lat": 43.3215279,
  "lon": -0.3590111
},
{
  "type": "node",
  "id": 6793563812,
  "lat": 43.3213962,
  "lon": -0.3586197
},
{
  "type": "node",
  "id": 6793563813,
  "lat": 43.3214664,
  "lon": -0.3587364
},
{
  "type": "node",
  "id": 6793563815,
  "lat": 43.3214530,
  "lon": -0.3586716
},
{
  "type": "node",
  "id": 6822067503,
  "lat": 43.3169117,
  "lon": -0.3604169
},
{
  "type": "node",
  "id": 6822067504,
  "lat": 43.3172943,
  "lon": -0.3602750
},
{
  "type": "node",
  "id": 6830374436,
  "lat": 43.3186365,
  "lon": -0.3594772
},
{
  "type": "node",
  "id": 6830374438,
  "lat": 43.3190349,
  "lon": -0.3601776
},
{
  "type": "node",
  "id": 6830374441,
  "lat": 43.3188540,
  "lon": -0.3598569
},
{
  "type": "node",
  "id": 6830374451,
  "lat": 43.3191890,
  "lon": -0.3601737
},
{
  "type": "node",
  "id": 6830374452,
  "lat": 43.3190940,
  "lon": -0.3597289
},
{
  "type": "node",
  "id": 6830374453,
  "lat": 43.3190543,
  "lon": -0.3598154
},
{
  "type": "node",
  "id": 6830374455,
  "lat": 43.3191947,
  "lon": -0.3597751
},
{
  "type": "node",
  "id": 6830374459,
  "lat": 43.3195590,
  "lon": -0.3595828
},
{
  "type": "node",
  "id": 6830374460,
  "lat": 43.3198022,
  "lon": -0.3594643
},
{
  "type": "node",
  "id": 6830374461,
  "lat": 43.3203013,
  "lon": -0.3592125
},
{
  "type": "node",
  "id": 6830374462,
  "lat": 43.3202934,
  "lon": -0.3591831
},
{
  "type": "node",
  "id": 6830374463,
  "lat": 43.3204269,
  "lon": -0.3591177
},
{
  "type": "node",
  "id": 6830491193,
  "lat": 43.3194179,
  "lon": -0.3600551
},
{
  "type": "node",
  "id": 6830491194,
  "lat": 43.3193376,
  "lon": -0.3601154
},
{
  "type": "node",
  "id": 6830491195,
  "lat": 43.3200840,
  "lon": -0.3597130
},
{
  "type": "node",
  "id": 6830491196,
  "lat": 43.3205299,
  "lon": -0.3594874
},
{
  "type": "node",
  "id": 6830491197,
  "lat": 43.3208148,
  "lon": -0.3593448
},
{
  "type": "node",
  "id": 6830491227,
  "lat": 43.3210325,
  "lon": -0.3592624
},
{
  "type": "node",
  "id": 6830491228,
  "lat": 43.3207792,
  "lon": -0.3589639
},
{
  "type": "node",
  "id": 6830491230,
  "lat": 43.3210776,
  "lon": -0.3582216
},
{
  "type": "node",
  "id": 6830491231,
  "lat": 43.3210726,
  "lon": -0.3580551
},
{
  "type": "node",
  "id": 6830491232,
  "lat": 43.3211041,
  "lon": -0.3579298
},
{
  "type": "node",
  "id": 6830491233,
  "lat": 43.3213660,
  "lon": -0.3596810
},
{
  "type": "node",
  "id": 6830491234,
  "lat": 43.3213616,
  "lon": -0.3594937
},
{
  "type": "node",
  "id": 6830491235,
  "lat": 43.3212217,
  "lon": -0.3597039
},
{
  "type": "node",
  "id": 6830491236,
  "lat": 43.3212904,
  "lon": -0.3600925
},
{
  "type": "node",
  "id": 6830491238,
  "lat": 43.3213359,
  "lon": -0.3598672
},
{
  "type": "node",
  "id": 6838834735,
  "lat": 43.3181563,
  "lon": -0.3565998
},
{
  "type": "node",
  "id": 6838834736,
  "lat": 43.3172940,
  "lon": -0.3559385
},
{
  "type": "node",
  "id": 6838834737,
  "lat": 43.3172056,
  "lon": -0.3559702
},
{
  "type": "node",
  "id": 6838834738,
  "lat": 43.3171158,
  "lon": -0.3559834
},
{
  "type": "node",
  "id": 6838834739,
  "lat": 43.3168534,
  "lon": -0.3560944
},
{
  "type": "node",
  "id": 6838834740,
  "lat": 43.3164280,
  "lon": -0.3562681
},
{
  "type": "node",
  "id": 6838834741,
  "lat": 43.3163885,
  "lon": -0.3562909
},
{
  "type": "node",
  "id": 6838834742,
  "lat": 43.3163360,
  "lon": -0.3563643
},
{
  "type": "node",
  "id": 6838834747,
  "lat": 43.3160548,
  "lon": -0.3565501
},
{
  "type": "node",
  "id": 6838834748,
  "lat": 43.3161060,
  "lon": -0.3565249
},
{
  "type": "node",
  "id": 6838834749,
  "lat": 43.3161889,
  "lon": -0.3564565
},
{
  "type": "node",
  "id": 6838834750,
  "lat": 43.3162843,
  "lon": -0.3564002
},
{
  "type": "node",
  "id": 6838834754,
  "lat": 43.3161059,
  "lon": -0.3568386
},
{
  "type": "node",
  "id": 6845553012,
  "lat": 43.3213423,
  "lon": -0.3584529
},
{
  "type": "node",
  "id": 6845553013,
  "lat": 43.3210698,
  "lon": -0.3583844
},
{
  "type": "node",
  "id": 6985066979,
  "lat": 43.3204337,
  "lon": -0.3591433
},
{
  "type": "node",
  "id": 6985156388,
  "lat": 43.3212583,
  "lon": -0.3600261
},
{
  "type": "node",
  "id": 6993037907,
  "lat": 43.3203924,
  "lon": -0.3595514
},
{
  "type": "node",
  "id": 6993037908,
  "lat": 43.3203975,
  "lon": -0.3595743
},
{
  "type": "node",
  "id": 6993037909,
  "lat": 43.3205340,
  "lon": -0.3595045
},
{
  "type": "node",
  "id": 6993037910,
  "lat": 43.3193543,
  "lon": -0.3601681
},
{
  "type": "node",
  "id": 6993037911,
  "lat": 43.3192787,
  "lon": -0.3601714
},
{
  "type": "node",
  "id": 6993037912,
  "lat": 43.3193506,
  "lon": -0.3602114
},
{
  "type": "node",
  "id": 6993160352,
  "lat": 43.3187719,
  "lon": -0.3594318
},
{
  "type": "node",
  "id": 6993160361,
  "lat": 43.3189218,
  "lon": -0.3598847
},
{
  "type": "node",
  "id": 7004163357,
  "lat": 43.3212144,
  "lon": -0.3596339
},
{
  "type": "node",
  "id": 7004163362,
  "lat": 43.3211854,
  "lon": -0.3593563
},
{
  "type": "node",
  "id": 7004163363,
  "lat": 43.3213750,
  "lon": -0.3593195
},
{
  "type": "node",
  "id": 7004197725,
  "lat": 43.3207048,
  "lon": -0.3593998
},
{
  "type": "node",
  "id": 7004197743,
  "lat": 43.3206299,
  "lon": -0.3594374
},
{
  "type": "node",
  "id": 7004197745,
  "lat": 43.3205372,
  "lon": -0.3590898
},
{
  "type": "node",
  "id": 7248082160,
  "lat": 43.3185834,
  "lon": -0.3598418
},
{
  "type": "node",
  "id": 7376201835,
  "lat": 43.3173711,
  "lon": -0.3602521
},
{
  "type": "node",
  "id": 7376201836,
  "lat": 43.3182041,
  "lon": -0.3599115
},
{
  "type": "node",
  "id": 7376201837,
  "lat": 43.3182802,
  "lon": -0.3599121
},
{
  "type": "node",
  "id": 7376201838,
  "lat": 43.3183372,
  "lon": -0.3599268
},
{
  "type": "node",
  "id": 8164359222,
  "lat": 43.3163499,
  "lon": -0.3563395
},
{
  "type": "node",
  "id": 8164359223,
  "lat": 43.3163128,
  "lon": -0.3563821
},
{
  "type": "node",
  "id": 8164359224,
  "lat": 43.3162287,
  "lon": -0.3564260
},
{
  "type": "node",
  "id": 8164359225,
  "lat": 43.3161338,
  "lon": -0.3565041
},
{
  "type": "node",
  "id": 9245674479,
  "lat": 43.3218997,
  "lon": -0.3585210
},
{
  "type": "node",
  "id": 9384179748,
  "lat": 43.3222480,
  "lon": -0.3586403
},
{
  "type": "node",
  "id": 9384179753,
  "lat": 43.3225344,
  "lon": -0.3585102
},
{
  "type": "node",
  "id": 9384179762,
  "lat": 43.3218485,
  "lon": -0.3585253
},
{
  "type": "node",
  "id": 2522006128,
  "lat": 43.3173371,
  "lon": -0.3531286
},
{
  "type": "node",
  "id": 2528983436,
  "lat": 43.3173543,
  "lon": -0.3530676
},
{
  "type": "node",
  "id": 2528983439,
  "lat": 43.3173776,
  "lon": -0.3530587
},
{
  "type": "node",
  "id": 2838607417,
  "lat": 43.3190957,
  "lon": -0.3473628
},
{
  "type": "node",
  "id": 5695478191,
  "lat": 43.3191549,
  "lon": -0.3475675
},
{
  "type": "node",
  "id": 6387525606,
  "lat": 43.3193062,
  "lon": -0.3480903
},
{
  "type": "node",
  "id": 6387525607,
  "lat": 43.3194223,
  "lon": -0.3481096
},
{
  "type": "node",
  "id": 7506821627,
  "lat": 43.3193285,
  "lon": -0.3488677
},
{
  "type": "node",
  "id": 7506821628,
  "lat": 43.3193060,
  "lon": -0.3490589
},
{
  "type": "node",
  "id": 7506821629,
  "lat": 43.3192206,
  "lon": -0.3492145
},
{
  "type": "node",
  "id": 7506821630,
  "lat": 43.3192060,
  "lon": -0.3492232
},
{
  "type": "node",
  "id": 7506821631,
  "lat": 43.3191923,
  "lon": -0.3492191
},
{
  "type": "node",
  "id": 7506821632,
  "lat": 43.3191162,
  "lon": -0.3491286
},
{
  "type": "node",
  "id": 7506821633,
  "lat": 43.3190614,
  "lon": -0.3489907
},
{
  "type": "node",
  "id": 7506821634,
  "lat": 43.3190855,
  "lon": -0.3490514
},
{
  "type": "node",
  "id": 7506821635,
  "lat": 43.3191507,
  "lon": -0.3491697
},
{
  "type": "node",
  "id": 2469885295,
  "lat": 43.3178895,
  "lon": -0.3440692
},
{
  "type": "node",
  "id": 2469885308,
  "lat": 43.3187102,
  "lon": -0.3461819
},
{
  "type": "node",
  "id": 2469885313,
  "lat": 43.3187479,
  "lon": -0.3463178
},
{
  "type": "node",
  "id": 3050212863,
  "lat": 43.3215376,
  "lon": -0.3414619
},
{
  "type": "node",
  "id": 3050212867,
  "lat": 43.3215849,
  "lon": -0.3414478
},
{
  "type": "node",
  "id": 5547452477,
  "lat": 43.3224452,
  "lon": -0.3411300
},
{
  "type": "node",
  "id": 5547452478,
  "lat": 43.3224361,
  "lon": -0.3413674
},
{
  "type": "node",
  "id": 5547452480,
  "lat": 43.3224836,
  "lon": -0.3416236
},
{
  "type": "node",
  "id": 5547452481,
  "lat": 43.3225199,
  "lon": -0.3417366
},
{
  "type": "node",
  "id": 5980994120,
  "lat": 43.3203457,
  "lon": -0.3433302
},
{
  "type": "node",
  "id": 6364521145,
  "lat": 43.3186225,
  "lon": -0.3459718
},
{
  "type": "node",
  "id": 6364521146,
  "lat": 43.3178292,
  "lon": -0.3442250
},
{
  "type": "node",
  "id": 6364521147,
  "lat": 43.3183711,
  "lon": -0.3454163
},
{
  "type": "node",
  "id": 6387525608,
  "lat": 43.3189451,
  "lon": -0.3466474
},
{
  "type": "node",
  "id": 6387525609,
  "lat": 43.3187464,
  "lon": -0.3463738
},
{
  "type": "node",
  "id": 6387525610,
  "lat": 43.3187598,
  "lon": -0.3462527
},
{
  "type": "node",
  "id": 6387525611,
  "lat": 43.3187016,
  "lon": -0.3461334
},
{
  "type": "node",
  "id": 6387528390,
  "lat": 43.3188962,
  "lon": -0.3466740
},
{
  "type": "node",
  "id": 6762262838,
  "lat": 43.3225583,
  "lon": -0.3464440
},
{
  "type": "node",
  "id": 6762262840,
  "lat": 43.3225165,
  "lon": -0.3464166
},
{
  "type": "node",
  "id": 6762262841,
  "lat": 43.3224877,
  "lon": -0.3464185
},
{
  "type": "node",
  "id": 6762262846,
  "lat": 43.3219578,
  "lon": -0.3466398
},
{
  "type": "node",
  "id": 6762262847,
  "lat": 43.3217942,
  "lon": -0.3464779
},
{
  "type": "node",
  "id": 6762262848,
  "lat": 43.3216552,
  "lon": -0.3465457
},
{
  "type": "node",
  "id": 6762262849,
  "lat": 43.3214312,
  "lon": -0.3466392
},
{
  "type": "node",
  "id": 6762262850,
  "lat": 43.3213054,
  "lon": -0.3466762
},
{
  "type": "node",
  "id": 6762262851,
  "lat": 43.3212141,
  "lon": -0.3466848
},
{
  "type": "node",
  "id": 6762262852,
  "lat": 43.3211305,
  "lon": -0.3466710
},
{
  "type": "node",
  "id": 6762262853,
  "lat": 43.3210592,
  "lon": -0.3466446
},
{
  "type": "node",
  "id": 6762262854,
  "lat": 43.3210006,
  "lon": -0.3466043
},
{
  "type": "node",
  "id": 6762262855,
  "lat": 43.3209411,
  "lon": -0.3465064
},
{
  "type": "node",
  "id": 6762262856,
  "lat": 43.3208567,
  "lon": -0.3462047
},
{
  "type": "node",
  "id": 6762262857,
  "lat": 43.3218116,
  "lon": -0.3465496
},
{
  "type": "node",
  "id": 6762262859,
  "lat": 43.3218373,
  "lon": -0.3466856
},
{
  "type": "node",
  "id": 6762262860,
  "lat": 43.3218256,
  "lon": -0.3466223
},
{
  "type": "node",
  "id": 6845216462,
  "lat": 43.3189092,
  "lon": -0.3465240
},
{
  "type": "node",
  "id": 6845216463,
  "lat": 43.3188901,
  "lon": -0.3464767
},
{
  "type": "node",
  "id": 6845216464,
  "lat": 43.3188553,
  "lon": -0.3464218
},
{
  "type": "node",
  "id": 6845216465,
  "lat": 43.3188077,
  "lon": -0.3463871
},
{
  "type": "node",
  "id": 6845216466,
  "lat": 43.3187393,
  "lon": -0.3462035
},
{
  "type": "node",
  "id": 6939265677,
  "lat": 43.3207748,
  "lon": -0.3459368
},
{
  "type": "node",
  "id": 7005893159,
  "lat": 43.3224467,
  "lon": -0.3415532
},
{
  "type": "node",
  "id": 8124331617,
  "lat": 43.3185372,
  "lon": -0.3457833
},
{
  "type": "node",
  "id": 8124331621,
  "lat": 43.3186415,
  "lon": -0.3460106
},
{
  "type": "node",
  "id": 8423673024,
  "lat": 43.3189122,
  "lon": -0.3467287
},
{
  "type": "node",
  "id": 8426763358,
  "lat": 43.3200533,
  "lon": -0.3419890
},
{
  "type": "node",
  "id": 8943628545,
  "lat": 43.3203022,
  "lon": -0.3431369
},
{
  "type": "node",
  "id": 446277329,
  "lat": 43.3061972,
  "lon": -0.3349523
},
{
  "type": "node",
  "id": 2635190611,
  "lat": 43.3067333,
  "lon": -0.3344608
},
{
  "type": "node",
  "id": 2635190613,
  "lat": 43.3068844,
  "lon": -0.3353032
},
{
  "type": "node",
  "id": 2635190616,
  "lat": 43.3068997,
  "lon": -0.3350940
},
{
  "type": "node",
  "id": 2635190617,
  "lat": 43.3070573,
  "lon": -0.3359114
},
{
  "type": "node",
  "id": 2635190619,
  "lat": 43.3070786,
  "lon": -0.3359734
},
{
  "type": "node",
  "id": 2635190630,
  "lat": 43.3071512,
  "lon": -0.3360139
},
{
  "type": "node",
  "id": 2635190634,
  "lat": 43.3076600,
  "lon": -0.3378655
},
{
  "type": "node",
  "id": 4510053739,
  "lat": 43.3061590,
  "lon": -0.3349617
},
{
  "type": "node",
  "id": 5254766594,
  "lat": 43.3063678,
  "lon": -0.3343481
},
{
  "type": "node",
  "id": 5254766595,
  "lat": 43.3062634,
  "lon": -0.3348859
},
{
  "type": "node",
  "id": 5254766596,
  "lat": 43.3062419,
  "lon": -0.3349261
},
{
  "type": "node",
  "id": 5254766603,
  "lat": 43.3063764,
  "lon": -0.3342576
},
{
  "type": "node",
  "id": 5505553233,
  "lat": 43.3063727,
  "lon": -0.3342965
},
{
  "type": "node",
  "id": 7741747295,
  "lat": 43.3068908,
  "lon": -0.3352160
},
{
  "type": "node",
  "id": 7741747297,
  "lat": 43.3063412,
  "lon": -0.3344816
},
{
  "type": "node",
  "id": 286678893,
  "lat": 43.3061622,
  "lon": -0.3333259
},
{
  "type": "node",
  "id": 446277342,
  "lat": 43.3068678,
  "lon": -0.3325529
},
{
  "type": "node",
  "id": 715611655,
  "lat": 43.3058471,
  "lon": -0.3312547
},
{
  "type": "node",
  "id": 2229963511,
  "lat": 43.3049045,
  "lon": -0.3288011
},
{
  "type": "node",
  "id": 2229963516,
  "lat": 43.3049115,
  "lon": -0.3288909
},
{
  "type": "node",
  "id": 2229963523,
  "lat": 43.3049233,
  "lon": -0.3290548
},
{
  "type": "node",
  "id": 2229963535,
  "lat": 43.3050011,
  "lon": -0.3291552
},
{
  "type": "node",
  "id": 2229963539,
  "lat": 43.3050394,
  "lon": -0.3292058
},
{
  "type": "node",
  "id": 2229963576,
  "lat": 43.3054564,
  "lon": -0.3298878
},
{
  "type": "node",
  "id": 2229963582,
  "lat": 43.3054460,
  "lon": -0.3295963
},
{
  "type": "node",
  "id": 2525058002,
  "lat": 43.3055487,
  "lon": -0.3288693
},
{
  "type": "node",
  "id": 2635190604,
  "lat": 43.3066499,
  "lon": -0.3341744
},
{
  "type": "node",
  "id": 2635190607,
  "lat": 43.3066663,
  "lon": -0.3340926
},
{
  "type": "node",
  "id": 4508972183,
  "lat": 43.3051955,
  "lon": -0.3283222
},
{
  "type": "node",
  "id": 4508972184,
  "lat": 43.3052853,
  "lon": -0.3283641
},
{
  "type": "node",
  "id": 4508972185,
  "lat": 43.3053630,
  "lon": -0.3283716
},
{
  "type": "node",
  "id": 4508977249,
  "lat": 43.3054277,
  "lon": -0.3292486
},
{
  "type": "node",
  "id": 4508977250,
  "lat": 43.3055350,
  "lon": -0.3289533
},
{
  "type": "node",
  "id": 4508977251,
  "lat": 43.3055528,
  "lon": -0.3287923
},
{
  "type": "node",
  "id": 4508977252,
  "lat": 43.3055186,
  "lon": -0.3287148
},
{
  "type": "node",
  "id": 4508977253,
  "lat": 43.3055399,
  "lon": -0.3284338
},
{
  "type": "node",
  "id": 4508987736,
  "lat": 43.3059921,
  "lon": -0.3319347
},
{
  "type": "node",
  "id": 4508990047,
  "lat": 43.3062069,
  "lon": -0.3328916
},
{
  "type": "node",
  "id": 4508994544,
  "lat": 43.3066370,
  "lon": -0.3329105
},
{
  "type": "node",
  "id": 4508994545,
  "lat": 43.3064236,
  "lon": -0.3329333
},
{
  "type": "node",
  "id": 4508994548,
  "lat": 43.3060440,
  "lon": -0.3314903
},
{
  "type": "node",
  "id": 4510439254,
  "lat": 43.3067774,
  "lon": -0.3330330
},
{
  "type": "node",
  "id": 5254766598,
  "lat": 43.3065095,
  "lon": -0.3338473
},
{
  "type": "node",
  "id": 5254766599,
  "lat": 43.3064849,
  "lon": -0.3340482
},
{
  "type": "node",
  "id": 5254766600,
  "lat": 43.3064785,
  "lon": -0.3340998
},
{
  "type": "node",
  "id": 5254766601,
  "lat": 43.3064274,
  "lon": -0.3341389
},
{
  "type": "node",
  "id": 5254766606,
  "lat": 43.3061463,
  "lon": -0.3332135
},
{
  "type": "node",
  "id": 5254766608,
  "lat": 43.3060194,
  "lon": -0.3320038
},
{
  "type": "node",
  "id": 5254766612,
  "lat": 43.3051333,
  "lon": -0.3293055
},
{
  "type": "node",
  "id": 5254766613,
  "lat": 43.3052494,
  "lon": -0.3293276
},
{
  "type": "node",
  "id": 5254766614,
  "lat": 43.3053841,
  "lon": -0.3296395
},
{
  "type": "node",
  "id": 5254766615,
  "lat": 43.3063737,
  "lon": -0.3328380
},
{
  "type": "node",
  "id": 5254766617,
  "lat": 43.3064923,
  "lon": -0.3330660
},
{
  "type": "node",
  "id": 5254766619,
  "lat": 43.3064976,
  "lon": -0.3329815
},
{
  "type": "node",
  "id": 5254767621,
  "lat": 43.3065738,
  "lon": -0.3329708
},
{
  "type": "node",
  "id": 5254767623,
  "lat": 43.3067865,
  "lon": -0.3325966
},
{
  "type": "node",
  "id": 5254767624,
  "lat": 43.3067251,
  "lon": -0.3333838
},
{
  "type": "node",
  "id": 5254767626,
  "lat": 43.3067631,
  "lon": -0.3332511
},
{
  "type": "node",
  "id": 5254767628,
  "lat": 43.3067553,
  "lon": -0.3331411
},
{
  "type": "node",
  "id": 5254767630,
  "lat": 43.3068880,
  "lon": -0.3326744
},
{
  "type": "node",
  "id": 5856146944,
  "lat": 43.3054758,
  "lon": -0.3294436
},
{
  "type": "node",
  "id": 5856146946,
  "lat": 43.3054475,
  "lon": -0.3291298
},
{
  "type": "node",
  "id": 5856146947,
  "lat": 43.3054817,
  "lon": -0.3290440
},
{
  "type": "node",
  "id": 5856146951,
  "lat": 43.3055051,
  "lon": -0.3285424
},
{
  "type": "node",
  "id": 5856146952,
  "lat": 43.3055032,
  "lon": -0.3286242
},
{
  "type": "node",
  "id": 5971884575,
  "lat": 43.3054762,
  "lon": -0.3283276
},
{
  "type": "node",
  "id": 6391689668,
  "lat": 43.3062021,
  "lon": -0.3330182
},
{
  "type": "node",
  "id": 6588117404,
  "lat": 43.3055111,
  "lon": -0.3283872
},
{
  "type": "node",
  "id": 6818084766,
  "lat": 43.3061868,
  "lon": -0.3330795
},
{
  "type": "node",
  "id": 6818084767,
  "lat": 43.3061658,
  "lon": -0.3331235
},
{
  "type": "node",
  "id": 6818084768,
  "lat": 43.3062085,
  "lon": -0.3329604
},
{
  "type": "node",
  "id": 6875979957,
  "lat": 43.3061271,
  "lon": -0.3325053
},
{
  "type": "node",
  "id": 6875996236,
  "lat": 43.3056055,
  "lon": -0.3303856
},
{
  "type": "node",
  "id": 6875996237,
  "lat": 43.3057763,
  "lon": -0.3309875
},
{
  "type": "node",
  "id": 6875996238,
  "lat": 43.3049076,
  "lon": -0.3289601
},
{
  "type": "node",
  "id": 6875996239,
  "lat": 43.3049096,
  "lon": -0.3290068
},
{
  "type": "node",
  "id": 6875996240,
  "lat": 43.3051860,
  "lon": -0.3293223
},
{
  "type": "node",
  "id": 6875996241,
  "lat": 43.3050794,
  "lon": -0.3292595
},
{
  "type": "node",
  "id": 6875996242,
  "lat": 43.3053212,
  "lon": -0.3294842
},
{
  "type": "node",
  "id": 6875996243,
  "lat": 43.3052418,
  "lon": -0.3283452
},
{
  "type": "node",
  "id": 6875996244,
  "lat": 43.3053266,
  "lon": -0.3283757
},
{
  "type": "node",
  "id": 6875996245,
  "lat": 43.3054475,
  "lon": -0.3283526
},
{
  "type": "node",
  "id": 6875996246,
  "lat": 43.3054080,
  "lon": -0.3283563
},
{
  "type": "node",
  "id": 6875996247,
  "lat": 43.3054488,
  "lon": -0.3293562
},
{
  "type": "node",
  "id": 6875996248,
  "lat": 43.3054341,
  "lon": -0.3291817
},
{
  "type": "node",
  "id": 6876023271,
  "lat": 43.3060651,
  "lon": -0.3322168
},
{
  "type": "node",
  "id": 6876023272,
  "lat": 43.3061059,
  "lon": -0.3324065
},
{
  "type": "node",
  "id": 6876023273,
  "lat": 43.3061064,
  "lon": -0.3324087
},
{
  "type": "node",
  "id": 2309868299,
  "lat": 43.3053889,
  "lon": -0.3204208
},
{
  "type": "node",
  "id": 2309868361,
  "lat": 43.3086099,
  "lon": -0.3175210
},
{
  "type": "node",
  "id": 9319272177,
  "lat": 43.3085150,
  "lon": -0.3176172
},
{
  "type": "node",
  "id": 9319272178,
  "lat": 43.3081081,
  "lon": -0.3184538
},
{
  "type": "node",
  "id": 9319272179,
  "lat": 43.3053853,
  "lon": -0.3203633
},
{
  "type": "node",
  "id": 9319272181,
  "lat": 43.3084482,
  "lon": -0.3177546
},
{
  "type": "node",
  "id": 9319272185,
  "lat": 43.3083667,
  "lon": -0.3179221
},
{
  "type": "node",
  "id": 9319272189,
  "lat": 43.3082870,
  "lon": -0.3180860
},
{
  "type": "node",
  "id": 9319272193,
  "lat": 43.3082064,
  "lon": -0.3182516
},
{
  "type": "node",
  "id": 9319272197,
  "lat": 43.3081221,
  "lon": -0.3184249
},
{
  "type": "node",
  "id": 9319272201,
  "lat": 43.3079839,
  "lon": -0.3185409
},
{
  "type": "node",
  "id": 9319272204,
  "lat": 43.3078952,
  "lon": -0.3186031
},
{
  "type": "node",
  "id": 9380413737,
  "lat": 43.3063072,
  "lon": -0.3197168
},
{
  "type": "node",
  "id": 3050212861,
  "lat": 43.3212323,
  "lon": -0.3400717
},
{
  "type": "node",
  "id": 3390705479,
  "lat": 43.3212241,
  "lon": -0.3399399
},
{
  "type": "node",
  "id": 3784647875,
  "lat": 43.3195206,
  "lon": -0.3395733
},
{
  "type": "node",
  "id": 3784647876,
  "lat": 43.3196848,
  "lon": -0.3403009
},
{
  "type": "node",
  "id": 5547452475,
  "lat": 43.3223283,
  "lon": -0.3401504
},
{
  "type": "node",
  "id": 5547452476,
  "lat": 43.3223189,
  "lon": -0.3403510
},
{
  "type": "node",
  "id": 8521637897,
  "lat": 43.3224173,
  "lon": -0.3397300
},
{
  "type": "node",
  "id": 8521637898,
  "lat": 43.3224167,
  "lon": -0.3398369
},
{
  "type": "node",
  "id": 7076679629,
  "lat": 43.3153236,
  "lon": -0.3152712
},
{
  "type": "node",
  "id": 7076679630,
  "lat": 43.3154813,
  "lon": -0.3149496
},
{
  "type": "node",
  "id": 7076679631,
  "lat": 43.3155169,
  "lon": -0.3148654
},
{
  "type": "node",
  "id": 7076679632,
  "lat": 43.3155412,
  "lon": -0.3146464
},
{
  "type": "node",
  "id": 7076679633,
  "lat": 43.3151748,
  "lon": -0.3155876
},
{
  "type": "node",
  "id": 7076679634,
  "lat": 43.3149277,
  "lon": -0.3160914
},
{
  "type": "node",
  "id": 7076679635,
  "lat": 43.3148595,
  "lon": -0.3162289
},
{
  "type": "node",
  "id": 7076679636,
  "lat": 43.3147212,
  "lon": -0.3164404
},
{
  "type": "node",
  "id": 7076679637,
  "lat": 43.3146391,
  "lon": -0.3165030
},
{
  "type": "node",
  "id": 7076679638,
  "lat": 43.3152548,
  "lon": -0.3154174
},
{
  "type": "node",
  "id": 766878121,
  "lat": 43.3205418,
  "lon": -0.3272955
},
{
  "type": "node",
  "id": 2917124703,
  "lat": 43.3205651,
  "lon": -0.3271394
},
{
  "type": "node",
  "id": 2917124731,
  "lat": 43.3216774,
  "lon": -0.3263340
},
{
  "type": "node",
  "id": 2917124736,
  "lat": 43.3219855,
  "lon": -0.3261105
},
{
  "type": "node",
  "id": 2917124740,
  "lat": 43.3221219,
  "lon": -0.3262886
},
{
  "type": "node",
  "id": 2917124741,
  "lat": 43.3222344,
  "lon": -0.3259326
},
{
  "type": "node",
  "id": 2917124743,
  "lat": 43.3222200,
  "lon": -0.3265008
},
{
  "type": "node",
  "id": 6375488785,
  "lat": 43.3221616,
  "lon": -0.3235619
},
{
  "type": "node",
  "id": 6375488786,
  "lat": 43.3222389,
  "lon": -0.3234404
},
{
  "type": "node",
  "id": 6375491388,
  "lat": 43.3201484,
  "lon": -0.3265271
},
{
  "type": "node",
  "id": 6375491389,
  "lat": 43.3202196,
  "lon": -0.3265557
},
{
  "type": "node",
  "id": 6375491390,
  "lat": 43.3204035,
  "lon": -0.3270929
},
{
  "type": "node",
  "id": 6375491391,
  "lat": 43.3204994,
  "lon": -0.3271650
},
{
  "type": "node",
  "id": 6792921170,
  "lat": 43.3221818,
  "lon": -0.3234862
},
{
  "type": "node",
  "id": 7417206210,
  "lat": 43.3221888,
  "lon": -0.3259652
},
{
  "type": "node",
  "id": 8196415030,
  "lat": 43.3204466,
  "lon": -0.3271511
},
{
  "type": "node",
  "id": 8786870148,
  "lat": 43.3220283,
  "lon": -0.3261986
},
{
  "type": "node",
  "id": 8786870150,
  "lat": 43.3221721,
  "lon": -0.3264209
},
{
  "type": "node",
  "id": 1945774162,
  "lat": 43.3196501,
  "lon": -0.3154064
},
{
  "type": "node",
  "id": 9228769824,
  "lat": 43.3195865,
  "lon": -0.3153165
},
{
  "type": "node",
  "id": 9228769825,
  "lat": 43.3197217,
  "lon": -0.3150703
},
{
  "type": "node",
  "id": 9228769826,
  "lat": 43.3197802,
  "lon": -0.3149403
},
{
  "type": "node",
  "id": 9228769827,
  "lat": 43.3198253,
  "lon": -0.3148133
},
{
  "type": "node",
  "id": 1842641128,
  "lat": 43.3200794,
  "lon": -0.3141109
},
{
  "type": "node",
  "id": 8426920301,
  "lat": 43.3192475,
  "lon": -0.3115160
},
{
  "type": "node",
  "id": 8426920302,
  "lat": 43.3193821,
  "lon": -0.3117762
},
{
  "type": "node",
  "id": 8426920303,
  "lat": 43.3195415,
  "lon": -0.3118734
},
{
  "type": "node",
  "id": 8426920304,
  "lat": 43.3195877,
  "lon": -0.3120059
},
{
  "type": "node",
  "id": 8426920305,
  "lat": 43.3195951,
  "lon": -0.3121055
},
{
  "type": "node",
  "id": 8426920306,
  "lat": 43.3200254,
  "lon": -0.3126157
},
{
  "type": "node",
  "id": 8426920307,
  "lat": 43.3201497,
  "lon": -0.3125953
},
{
  "type": "node",
  "id": 9228769815,
  "lat": 43.3199383,
  "lon": -0.3135087
},
{
  "type": "node",
  "id": 9228769816,
  "lat": 43.3198773,
  "lon": -0.3138301
},
{
  "type": "node",
  "id": 9228769817,
  "lat": 43.3198508,
  "lon": -0.3140528
},
{
  "type": "node",
  "id": 9228769818,
  "lat": 43.3198629,
  "lon": -0.3140861
},
{
  "type": "node",
  "id": 9228769819,
  "lat": 43.3198750,
  "lon": -0.3141161
},
{
  "type": "node",
  "id": 9228769820,
  "lat": 43.3198641,
  "lon": -0.3141410
},
{
  "type": "node",
  "id": 9228769821,
  "lat": 43.3198399,
  "lon": -0.3141543
},
{
  "type": "node",
  "id": 9228769822,
  "lat": 43.3198132,
  "lon": -0.3141612
},
{
  "type": "node",
  "id": 9228769828,
  "lat": 43.3199379,
  "lon": -0.3142188
},
{
  "type": "node",
  "id": 9228769829,
  "lat": 43.3199965,
  "lon": -0.3141275
},
{
  "type": "node",
  "id": 2643575660,
  "lat": 43.3341645,
  "lon": -0.3797231
},
{
  "type": "node",
  "id": 2643575678,
  "lat": 43.3353202,
  "lon": -0.3797168
},
{
  "type": "node",
  "id": 2643575689,
  "lat": 43.3353817,
  "lon": -0.3795226
},
{
  "type": "node",
  "id": 2643575702,
  "lat": 43.3355490,
  "lon": -0.3797150
},
{
  "type": "node",
  "id": 7177483164,
  "lat": 43.3355486,
  "lon": -0.3798013
},
{
  "type": "node",
  "id": 7177487685,
  "lat": 43.3353214,
  "lon": -0.3798240
},
{
  "type": "node",
  "id": 7177487688,
  "lat": 43.3353458,
  "lon": -0.3795624
},
{
  "type": "node",
  "id": 7177487689,
  "lat": 43.3353177,
  "lon": -0.3796112
},
{
  "type": "node",
  "id": 7177487690,
  "lat": 43.3352719,
  "lon": -0.3796132
},
{
  "type": "node",
  "id": 7177487692,
  "lat": 43.3351196,
  "lon": -0.3795767
},
{
  "type": "node",
  "id": 7177487697,
  "lat": 43.3352439,
  "lon": -0.3796164
},
{
  "type": "node",
  "id": 7177487704,
  "lat": 43.3356056,
  "lon": -0.3796192
},
{
  "type": "node",
  "id": 7177487716,
  "lat": 43.3354895,
  "lon": -0.3795270
},
{
  "type": "node",
  "id": 7177487717,
  "lat": 43.3354288,
  "lon": -0.3795114
},
{
  "type": "node",
  "id": 7529458629,
  "lat": 43.3355781,
  "lon": -0.3795990
},
{
  "type": "node",
  "id": 7529458632,
  "lat": 43.3355454,
  "lon": -0.3795662
},
{
  "type": "node",
  "id": 7529458635,
  "lat": 43.3343471,
  "lon": -0.3796017
},
{
  "type": "node",
  "id": 2630252099,
  "lat": 43.3326540,
  "lon": -0.3670689
},
{
  "type": "node",
  "id": 2630252103,
  "lat": 43.3330359,
  "lon": -0.3687576
},
{
  "type": "node",
  "id": 2630252106,
  "lat": 43.3330765,
  "lon": -0.3691805
},
{
  "type": "node",
  "id": 8199607037,
  "lat": 43.3328683,
  "lon": -0.3680166
},
{
  "type": "node",
  "id": 8584192258,
  "lat": 43.3330336,
  "lon": -0.3687476
},
{
  "type": "node",
  "id": 276194739,
  "lat": 43.3381618,
  "lon": -0.3795735
},
{
  "type": "node",
  "id": 7177487705,
  "lat": 43.3357790,
  "lon": -0.3796336
},
{
  "type": "node",
  "id": 7177487706,
  "lat": 43.3360304,
  "lon": -0.3796559
},
{
  "type": "node",
  "id": 7177487707,
  "lat": 43.3367297,
  "lon": -0.3796702
},
{
  "type": "node",
  "id": 7177487708,
  "lat": 43.3377543,
  "lon": -0.3796905
},
{
  "type": "node",
  "id": 7177487709,
  "lat": 43.3380041,
  "lon": -0.3796437
},
{
  "type": "node",
  "id": 8779930587,
  "lat": 43.3361173,
  "lon": -0.3796577
},
{
  "type": "node",
  "id": 7497342417,
  "lat": 43.3232674,
  "lon": -0.3633783
},
{
  "type": "node",
  "id": 7497342426,
  "lat": 43.3232439,
  "lon": -0.3632137
},
{
  "type": "node",
  "id": 6480860262,
  "lat": 43.3246913,
  "lon": -0.3570909
},
{
  "type": "node",
  "id": 6480860263,
  "lat": 43.3243943,
  "lon": -0.3558205
},
{
  "type": "node",
  "id": 6480860264,
  "lat": 43.3243377,
  "lon": -0.3550903
},
{
  "type": "node",
  "id": 6480860271,
  "lat": 43.3246604,
  "lon": -0.3569642
},
{
  "type": "node",
  "id": 6480860272,
  "lat": 43.3241972,
  "lon": -0.3543634
},
{
  "type": "node",
  "id": 6762262830,
  "lat": 43.3242752,
  "lon": -0.3547590
},
{
  "type": "node",
  "id": 6762262831,
  "lat": 43.3243143,
  "lon": -0.3549689
},
{
  "type": "node",
  "id": 6762262832,
  "lat": 43.3243572,
  "lon": -0.3553699
},
{
  "type": "node",
  "id": 6762262833,
  "lat": 43.3243650,
  "lon": -0.3555389
},
{
  "type": "node",
  "id": 6762262834,
  "lat": 43.3243747,
  "lon": -0.3556743
},
{
  "type": "node",
  "id": 6762262835,
  "lat": 43.3244430,
  "lon": -0.3560686
},
{
  "type": "node",
  "id": 6762262836,
  "lat": 43.3244177,
  "lon": -0.3559586
},
{
  "type": "node",
  "id": 6762262837,
  "lat": 43.3245840,
  "lon": -0.3566144
},
{
  "type": "node",
  "id": 8214141391,
  "lat": 43.3246138,
  "lon": -0.3567244
},
{
  "type": "node",
  "id": 8214141392,
  "lat": 43.3245396,
  "lon": -0.3564522
},
{
  "type": "node",
  "id": 8214141393,
  "lat": 43.3245084,
  "lon": -0.3563308
},
{
  "type": "node",
  "id": 8214141394,
  "lat": 43.3243474,
  "lon": -0.3551915
},
{
  "type": "node",
  "id": 8214141395,
  "lat": 43.3242567,
  "lon": -0.3546685
},
{
  "type": "node",
  "id": 8214141396,
  "lat": 43.3241533,
  "lon": -0.3541448
},
{
  "type": "node",
  "id": 9245674475,
  "lat": 43.3247091,
  "lon": -0.3572153
},
{
  "type": "node",
  "id": 9245674476,
  "lat": 43.3247013,
  "lon": -0.3572968
},
{
  "type": "node",
  "id": 9245674477,
  "lat": 43.3246841,
  "lon": -0.3573524
},
{
  "type": "node",
  "id": 9245674478,
  "lat": 43.3246116,
  "lon": -0.3574308
},
{
  "type": "node",
  "id": 9245674480,
  "lat": 43.3247351,
  "lon": -0.3576394
},
{
  "type": "node",
  "id": 9380216851,
  "lat": 43.3247783,
  "lon": -0.3570652
},
{
  "type": "node",
  "id": 9380216852,
  "lat": 43.3248126,
  "lon": -0.3572124
},
{
  "type": "node",
  "id": 9380216853,
  "lat": 43.3248267,
  "lon": -0.3572432
},
{
  "type": "node",
  "id": 9380216854,
  "lat": 43.3248418,
  "lon": -0.3572600
},
{
  "type": "node",
  "id": 9380216855,
  "lat": 43.3248609,
  "lon": -0.3572774
},
{
  "type": "node",
  "id": 9380216856,
  "lat": 43.3248901,
  "lon": -0.3572895
},
{
  "type": "node",
  "id": 9380216857,
  "lat": 43.3249155,
  "lon": -0.3572948
},
{
  "type": "node",
  "id": 9380216858,
  "lat": 43.3249467,
  "lon": -0.3572975
},
{
  "type": "node",
  "id": 9380216859,
  "lat": 43.3249789,
  "lon": -0.3572928
},
{
  "type": "node",
  "id": 9380216860,
  "lat": 43.3256493,
  "lon": -0.3570088
},
{
  "type": "node",
  "id": 9380216861,
  "lat": 43.3258722,
  "lon": -0.3569302
},
{
  "type": "node",
  "id": 9380216867,
  "lat": 43.3285489,
  "lon": -0.3561576
},
{
  "type": "node",
  "id": 9380216868,
  "lat": 43.3286019,
  "lon": -0.3561075
},
{
  "type": "node",
  "id": 9380216869,
  "lat": 43.3288377,
  "lon": -0.3560727
},
{
  "type": "node",
  "id": 9380216870,
  "lat": 43.3287777,
  "lon": -0.3560572
},
{
  "type": "node",
  "id": 9380216877,
  "lat": 43.3258693,
  "lon": -0.3571980
},
{
  "type": "node",
  "id": 9380216878,
  "lat": 43.3256810,
  "lon": -0.3572650
},
{
  "type": "node",
  "id": 9380216879,
  "lat": 43.3249761,
  "lon": -0.3575406
},
{
  "type": "node",
  "id": 9380216880,
  "lat": 43.3249960,
  "lon": -0.3575173
},
{
  "type": "node",
  "id": 9380216881,
  "lat": 43.3249386,
  "lon": -0.3576097
},
{
  "type": "node",
  "id": 9380216882,
  "lat": 43.3249279,
  "lon": -0.3576479
},
{
  "type": "node",
  "id": 9380216883,
  "lat": 43.3249225,
  "lon": -0.3576774
},
{
  "type": "node",
  "id": 9380216884,
  "lat": 43.3249186,
  "lon": -0.3577156
},
{
  "type": "node",
  "id": 9380216885,
  "lat": 43.3248938,
  "lon": -0.3577281
},
{
  "type": "node",
  "id": 9380216886,
  "lat": 43.3291020,
  "lon": -0.3562935
},
{
  "type": "node",
  "id": 9384179743,
  "lat": 43.3248527,
  "lon": -0.3577436
},
{
  "type": "node",
  "id": 9384179744,
  "lat": 43.3248301,
  "lon": -0.3576975
},
{
  "type": "node",
  "id": 9384179745,
  "lat": 43.3247883,
  "lon": -0.3576564
},
{
  "type": "node",
  "id": 9384179761,
  "lat": 43.3246998,
  "lon": -0.3576399
},
{
  "type": "node",
  "id": 2630187370,
  "lat": 43.3349248,
  "lon": -0.3637386
},
{
  "type": "node",
  "id": 2630252090,
  "lat": 43.3322857,
  "lon": -0.3654593
},
{
  "type": "node",
  "id": 2630252092,
  "lat": 43.3323053,
  "lon": -0.3653206
},
{
  "type": "node",
  "id": 2630252093,
  "lat": 43.3323542,
  "lon": -0.3652254
},
{
  "type": "node",
  "id": 2630252095,
  "lat": 43.3325106,
  "lon": -0.3663631
},
{
  "type": "node",
  "id": 2630252096,
  "lat": 43.3325821,
  "lon": -0.3666710
},
{
  "type": "node",
  "id": 2630252097,
  "lat": 43.3326566,
  "lon": -0.3667765
},
{
  "type": "node",
  "id": 2630252098,
  "lat": 43.3326816,
  "lon": -0.3668952
},
{
  "type": "node",
  "id": 5818169809,
  "lat": 43.3326230,
  "lon": -0.3668489
},
{
  "type": "node",
  "id": 6398606207,
  "lat": 43.3324483,
  "lon": -0.3661386
},
{
  "type": "node",
  "id": 6482947183,
  "lat": 43.3348746,
  "lon": -0.3637320
},
{
  "type": "node",
  "id": 6482947184,
  "lat": 43.3341273,
  "lon": -0.3641033
},
{
  "type": "node",
  "id": 6482948285,
  "lat": 43.3341468,
  "lon": -0.3642871
},
{
  "type": "node",
  "id": 6482948287,
  "lat": 43.3339466,
  "lon": -0.3643901
},
{
  "type": "node",
  "id": 6482948288,
  "lat": 43.3340748,
  "lon": -0.3643261
},
{
  "type": "node",
  "id": 6482948289,
  "lat": 43.3338165,
  "lon": -0.3644551
},
{
  "type": "node",
  "id": 6482948290,
  "lat": 43.3336732,
  "lon": -0.3645267
},
{
  "type": "node",
  "id": 6482948291,
  "lat": 43.3334020,
  "lon": -0.3646622
},
{
  "type": "node",
  "id": 6482948292,
  "lat": 43.3335342,
  "lon": -0.3645962
},
{
  "type": "node",
  "id": 6482948293,
  "lat": 43.3332846,
  "lon": -0.3647208
},
{
  "type": "node",
  "id": 6482948294,
  "lat": 43.3327358,
  "lon": -0.3649950
},
{
  "type": "node",
  "id": 6482948295,
  "lat": 43.3328681,
  "lon": -0.3649289
},
{
  "type": "node",
  "id": 6482948296,
  "lat": 43.3330011,
  "lon": -0.3648625
},
{
  "type": "node",
  "id": 6482948297,
  "lat": 43.3331410,
  "lon": -0.3647926
},
{
  "type": "node",
  "id": 6482948298,
  "lat": 43.3324821,
  "lon": -0.3651218
},
{
  "type": "node",
  "id": 6482948299,
  "lat": 43.3326006,
  "lon": -0.3650626
},
{
  "type": "node",
  "id": 6482948300,
  "lat": 43.3341356,
  "lon": -0.3642030
},
{
  "type": "node",
  "id": 6482950219,
  "lat": 43.3326684,
  "lon": -0.3668326
},
{
  "type": "node",
  "id": 6485194577,
  "lat": 43.3325788,
  "lon": -0.3666566
},
{
  "type": "node",
  "id": 8199607040,
  "lat": 43.3323798,
  "lon": -0.3658524
},
{
  "type": "node",
  "id": 8199607042,
  "lat": 43.3323904,
  "lon": -0.3651622
},
{
  "type": "node",
  "id": 8587796727,
  "lat": 43.3323322,
  "lon": -0.3652674
},
{
  "type": "node",
  "id": 8587796728,
  "lat": 43.3339927,
  "lon": -0.3642054
},
{
  "type": "node",
  "id": 8587796729,
  "lat": 43.3340551,
  "lon": -0.3641427
},
{
  "type": "node",
  "id": 7201142344,
  "lat": 43.3300003,
  "lon": -0.3559643
},
{
  "type": "node",
  "id": 9380216865,
  "lat": 43.3292544,
  "lon": -0.3559403
},
{
  "type": "node",
  "id": 9380216866,
  "lat": 43.3297140,
  "lon": -0.3557585
},
{
  "type": "node",
  "id": 9380216871,
  "lat": 43.3298048,
  "lon": -0.3556892
},
{
  "type": "node",
  "id": 9380216872,
  "lat": 43.3298721,
  "lon": -0.3555808
},
{
  "type": "node",
  "id": 9380216873,
  "lat": 43.3297796,
  "lon": -0.3560130
},
{
  "type": "node",
  "id": 9380216874,
  "lat": 43.3298867,
  "lon": -0.3559775
},
{
  "type": "node",
  "id": 9380216887,
  "lat": 43.3294631,
  "lon": -0.3561458
},
{
  "type": "node",
  "id": 9380216888,
  "lat": 43.3293733,
  "lon": -0.3562356
},
{
  "type": "node",
  "id": 9380216889,
  "lat": 43.3292110,
  "lon": -0.3563009
},
{
  "type": "node",
  "id": 459832059,
  "lat": 43.3229733,
  "lon": -0.3482488
},
{
  "type": "node",
  "id": 2339219096,
  "lat": 43.3231504,
  "lon": -0.3479320
},
{
  "type": "node",
  "id": 2339219098,
  "lat": 43.3240684,
  "lon": -0.3513588
},
{
  "type": "node",
  "id": 2848408177,
  "lat": 43.3235985,
  "lon": -0.3503142
},
{
  "type": "node",
  "id": 5980994116,
  "lat": 43.3260635,
  "lon": -0.3476586
},
{
  "type": "node",
  "id": 6480860267,
  "lat": 43.3237679,
  "lon": -0.3530049
},
{
  "type": "node",
  "id": 6480860270,
  "lat": 43.3236787,
  "lon": -0.3506489
},
{
  "type": "node",
  "id": 6480860273,
  "lat": 43.3240338,
  "lon": -0.3535681
},
{
  "type": "node",
  "id": 6480860274,
  "lat": 43.3237659,
  "lon": -0.3521063
},
{
  "type": "node",
  "id": 6499879450,
  "lat": 43.3231229,
  "lon": -0.3478195
},
{
  "type": "node",
  "id": 6499889174,
  "lat": 43.3231364,
  "lon": -0.3477726
},
{
  "type": "node",
  "id": 6549851181,
  "lat": 43.3237401,
  "lon": -0.3526133
},
{
  "type": "node",
  "id": 6549851182,
  "lat": 43.3238591,
  "lon": -0.3532349
},
{
  "type": "node",
  "id": 6762262828,
  "lat": 43.3239650,
  "lon": -0.3534058
},
{
  "type": "node",
  "id": 6762262829,
  "lat": 43.3240060,
  "lon": -0.3534962
},
{
  "type": "node",
  "id": 6762351613,
  "lat": 43.3238280,
  "lon": -0.3477899
},
{
  "type": "node",
  "id": 6762351614,
  "lat": 43.3238831,
  "lon": -0.3478117
},
{
  "type": "node",
  "id": 6762351615,
  "lat": 43.3239640,
  "lon": -0.3478710
},
{
  "type": "node",
  "id": 6762351616,
  "lat": 43.3240105,
  "lon": -0.3479038
},
{
  "type": "node",
  "id": 6762351617,
  "lat": 43.3240881,
  "lon": -0.3479119
},
{
  "type": "node",
  "id": 6762351618,
  "lat": 43.3243227,
  "lon": -0.3478543
},
{
  "type": "node",
  "id": 6762351619,
  "lat": 43.3244029,
  "lon": -0.3478223
},
{
  "type": "node",
  "id": 6762351621,
  "lat": 43.3246363,
  "lon": -0.3476375
},
{
  "type": "node",
  "id": 6762351622,
  "lat": 43.3248506,
  "lon": -0.3475002
},
{
  "type": "node",
  "id": 6762351623,
  "lat": 43.3250398,
  "lon": -0.3473903
},
{
  "type": "node",
  "id": 6762351636,
  "lat": 43.3261377,
  "lon": -0.3473900
},
{
  "type": "node",
  "id": 6762351637,
  "lat": 43.3261358,
  "lon": -0.3475343
},
{
  "type": "node",
  "id": 6762351638,
  "lat": 43.3241482,
  "lon": -0.3479014
},
{
  "type": "node",
  "id": 6762351639,
  "lat": 43.3242892,
  "lon": -0.3478662
},
{
  "type": "node",
  "id": 6762351641,
  "lat": 43.3238156,
  "lon": -0.3478439
},
{
  "type": "node",
  "id": 7929236258,
  "lat": 43.3229203,
  "lon": -0.3480340
},
{
  "type": "node",
  "id": 7929236260,
  "lat": 43.3233794,
  "lon": -0.3487866
},
{
  "type": "node",
  "id": 7929236261,
  "lat": 43.3238139,
  "lon": -0.3504057
},
{
  "type": "node",
  "id": 8214141397,
  "lat": 43.3240694,
  "lon": -0.3537270
},
{
  "type": "node",
  "id": 8214141399,
  "lat": 43.3235403,
  "lon": -0.3499669
},
{
  "type": "node",
  "id": 8214141400,
  "lat": 43.3237515,
  "lon": -0.3518120
},
{
  "type": "node",
  "id": 8214141401,
  "lat": 43.3237601,
  "lon": -0.3522934
},
{
  "type": "node",
  "id": 8214141402,
  "lat": 43.3237342,
  "lon": -0.3527749
},
{
  "type": "node",
  "id": 8214141403,
  "lat": 43.3237425,
  "lon": -0.3528788
},
{
  "type": "node",
  "id": 8214141404,
  "lat": 43.3238060,
  "lon": -0.3531155
},
{
  "type": "node",
  "id": 8511266965,
  "lat": 43.3236581,
  "lon": -0.3504604
},
{
  "type": "node",
  "id": 8542451973,
  "lat": 43.3263702,
  "lon": -0.3475105
},
{
  "type": "node",
  "id": 8542451974,
  "lat": 43.3261671,
  "lon": -0.3475412
},
{
  "type": "node",
  "id": 8542451975,
  "lat": 43.3264074,
  "lon": -0.3475543
},
{
  "type": "node",
  "id": 8542451979,
  "lat": 43.3238920,
  "lon": -0.3506981
},
{
  "type": "node",
  "id": 8542451980,
  "lat": 43.3239916,
  "lon": -0.3510712
},
{
  "type": "node",
  "id": 8786107441,
  "lat": 43.3260999,
  "lon": -0.3475961
},
{
  "type": "node",
  "id": 459832060,
  "lat": 43.3225943,
  "lon": -0.3466009
},
{
  "type": "node",
  "id": 2915955783,
  "lat": 43.3233291,
  "lon": -0.3448887
},
{
  "type": "node",
  "id": 5547452482,
  "lat": 43.3226750,
  "lon": -0.3423343
},
{
  "type": "node",
  "id": 5547452483,
  "lat": 43.3227344,
  "lon": -0.3425350
},
{
  "type": "node",
  "id": 5547452484,
  "lat": 43.3227875,
  "lon": -0.3428213
},
{
  "type": "node",
  "id": 5547452485,
  "lat": 43.3228848,
  "lon": -0.3432309
},
{
  "type": "node",
  "id": 5547452486,
  "lat": 43.3230246,
  "lon": -0.3437585
},
{
  "type": "node",
  "id": 5547452487,
  "lat": 43.3231098,
  "lon": -0.3440731
},
{
  "type": "node",
  "id": 5547452488,
  "lat": 43.3231296,
  "lon": -0.3442152
},
{
  "type": "node",
  "id": 5547452489,
  "lat": 43.3231569,
  "lon": -0.3443176
},
{
  "type": "node",
  "id": 5547452490,
  "lat": 43.3232390,
  "lon": -0.3445517
},
{
  "type": "node",
  "id": 6762351593,
  "lat": 43.3228037,
  "lon": -0.3463618
},
{
  "type": "node",
  "id": 6762351594,
  "lat": 43.3228198,
  "lon": -0.3462404
},
{
  "type": "node",
  "id": 6762351601,
  "lat": 43.3238557,
  "lon": -0.3451788
},
{
  "type": "node",
  "id": 6762351602,
  "lat": 43.3239416,
  "lon": -0.3451560
},
{
  "type": "node",
  "id": 6762351603,
  "lat": 43.3240154,
  "lon": -0.3450677
},
{
  "type": "node",
  "id": 6762351604,
  "lat": 43.3240404,
  "lon": -0.3449628
},
{
  "type": "node",
  "id": 6762351608,
  "lat": 43.3244128,
  "lon": -0.3444946
},
{
  "type": "node",
  "id": 6762351610,
  "lat": 43.3235154,
  "lon": -0.3455887
},
{
  "type": "node",
  "id": 6762351611,
  "lat": 43.3236401,
  "lon": -0.3454430
},
{
  "type": "node",
  "id": 6762351612,
  "lat": 43.3231674,
  "lon": -0.3459262
},
{
  "type": "node",
  "id": 6762351624,
  "lat": 43.3252769,
  "lon": -0.3472749
},
{
  "type": "node",
  "id": 6762351625,
  "lat": 43.3254213,
  "lon": -0.3472181
},
{
  "type": "node",
  "id": 6762351626,
  "lat": 43.3255877,
  "lon": -0.3471345
},
{
  "type": "node",
  "id": 6762351627,
  "lat": 43.3256095,
  "lon": -0.3471502
},
{
  "type": "node",
  "id": 6762351628,
  "lat": 43.3256223,
  "lon": -0.3472199
},
{
  "type": "node",
  "id": 6762351629,
  "lat": 43.3256320,
  "lon": -0.3472602
},
{
  "type": "node",
  "id": 6762351630,
  "lat": 43.3256554,
  "lon": -0.3473232
},
{
  "type": "node",
  "id": 6762351631,
  "lat": 43.3256896,
  "lon": -0.3473366
},
{
  "type": "node",
  "id": 6762351632,
  "lat": 43.3257911,
  "lon": -0.3472963
},
{
  "type": "node",
  "id": 6762351633,
  "lat": 43.3258389,
  "lon": -0.3472763
},
{
  "type": "node",
  "id": 6762351634,
  "lat": 43.3259773,
  "lon": -0.3473111
},
{
  "type": "node",
  "id": 6762351635,
  "lat": 43.3260574,
  "lon": -0.3473325
},
{
  "type": "node",
  "id": 6793715943,
  "lat": 43.3239813,
  "lon": -0.3451158
},
{
  "type": "node",
  "id": 6939265673,
  "lat": 43.3228349,
  "lon": -0.3465025
},
{
  "type": "node",
  "id": 6939265674,
  "lat": 43.3227666,
  "lon": -0.3465303
},
{
  "type": "node",
  "id": 6939265675,
  "lat": 43.3227036,
  "lon": -0.3465542
},
{
  "type": "node",
  "id": 6939265676,
  "lat": 43.3226418,
  "lon": -0.3465816
},
{
  "type": "node",
  "id": 6985124479,
  "lat": 43.3228028,
  "lon": -0.3462929
},
{
  "type": "node",
  "id": 7647114328,
  "lat": 43.3234878,
  "lon": -0.3456177
},
{
  "type": "node",
  "id": 7724618504,
  "lat": 43.3236614,
  "lon": -0.3454185
},
{
  "type": "node",
  "id": 8019416993,
  "lat": 43.3245391,
  "lon": -0.3444252
},
{
  "type": "node",
  "id": 8423673019,
  "lat": 43.3226024,
  "lon": -0.3466367
},
{
  "type": "node",
  "id": 8525208710,
  "lat": 43.3246814,
  "lon": -0.3443055
},
{
  "type": "node",
  "id": 8525208711,
  "lat": 43.3250161,
  "lon": -0.3438561
},
{
  "type": "node",
  "id": 8525208712,
  "lat": 43.3251562,
  "lon": -0.3437347
},
{
  "type": "node",
  "id": 8525208713,
  "lat": 43.3254878,
  "lon": -0.3431605
},
{
  "type": "node",
  "id": 8525208714,
  "lat": 43.3253069,
  "lon": -0.3435401
},
{
  "type": "node",
  "id": 8525208715,
  "lat": 43.3258951,
  "lon": -0.3427079
},
{
  "type": "node",
  "id": 8525208716,
  "lat": 43.3260618,
  "lon": -0.3425630
},
{
  "type": "node",
  "id": 8525220417,
  "lat": 43.3263037,
  "lon": -0.3421688
},
{
  "type": "node",
  "id": 8525220418,
  "lat": 43.3264422,
  "lon": -0.3419917
},
{
  "type": "node",
  "id": 8525220419,
  "lat": 43.3264486,
  "lon": -0.3418490
},
{
  "type": "node",
  "id": 8786107451,
  "lat": 43.3256453,
  "lon": -0.3472961
},
{
  "type": "node",
  "id": 2628327447,
  "lat": 43.3233449,
  "lon": -0.3250890
},
{
  "type": "node",
  "id": 2917124753,
  "lat": 43.3228372,
  "lon": -0.3254995
},
{
  "type": "node",
  "id": 2917124757,
  "lat": 43.3229719,
  "lon": -0.3255311
},
{
  "type": "node",
  "id": 2917124760,
  "lat": 43.3230532,
  "lon": -0.3255201
},
{
  "type": "node",
  "id": 2917124762,
  "lat": 43.3231275,
  "lon": -0.3254291
},
{
  "type": "node",
  "id": 2917124763,
  "lat": 43.3231656,
  "lon": -0.3252854
},
{
  "type": "node",
  "id": 6375487783,
  "lat": 43.3231640,
  "lon": -0.3251974
},
{
  "type": "node",
  "id": 6375487784,
  "lat": 43.3227511,
  "lon": -0.3244617
},
{
  "type": "node",
  "id": 6375488787,
  "lat": 43.3227402,
  "lon": -0.3241548
},
{
  "type": "node",
  "id": 6375488788,
  "lat": 43.3229919,
  "lon": -0.3245867
},
{
  "type": "node",
  "id": 6375488789,
  "lat": 43.3232671,
  "lon": -0.3251030
},
{
  "type": "node",
  "id": 6375488790,
  "lat": 43.3232255,
  "lon": -0.3251410
},
{
  "type": "node",
  "id": 6375488791,
  "lat": 43.3231978,
  "lon": -0.3251664
}

  ]
}
