{
  "version": 0.6,
  "generator": "Overpass API 0.7.57.1 74a55df1",
  "osm3s": {
    "timestamp_osm_base": "2022-02-13T13:18:30Z",
    "timestamp_areas_base": "2022-02-13T02:36:10Z",
    "copyright": "The data included in this document is from www.openstreetmap.org. The data is made available under ODbL."
  },
  "elements": [

{
  "type": "way",
  "id": 26179119,
  "nodes": [
    286678890,
    3481528888,
    343486289,
    286678892,
    5254767632,
    286678893,
    3481528889,
    286678894
  ],
  "tags": {
    "cycleway:right": "lane",
    "highway": "secondary",
    "junction": "roundabout",
    "name": "Rond-Point Yitzhak Rabin",
    "ref:FR:FANTOIR": "644454352M",
    "source": "BDOrtho IGN",
    "surface": "asphalt"
  }
},
{
  "type": "way",
  "id": 26179120,
  "nodes": [
    286678876,
    286678877,
    286678878,
    286678879,
    286678880,
    286678881,
    286678882
  ],
  "tags": {
    "cycleway:right": "lane",
    "highway": "secondary",
    "lit": "yes",
    "maxspeed": "50",
    "name": "Rue de Batsalle",
    "oneway": "yes",
    "surface": "asphalt"
  }
},
{
  "type": "way",
  "id": 26180473,
  "nodes": [
    286693856,
    286693858,
    6007150497,
    286693860
  ],
  "tags": {
    "cycleway:right": "lane",
    "highway": "secondary",
    "junction": "roundabout",
    "name": "Rond-Point des Allées de Morlaàs",
    "surface": "asphalt"
  }
},
{
  "type": "way",
  "id": 26180475,
  "nodes": [
    286693850,
    5398468421,
    7080130615,
    7080130616,
    7080130617,
    7080130619,
    7080130625,
    7080130628,
    7080130626,
    8956871565,
    8983071805,
    4510091905,
    459161255
  ],
  "tags": {
    "cycleway:right": "lane",
    "highway": "tertiary",
    "name": "Allées de Morlaàs",
    "oneway": "yes",
    "surface": "asphalt"
  }
},
{
  "type": "way",
  "id": 26193109,
  "nodes": [
    385088877,
    6013354379
  ],
  "tags": {
    "cycleway:right": "lane",
    "highway": "secondary",
    "maxspeed": "30",
    "name": "Boulevard de la Paix",
    "oneway": "yes"
  }
},
{
  "type": "way",
  "id": 26267317,
  "nodes": [
    286823655,
    674163136,
    4510869461,
    2309510870,
    7376236582,
    286823666,
    2309510866,
    2309510865,
    339226322,
    6654378059,
    6277135839,
    2309510859,
    6388862652,
    286823669
  ],
  "tags": {
    "cycleway:right": "lane",
    "highway": "secondary",
    "lanes": "2",
    "lit": "yes",
    "maxspeed": "50",
    "maxspeed:type": "FR:urban",
    "name": "Cours Léon Bérard",
    "oneway": "yes",
    "surface": "asphalt"
  }
},
{
  "type": "way",
  "id": 26324397,
  "nodes": [
    287097999,
    2917113985,
    288408190
  ],
  "tags": {
    "cycleway:right": "lane",
    "highway": "tertiary",
    "name": "Avenue Léon Blum",
    "oneway": "yes",
    "surface": "asphalt"
  }
},
{
  "type": "way",
  "id": 26324398,
  "nodes": [
    288408190,
    2917113983,
    287098001
  ],
  "tags": {
    "cycleway:right": "lane",
    "highway": "tertiary",
    "name": "Avenue Léon Blum",
    "oneway": "yes"
  }
},
{
  "type": "way",
  "id": 28015567,
  "nodes": [
    307636568,
    307636566
  ],
  "tags": {
    "cycleway:right": "lane",
    "highway": "secondary",
    "lanes": "2",
    "layer": "-1",
    "oneway": "yes",
    "surface": "asphalt",
    "tunnel": "yes"
  }
},
{
  "type": "way",
  "id": 28015795,
  "nodes": [
    307638183,
    426558036,
    307638194,
    307638200,
    7043811769,
    2298073528,
    307638205
  ],
  "tags": {
    "cycleway:right": "lane",
    "highway": "secondary",
    "maxspeed": "50",
    "name": "Route de Bayonne",
    "old_ref": "N 117",
    "oneway": "yes",
    "source": "cadastre-dgi-fr source : Direction Générale des Impôts - Cadastre. Mise à jour : 2009",
    "surface": "asphalt"
  }
},
{
  "type": "way",
  "id": 30682475,
  "nodes": [
    307638200,
    7043811770,
    339397468,
    339397467
  ],
  "tags": {
    "cycleway:right": "lane",
    "highway": "secondary",
    "maxspeed": "50",
    "name": "Route de Bayonne",
    "old_ref": "N 117",
    "oneway": "yes",
    "source": "cadastre-dgi-fr source : Direction Générale des Impôts - Cadastre. Mise à jour : 2009",
    "surface": "asphalt"
  }
},
{
  "type": "way",
  "id": 30682482,
  "nodes": [
    307636564,
    2298073538,
    307638175,
    307638179,
    9037115108,
    307638183
  ],
  "tags": {
    "cycleway:right": "lane",
    "highway": "secondary",
    "maxspeed": "50",
    "name": "Route de Bayonne",
    "old_ref": "N 117",
    "oneway": "yes",
    "source": "cadastre-dgi-fr source : Direction Générale des Impôts - Cadastre. Mise à jour : 2009",
    "surface": "asphalt"
  }
},
{
  "type": "way",
  "id": 30683434,
  "nodes": [
    307636558,
    6656368251
  ],
  "tags": {
    "cycleway:right": "lane",
    "highway": "secondary",
    "maxspeed": "50",
    "name": "Avenue Gaston Phoebus",
    "old_ref": "N 117",
    "oneway": "yes",
    "source": "cadastre-dgi-fr source : Direction Générale des Impôts - Cadastre. Mise à jour : 2009",
    "surface": "asphalt"
  }
},
{
  "type": "way",
  "id": 30809405,
  "nodes": [
    322107501,
    6387893131,
    2894949866,
    8587957766,
    8587957763,
    7949153134,
    2794606174,
    8587957737,
    2794606175,
    322107506
  ],
  "tags": {
    "cycleway:left": "opposite_lane",
    "cycleway:right": "lane",
    "highway": "residential",
    "maxspeed": "30",
    "name": "Avenue Robert Schuman",
    "oneway": "yes",
    "oneway:bicycle": "no",
    "source": "cadastre-dgi-fr source : Direction Générale des Impôts - Cadastre;mise à jour : 2009",
    "surface": "asphalt",
    "zone:maxspeed": "FR:30"
  }
},
{
  "type": "way",
  "id": 31798576,
  "nodes": [
    356025145,
    7699785547,
    9365302993,
    7699800877,
    7699800880,
    9365302994,
    7699800884,
    7699800879,
    7699800878,
    674163143,
    7699785545,
    287712220,
    8173375571,
    2309510881,
    252258523
  ],
  "tags": {
    "cycleway:right": "lane",
    "highway": "secondary",
    "lit": "yes",
    "maxspeed": "50",
    "maxspeed:type": "FR:urban",
    "name": "Cours Léon Bérard",
    "oneway": "yes",
    "source": "cadastre-dgi-fr source : Direction Générale des Impôts - Cadastre;mise à jour : 2010",
    "surface": "asphalt"
  }
},
{
  "type": "way",
  "id": 32140417,
  "nodes": [
    360814074,
    2892021618,
    7080130658,
    7721324241,
    459161252,
    2990506708,
    2990506707,
    7721324242,
    386886266,
    2621438768,
    2621438766,
    7721324243,
    386886267,
    9044293825,
    286693876,
    286693878,
    360814067
  ],
  "tags": {
    "cycleway:right": "lane",
    "highway": "tertiary",
    "name": "Allées de Morlaàs",
    "oneway": "yes",
    "source": "cadastre-dgi-fr source : Direction Générale des Impôts - Cadastre;mise à jour : 2009"
  }
},
{
  "type": "way",
  "id": 32140427,
  "nodes": [
    360814067,
    2627857140,
    360814099
  ],
  "tags": {
    "cycleway:right": "lane",
    "highway": "tertiary",
    "name": "Allées de Morlaàs",
    "source": "cadastre-dgi-fr source : Direction Générale des Impôts - Cadastre;mise à jour : 2009",
    "surface": "asphalt"
  }
},
{
  "type": "way",
  "id": 32140433,
  "nodes": [
    360814212,
    3040840808,
    360814205,
    360814200,
    360814196,
    7101567059,
    3195288341,
    360814176
  ],
  "tags": {
    "cycleway:left": "opposite_lane",
    "cycleway:right": "lane",
    "highway": "residential",
    "maxspeed": "30",
    "name": "Avenue des Lauriers",
    "oneway": "yes",
    "source": "cadastre-dgi-fr source : Direction Générale des Impôts - Cadastre;mise à jour : 2009",
    "surface": "asphalt",
    "zone:maxspeed": "FR:30"
  }
},
{
  "type": "way",
  "id": 34310947,
  "nodes": [
    356506974,
    2630252091,
    2283379332,
    2643575656,
    8587796728,
    6482948300
  ],
  "tags": {
    "cycleway:right": "lane",
    "highway": "residential",
    "name": "Rue Suzanne Bacarisse",
    "oneway": "yes"
  }
},
{
  "type": "way",
  "id": 35726734,
  "nodes": [
    418000033,
    418055748,
    5916097239,
    2922439798
  ],
  "tags": {
    "cycleway:right": "lane",
    "highway": "tertiary",
    "name": "Boulevard de l'Oussère",
    "oneway": "yes",
    "surface": "asphalt"
  }
},
{
  "type": "way",
  "id": 35732956,
  "nodes": [
    418016843,
    6485194578,
    418016851,
    8199607039,
    8584192260,
    418016839
  ],
  "tags": {
    "cycleway:right": "lane",
    "highway": "tertiary",
    "maxspeed": "50",
    "name": "Boulevard du Cami-Salié",
    "oneway": "yes",
    "source": "cadastre-dgi-fr source : Direction Générale des Impôts - Cadastre;mise à jour : 2009"
  }
},
{
  "type": "way",
  "id": 35832993,
  "nodes": [
    360814157,
    5250312010,
    7057223146,
    2627857133,
    8983056102,
    360814153
  ],
  "tags": {
    "cycleway:right": "lane",
    "highway": "residential",
    "maxspeed": "30",
    "name": "Avenue des Lauriers",
    "oneway": "yes",
    "source": "cadastre-dgi-fr source : Direction Générale des Impôts - Cadastre;mise à jour : 2009",
    "surface": "asphalt",
    "zone:maxspeed": "FR:30"
  }
},
{
  "type": "way",
  "id": 37997469,
  "nodes": [
    446277337,
    2635190609,
    369763775
  ],
  "tags": {
    "cycleway:right": "lane",
    "highway": "secondary",
    "name": "Boulevard du Corps Franc Pommiès et du 49e Régiment d'Infanterie",
    "oneway": "yes",
    "surface": "asphalt"
  }
},
{
  "type": "way",
  "id": 37997472,
  "nodes": [
    343486245,
    2628310094,
    2628310111,
    2628310113,
    3705277524
  ],
  "tags": {
    "cycleway:right": "lane",
    "highway": "secondary",
    "name": "Avenue du Général Leclerc",
    "old_ref": "N 117",
    "oneway": "yes",
    "source": "BDOrtho IGN",
    "surface": "asphalt"
  }
},
{
  "type": "way",
  "id": 38537246,
  "nodes": [
    360814067,
    286693886,
    8482183976,
    7721324244,
    7721324237,
    8482243493,
    8482243495,
    7721324238,
    2990506700,
    6384428778,
    8827820337,
    459278191,
    8956871564,
    459278203,
    8767369241,
    2926383603,
    2926383604,
    2892021620,
    7721324240,
    360814077,
    2892021622,
    2892021623,
    5398467220,
    286693856
  ],
  "tags": {
    "cycleway:right": "lane",
    "highway": "tertiary",
    "name": "Avenue Norman Prince",
    "oneway": "yes",
    "source": "cadastre-dgi-fr source : Direction Générale des Impôts - Cadastre;mise à jour : 2009"
  }
},
{
  "type": "way",
  "id": 38728461,
  "nodes": [
    2306156492,
    6391787098,
    1938084076,
    2237548158,
    6376335890
  ],
  "tags": {
    "cycleway:right": "lane",
    "highway": "residential",
    "lanes": "2",
    "maxspeed": "50",
    "name": "Rue Ronsard",
    "source": "cadastre-dgi-fr source : Direction Générale des Impôts - Cadastre;mise à jour : 2009",
    "surface": "asphalt"
  }
},
{
  "type": "way",
  "id": 38753974,
  "nodes": [
    286779755,
    8426448083,
    8426448082,
    428071966
  ],
  "tags": {
    "cycleway:right": "lane",
    "highway": "secondary",
    "lanes": "1",
    "name": "Avenue Alfred Nobel",
    "oneway": "yes",
    "ref": "D 943",
    "source": "cadastre-dgi-fr source : Direction Générale des Impôts - Cadastre;mise à jour : 2009"
  }
},
{
  "type": "way",
  "id": 43212349,
  "nodes": [
    6822067487,
    459149785,
    6984569299,
    6841770964,
    6841770951,
    6105580036,
    6841770965,
    459149781
  ],
  "tags": {
    "cycleway:right": "lane",
    "highway": "residential",
    "lanes": "1",
    "maxspeed": "30",
    "name": "Avenue Louis Sallenave",
    "oneway": "yes",
    "source": "cadastre-dgi-fr source : Direction Générale des Impôts - Cadastre;mise à jour : 2009",
    "surface": "asphalt",
    "zone:maxspeed": "FR:30"
  }
},
{
  "type": "way",
  "id": 52831265,
  "nodes": [
    286823684,
    702404279,
    286823686,
    7164104986,
    7164085883,
    2309510868,
    286823688,
    2309510872,
    674163137,
    286823664
  ],
  "tags": {
    "cycleway:right": "lane",
    "highway": "secondary",
    "lanes": "2",
    "lit": "yes",
    "maxspeed": "50",
    "maxspeed:type": "FR:urban",
    "name": "Cours Léon Bérard",
    "oneway": "yes",
    "source": "cadastre-dgi-fr source : Direction Générale des Impôts - Cadastre;mise à jour : 2010",
    "surface": "asphalt"
  }
},
{
  "type": "way",
  "id": 52831267,
  "nodes": [
    286823669,
    6277135833,
    2309510854,
    6388869716,
    6388869722,
    2630402222,
    6388869720,
    339499602,
    6387893124
  ],
  "tags": {
    "cycleway:right": "lane",
    "highway": "secondary",
    "lanes": "2",
    "maxspeed": "50",
    "name": "Avenue de l'Université",
    "oneway": "yes",
    "source": "cadastre-dgi-fr source : Direction Générale des Impôts - Cadastre;mise à jour : 2010",
    "surface": "asphalt"
  }
},
{
  "type": "way",
  "id": 53282665,
  "nodes": [
    286823660,
    2309510882,
    674163138,
    7699849085,
    674163140,
    7699785544,
    702397751,
    252258522,
    7699800882,
    287712217,
    7699800883,
    252258521,
    7699800881,
    7699785546,
    356025157
  ],
  "tags": {
    "cycleway:right": "lane",
    "highway": "secondary",
    "lit": "yes",
    "maxspeed": "50",
    "maxspeed:type": "FR:urban",
    "name": "Cours Léon Bérard",
    "oneway": "yes",
    "source": "cadastre-dgi-fr source : Direction Générale des Impôts - Cadastre;mise à jour : 2010",
    "surface": "asphalt"
  }
},
{
  "type": "way",
  "id": 55468362,
  "nodes": [
    356506972,
    8199607035,
    8199607036,
    418016844
  ],
  "tags": {
    "cycleway:right": "lane",
    "highway": "tertiary",
    "maxspeed": "50",
    "name": "Boulevard du Cami-Salié",
    "oneway": "yes",
    "source": "cadastre-dgi-fr source : Direction Générale des Impôts - Cadastre;mise à jour : 2010"
  }
},
{
  "type": "way",
  "id": 63016846,
  "nodes": [
    252258520,
    7997674990
  ],
  "tags": {
    "cycleway:right": "lane",
    "highway": "secondary",
    "maxspeed": "50",
    "name": "Cours Léon Bérard",
    "oneway": "yes",
    "source": "cadastre-dgi-fr source : Direction Générale des Impôts - Cadastre;mise à jour : 2010",
    "surface": "asphalt"
  }
},
{
  "type": "way",
  "id": 82718391,
  "nodes": [
    360814093,
    963138642,
    5250312013,
    4510077005
  ],
  "tags": {
    "cycleway:right": "lane",
    "highway": "tertiary",
    "name": "Allées de Morlaàs",
    "oneway": "yes",
    "source": "cadastre-dgi-fr source : Direction Générale des Impôts - Cadastre;mise à jour : 2009",
    "surface": "asphalt"
  }
},
{
  "type": "way",
  "id": 220715281,
  "nodes": [
    2298073513,
    2298073506
  ],
  "tags": {
    "cycleway:right": "lane",
    "highway": "secondary",
    "lanes": "2",
    "layer": "-1",
    "oneway": "yes",
    "surface": "asphalt",
    "tunnel": "yes"
  }
},
{
  "type": "way",
  "id": 230101811,
  "nodes": [
    340280215,
    7044802376,
    7044802378,
    2324306561,
    7044802377
  ],
  "tags": {
    "cycleway:right": "lane",
    "cycleway:right:lane": "advisory",
    "highway": "secondary",
    "maxspeed": "50",
    "name": "Boulevard d'Alsace Lorraine",
    "old_ref": "N 117",
    "oneway": "yes",
    "surface": "asphalt"
  }
},
{
  "type": "way",
  "id": 258110607,
  "nodes": [
    369763775,
    369763805,
    7500573543,
    7599711149
  ],
  "tags": {
    "cycleway:right": "lane",
    "highway": "secondary",
    "name": "Boulevard du Corps Franc Pommiès et du 49e Régiment d'Infanterie",
    "surface": "asphalt"
  }
},
{
  "type": "way",
  "id": 313529644,
  "nodes": [
    360814176,
    8827808963,
    2895941452,
    6375376211,
    360814166,
    8983058123,
    360814153,
    8983060139,
    2895941449,
    360814162
  ],
  "tags": {
    "cycleway:left": "opposite_lane",
    "cycleway:right": "lane",
    "highway": "residential",
    "maxspeed": "30",
    "name": "Avenue des Lauriers",
    "oneway": "yes",
    "source": "cadastre-dgi-fr source : Direction Générale des Impôts - Cadastre;mise à jour : 2009",
    "surface": "asphalt",
    "zone:maxspeed": "FR:30"
  }
},
{
  "type": "way",
  "id": 331967322,
  "nodes": [
    3390705459,
    6654371826,
    3390705458,
    9292746992
  ],
  "tags": {
    "cycleway:right": "lane",
    "highway": "tertiary",
    "oneway": "yes"
  }
},
{
  "type": "way",
  "id": 364098754,
  "nodes": [
    766878076,
    8511266966,
    459825606
  ],
  "tags": {
    "cycleway:right": "lane",
    "highway": "tertiary",
    "maxspeed": "30",
    "name": "Boulevard Hauterive"
  }
},
{
  "type": "way",
  "id": 385035679,
  "nodes": [
    3705277524,
    446277338,
    5254766604,
    286678890
  ],
  "tags": {
    "cycleway:right": "lane",
    "highway": "secondary",
    "name": "Avenue du Général Leclerc",
    "old_ref": "N 117",
    "oneway": "yes",
    "source": "BDOrtho IGN",
    "surface": "asphalt"
  }
},
{
  "type": "way",
  "id": 385035682,
  "nodes": [
    6150139096,
    2428993900,
    6150139092
  ],
  "tags": {
    "cycleway:right": "lane",
    "highway": "secondary",
    "maxspeed": "50",
    "name": "Boulevard d'Alsace Lorraine",
    "old_ref": "N 117",
    "oneway": "yes",
    "surface": "asphalt"
  }
},
{
  "type": "way",
  "id": 385561238,
  "nodes": [
    7599711149,
    8956871553,
    2635190621,
    7079935024,
    7599711148
  ],
  "tags": {
    "cycleway:right": "lane",
    "highway": "secondary",
    "name": "Boulevard du Corps Franc Pommiès et du 49e Régiment d'Infanterie",
    "surface": "asphalt"
  }
},
{
  "type": "way",
  "id": 387293201,
  "nodes": [
    356507057,
    7497194342,
    418055742
  ],
  "tags": {
    "cycleway:right": "lane",
    "highway": "tertiary",
    "name": "Avenue Philippon",
    "source": "cadastre-dgi-fr source : Direction Générale des Impôts - Cadastre;mise à jour : 2009",
    "surface": "asphalt"
  }
},
{
  "type": "way",
  "id": 387293202,
  "nodes": [
    418055742,
    2922440205,
    356507060,
    2922440206,
    356507063,
    2643575543,
    305383475
  ],
  "tags": {
    "cycleway:right": "lane",
    "highway": "tertiary",
    "name": "Avenue Philippon",
    "source": "cadastre-dgi-fr source : Direction Générale des Impôts - Cadastre;mise à jour : 2009",
    "surface": "asphalt"
  }
},
{
  "type": "way",
  "id": 389658780,
  "nodes": [
    2922439798,
    356507054
  ],
  "tags": {
    "cycleway:right": "lane",
    "highway": "tertiary",
    "name": "Boulevard de l'Oussère",
    "oneway": "yes"
  }
},
{
  "type": "way",
  "id": 560542079,
  "nodes": [
    339301707,
    339301712,
    5405775624
  ],
  "tags": {
    "cycleway:right": "lane",
    "highway": "residential",
    "maxspeed": "50",
    "name": "Rue d'Étigny",
    "oneway": "yes",
    "surface": "asphalt"
  }
},
{
  "type": "way",
  "id": 560660101,
  "nodes": [
    339226321,
    7050624434,
    6277135836,
    2309510853
  ],
  "tags": {
    "cycleway:right": "lane",
    "highway": "tertiary",
    "name": "Boulevard du Recteur Jean Sarrailh",
    "surface": "asphalt"
  }
},
{
  "type": "way",
  "id": 625306813,
  "nodes": [
    356507054,
    356507057
  ],
  "tags": {
    "cycleway:right": "lane",
    "highway": "tertiary",
    "name": "Avenue Philippon",
    "source": "cadastre-dgi-fr source : Direction Générale des Impôts - Cadastre;mise à jour : 2009",
    "surface": "asphalt"
  }
},
{
  "type": "way",
  "id": 636920484,
  "nodes": [
    286809545,
    9443056253,
    339260493,
    339260491,
    2270254492,
    3376478046,
    286809542,
    3376478045,
    3686569385,
    8945183192,
    286809539,
    8557521857,
    8945183184,
    8557521855,
    339499505,
    286809537,
    286809534
  ],
  "tags": {
    "cycleway:right": "lane",
    "highway": "secondary",
    "lanes": "2",
    "maxspeed": "30",
    "name": "Avenue Dufau",
    "oneway": "yes",
    "surface": "asphalt"
  }
},
{
  "type": "way",
  "id": 637556875,
  "nodes": [
    339803865,
    8983590066,
    339803868
  ],
  "tags": {
    "cycleway:left": "opposite",
    "cycleway:right": "lane",
    "highway": "residential",
    "maxspeed": "30",
    "name": "Rue Carnot",
    "oneway": "yes",
    "oneway:bicycle": "no",
    "source": "cadastre-dgi-fr source : Direction Générale des Impôts - Cadastre;mise à jour : 2009",
    "surface": "asphalt",
    "zone:maxspeed": "FR:30"
  }
},
{
  "type": "way",
  "id": 637952755,
  "nodes": [
    6013354342,
    6984605101,
    6984605102,
    7619603105,
    6984605100,
    6013354341,
    6013354340,
    6654009797,
    6654009798,
    6013354336,
    6013354339
  ],
  "tags": {
    "cycleway:right": "lane",
    "highway": "secondary",
    "lanes": "1",
    "maxspeed": "30",
    "name": "Boulevard de la Paix",
    "oneway": "yes",
    "surface": "asphalt"
  }
},
{
  "type": "way",
  "id": 637952757,
  "nodes": [
    6013354361,
    6654009794,
    6984605105,
    6845373727,
    8783804444,
    6013354342
  ],
  "tags": {
    "cycleway:right": "lane",
    "highway": "secondary",
    "lanes": "1",
    "maxspeed": "30",
    "name": "Boulevard de la Paix",
    "oneway": "yes",
    "surface": "asphalt"
  }
},
{
  "type": "way",
  "id": 637952759,
  "nodes": [
    6013354357,
    8862876469,
    6654009792,
    6845373721,
    2848014228,
    8198641422,
    6036552020,
    8862876483,
    6013354377
  ],
  "tags": {
    "cycleway:right": "lane",
    "highway": "secondary",
    "lanes": "1",
    "maxspeed": "30",
    "name": "Boulevard de la Paix",
    "oneway": "yes",
    "source": "cadastre-dgi-fr source : Direction Générale des Impôts - Cadastre;mise à jour : 2010",
    "surface": "asphalt"
  }
},
{
  "type": "way",
  "id": 637952762,
  "nodes": [
    6013354377,
    8862876468,
    6654009793,
    6013354349
  ],
  "tags": {
    "cycleway:right": "lane",
    "highway": "secondary",
    "lanes": "1",
    "maxspeed": "30",
    "name": "Boulevard de la Paix",
    "oneway": "yes",
    "source": "cadastre-dgi-fr source : Direction Générale des Impôts - Cadastre;mise à jour : 2010"
  }
},
{
  "type": "way",
  "id": 637952763,
  "nodes": [
    6013354349,
    6013354350
  ],
  "tags": {
    "cycleway:right": "lane",
    "highway": "secondary",
    "lanes": "1",
    "maxspeed": "30",
    "name": "Boulevard de la Paix",
    "oneway": "yes",
    "source": "cadastre-dgi-fr source : Direction Générale des Impôts - Cadastre;mise à jour : 2010"
  }
},
{
  "type": "way",
  "id": 637952764,
  "nodes": [
    6013354350,
    8198641426,
    6013354378,
    385088877
  ],
  "tags": {
    "cycleway:right": "lane",
    "highway": "secondary",
    "lanes": "1",
    "maxspeed": "30",
    "name": "Boulevard de la Paix",
    "oneway": "yes",
    "source": "cadastre-dgi-fr source : Direction Générale des Impôts - Cadastre;mise à jour : 2010"
  }
},
{
  "type": "way",
  "id": 637952767,
  "nodes": [
    6013354379,
    7096691721
  ],
  "tags": {
    "cycleway:right": "lane",
    "highway": "secondary",
    "lanes": "1",
    "maxspeed": "30",
    "name": "Boulevard de la Paix",
    "oneway": "yes"
  }
},
{
  "type": "way",
  "id": 645311205,
  "nodes": [
    5998440594,
    7008036944,
    339376877
  ],
  "tags": {
    "cycleway:right": "lane",
    "highway": "tertiary",
    "lanes": "2",
    "lit": "yes",
    "maxspeed": "30",
    "name": "Rue Bayard",
    "oneway": "yes",
    "source": "cadastre-dgi-fr source : Direction Générale des Impôts - Cadastre. Mise à jour : 2009",
    "surface": "asphalt",
    "zone:maxspeed": "FR:30"
  }
},
{
  "type": "way",
  "id": 656551055,
  "nodes": [
    7037090681,
    2326390477
  ],
  "tags": {
    "cycleway:right": "lane",
    "highway": "secondary",
    "maxspeed": "50",
    "name": "Boulevard d'Alsace Lorraine",
    "old_ref": "N 117",
    "oneway": "yes",
    "surface": "asphalt"
  }
},
{
  "type": "way",
  "id": 656551059,
  "nodes": [
    6150139120,
    7004243966,
    6150139118
  ],
  "tags": {
    "cycleway:right": "lane",
    "highway": "secondary",
    "maxspeed": "50",
    "name": "Boulevard d'Alsace Lorraine",
    "old_ref": "N 117",
    "oneway": "yes"
  }
},
{
  "type": "way",
  "id": 656551060,
  "nodes": [
    6150139118,
    7004243964,
    339803863,
    2847743592,
    3686569377,
    7047302432,
    2635372006,
    339803865
  ],
  "tags": {
    "cycleway:right": "lane",
    "highway": "residential",
    "maxspeed": "30",
    "name": "Rue Carnot",
    "oneway": "yes",
    "source": "cadastre-dgi-fr source : Direction Générale des Impôts - Cadastre;mise à jour : 2009",
    "surface": "asphalt",
    "zone:maxspeed": "FR:30"
  }
},
{
  "type": "way",
  "id": 656552886,
  "nodes": [
    6150139119,
    7004243967,
    6150139120
  ],
  "tags": {
    "cycleway:right": "lane",
    "highway": "secondary",
    "maxspeed": "50",
    "name": "Boulevard d'Alsace Lorraine",
    "old_ref": "N 117",
    "oneway": "yes"
  }
},
{
  "type": "way",
  "id": 656552887,
  "nodes": [
    6150139118,
    6845553039
  ],
  "tags": {
    "cycleway:right": "lane",
    "highway": "secondary",
    "maxspeed": "50",
    "name": "Boulevard d'Alsace Lorraine",
    "old_ref": "N 117",
    "oneway": "yes",
    "surface": "asphalt"
  }
},
{
  "type": "way",
  "id": 662603920,
  "nodes": [
    6150139092,
    6417025393
  ],
  "tags": {
    "cycleway:right": "lane",
    "highway": "secondary",
    "maxspeed": "50",
    "name": "Boulevard d'Alsace Lorraine",
    "old_ref": "N 117",
    "oneway": "yes",
    "surface": "asphalt"
  }
},
{
  "type": "way",
  "id": 662603926,
  "nodes": [
    6150139093,
    6150139095
  ],
  "tags": {
    "cycleway:right": "lane",
    "highway": "secondary",
    "maxspeed": "50",
    "name": "Boulevard d'Alsace Lorraine",
    "old_ref": "N 117",
    "oneway": "yes",
    "surface": "asphalt"
  }
},
{
  "type": "way",
  "id": 682126537,
  "nodes": [
    6387893139,
    6388869721,
    2216630314,
    286823682,
    6277135837,
    2309510861,
    286823684
  ],
  "tags": {
    "cycleway:right": "lane",
    "highway": "secondary",
    "lanes": "2",
    "lit": "yes",
    "maxspeed": "50",
    "maxspeed:type": "FR:urban",
    "name": "Avenue de l'Université",
    "oneway": "yes",
    "surface": "asphalt"
  }
},
{
  "type": "way",
  "id": 684785792,
  "nodes": [
    247979971,
    3390705456,
    6654371827,
    3390705459
  ],
  "tags": {
    "cycleway:right": "lane",
    "highway": "tertiary",
    "name": "Avenue des Lilas",
    "source": "cadastre-dgi-fr source : Direction Générale des Impôts - Cadastre;mise à jour : 2009"
  }
},
{
  "type": "way",
  "id": 692434496,
  "nodes": [
    6417025394,
    6150139093
  ],
  "tags": {
    "cycleway:right": "lane",
    "highway": "secondary",
    "maxspeed": "50",
    "name": "Boulevard d'Alsace Lorraine",
    "old_ref": "N 117",
    "oneway": "yes",
    "surface": "asphalt"
  }
},
{
  "type": "way",
  "id": 692434498,
  "nodes": [
    286809534,
    339499419,
    6150139119
  ],
  "tags": {
    "cycleway:right": "lane",
    "highway": "secondary",
    "lanes": "2",
    "maxspeed": "30",
    "name": "Avenue Dufau",
    "oneway": "yes",
    "surface": "asphalt"
  }
},
{
  "type": "way",
  "id": 693510585,
  "nodes": [
    360814099,
    2627857139,
    3541491230,
    360814093
  ],
  "tags": {
    "cycleway:right": "lane",
    "highway": "tertiary",
    "name": "Allées de Morlaàs",
    "source": "cadastre-dgi-fr source : Direction Générale des Impôts - Cadastre;mise à jour : 2009",
    "surface": "asphalt"
  }
},
{
  "type": "way",
  "id": 693912431,
  "nodes": [
    2309510853,
    286823669
  ],
  "tags": {
    "cycleway:right": "lane",
    "highway": "tertiary",
    "name": "Boulevard du Recteur Jean Sarrailh",
    "surface": "asphalt"
  }
},
{
  "type": "way",
  "id": 746352422,
  "nodes": [
    459169405,
    2214319685,
    341467929,
    7096636717,
    459169409,
    305383483
  ],
  "tags": {
    "cycleway:right": "lane",
    "highway": "tertiary",
    "lanes": "2",
    "maxspeed": "30",
    "name": "Avenue du Loup",
    "oneway": "no",
    "surface": "asphalt"
  }
},
{
  "type": "way",
  "id": 746403435,
  "nodes": [
    459825606,
    2848408179,
    6846646907,
    418000056,
    459832045,
    459832034,
    418000054,
    6846646908,
    2848408191,
    418000053,
    5981080964,
    6384326151,
    5814631263,
    6384326154,
    459825646
  ],
  "tags": {
    "cycleway:right": "lane",
    "highway": "tertiary",
    "maxspeed": "50",
    "name": "Boulevard Hauterive",
    "surface": "asphalt"
  }
},
{
  "type": "way",
  "id": 753921120,
  "nodes": [
    339301714,
    307636558
  ],
  "tags": {
    "cycleway:right": "lane",
    "highway": "secondary",
    "lanes": "1",
    "maxspeed": "50",
    "name": "Avenue Gaston Phoebus",
    "old_ref": "N 117",
    "oneway": "yes",
    "source": "cadastre-dgi-fr source : Direction Générale des Impôts - Cadastre. Mise à jour : 2009",
    "surface": "asphalt"
  }
},
{
  "type": "way",
  "id": 759701378,
  "nodes": [
    7096691721,
    6984603526,
    6378188401,
    6013354343,
    8088413070,
    6654009790,
    7846362592,
    6984605108,
    6845373719,
    6654009791,
    6262187781,
    6013354352
  ],
  "tags": {
    "cycleway:right": "lane",
    "highway": "secondary",
    "lanes": "1",
    "maxspeed": "30",
    "name": "Boulevard de la Paix",
    "oneway": "yes",
    "surface": "asphalt"
  }
},
{
  "type": "way",
  "id": 759839004,
  "nodes": [
    6417025393,
    7044802366,
    2428993906,
    6845553040
  ],
  "tags": {
    "cycleway:right": "lane",
    "highway": "secondary",
    "maxspeed": "50",
    "name": "Boulevard d'Alsace Lorraine",
    "old_ref": "N 117",
    "oneway": "yes",
    "surface": "asphalt"
  }
},
{
  "type": "way",
  "id": 771217496,
  "nodes": [
    7199418156,
    7199418157,
    7199401952
  ],
  "tags": {
    "cycleway:right": "lane",
    "highway": "secondary",
    "lanes": "1",
    "name": "Avenue Alfred Nobel",
    "oneway": "yes",
    "ref": "D 943",
    "source": "cadastre-dgi-fr source : Direction Générale des Impôts - Cadastre;mise à jour : 2009"
  }
},
{
  "type": "way",
  "id": 771217497,
  "nodes": [
    7199401951,
    7199418156
  ],
  "tags": {
    "cycleway:right": "lane",
    "highway": "secondary",
    "name": "Avenue Alfred Nobel",
    "oneway": "yes",
    "placement": "middle_of:2",
    "ref": "D 943",
    "source": "cadastre-dgi-fr source : Direction Générale des Impôts - Cadastre;mise à jour : 2009",
    "turn:lanes": "left|"
  }
},
{
  "type": "way",
  "id": 771217498,
  "nodes": [
    7199418159,
    7199418160,
    7199401953
  ],
  "tags": {
    "cycleway:right": "lane",
    "highway": "secondary",
    "lanes": "1",
    "name": "Avenue Alfred Nobel",
    "oneway": "yes",
    "ref": "D 943",
    "source": "cadastre-dgi-fr source : Direction Générale des Impôts - Cadastre;mise à jour : 2009"
  }
},
{
  "type": "way",
  "id": 771217499,
  "nodes": [
    7199401952,
    7199418158,
    7199418159
  ],
  "tags": {
    "cycleway:right": "lane",
    "highway": "secondary",
    "name": "Avenue Alfred Nobel",
    "oneway": "yes",
    "placement": "middle_of:2",
    "ref": "D 943",
    "source": "cadastre-dgi-fr source : Direction Générale des Impôts - Cadastre;mise à jour : 2009",
    "turn:lanes": "left|"
  }
},
{
  "type": "way",
  "id": 771217500,
  "nodes": [
    7199418138,
    7199418134,
    7199401954
  ],
  "tags": {
    "cycleway:right": "lane",
    "highway": "secondary",
    "lanes": "1",
    "name": "Avenue Alfred Nobel",
    "oneway": "yes",
    "ref": "D 943",
    "source": "cadastre-dgi-fr source : Direction Générale des Impôts - Cadastre;mise à jour : 2009"
  }
},
{
  "type": "way",
  "id": 771217501,
  "nodes": [
    7199401953,
    7199418138
  ],
  "tags": {
    "cycleway:right": "lane",
    "highway": "secondary",
    "name": "Avenue Alfred Nobel",
    "oneway": "yes",
    "placement": "middle_of:2",
    "ref": "D 943",
    "source": "cadastre-dgi-fr source : Direction Générale des Impôts - Cadastre;mise à jour : 2009",
    "turn:lanes": "left|"
  }
},
{
  "type": "way",
  "id": 771217502,
  "nodes": [
    7199418139,
    7199401955
  ],
  "tags": {
    "cycleway:right": "lane",
    "highway": "secondary",
    "lanes": "1",
    "name": "Avenue Alfred Nobel",
    "oneway": "yes",
    "ref": "D 943",
    "source": "cadastre-dgi-fr source : Direction Générale des Impôts - Cadastre;mise à jour : 2009"
  }
},
{
  "type": "way",
  "id": 771217503,
  "nodes": [
    7199401954,
    7199418170,
    7199418139
  ],
  "tags": {
    "cycleway:right": "lane",
    "highway": "secondary",
    "name": "Avenue Alfred Nobel",
    "oneway": "yes",
    "placement": "middle_of:2",
    "ref": "D 943",
    "source": "cadastre-dgi-fr source : Direction Générale des Impôts - Cadastre;mise à jour : 2009",
    "turn:lanes": "left|"
  }
},
{
  "type": "way",
  "id": 771217504,
  "nodes": [
    7199401955,
    7199418136,
    7199418177,
    7895667166,
    2430899370,
    2430899364,
    8426448084,
    8426448085,
    8426448086,
    286779757
  ],
  "tags": {
    "cycleway:right": "lane",
    "highway": "secondary",
    "lanes": "1",
    "name": "Avenue Alfred Nobel",
    "oneway": "yes",
    "ref": "D 943",
    "source": "cadastre-dgi-fr source : Direction Générale des Impôts - Cadastre;mise à jour : 2009"
  }
},
{
  "type": "way",
  "id": 771217532,
  "nodes": [
    341467916,
    7199418151,
    7199418152,
    7199418153,
    7199418154,
    7199418155,
    7199401951
  ],
  "tags": {
    "cycleway:right": "lane",
    "highway": "secondary",
    "lanes": "1",
    "name": "Avenue Alfred Nobel",
    "oneway": "yes",
    "ref": "D 943",
    "source": "cadastre-dgi-fr source : Direction Générale des Impôts - Cadastre;mise à jour : 2009"
  }
},
{
  "type": "way",
  "id": 802521035,
  "nodes": [
    2214322150,
    3345702532,
    6984603530,
    459169405
  ],
  "tags": {
    "cycleway:right": "lane",
    "highway": "tertiary",
    "lanes": "1",
    "maxspeed": "30",
    "name": "Avenue du Loup",
    "oneway": "yes",
    "surface": "asphalt"
  }
},
{
  "type": "way",
  "id": 810696998,
  "nodes": [
    286678882,
    2386321385,
    286678884
  ],
  "tags": {
    "cycleway:right": "lane",
    "highway": "secondary",
    "lit": "yes",
    "maxspeed": "50",
    "name": "Rue de Batsalle",
    "oneway": "yes",
    "surface": "asphalt"
  }
},
{
  "type": "way",
  "id": 810696999,
  "nodes": [
    286693868,
    286693870,
    286693872,
    6007150494,
    286693842,
    286693844,
    286693846,
    6007150495,
    286693848
  ],
  "tags": {
    "cycleway:right": "lane",
    "highway": "secondary",
    "junction": "roundabout",
    "name": "Rond-Point des Allées de Morlaàs",
    "surface": "asphalt"
  }
},
{
  "type": "way",
  "id": 813590154,
  "nodes": [
    7599711148,
    7599711146
  ],
  "tags": {
    "cycleway:right": "lane",
    "highway": "secondary",
    "name": "Boulevard du Corps Franc Pommiès et du 49e Régiment d'Infanterie",
    "surface": "asphalt"
  }
},
{
  "type": "way",
  "id": 813590156,
  "nodes": [
    7599711146,
    7079935029,
    360814091
  ],
  "tags": {
    "cycleway:right": "lane",
    "highway": "secondary",
    "name": "Boulevard du Corps Franc Pommiès et du 49e Régiment d'Infanterie",
    "surface": "asphalt"
  }
},
{
  "type": "way",
  "id": 813593324,
  "nodes": [
    286678894,
    2309868304,
    3481528890,
    286678895
  ],
  "tags": {
    "cycleway:right": "lane",
    "highway": "secondary",
    "junction": "roundabout",
    "name": "Rond-Point Yitzhak Rabin",
    "ref:FR:FANTOIR": "644454352M",
    "source": "BDOrtho IGN",
    "surface": "asphalt"
  }
},
{
  "type": "way",
  "id": 813593325,
  "nodes": [
    446277343,
    286678897,
    5254767624,
    3048869730,
    2891993180,
    446277337
  ],
  "tags": {
    "cycleway:right": "lane",
    "highway": "secondary",
    "junction": "roundabout",
    "name": "Rond-Point Yitzhak Rabin",
    "ref:FR:FANTOIR": "644454352M",
    "source": "BDOrtho IGN",
    "surface": "asphalt"
  }
},
{
  "type": "way",
  "id": 813593326,
  "nodes": [
    446277337,
    2635190597,
    3048869729,
    286678898
  ],
  "tags": {
    "cycleway:right": "lane",
    "highway": "secondary",
    "junction": "roundabout",
    "name": "Rond-Point Yitzhak Rabin",
    "ref:FR:FANTOIR": "644454352M",
    "source": "BDOrtho IGN",
    "surface": "asphalt"
  }
},
{
  "type": "way",
  "id": 813595458,
  "nodes": [
    286693850,
    286693852,
    6007150496,
    286693856
  ],
  "tags": {
    "cycleway:right": "lane",
    "highway": "secondary",
    "junction": "roundabout",
    "name": "Rond-Point des Allées de Morlaàs",
    "surface": "asphalt"
  }
},
{
  "type": "way",
  "id": 813595459,
  "nodes": [
    286693864,
    286693866,
    6007150499,
    286693868
  ],
  "tags": {
    "cycleway:right": "lane",
    "highway": "secondary",
    "junction": "roundabout",
    "name": "Rond-Point des Allées de Morlaàs",
    "surface": "asphalt"
  }
},
{
  "type": "way",
  "id": 820424548,
  "nodes": [
    286678898,
    5254766598,
    286678899
  ],
  "tags": {
    "cycleway:right": "lane",
    "highway": "secondary",
    "junction": "roundabout",
    "name": "Rond-Point Yitzhak Rabin",
    "ref:FR:FANTOIR": "644454352M",
    "source": "BDOrtho IGN",
    "surface": "asphalt"
  }
},
{
  "type": "way",
  "id": 833801331,
  "nodes": [
    6830491232,
    6984605093,
    6013354335,
    6984605099,
    6013354344,
    6013354345,
    6013354346,
    6984605103,
    8517877131,
    7619603106,
    6984605104,
    6654009796,
    6654009795,
    6845373725,
    6845373724,
    6013354365
  ],
  "tags": {
    "cycleway:right": "lane",
    "highway": "secondary",
    "lanes": "1",
    "maxspeed": "30",
    "name": "Boulevard de la Paix",
    "oneway": "yes",
    "source": "cadastre-dgi-fr source : Direction Générale des Impôts - Cadastre;mise à jour : 2010",
    "surface": "asphalt"
  }
},
{
  "type": "way",
  "id": 833801333,
  "nodes": [
    6789821751,
    2908654253,
    6830374470
  ],
  "tags": {
    "cycleway:right": "lane",
    "highway": "tertiary",
    "lanes": "2",
    "maxspeed": "50",
    "name": "Boulevard Lucien Favre",
    "source": "cadastre-dgi-fr source : Direction Générale des Impôts - Cadastre. Mise à jour : 2009",
    "surface": "asphalt"
  }
},
{
  "type": "way",
  "id": 841797389,
  "nodes": [
    286678899,
    3481544095,
    286678890
  ],
  "tags": {
    "cycleway:right": "lane",
    "highway": "secondary",
    "junction": "roundabout",
    "name": "Rond-Point Yitzhak Rabin",
    "ref:FR:FANTOIR": "644454352M",
    "source": "BDOrtho IGN",
    "surface": "asphalt"
  }
},
{
  "type": "way",
  "id": 850417822,
  "nodes": [
    286693860,
    286693862,
    6007150498,
    286693864
  ],
  "tags": {
    "cycleway:right": "lane",
    "highway": "secondary",
    "junction": "roundabout",
    "name": "Rond-Point des Allées de Morlaàs",
    "surface": "asphalt"
  }
},
{
  "type": "way",
  "id": 857863393,
  "nodes": [
    2626856337,
    252258520
  ],
  "tags": {
    "cycleway:right": "lane",
    "highway": "secondary",
    "maxspeed": "50",
    "name": "Cours Léon Bérard",
    "oneway": "yes",
    "source": "cadastre-dgi-fr source : Direction Générale des Impôts - Cadastre;mise à jour : 2010",
    "surface": "asphalt"
  }
},
{
  "type": "way",
  "id": 857868780,
  "nodes": [
    2626856333,
    7371901925,
    459203993,
    4665804905,
    459203984
  ],
  "tags": {
    "cycleway:right": "lane",
    "highway": "residential",
    "name": "Rue Berlioz",
    "source": "cadastre-dgi-fr source : Direction Générale des Impôts - Cadastre;mise à jour : 2009",
    "surface": "asphalt"
  }
},
{
  "type": "way",
  "id": 859055089,
  "nodes": [
    6845553039,
    2428993905,
    2428993902,
    7044802367,
    6417025394
  ],
  "tags": {
    "cycleway:right": "lane",
    "highway": "secondary",
    "maxspeed": "50",
    "name": "Boulevard d'Alsace Lorraine",
    "old_ref": "N 117",
    "oneway": "yes",
    "surface": "asphalt"
  }
},
{
  "type": "way",
  "id": 859291256,
  "nodes": [
    6845553040,
    6150139119
  ],
  "tags": {
    "cycleway:right": "lane",
    "highway": "secondary",
    "maxspeed": "50",
    "name": "Boulevard d'Alsace Lorraine",
    "old_ref": "N 117",
    "oneway": "yes",
    "surface": "asphalt"
  }
},
{
  "type": "way",
  "id": 877866920,
  "nodes": [
    286678895,
    5254766617,
    286779744
  ],
  "tags": {
    "cycleway:right": "lane",
    "highway": "secondary",
    "junction": "roundabout",
    "name": "Rond-Point Yitzhak Rabin",
    "ref:FR:FANTOIR": "644454352M",
    "source": "BDOrtho IGN",
    "surface": "asphalt"
  }
},
{
  "type": "way",
  "id": 877866921,
  "nodes": [
    286779744,
    3481528891,
    446277343
  ],
  "tags": {
    "cycleway:right": "lane",
    "highway": "secondary",
    "junction": "roundabout",
    "name": "Rond-Point Yitzhak Rabin",
    "ref:FR:FANTOIR": "644454352M",
    "source": "BDOrtho IGN",
    "surface": "asphalt"
  }
},
{
  "type": "way",
  "id": 883172285,
  "nodes": [
    286693848,
    286693850
  ],
  "tags": {
    "cycleway:right": "lane",
    "highway": "secondary",
    "junction": "roundabout",
    "name": "Rond-Point des Allées de Morlaàs",
    "surface": "asphalt"
  }
},
{
  "type": "way",
  "id": 916595557,
  "nodes": [
    418951670,
    460003873,
    2628310036,
    2628310033,
    460003884,
    3040840784
  ],
  "tags": {
    "cycleway:right": "lane",
    "highway": "residential",
    "lit": "yes",
    "maxspeed": "30",
    "name": "Avenue des Lauriers",
    "source": "cadastre-dgi-fr source : Direction Générale des Impôts - Cadastre;mise à jour : 2009",
    "surface": "asphalt",
    "zone:maxspeed": "FR:30"
  }
},
{
  "type": "way",
  "id": 960705165,
  "nodes": [
    428071966,
    8426448081,
    8426448088,
    7199418137,
    2430899385,
    5983338048,
    312545109,
    2896710355,
    7199418135,
    2896710354,
    7199418281,
    7199418145,
    7199418169,
    2630252070,
    7199418162,
    7199418168,
    382647023,
    7199418313,
    382647025,
    341467916
  ],
  "tags": {
    "cycleway:right": "lane",
    "highway": "secondary",
    "lanes": "1",
    "name": "Avenue Alfred Nobel",
    "oneway": "yes",
    "ref": "D 943",
    "source": "cadastre-dgi-fr source : Direction Générale des Impôts - Cadastre;mise à jour : 2009"
  }
},
{
  "type": "area",
  "id": 3600162431,
  "tags": {
    "admin_level": "8",
    "boundary": "administrative",
    "name": "Pau",
    "name:ar": "بو",
    "name:ca": "Pau",
    "name:eo": "Paŭo",
    "name:eu": "Paue",
    "name:ja": "ポー",
    "name:la": "Palum",
    "name:lt": "Po",
    "name:oc": "Pau",
    "name:ru": "По",
    "name:sr": "По",
    "name:zh": "波城",
    "population": "75627",
    "population:date": "2019",
    "postal_code": "64000",
    "ref:INSEE": "64445",
    "source:name:oc": "ieo-bdtopoc",
    "source:population": "INSEE 2022",
    "type": "boundary",
    "website": "https://www.pau.fr/",
    "wikidata": "Q132671",
    "wikipedia": "fr:Pau"
  }
},
{
  "type": "node",
  "id": 307636568,
  "lat": 43.2955860,
  "lon": -0.3870993
},
{
  "type": "node",
  "id": 2298073506,
  "lat": 43.2955829,
  "lon": -0.3871929
},
{
  "type": "node",
  "id": 307636558,
  "lat": 43.2981674,
  "lon": -0.3867922
},
{
  "type": "node",
  "id": 307636564,
  "lat": 43.2972738,
  "lon": -0.3873425
},
{
  "type": "node",
  "id": 307636566,
  "lat": 43.2966786,
  "lon": -0.3872576
},
{
  "type": "node",
  "id": 307638175,
  "lat": 43.2975085,
  "lon": -0.3877830
},
{
  "type": "node",
  "id": 307638179,
  "lat": 43.2976370,
  "lon": -0.3880330
},
{
  "type": "node",
  "id": 307638183,
  "lat": 43.2984726,
  "lon": -0.3896245
},
{
  "type": "node",
  "id": 307638194,
  "lat": 43.2974868,
  "lon": -0.3883028
},
{
  "type": "node",
  "id": 307638200,
  "lat": 43.2971159,
  "lon": -0.3877399
},
{
  "type": "node",
  "id": 307638205,
  "lat": 43.2970651,
  "lon": -0.3873725
},
{
  "type": "node",
  "id": 339301707,
  "lat": 43.2968264,
  "lon": -0.3870501
},
{
  "type": "node",
  "id": 339301714,
  "lat": 43.2978809,
  "lon": -0.3868098
},
{
  "type": "node",
  "id": 339397467,
  "lat": 43.2968942,
  "lon": -0.3873442
},
{
  "type": "node",
  "id": 339397468,
  "lat": 43.2969703,
  "lon": -0.3875113
},
{
  "type": "node",
  "id": 426558036,
  "lat": 43.2978640,
  "lon": -0.3888791
},
{
  "type": "node",
  "id": 2298073513,
  "lat": 43.2966709,
  "lon": -0.3873497
},
{
  "type": "node",
  "id": 2298073528,
  "lat": 43.2970617,
  "lon": -0.3875018
},
{
  "type": "node",
  "id": 2298073538,
  "lat": 43.2973395,
  "lon": -0.3874731
},
{
  "type": "node",
  "id": 6656368251,
  "lat": 43.2978703,
  "lon": -0.3869320
},
{
  "type": "node",
  "id": 7043811769,
  "lat": 43.2970567,
  "lon": -0.3875519
},
{
  "type": "node",
  "id": 7043811770,
  "lat": 43.2969966,
  "lon": -0.3875547
},
{
  "type": "node",
  "id": 9037115108,
  "lat": 43.2976990,
  "lon": -0.3881511
},
{
  "type": "node",
  "id": 339301712,
  "lat": 43.2966179,
  "lon": -0.3860843
},
{
  "type": "node",
  "id": 5405775624,
  "lat": 43.2965662,
  "lon": -0.3855679
},
{
  "type": "node",
  "id": 339376877,
  "lat": 43.2973004,
  "lon": -0.3749067
},
{
  "type": "node",
  "id": 5998440594,
  "lat": 43.2972503,
  "lon": -0.3753918
},
{
  "type": "node",
  "id": 7008036944,
  "lat": 43.2972585,
  "lon": -0.3753135
},
{
  "type": "node",
  "id": 339803868,
  "lat": 43.3027158,
  "lon": -0.3688762
},
{
  "type": "node",
  "id": 286809534,
  "lat": 43.3053525,
  "lon": -0.3679410
},
{
  "type": "node",
  "id": 286809537,
  "lat": 43.3054374,
  "lon": -0.3679181
},
{
  "type": "node",
  "id": 286809539,
  "lat": 43.3058911,
  "lon": -0.3673677
},
{
  "type": "node",
  "id": 339499419,
  "lat": 43.3046592,
  "lon": -0.3681633
},
{
  "type": "node",
  "id": 339499505,
  "lat": 43.3055478,
  "lon": -0.3678448
},
{
  "type": "node",
  "id": 339803863,
  "lat": 43.3040475,
  "lon": -0.3683877
},
{
  "type": "node",
  "id": 339803865,
  "lat": 43.3030512,
  "lon": -0.3687628
},
{
  "type": "node",
  "id": 2428993900,
  "lat": 43.3043855,
  "lon": -0.3673929
},
{
  "type": "node",
  "id": 2428993902,
  "lat": 43.3043612,
  "lon": -0.3677176
},
{
  "type": "node",
  "id": 2428993905,
  "lat": 43.3044629,
  "lon": -0.3681133
},
{
  "type": "node",
  "id": 2428993906,
  "lat": 43.3045340,
  "lon": -0.3680774
},
{
  "type": "node",
  "id": 2635372006,
  "lat": 43.3031127,
  "lon": -0.3687401
},
{
  "type": "node",
  "id": 2847743592,
  "lat": 43.3039654,
  "lon": -0.3684171
},
{
  "type": "node",
  "id": 3686569377,
  "lat": 43.3036389,
  "lon": -0.3685465
},
{
  "type": "node",
  "id": 3686569385,
  "lat": 43.3060213,
  "lon": -0.3670890
},
{
  "type": "node",
  "id": 6150139092,
  "lat": 43.3043995,
  "lon": -0.3674394
},
{
  "type": "node",
  "id": 6150139093,
  "lat": 43.3043153,
  "lon": -0.3674701
},
{
  "type": "node",
  "id": 6150139095,
  "lat": 43.3042001,
  "lon": -0.3670027
},
{
  "type": "node",
  "id": 6150139118,
  "lat": 43.3044986,
  "lon": -0.3682156
},
{
  "type": "node",
  "id": 6150139119,
  "lat": 43.3045434,
  "lon": -0.3682017
},
{
  "type": "node",
  "id": 6150139120,
  "lat": 43.3045451,
  "lon": -0.3683428
},
{
  "type": "node",
  "id": 6417025393,
  "lat": 43.3044260,
  "lon": -0.3675389
},
{
  "type": "node",
  "id": 6417025394,
  "lat": 43.3043332,
  "lon": -0.3675856
},
{
  "type": "node",
  "id": 6845553039,
  "lat": 43.3044849,
  "lon": -0.3681747
},
{
  "type": "node",
  "id": 6845553040,
  "lat": 43.3045396,
  "lon": -0.3681554
},
{
  "type": "node",
  "id": 7004243964,
  "lat": 43.3044424,
  "lon": -0.3682354
},
{
  "type": "node",
  "id": 7004243966,
  "lat": 43.3045333,
  "lon": -0.3683100
},
{
  "type": "node",
  "id": 7004243967,
  "lat": 43.3045444,
  "lon": -0.3683050
},
{
  "type": "node",
  "id": 7044802366,
  "lat": 43.3045257,
  "lon": -0.3680373
},
{
  "type": "node",
  "id": 7044802367,
  "lat": 43.3043501,
  "lon": -0.3676728
},
{
  "type": "node",
  "id": 7047302432,
  "lat": 43.3031462,
  "lon": -0.3687272
},
{
  "type": "node",
  "id": 8557521855,
  "lat": 43.3056787,
  "lon": -0.3677113
},
{
  "type": "node",
  "id": 8557521857,
  "lat": 43.3058562,
  "lon": -0.3674295
},
{
  "type": "node",
  "id": 8945183184,
  "lat": 43.3057397,
  "lon": -0.3676144
},
{
  "type": "node",
  "id": 8945183192,
  "lat": 43.3059170,
  "lon": -0.3673122
},
{
  "type": "node",
  "id": 8983590066,
  "lat": 43.3029433,
  "lon": -0.3687993
},
{
  "type": "node",
  "id": 7699800877,
  "lat": 43.3159824,
  "lon": -0.3738724
},
{
  "type": "node",
  "id": 252258521,
  "lat": 43.3158277,
  "lon": -0.3733766
},
{
  "type": "node",
  "id": 252258522,
  "lat": 43.3147152,
  "lon": -0.3711464
},
{
  "type": "node",
  "id": 252258523,
  "lat": 43.3130285,
  "lon": -0.3689771
},
{
  "type": "node",
  "id": 286823655,
  "lat": 43.3127768,
  "lon": -0.3685154
},
{
  "type": "node",
  "id": 286823660,
  "lat": 43.3131598,
  "lon": -0.3688248
},
{
  "type": "node",
  "id": 286823664,
  "lat": 43.3129071,
  "lon": -0.3683890
},
{
  "type": "node",
  "id": 286823666,
  "lat": 43.3121997,
  "lon": -0.3674196
},
{
  "type": "node",
  "id": 286823688,
  "lat": 43.3122923,
  "lon": -0.3673418
},
{
  "type": "node",
  "id": 287712217,
  "lat": 43.3151045,
  "lon": -0.3717774
},
{
  "type": "node",
  "id": 287712220,
  "lat": 43.3137370,
  "lon": -0.3700371
},
{
  "type": "node",
  "id": 674163136,
  "lat": 43.3127297,
  "lon": -0.3683867
},
{
  "type": "node",
  "id": 674163137,
  "lat": 43.3127999,
  "lon": -0.3682960
},
{
  "type": "node",
  "id": 674163138,
  "lat": 43.3132935,
  "lon": -0.3691735
},
{
  "type": "node",
  "id": 674163140,
  "lat": 43.3138615,
  "lon": -0.3700239
},
{
  "type": "node",
  "id": 674163143,
  "lat": 43.3143755,
  "lon": -0.3708016
},
{
  "type": "node",
  "id": 702397751,
  "lat": 43.3145167,
  "lon": -0.3708694
},
{
  "type": "node",
  "id": 2309510870,
  "lat": 43.3125606,
  "lon": -0.3681230
},
{
  "type": "node",
  "id": 2309510872,
  "lat": 43.3126123,
  "lon": -0.3680470
},
{
  "type": "node",
  "id": 2309510881,
  "lat": 43.3131103,
  "lon": -0.3690405
},
{
  "type": "node",
  "id": 2309510882,
  "lat": 43.3131898,
  "lon": -0.3689699
},
{
  "type": "node",
  "id": 4510869461,
  "lat": 43.3126292,
  "lon": -0.3682358
},
{
  "type": "node",
  "id": 7376236582,
  "lat": 43.3122544,
  "lon": -0.3675298
},
{
  "type": "node",
  "id": 7699785544,
  "lat": 43.3139393,
  "lon": -0.3701242
},
{
  "type": "node",
  "id": 7699785545,
  "lat": 43.3138790,
  "lon": -0.3702071
},
{
  "type": "node",
  "id": 7699800878,
  "lat": 43.3146978,
  "lon": -0.3712292
},
{
  "type": "node",
  "id": 7699800879,
  "lat": 43.3150554,
  "lon": -0.3718057
},
{
  "type": "node",
  "id": 7699800880,
  "lat": 43.3157955,
  "lon": -0.3734373
},
{
  "type": "node",
  "id": 7699800882,
  "lat": 43.3149283,
  "lon": -0.3714853
},
{
  "type": "node",
  "id": 7699800883,
  "lat": 43.3153374,
  "lon": -0.3722599
},
{
  "type": "node",
  "id": 7699800884,
  "lat": 43.3152998,
  "lon": -0.3723070
},
{
  "type": "node",
  "id": 7699849085,
  "lat": 43.3135746,
  "lon": -0.3696231
},
{
  "type": "node",
  "id": 8173375571,
  "lat": 43.3136912,
  "lon": -0.3699642
},
{
  "type": "node",
  "id": 9365302994,
  "lat": 43.3156548,
  "lon": -0.3731164
},
{
  "type": "node",
  "id": 252258520,
  "lat": 43.3168603,
  "lon": -0.3758203
},
{
  "type": "node",
  "id": 356025145,
  "lat": 43.3163297,
  "lon": -0.3747908
},
{
  "type": "node",
  "id": 356025157,
  "lat": 43.3164042,
  "lon": -0.3747025
},
{
  "type": "node",
  "id": 2626856337,
  "lat": 43.3165471,
  "lon": -0.3750102
},
{
  "type": "node",
  "id": 7699785546,
  "lat": 43.3163727,
  "lon": -0.3746298
},
{
  "type": "node",
  "id": 7699785547,
  "lat": 43.3162910,
  "lon": -0.3746885
},
{
  "type": "node",
  "id": 7699800881,
  "lat": 43.3160320,
  "lon": -0.3738441
},
{
  "type": "node",
  "id": 7997674990,
  "lat": 43.3166052,
  "lon": -0.3752900
},
{
  "type": "node",
  "id": 9365302993,
  "lat": 43.3162399,
  "lon": -0.3745535
},
{
  "type": "node",
  "id": 286678876,
  "lat": 43.3000607,
  "lon": -0.3581307
},
{
  "type": "node",
  "id": 286678877,
  "lat": 43.3003326,
  "lon": -0.3579645
},
{
  "type": "node",
  "id": 286678878,
  "lat": 43.3003913,
  "lon": -0.3578921
},
{
  "type": "node",
  "id": 286678879,
  "lat": 43.3007214,
  "lon": -0.3574931
},
{
  "type": "node",
  "id": 286678880,
  "lat": 43.3008511,
  "lon": -0.3574095
},
{
  "type": "node",
  "id": 286678881,
  "lat": 43.3010351,
  "lon": -0.3573384
},
{
  "type": "node",
  "id": 286678882,
  "lat": 43.3013259,
  "lon": -0.3573018
},
{
  "type": "node",
  "id": 286678884,
  "lat": 43.3015521,
  "lon": -0.3574047
},
{
  "type": "node",
  "id": 340280215,
  "lat": 43.3017195,
  "lon": -0.3580512
},
{
  "type": "node",
  "id": 2324306561,
  "lat": 43.3015723,
  "lon": -0.3578510
},
{
  "type": "node",
  "id": 2386321385,
  "lat": 43.3014590,
  "lon": -0.3573274
},
{
  "type": "node",
  "id": 7044802376,
  "lat": 43.3016309,
  "lon": -0.3578863
},
{
  "type": "node",
  "id": 7044802377,
  "lat": 43.3014693,
  "lon": -0.3578129
},
{
  "type": "node",
  "id": 7044802378,
  "lat": 43.3016133,
  "lon": -0.3578757
},
{
  "type": "node",
  "id": 286809542,
  "lat": 43.3061185,
  "lon": -0.3668790
},
{
  "type": "node",
  "id": 286809545,
  "lat": 43.3068401,
  "lon": -0.3655604
},
{
  "type": "node",
  "id": 322107501,
  "lat": 43.3093543,
  "lon": -0.3639668
},
{
  "type": "node",
  "id": 339260491,
  "lat": 43.3062384,
  "lon": -0.3666030
},
{
  "type": "node",
  "id": 339260493,
  "lat": 43.3064234,
  "lon": -0.3661807
},
{
  "type": "node",
  "id": 2270254492,
  "lat": 43.3061882,
  "lon": -0.3667186
},
{
  "type": "node",
  "id": 2326390477,
  "lat": 43.3040036,
  "lon": -0.3663650
},
{
  "type": "node",
  "id": 2894949866,
  "lat": 43.3093682,
  "lon": -0.3641043
},
{
  "type": "node",
  "id": 3376478045,
  "lat": 43.3060707,
  "lon": -0.3669900
},
{
  "type": "node",
  "id": 3376478046,
  "lat": 43.3061378,
  "lon": -0.3668384
},
{
  "type": "node",
  "id": 6150139096,
  "lat": 43.3042660,
  "lon": -0.3669709
},
{
  "type": "node",
  "id": 6387893131,
  "lat": 43.3093626,
  "lon": -0.3640442
},
{
  "type": "node",
  "id": 7037090681,
  "lat": 43.3041358,
  "lon": -0.3668790
},
{
  "type": "node",
  "id": 8587957763,
  "lat": 43.3094628,
  "lon": -0.3647552
},
{
  "type": "node",
  "id": 8587957766,
  "lat": 43.3094423,
  "lon": -0.3646141
},
{
  "type": "node",
  "id": 9443056253,
  "lat": 43.3066484,
  "lon": -0.3657980
},
{
  "type": "node",
  "id": 360814093,
  "lat": 43.3025487,
  "lon": -0.3532700
},
{
  "type": "node",
  "id": 360814153,
  "lat": 43.3018703,
  "lon": -0.3509141
},
{
  "type": "node",
  "id": 360814157,
  "lat": 43.3026333,
  "lon": -0.3520792
},
{
  "type": "node",
  "id": 360814162,
  "lat": 43.3016655,
  "lon": -0.3518529
},
{
  "type": "node",
  "id": 360814166,
  "lat": 43.3021417,
  "lon": -0.3496553
},
{
  "type": "node",
  "id": 360814176,
  "lat": 43.3024356,
  "lon": -0.3483211
},
{
  "type": "node",
  "id": 963138642,
  "lat": 43.3024370,
  "lon": -0.3535595
},
{
  "type": "node",
  "id": 2627857133,
  "lat": 43.3024622,
  "lon": -0.3518934
},
{
  "type": "node",
  "id": 2895941449,
  "lat": 43.3016927,
  "lon": -0.3517375
},
{
  "type": "node",
  "id": 2895941452,
  "lat": 43.3021634,
  "lon": -0.3495558
},
{
  "type": "node",
  "id": 3195288341,
  "lat": 43.3024701,
  "lon": -0.3481846
},
{
  "type": "node",
  "id": 3541491230,
  "lat": 43.3026107,
  "lon": -0.3531191
},
{
  "type": "node",
  "id": 4510077005,
  "lat": 43.3023154,
  "lon": -0.3536453
},
{
  "type": "node",
  "id": 5250312010,
  "lat": 43.3026040,
  "lon": -0.3520497
},
{
  "type": "node",
  "id": 5250312013,
  "lat": 43.3023859,
  "lon": -0.3536007
},
{
  "type": "node",
  "id": 6375376211,
  "lat": 43.3021486,
  "lon": -0.3496221
},
{
  "type": "node",
  "id": 7057223146,
  "lat": 43.3025243,
  "lon": -0.3519823
},
{
  "type": "node",
  "id": 7101567059,
  "lat": 43.3026030,
  "lon": -0.3476431
},
{
  "type": "node",
  "id": 8827808963,
  "lat": 43.3023881,
  "lon": -0.3485398
},
{
  "type": "node",
  "id": 8983056102,
  "lat": 43.3019349,
  "lon": -0.3510209
},
{
  "type": "node",
  "id": 8983058123,
  "lat": 43.3021137,
  "lon": -0.3497854
},
{
  "type": "node",
  "id": 8983060139,
  "lat": 43.3018314,
  "lon": -0.3510944
},
{
  "type": "node",
  "id": 360814196,
  "lat": 43.3027104,
  "lon": -0.3472058
},
{
  "type": "node",
  "id": 360814200,
  "lat": 43.3027725,
  "lon": -0.3468920
},
{
  "type": "node",
  "id": 360814205,
  "lat": 43.3027951,
  "lon": -0.3465650
},
{
  "type": "node",
  "id": 360814212,
  "lat": 43.3018128,
  "lon": -0.3448085
},
{
  "type": "node",
  "id": 418951670,
  "lat": 43.3014168,
  "lon": -0.3430956
},
{
  "type": "node",
  "id": 460003873,
  "lat": 43.3013945,
  "lon": -0.3430512
},
{
  "type": "node",
  "id": 460003884,
  "lat": 43.3010331,
  "lon": -0.3426477
},
{
  "type": "node",
  "id": 2628310033,
  "lat": 43.3010859,
  "lon": -0.3426996
},
{
  "type": "node",
  "id": 2628310036,
  "lat": 43.3011177,
  "lon": -0.3427412
},
{
  "type": "node",
  "id": 3040840784,
  "lat": 43.3009042,
  "lon": -0.3425066
},
{
  "type": "node",
  "id": 3040840808,
  "lat": 43.3018432,
  "lon": -0.3448735
},
{
  "type": "node",
  "id": 286693876,
  "lat": 43.3035569,
  "lon": -0.3514116
},
{
  "type": "node",
  "id": 286693878,
  "lat": 43.3035283,
  "lon": -0.3514536
},
{
  "type": "node",
  "id": 286693886,
  "lat": 43.3033470,
  "lon": -0.3512580
},
{
  "type": "node",
  "id": 360814067,
  "lat": 43.3030975,
  "lon": -0.3519200
},
{
  "type": "node",
  "id": 360814099,
  "lat": 43.3030090,
  "lon": -0.3521405
},
{
  "type": "node",
  "id": 386886267,
  "lat": 43.3037620,
  "lon": -0.3508953
},
{
  "type": "node",
  "id": 2621438766,
  "lat": 43.3044506,
  "lon": -0.3489961
},
{
  "type": "node",
  "id": 2621438768,
  "lat": 43.3044665,
  "lon": -0.3489473
},
{
  "type": "node",
  "id": 2627857139,
  "lat": 43.3029515,
  "lon": -0.3522905
},
{
  "type": "node",
  "id": 2627857140,
  "lat": 43.3030544,
  "lon": -0.3520211
},
{
  "type": "node",
  "id": 7721324237,
  "lat": 43.3040389,
  "lon": -0.3493716
},
{
  "type": "node",
  "id": 7721324238,
  "lat": 43.3046657,
  "lon": -0.3476602
},
{
  "type": "node",
  "id": 7721324243,
  "lat": 43.3038206,
  "lon": -0.3507310
},
{
  "type": "node",
  "id": 7721324244,
  "lat": 43.3036976,
  "lon": -0.3503009
},
{
  "type": "node",
  "id": 8482183976,
  "lat": 43.3035307,
  "lon": -0.3507573
},
{
  "type": "node",
  "id": 8482243493,
  "lat": 43.3043504,
  "lon": -0.3485212
},
{
  "type": "node",
  "id": 8482243495,
  "lat": 43.3045050,
  "lon": -0.3480992
},
{
  "type": "node",
  "id": 9044293825,
  "lat": 43.3036925,
  "lon": -0.3509968
},
{
  "type": "node",
  "id": 360814074,
  "lat": 43.3062522,
  "lon": -0.3440712
},
{
  "type": "node",
  "id": 386886266,
  "lat": 43.3051256,
  "lon": -0.3471614
},
{
  "type": "node",
  "id": 459161252,
  "lat": 43.3057662,
  "lon": -0.3453724
},
{
  "type": "node",
  "id": 459161255,
  "lat": 43.3063640,
  "lon": -0.3437642
},
{
  "type": "node",
  "id": 459278191,
  "lat": 43.3052050,
  "lon": -0.3461917
},
{
  "type": "node",
  "id": 459278203,
  "lat": 43.3059074,
  "lon": -0.3442572
},
{
  "type": "node",
  "id": 2892021618,
  "lat": 43.3061918,
  "lon": -0.3442337
},
{
  "type": "node",
  "id": 2892021620,
  "lat": 43.3065581,
  "lon": -0.3424957
},
{
  "type": "node",
  "id": 2926383603,
  "lat": 43.3060329,
  "lon": -0.3439088
},
{
  "type": "node",
  "id": 2926383604,
  "lat": 43.3061511,
  "lon": -0.3436209
},
{
  "type": "node",
  "id": 2990506700,
  "lat": 43.3049398,
  "lon": -0.3469133
},
{
  "type": "node",
  "id": 2990506707,
  "lat": 43.3055179,
  "lon": -0.3460657
},
{
  "type": "node",
  "id": 2990506708,
  "lat": 43.3055578,
  "lon": -0.3459544
},
{
  "type": "node",
  "id": 4510091905,
  "lat": 43.3063867,
  "lon": -0.3437095
},
{
  "type": "node",
  "id": 6384428778,
  "lat": 43.3049481,
  "lon": -0.3468890
},
{
  "type": "node",
  "id": 7080130617,
  "lat": 43.3074524,
  "lon": -0.3408307
},
{
  "type": "node",
  "id": 7080130619,
  "lat": 43.3073315,
  "lon": -0.3411574
},
{
  "type": "node",
  "id": 7080130625,
  "lat": 43.3072856,
  "lon": -0.3412814
},
{
  "type": "node",
  "id": 7080130626,
  "lat": 43.3068607,
  "lon": -0.3424291
},
{
  "type": "node",
  "id": 7080130628,
  "lat": 43.3070736,
  "lon": -0.3418476
},
{
  "type": "node",
  "id": 7080130658,
  "lat": 43.3061197,
  "lon": -0.3444267
},
{
  "type": "node",
  "id": 7721324240,
  "lat": 43.3068631,
  "lon": -0.3416511
},
{
  "type": "node",
  "id": 7721324241,
  "lat": 43.3057989,
  "lon": -0.3452848
},
{
  "type": "node",
  "id": 7721324242,
  "lat": 43.3051509,
  "lon": -0.3470859
},
{
  "type": "node",
  "id": 8767369241,
  "lat": 43.3059745,
  "lon": -0.3440805
},
{
  "type": "node",
  "id": 8827820337,
  "lat": 43.3050598,
  "lon": -0.3465861
},
{
  "type": "node",
  "id": 8956871564,
  "lat": 43.3058895,
  "lon": -0.3443066
},
{
  "type": "node",
  "id": 8956871565,
  "lat": 43.3064350,
  "lon": -0.3435790
},
{
  "type": "node",
  "id": 8983071805,
  "lat": 43.3064109,
  "lon": -0.3436443
},
{
  "type": "node",
  "id": 286823669,
  "lat": 43.3113993,
  "lon": -0.3656491
},
{
  "type": "node",
  "id": 286823682,
  "lat": 43.3114957,
  "lon": -0.3644255
},
{
  "type": "node",
  "id": 286823684,
  "lat": 43.3115781,
  "lon": -0.3655633
},
{
  "type": "node",
  "id": 286823686,
  "lat": 43.3116962,
  "lon": -0.3660676
},
{
  "type": "node",
  "id": 322107506,
  "lat": 43.3096605,
  "lon": -0.3661318
},
{
  "type": "node",
  "id": 339226321,
  "lat": 43.3112210,
  "lon": -0.3662622
},
{
  "type": "node",
  "id": 339226322,
  "lat": 43.3116640,
  "lon": -0.3661663
},
{
  "type": "node",
  "id": 339499602,
  "lat": 43.3113048,
  "lon": -0.3642228
},
{
  "type": "node",
  "id": 459149781,
  "lat": 43.3143121,
  "lon": -0.3615120
},
{
  "type": "node",
  "id": 459149785,
  "lat": 43.3121941,
  "lon": -0.3623231
},
{
  "type": "node",
  "id": 702404279,
  "lat": 43.3116198,
  "lon": -0.3657999
},
{
  "type": "node",
  "id": 2216630314,
  "lat": 43.3114824,
  "lon": -0.3642907
},
{
  "type": "node",
  "id": 2309510853,
  "lat": 43.3113561,
  "lon": -0.3659443
},
{
  "type": "node",
  "id": 2309510854,
  "lat": 43.3113894,
  "lon": -0.3654640
},
{
  "type": "node",
  "id": 2309510859,
  "lat": 43.3115337,
  "lon": -0.3659042
},
{
  "type": "node",
  "id": 2309510861,
  "lat": 43.3115577,
  "lon": -0.3654430
},
{
  "type": "node",
  "id": 2309510865,
  "lat": 43.3118517,
  "lon": -0.3665954
},
{
  "type": "node",
  "id": 2309510866,
  "lat": 43.3119495,
  "lon": -0.3668187
},
{
  "type": "node",
  "id": 2309510868,
  "lat": 43.3120169,
  "lon": -0.3667592
},
{
  "type": "node",
  "id": 2630402222,
  "lat": 43.3113136,
  "lon": -0.3643410
},
{
  "type": "node",
  "id": 2794606174,
  "lat": 43.3094945,
  "lon": -0.3649738
},
{
  "type": "node",
  "id": 2794606175,
  "lat": 43.3096459,
  "lon": -0.3660201
},
{
  "type": "node",
  "id": 6105580036,
  "lat": 43.3131508,
  "lon": -0.3619956
},
{
  "type": "node",
  "id": 6277135833,
  "lat": 43.3113940,
  "lon": -0.3655159
},
{
  "type": "node",
  "id": 6277135836,
  "lat": 43.3113469,
  "lon": -0.3659655
},
{
  "type": "node",
  "id": 6277135837,
  "lat": 43.3115548,
  "lon": -0.3654006
},
{
  "type": "node",
  "id": 6277135839,
  "lat": 43.3115675,
  "lon": -0.3659628
},
{
  "type": "node",
  "id": 6387893124,
  "lat": 43.3112660,
  "lon": -0.3637618
},
{
  "type": "node",
  "id": 6387893139,
  "lat": 43.3114375,
  "lon": -0.3637809
},
{
  "type": "node",
  "id": 6388862652,
  "lat": 43.3114663,
  "lon": -0.3657848
},
{
  "type": "node",
  "id": 6388869716,
  "lat": 43.3113704,
  "lon": -0.3651181
},
{
  "type": "node",
  "id": 6388869720,
  "lat": 43.3113091,
  "lon": -0.3642801
},
{
  "type": "node",
  "id": 6388869721,
  "lat": 43.3114779,
  "lon": -0.3642296
},
{
  "type": "node",
  "id": 6388869722,
  "lat": 43.3113395,
  "lon": -0.3646819
},
{
  "type": "node",
  "id": 6654378059,
  "lat": 43.3115886,
  "lon": -0.3660003
},
{
  "type": "node",
  "id": 6822067487,
  "lat": 43.3119137,
  "lon": -0.3624124
},
{
  "type": "node",
  "id": 6841770951,
  "lat": 43.3130875,
  "lon": -0.3620194
},
{
  "type": "node",
  "id": 6841770964,
  "lat": 43.3129687,
  "lon": -0.3620657
},
{
  "type": "node",
  "id": 6841770965,
  "lat": 43.3141965,
  "lon": -0.3615681
},
{
  "type": "node",
  "id": 6984569299,
  "lat": 43.3126625,
  "lon": -0.3621873
},
{
  "type": "node",
  "id": 7050624434,
  "lat": 43.3113327,
  "lon": -0.3659948
},
{
  "type": "node",
  "id": 7164085883,
  "lat": 43.3118894,
  "lon": -0.3664871
},
{
  "type": "node",
  "id": 7164104986,
  "lat": 43.3117774,
  "lon": -0.3662406
},
{
  "type": "node",
  "id": 7949153134,
  "lat": 43.3094872,
  "lon": -0.3649232
},
{
  "type": "node",
  "id": 8587957737,
  "lat": 43.3095601,
  "lon": -0.3654273
},
{
  "type": "node",
  "id": 2908654253,
  "lat": 43.3188854,
  "lon": -0.3613074
},
{
  "type": "node",
  "id": 6789821751,
  "lat": 43.3189122,
  "lon": -0.3617925
},
{
  "type": "node",
  "id": 6830374470,
  "lat": 43.3188746,
  "lon": -0.3610376
},
{
  "type": "node",
  "id": 1938084076,
  "lat": 43.3186093,
  "lon": -0.3587668
},
{
  "type": "node",
  "id": 2237548158,
  "lat": 43.3186677,
  "lon": -0.3591739
},
{
  "type": "node",
  "id": 2306156492,
  "lat": 43.3185365,
  "lon": -0.3583496
},
{
  "type": "node",
  "id": 6013354335,
  "lat": 43.3210226,
  "lon": -0.3571964
},
{
  "type": "node",
  "id": 6013354336,
  "lat": 43.3211334,
  "lon": -0.3570717
},
{
  "type": "node",
  "id": 6013354339,
  "lat": 43.3211996,
  "lon": -0.3578483
},
{
  "type": "node",
  "id": 6013354340,
  "lat": 43.3210347,
  "lon": -0.3561632
},
{
  "type": "node",
  "id": 6013354341,
  "lat": 43.3209068,
  "lon": -0.3546900
},
{
  "type": "node",
  "id": 6013354342,
  "lat": 43.3208463,
  "lon": -0.3540306
},
{
  "type": "node",
  "id": 6013354344,
  "lat": 43.3209764,
  "lon": -0.3566974
},
{
  "type": "node",
  "id": 6013354345,
  "lat": 43.3208525,
  "lon": -0.3553505
},
{
  "type": "node",
  "id": 6013354346,
  "lat": 43.3208036,
  "lon": -0.3547541
},
{
  "type": "node",
  "id": 6376335890,
  "lat": 43.3186840,
  "lon": -0.3592996
},
{
  "type": "node",
  "id": 6391787098,
  "lat": 43.3185452,
  "lon": -0.3584044
},
{
  "type": "node",
  "id": 6654009796,
  "lat": 43.3207518,
  "lon": -0.3541130
},
{
  "type": "node",
  "id": 6654009797,
  "lat": 43.3210706,
  "lon": -0.3565440
},
{
  "type": "node",
  "id": 6654009798,
  "lat": 43.3211204,
  "lon": -0.3569113
},
{
  "type": "node",
  "id": 6830491232,
  "lat": 43.3211041,
  "lon": -0.3579298
},
{
  "type": "node",
  "id": 6984605093,
  "lat": 43.3210500,
  "lon": -0.3574364
},
{
  "type": "node",
  "id": 6984605099,
  "lat": 43.3209872,
  "lon": -0.3569326
},
{
  "type": "node",
  "id": 6984605100,
  "lat": 43.3209100,
  "lon": -0.3545160
},
{
  "type": "node",
  "id": 6984605101,
  "lat": 43.3208627,
  "lon": -0.3541821
},
{
  "type": "node",
  "id": 6984605102,
  "lat": 43.3208980,
  "lon": -0.3543783
},
{
  "type": "node",
  "id": 6984605103,
  "lat": 43.3207803,
  "lon": -0.3545954
},
{
  "type": "node",
  "id": 6984605104,
  "lat": 43.3207622,
  "lon": -0.3543896
},
{
  "type": "node",
  "id": 7619603105,
  "lat": 43.3209038,
  "lon": -0.3544450
},
{
  "type": "node",
  "id": 7619603106,
  "lat": 43.3207689,
  "lon": -0.3544658
},
{
  "type": "node",
  "id": 8517877131,
  "lat": 43.3207773,
  "lon": -0.3545614
},
{
  "type": "node",
  "id": 8783804444,
  "lat": 43.3208370,
  "lon": -0.3539641
},
{
  "type": "node",
  "id": 341467929,
  "lat": 43.3208019,
  "lon": -0.3475698
},
{
  "type": "node",
  "id": 385088877,
  "lat": 43.3195479,
  "lon": -0.3486041
},
{
  "type": "node",
  "id": 459169405,
  "lat": 43.3204827,
  "lon": -0.3478769
},
{
  "type": "node",
  "id": 2214319685,
  "lat": 43.3205938,
  "lon": -0.3477842
},
{
  "type": "node",
  "id": 2214322150,
  "lat": 43.3196681,
  "lon": -0.3484103
},
{
  "type": "node",
  "id": 2848014228,
  "lat": 43.3201793,
  "lon": -0.3516266
},
{
  "type": "node",
  "id": 3345702532,
  "lat": 43.3201546,
  "lon": -0.3480402
},
{
  "type": "node",
  "id": 6013354343,
  "lat": 43.3199693,
  "lon": -0.3504463
},
{
  "type": "node",
  "id": 6013354349,
  "lat": 43.3197902,
  "lon": -0.3501036
},
{
  "type": "node",
  "id": 6013354350,
  "lat": 43.3197155,
  "lon": -0.3497117
},
{
  "type": "node",
  "id": 6013354352,
  "lat": 43.3205760,
  "lon": -0.3524406
},
{
  "type": "node",
  "id": 6013354357,
  "lat": 43.3204414,
  "lon": -0.3524840
},
{
  "type": "node",
  "id": 6013354361,
  "lat": 43.3206172,
  "lon": -0.3526219
},
{
  "type": "node",
  "id": 6013354365,
  "lat": 43.3204784,
  "lon": -0.3526852
},
{
  "type": "node",
  "id": 6013354377,
  "lat": 43.3200143,
  "lon": -0.3510567
},
{
  "type": "node",
  "id": 6013354378,
  "lat": 43.3195326,
  "lon": -0.3487593
},
{
  "type": "node",
  "id": 6013354379,
  "lat": 43.3196296,
  "lon": -0.3487447
},
{
  "type": "node",
  "id": 6036552020,
  "lat": 43.3200448,
  "lon": -0.3511881
},
{
  "type": "node",
  "id": 6262187781,
  "lat": 43.3205466,
  "lon": -0.3523536
},
{
  "type": "node",
  "id": 6378188401,
  "lat": 43.3199462,
  "lon": -0.3503501
},
{
  "type": "node",
  "id": 6654009790,
  "lat": 43.3200784,
  "lon": -0.3508177
},
{
  "type": "node",
  "id": 6654009791,
  "lat": 43.3205347,
  "lon": -0.3523103
},
{
  "type": "node",
  "id": 6654009792,
  "lat": 43.3204090,
  "lon": -0.3523785
},
{
  "type": "node",
  "id": 6654009793,
  "lat": 43.3198928,
  "lon": -0.3505447
},
{
  "type": "node",
  "id": 6654009794,
  "lat": 43.3206435,
  "lon": -0.3527632
},
{
  "type": "node",
  "id": 6654009795,
  "lat": 43.3206888,
  "lon": -0.3536645
},
{
  "type": "node",
  "id": 6845373719,
  "lat": 43.3203356,
  "lon": -0.3515953
},
{
  "type": "node",
  "id": 6845373721,
  "lat": 43.3201930,
  "lon": -0.3516727
},
{
  "type": "node",
  "id": 6845373724,
  "lat": 43.3205102,
  "lon": -0.3528215
},
{
  "type": "node",
  "id": 6845373725,
  "lat": 43.3206157,
  "lon": -0.3532116
},
{
  "type": "node",
  "id": 6845373727,
  "lat": 43.3207774,
  "lon": -0.3535397
},
{
  "type": "node",
  "id": 6984603526,
  "lat": 43.3198705,
  "lon": -0.3500482
},
{
  "type": "node",
  "id": 6984603530,
  "lat": 43.3203786,
  "lon": -0.3478715
},
{
  "type": "node",
  "id": 6984605105,
  "lat": 43.3206745,
  "lon": -0.3529786
},
{
  "type": "node",
  "id": 6984605108,
  "lat": 43.3202996,
  "lon": -0.3514737
},
{
  "type": "node",
  "id": 7096636717,
  "lat": 43.3209312,
  "lon": -0.3474030
},
{
  "type": "node",
  "id": 7096691721,
  "lat": 43.3197934,
  "lon": -0.3496314
},
{
  "type": "node",
  "id": 7846362592,
  "lat": 43.3202147,
  "lon": -0.3511937
},
{
  "type": "node",
  "id": 8088413070,
  "lat": 43.3200484,
  "lon": -0.3507156
},
{
  "type": "node",
  "id": 8198641422,
  "lat": 43.3200713,
  "lon": -0.3512745
},
{
  "type": "node",
  "id": 8198641426,
  "lat": 43.3195539,
  "lon": -0.3488702
},
{
  "type": "node",
  "id": 8862876468,
  "lat": 43.3199628,
  "lon": -0.3508375
},
{
  "type": "node",
  "id": 8862876469,
  "lat": 43.3204204,
  "lon": -0.3524156
},
{
  "type": "node",
  "id": 8862876483,
  "lat": 43.3200253,
  "lon": -0.3511039
},
{
  "type": "node",
  "id": 305383483,
  "lat": 43.3212322,
  "lon": -0.3469076
},
{
  "type": "node",
  "id": 459169409,
  "lat": 43.3210654,
  "lon": -0.3471871
},
{
  "type": "node",
  "id": 459203984,
  "lat": 43.3170696,
  "lon": -0.3441952
},
{
  "type": "node",
  "id": 459203993,
  "lat": 43.3169533,
  "lon": -0.3442329
},
{
  "type": "node",
  "id": 2626856333,
  "lat": 43.3164624,
  "lon": -0.3443918
},
{
  "type": "node",
  "id": 4665804905,
  "lat": 43.3170068,
  "lon": -0.3442155
},
{
  "type": "node",
  "id": 7371901925,
  "lat": 43.3168310,
  "lon": -0.3442725
},
{
  "type": "node",
  "id": 286693842,
  "lat": 43.3083301,
  "lon": -0.3389937
},
{
  "type": "node",
  "id": 286693844,
  "lat": 43.3082994,
  "lon": -0.3391056
},
{
  "type": "node",
  "id": 286693846,
  "lat": 43.3082482,
  "lon": -0.3392024
},
{
  "type": "node",
  "id": 286693848,
  "lat": 43.3081002,
  "lon": -0.3393243
},
{
  "type": "node",
  "id": 286693850,
  "lat": 43.3080060,
  "lon": -0.3393405
},
{
  "type": "node",
  "id": 286693852,
  "lat": 43.3078776,
  "lon": -0.3393015
},
{
  "type": "node",
  "id": 286693856,
  "lat": 43.3077560,
  "lon": -0.3391680
},
{
  "type": "node",
  "id": 286693858,
  "lat": 43.3077068,
  "lon": -0.3390454
},
{
  "type": "node",
  "id": 286693860,
  "lat": 43.3077002,
  "lon": -0.3387691
},
{
  "type": "node",
  "id": 286693862,
  "lat": 43.3077400,
  "lon": -0.3386493
},
{
  "type": "node",
  "id": 286693864,
  "lat": 43.3078852,
  "lon": -0.3384818
},
{
  "type": "node",
  "id": 286693866,
  "lat": 43.3079759,
  "lon": -0.3384488
},
{
  "type": "node",
  "id": 286693868,
  "lat": 43.3081586,
  "lon": -0.3384932
},
{
  "type": "node",
  "id": 286693870,
  "lat": 43.3082458,
  "lon": -0.3385808
},
{
  "type": "node",
  "id": 286693872,
  "lat": 43.3083074,
  "lon": -0.3387027
},
{
  "type": "node",
  "id": 343486245,
  "lat": 43.3060808,
  "lon": -0.3351520
},
{
  "type": "node",
  "id": 360814077,
  "lat": 43.3074051,
  "lon": -0.3401296
},
{
  "type": "node",
  "id": 360814091,
  "lat": 43.3077108,
  "lon": -0.3378497
},
{
  "type": "node",
  "id": 369763775,
  "lat": 43.3067908,
  "lon": -0.3344546
},
{
  "type": "node",
  "id": 369763805,
  "lat": 43.3068741,
  "lon": -0.3347514
},
{
  "type": "node",
  "id": 2628310094,
  "lat": 43.3060682,
  "lon": -0.3350502
},
{
  "type": "node",
  "id": 2628310111,
  "lat": 43.3061407,
  "lon": -0.3347087
},
{
  "type": "node",
  "id": 2628310113,
  "lat": 43.3062170,
  "lon": -0.3343423
},
{
  "type": "node",
  "id": 2635190621,
  "lat": 43.3071179,
  "lon": -0.3356597
},
{
  "type": "node",
  "id": 2892021622,
  "lat": 43.3074411,
  "lon": -0.3400379
},
{
  "type": "node",
  "id": 2892021623,
  "lat": 43.3077017,
  "lon": -0.3393263
},
{
  "type": "node",
  "id": 5398467220,
  "lat": 43.3077370,
  "lon": -0.3392163
},
{
  "type": "node",
  "id": 5398468421,
  "lat": 43.3079847,
  "lon": -0.3393929
},
{
  "type": "node",
  "id": 6007150494,
  "lat": 43.3083366,
  "lon": -0.3388456
},
{
  "type": "node",
  "id": 6007150495,
  "lat": 43.3081802,
  "lon": -0.3392771
},
{
  "type": "node",
  "id": 6007150496,
  "lat": 43.3078255,
  "lon": -0.3392591
},
{
  "type": "node",
  "id": 6007150497,
  "lat": 43.3076875,
  "lon": -0.3389080
},
{
  "type": "node",
  "id": 6007150498,
  "lat": 43.3078035,
  "lon": -0.3385507
},
{
  "type": "node",
  "id": 6007150499,
  "lat": 43.3080696,
  "lon": -0.3384528
},
{
  "type": "node",
  "id": 7079935024,
  "lat": 43.3071514,
  "lon": -0.3357813
},
{
  "type": "node",
  "id": 7079935029,
  "lat": 43.3073654,
  "lon": -0.3365784
},
{
  "type": "node",
  "id": 7080130615,
  "lat": 43.3079501,
  "lon": -0.3394865
},
{
  "type": "node",
  "id": 7080130616,
  "lat": 43.3078230,
  "lon": -0.3398297
},
{
  "type": "node",
  "id": 7500573543,
  "lat": 43.3069083,
  "lon": -0.3348746
},
{
  "type": "node",
  "id": 7599711146,
  "lat": 43.3072808,
  "lon": -0.3362633
},
{
  "type": "node",
  "id": 7599711148,
  "lat": 43.3071915,
  "lon": -0.3359386
},
{
  "type": "node",
  "id": 7599711149,
  "lat": 43.3069509,
  "lon": -0.3350360
},
{
  "type": "node",
  "id": 8956871553,
  "lat": 43.3069588,
  "lon": -0.3350655
},
{
  "type": "node",
  "id": 286678890,
  "lat": 43.3062742,
  "lon": -0.3337943
},
{
  "type": "node",
  "id": 286678892,
  "lat": 43.3061526,
  "lon": -0.3335486
},
{
  "type": "node",
  "id": 286678893,
  "lat": 43.3061622,
  "lon": -0.3333259
},
{
  "type": "node",
  "id": 286678894,
  "lat": 43.3062565,
  "lon": -0.3331442
},
{
  "type": "node",
  "id": 286678895,
  "lat": 43.3064717,
  "lon": -0.3330590
},
{
  "type": "node",
  "id": 286678897,
  "lat": 43.3067167,
  "lon": -0.3333275
},
{
  "type": "node",
  "id": 286678898,
  "lat": 43.3065410,
  "lon": -0.3338391
},
{
  "type": "node",
  "id": 286678899,
  "lat": 43.3064499,
  "lon": -0.3338638
},
{
  "type": "node",
  "id": 286779744,
  "lat": 43.3065496,
  "lon": -0.3330856
},
{
  "type": "node",
  "id": 343486289,
  "lat": 43.3061815,
  "lon": -0.3336541
},
{
  "type": "node",
  "id": 446277337,
  "lat": 43.3067010,
  "lon": -0.3336438
},
{
  "type": "node",
  "id": 446277338,
  "lat": 43.3062821,
  "lon": -0.3340146
},
{
  "type": "node",
  "id": 446277343,
  "lat": 43.3066831,
  "lon": -0.3332316
},
{
  "type": "node",
  "id": 2309868304,
  "lat": 43.3063220,
  "lon": -0.3330901
},
{
  "type": "node",
  "id": 2635190597,
  "lat": 43.3066601,
  "lon": -0.3337266
},
{
  "type": "node",
  "id": 2635190609,
  "lat": 43.3067110,
  "lon": -0.3339412
},
{
  "type": "node",
  "id": 2891993180,
  "lat": 43.3067271,
  "lon": -0.3335416
},
{
  "type": "node",
  "id": 3048869729,
  "lat": 43.3066056,
  "lon": -0.3337931
},
{
  "type": "node",
  "id": 3048869730,
  "lat": 43.3067324,
  "lon": -0.3334336
},
{
  "type": "node",
  "id": 3481528888,
  "lat": 43.3062218,
  "lon": -0.3337317
},
{
  "type": "node",
  "id": 3481528889,
  "lat": 43.3062000,
  "lon": -0.3332259
},
{
  "type": "node",
  "id": 3481528890,
  "lat": 43.3063953,
  "lon": -0.3330611
},
{
  "type": "node",
  "id": 3481528891,
  "lat": 43.3066233,
  "lon": -0.3331455
},
{
  "type": "node",
  "id": 3481544095,
  "lat": 43.3063580,
  "lon": -0.3338483
},
{
  "type": "node",
  "id": 3705277524,
  "lat": 43.3062397,
  "lon": -0.3342318
},
{
  "type": "node",
  "id": 5254766598,
  "lat": 43.3065095,
  "lon": -0.3338473
},
{
  "type": "node",
  "id": 5254766604,
  "lat": 43.3062849,
  "lon": -0.3339256
},
{
  "type": "node",
  "id": 5254766617,
  "lat": 43.3064923,
  "lon": -0.3330660
},
{
  "type": "node",
  "id": 5254767624,
  "lat": 43.3067251,
  "lon": -0.3333838
},
{
  "type": "node",
  "id": 5254767632,
  "lat": 43.3061460,
  "lon": -0.3334363
},
{
  "type": "node",
  "id": 247979971,
  "lat": 43.3163902,
  "lon": -0.3395783
},
{
  "type": "node",
  "id": 3390705456,
  "lat": 43.3164624,
  "lon": -0.3395622
},
{
  "type": "node",
  "id": 3390705458,
  "lat": 43.3165146,
  "lon": -0.3396696
},
{
  "type": "node",
  "id": 3390705459,
  "lat": 43.3166528,
  "lon": -0.3395193
},
{
  "type": "node",
  "id": 6654371826,
  "lat": 43.3165434,
  "lon": -0.3396312
},
{
  "type": "node",
  "id": 6654371827,
  "lat": 43.3165082,
  "lon": -0.3395519
},
{
  "type": "node",
  "id": 9292746992,
  "lat": 43.3164637,
  "lon": -0.3397864
},
{
  "type": "node",
  "id": 287097999,
  "lat": 43.3203798,
  "lon": -0.3278277
},
{
  "type": "node",
  "id": 288408190,
  "lat": 43.3200901,
  "lon": -0.3279037
},
{
  "type": "node",
  "id": 2917113983,
  "lat": 43.3202208,
  "lon": -0.3277257
},
{
  "type": "node",
  "id": 2917113985,
  "lat": 43.3202700,
  "lon": -0.3278415
},
{
  "type": "node",
  "id": 287098001,
  "lat": 43.3202923,
  "lon": -0.3275994
},
{
  "type": "node",
  "id": 286779755,
  "lat": 43.3189617,
  "lon": -0.3072415
},
{
  "type": "node",
  "id": 286779757,
  "lat": 43.3191512,
  "lon": -0.3073848
},
{
  "type": "node",
  "id": 312545109,
  "lat": 43.3203595,
  "lon": -0.3045830
},
{
  "type": "node",
  "id": 382647023,
  "lat": 43.3213963,
  "lon": -0.3026724
},
{
  "type": "node",
  "id": 382647025,
  "lat": 43.3216549,
  "lon": -0.3022800
},
{
  "type": "node",
  "id": 428071966,
  "lat": 43.3193830,
  "lon": -0.3065657
},
{
  "type": "node",
  "id": 2430899364,
  "lat": 43.3197022,
  "lon": -0.3060609
},
{
  "type": "node",
  "id": 2430899370,
  "lat": 43.3198428,
  "lon": -0.3058010
},
{
  "type": "node",
  "id": 2430899385,
  "lat": 43.3200504,
  "lon": -0.3052065
},
{
  "type": "node",
  "id": 2630252070,
  "lat": 43.3209986,
  "lon": -0.3032748
},
{
  "type": "node",
  "id": 2896710354,
  "lat": 43.3206758,
  "lon": -0.3039205
},
{
  "type": "node",
  "id": 2896710355,
  "lat": 43.3203822,
  "lon": -0.3045354
},
{
  "type": "node",
  "id": 5983338048,
  "lat": 43.3202024,
  "lon": -0.3049120
},
{
  "type": "node",
  "id": 7199401951,
  "lat": 43.3215692,
  "lon": -0.3025418
},
{
  "type": "node",
  "id": 7199401952,
  "lat": 43.3211593,
  "lon": -0.3031393
},
{
  "type": "node",
  "id": 7199401953,
  "lat": 43.3208413,
  "lon": -0.3037221
},
{
  "type": "node",
  "id": 7199401954,
  "lat": 43.3205663,
  "lon": -0.3042944
},
{
  "type": "node",
  "id": 7199401955,
  "lat": 43.3202856,
  "lon": -0.3048821
},
{
  "type": "node",
  "id": 7199418134,
  "lat": 43.3206496,
  "lon": -0.3041204
},
{
  "type": "node",
  "id": 7199418135,
  "lat": 43.3206015,
  "lon": -0.3040763
},
{
  "type": "node",
  "id": 7199418136,
  "lat": 43.3200633,
  "lon": -0.3053474
},
{
  "type": "node",
  "id": 7199418137,
  "lat": 43.3200050,
  "lon": -0.3052976
},
{
  "type": "node",
  "id": 7199418138,
  "lat": 43.3207677,
  "lon": -0.3038733
},
{
  "type": "node",
  "id": 7199418139,
  "lat": 43.3204470,
  "lon": -0.3045441
},
{
  "type": "node",
  "id": 7199418145,
  "lat": 43.3207624,
  "lon": -0.3037434
},
{
  "type": "node",
  "id": 7199418151,
  "lat": 43.3220498,
  "lon": -0.3016211
},
{
  "type": "node",
  "id": 7199418152,
  "lat": 43.3219464,
  "lon": -0.3018719
},
{
  "type": "node",
  "id": 7199418153,
  "lat": 43.3218439,
  "lon": -0.3020744
},
{
  "type": "node",
  "id": 7199418154,
  "lat": 43.3217034,
  "lon": -0.3023198
},
{
  "type": "node",
  "id": 7199418155,
  "lat": 43.3216205,
  "lon": -0.3024660
},
{
  "type": "node",
  "id": 7199418156,
  "lat": 43.3214422,
  "lon": -0.3027296
},
{
  "type": "node",
  "id": 7199418157,
  "lat": 43.3212058,
  "lon": -0.3030668
},
{
  "type": "node",
  "id": 7199418158,
  "lat": 43.3211336,
  "lon": -0.3031795
},
{
  "type": "node",
  "id": 7199418159,
  "lat": 43.3210653,
  "lon": -0.3032975
},
{
  "type": "node",
  "id": 7199418160,
  "lat": 43.3208790,
  "lon": -0.3036448
},
{
  "type": "node",
  "id": 7199418162,
  "lat": 43.3211203,
  "lon": -0.3030778
},
{
  "type": "node",
  "id": 7199418168,
  "lat": 43.3211619,
  "lon": -0.3030105
},
{
  "type": "node",
  "id": 7199418169,
  "lat": 43.3208243,
  "lon": -0.3036180
},
{
  "type": "node",
  "id": 7199418170,
  "lat": 43.3205367,
  "lon": -0.3043563
},
{
  "type": "node",
  "id": 7199418177,
  "lat": 43.3200376,
  "lon": -0.3054033
},
{
  "type": "node",
  "id": 7199418281,
  "lat": 43.3207037,
  "lon": -0.3038622
},
{
  "type": "node",
  "id": 7199418313,
  "lat": 43.3215332,
  "lon": -0.3024734
},
{
  "type": "node",
  "id": 7895667166,
  "lat": 43.3199583,
  "lon": -0.3055676
},
{
  "type": "node",
  "id": 8426448081,
  "lat": 43.3195300,
  "lon": -0.3062711
},
{
  "type": "node",
  "id": 8426448082,
  "lat": 43.3191089,
  "lon": -0.3071147
},
{
  "type": "node",
  "id": 8426448083,
  "lat": 43.3190461,
  "lon": -0.3071732
},
{
  "type": "node",
  "id": 8426448084,
  "lat": 43.3194978,
  "lon": -0.3064754
},
{
  "type": "node",
  "id": 8426448085,
  "lat": 43.3192243,
  "lon": -0.3071039
},
{
  "type": "node",
  "id": 8426448086,
  "lat": 43.3191649,
  "lon": -0.3072888
},
{
  "type": "node",
  "id": 8426448088,
  "lat": 43.3196910,
  "lon": -0.3059412
},
{
  "type": "node",
  "id": 341467916,
  "lat": 43.3221617,
  "lon": -0.3013341
},
{
  "type": "node",
  "id": 356506972,
  "lat": 43.3330096,
  "lon": -0.3692142
},
{
  "type": "node",
  "id": 8199607035,
  "lat": 43.3329151,
  "lon": -0.3687893
},
{
  "type": "node",
  "id": 8199607036,
  "lat": 43.3327516,
  "lon": -0.3680535
},
{
  "type": "node",
  "id": 356507054,
  "lat": 43.3280504,
  "lon": -0.3611244
},
{
  "type": "node",
  "id": 356507057,
  "lat": 43.3284030,
  "lon": -0.3611739
},
{
  "type": "node",
  "id": 418000033,
  "lat": 43.3283330,
  "lon": -0.3622246
},
{
  "type": "node",
  "id": 418055742,
  "lat": 43.3290135,
  "lon": -0.3612607
},
{
  "type": "node",
  "id": 418055748,
  "lat": 43.3282314,
  "lon": -0.3620826
},
{
  "type": "node",
  "id": 2922439798,
  "lat": 43.3280421,
  "lon": -0.3612112
},
{
  "type": "node",
  "id": 2922440205,
  "lat": 43.3290752,
  "lon": -0.3612701
},
{
  "type": "node",
  "id": 5916097239,
  "lat": 43.3280070,
  "lon": -0.3617140
},
{
  "type": "node",
  "id": 7497194342,
  "lat": 43.3285045,
  "lon": -0.3611883
},
{
  "type": "node",
  "id": 418000053,
  "lat": 43.3244268,
  "lon": -0.3557725
},
{
  "type": "node",
  "id": 418000054,
  "lat": 43.3242667,
  "lon": -0.3544738
},
{
  "type": "node",
  "id": 459825646,
  "lat": 43.3247109,
  "lon": -0.3569820
},
{
  "type": "node",
  "id": 459832034,
  "lat": 43.3242430,
  "lon": -0.3543478
},
{
  "type": "node",
  "id": 2848408191,
  "lat": 43.3243999,
  "lon": -0.3555247
},
{
  "type": "node",
  "id": 5814631263,
  "lat": 43.3245851,
  "lon": -0.3564874
},
{
  "type": "node",
  "id": 5981080964,
  "lat": 43.3244981,
  "lon": -0.3561462
},
{
  "type": "node",
  "id": 6384326151,
  "lat": 43.3245702,
  "lon": -0.3564290
},
{
  "type": "node",
  "id": 6384326154,
  "lat": 43.3246203,
  "lon": -0.3566260
},
{
  "type": "node",
  "id": 6846646908,
  "lat": 43.3243802,
  "lon": -0.3550930
},
{
  "type": "node",
  "id": 305383475,
  "lat": 43.3314551,
  "lon": -0.3615852
},
{
  "type": "node",
  "id": 356506974,
  "lat": 43.3322372,
  "lon": -0.3651057
},
{
  "type": "node",
  "id": 356507060,
  "lat": 43.3296845,
  "lon": -0.3613617
},
{
  "type": "node",
  "id": 356507063,
  "lat": 43.3299085,
  "lon": -0.3613893
},
{
  "type": "node",
  "id": 418016839,
  "lat": 43.3321295,
  "lon": -0.3652633
},
{
  "type": "node",
  "id": 418016843,
  "lat": 43.3324749,
  "lon": -0.3667986
},
{
  "type": "node",
  "id": 418016844,
  "lat": 43.3325148,
  "lon": -0.3669883
},
{
  "type": "node",
  "id": 418016851,
  "lat": 43.3324152,
  "lon": -0.3665639
},
{
  "type": "node",
  "id": 2283379332,
  "lat": 43.3337813,
  "lon": -0.3642989
},
{
  "type": "node",
  "id": 2630252091,
  "lat": 43.3323169,
  "lon": -0.3650679
},
{
  "type": "node",
  "id": 2643575543,
  "lat": 43.3313537,
  "lon": -0.3615722
},
{
  "type": "node",
  "id": 2643575656,
  "lat": 43.3339837,
  "lon": -0.3642055
},
{
  "type": "node",
  "id": 2922440206,
  "lat": 43.3297455,
  "lon": -0.3613706
},
{
  "type": "node",
  "id": 6482948300,
  "lat": 43.3341356,
  "lon": -0.3642030
},
{
  "type": "node",
  "id": 6485194578,
  "lat": 43.3324518,
  "lon": -0.3667078
},
{
  "type": "node",
  "id": 8199607039,
  "lat": 43.3322698,
  "lon": -0.3659018
},
{
  "type": "node",
  "id": 8584192260,
  "lat": 43.3321514,
  "lon": -0.3653629
},
{
  "type": "node",
  "id": 8587796728,
  "lat": 43.3339927,
  "lon": -0.3642054
},
{
  "type": "node",
  "id": 418000056,
  "lat": 43.3239818,
  "lon": -0.3533164
},
{
  "type": "node",
  "id": 459825606,
  "lat": 43.3238075,
  "lon": -0.3520879
},
{
  "type": "node",
  "id": 459832045,
  "lat": 43.3240737,
  "lon": -0.3535383
},
{
  "type": "node",
  "id": 766878076,
  "lat": 43.3238029,
  "lon": -0.3515865
},
{
  "type": "node",
  "id": 2848408179,
  "lat": 43.3237790,
  "lon": -0.3526883
},
{
  "type": "node",
  "id": 6846646907,
  "lat": 43.3238540,
  "lon": -0.3530805
},
{
  "type": "node",
  "id": 8511266966,
  "lat": 43.3238047,
  "lon": -0.3518614
}

  ]
}
