{
  "version": 0.6,
  "generator": "Overpass API 0.7.57 93a4d346",
  "osm3s": {
    "timestamp_osm_base": "2022-02-13T13:49:54Z",
    "timestamp_areas_base": "2022-02-13T06:31:57Z",
    "copyright": "The data included in this document is from www.openstreetmap.org. The data is made available under ODbL."
  },
  "elements": [

{
  "type": "node",
  "id": 492044066,
  "lat": -21.3409218,
  "lon": 55.4728369,
  "tags": {
    "bus": "yes",
    "highway": "bus_stop",
    "name": "Marché Couvert",
    "public_transport": "platform"
  }
},
{
  "type": "node",
  "id": 1916751660,
  "lat": -21.3426592,
  "lon": 55.4720780,
  "tags": {
    "bus": "yes",
    "highway": "bus_stop",
    "public_transport": "platform"
  }
},
{
  "type": "node",
  "id": 4002439615,
  "lat": -21.3405844,
  "lon": 55.4888679,
  "tags": {
    "bench": "yes",
    "bus": "yes",
    "highway": "bus_stop",
    "name": "Chemin de la Croix Jubilé",
    "network": "Alterneo",
    "operator": "CIVIS",
    "public_transport": "platform",
    "shelter": "yes"
  }
},
{
  "type": "node",
  "id": 4019362848,
  "lat": -21.3424743,
  "lon": 55.4911464,
  "tags": {
    "bench": "no",
    "bus": "yes",
    "highway": "bus_stop",
    "name": "IUT de Saint-Pierre",
    "network": "Alterneo",
    "operator": "CIVIS",
    "public_transport": "platform",
    "shelter": "no"
  }
},
{
  "type": "node",
  "id": 4019362849,
  "lat": -21.3423121,
  "lon": 55.4930083,
  "tags": {
    "bench": "no",
    "bus": "yes",
    "highway": "bus_stop",
    "name": "Central Fac",
    "network": "Alterneo",
    "operator": "CIVIS",
    "public_transport": "platform",
    "shelter": "no"
  }
},
{
  "type": "node",
  "id": 4030137673,
  "lat": -21.3410060,
  "lon": 55.4621565,
  "tags": {
    "bus": "yes",
    "highway": "bus_stop",
    "name": "Colardeau",
    "network": "Alterneo",
    "operator": "CIVIS",
    "public_transport": "platform"
  }
},
{
  "type": "node",
  "id": 4030137674,
  "lat": -21.3412353,
  "lon": 55.4623076,
  "tags": {
    "bus": "yes",
    "highway": "bus_stop",
    "network": "Alterneo",
    "operator": "CIVIS",
    "public_transport": "platform"
  }
},
{
  "type": "node",
  "id": 4030218568,
  "lat": -21.3548209,
  "lon": 55.5142541,
  "tags": {
    "highway": "bus_stop",
    "name": "Cité Hyacinthe",
    "network": "Alterneo",
    "operator": "CIVIS"
  }
},
{
  "type": "node",
  "id": 4103268214,
  "lat": -21.2942125,
  "lon": 55.5048701,
  "tags": {
    "highway": "bus_stop"
  }
},
{
  "type": "node",
  "id": 4103268404,
  "lat": -21.3026458,
  "lon": 55.4940914,
  "tags": {
    "highway": "bus_stop"
  }
},
{
  "type": "node",
  "id": 4112359936,
  "lat": -21.3569558,
  "lon": 55.5191499,
  "tags": {
    "highway": "bus_stop",
    "name": "Église de Grands Bois",
    "network": "Alterneo",
    "operator": "CIVIS"
  }
},
{
  "type": "node",
  "id": 4234339075,
  "lat": -21.3475261,
  "lon": 55.4937892,
  "tags": {
    "bus": "yes",
    "highway": "bus_stop",
    "name": "Hôpital de Terre Sainte",
    "network": "Alterneo",
    "operator": "Car Jaune;CIVIS",
    "public_transport": "platform",
    "ref": "94420",
    "shelter": "yes"
  }
},
{
  "type": "node",
  "id": 4234339994,
  "lat": -21.3446510,
  "lon": 55.4922887,
  "tags": {
    "bus": "yes",
    "highway": "bus_stop",
    "name": "Stade Terre Sainte",
    "operator": "Car Jaune",
    "public_transport": "platform",
    "ref": "94422",
    "wheelchair": "yes"
  }
},
{
  "type": "node",
  "id": 4234339997,
  "lat": -21.3461220,
  "lon": 55.4914682,
  "tags": {
    "bus": "yes",
    "highway": "bus_stop",
    "name": "Stade Terre Sainte",
    "operator": "Car Jaune",
    "public_transport": "platform",
    "ref": "4422"
  }
},
{
  "type": "node",
  "id": 4272174201,
  "lat": -21.2890104,
  "lon": 55.4537885,
  "tags": {
    "bus": "yes",
    "highway": "bus_stop",
    "name": "Chemin Vimbaye",
    "public_transport": "platform"
  }
},
{
  "type": "node",
  "id": 4272178447,
  "lat": -21.3099290,
  "lon": 55.4334220,
  "tags": {
    "bus": "yes",
    "highway": "bus_stop",
    "name": "Aérodrome",
    "operator": "Car Jaune",
    "public_transport": "platform",
    "ref": "94330",
    "shelter": "yes"
  }
},
{
  "type": "node",
  "id": 4272179810,
  "lat": -21.3092364,
  "lon": 55.4327209,
  "tags": {
    "bus": "yes",
    "highway": "bus_stop",
    "name": "Aérodrome",
    "operator": "Car Jaune",
    "public_transport": "platform",
    "ref": "4330",
    "shelter": "yes"
  }
},
{
  "type": "node",
  "id": 4272184195,
  "lat": -21.3039681,
  "lon": 55.4294652,
  "tags": {
    "bus": "yes",
    "highway": "bus_stop",
    "name": "Pierrefonds",
    "operator": "Car Jaune",
    "public_transport": "platform",
    "ref": "94331"
  }
},
{
  "type": "node",
  "id": 4272194031,
  "lat": -21.2891033,
  "lon": 55.4535162,
  "tags": {
    "bus": "yes",
    "highway": "bus_stop",
    "name": "Chemin Vimbaye",
    "public_transport": "platform"
  }
},
{
  "type": "node",
  "id": 4291488761,
  "lat": -21.3323064,
  "lon": 55.4561261,
  "tags": {
    "bus": "yes",
    "highway": "bus_stop",
    "name": "Parc Relais",
    "operator": "Car Jaune",
    "public_transport": "platform",
    "ref": "4421",
    "wheelchair": "yes"
  }
},
{
  "type": "node",
  "id": 4291488763,
  "lat": -21.3324574,
  "lon": 55.4559812,
  "tags": {
    "bus": "yes",
    "highway": "bus_stop",
    "name": "Parc Relais",
    "operator": "Car Jaune",
    "public_transport": "platform",
    "ref": "94421",
    "wheelchair": "yes"
  }
},
{
  "type": "node",
  "id": 4312414610,
  "lat": -21.3022347,
  "lon": 55.4320147,
  "tags": {
    "highway": "bus_stop",
    "name": "Exotica - Civis"
  }
},
{
  "type": "node",
  "id": 4312415997,
  "lat": -21.3469760,
  "lon": 55.4900946,
  "tags": {
    "highway": "bus_stop"
  }
},
{
  "type": "node",
  "id": 4349018509,
  "lat": -21.3257299,
  "lon": 55.5434679,
  "tags": {
    "bus": "yes",
    "highway": "bus_stop",
    "name": "Fond de Piton",
    "public_transport": "platform"
  }
},
{
  "type": "node",
  "id": 4349032399,
  "lat": -21.3148847,
  "lon": 55.5697908,
  "tags": {
    "bus": "yes",
    "highway": "bus_stop",
    "name": "Allée des Goyaviers",
    "public_transport": "platform"
  }
},
{
  "type": "node",
  "id": 4349046609,
  "lat": -21.3158017,
  "lon": 55.5686656,
  "tags": {
    "bus": "yes",
    "highway": "bus_stop",
    "name": "73 Rue Piton des Goyaves",
    "public_transport": "platform"
  }
},
{
  "type": "node",
  "id": 4384216076,
  "lat": -21.3384870,
  "lon": 55.4613890,
  "tags": {
    "bus": "yes",
    "highway": "bus_stop",
    "name": "Case Ravine Blanche",
    "public_transport": "platform"
  }
},
{
  "type": "node",
  "id": 4388650342,
  "lat": -21.3559988,
  "lon": 55.5172886,
  "tags": {
    "bench": "no",
    "bus": "yes",
    "highway": "bus_stop",
    "name": "École Raymond Mondon",
    "network": "Alterneo",
    "operator": "CIVIS",
    "public_transport": "platform",
    "shelter": "no"
  }
},
{
  "type": "node",
  "id": 4388650343,
  "lat": -21.3560656,
  "lon": 55.5172008,
  "tags": {
    "bench": "no",
    "bus": "yes",
    "highway": "bus_stop",
    "name": "École Raymond Mondon",
    "network": "Alterneo",
    "operator": "CIVIS",
    "public_transport": "platform",
    "shelter": "no"
  }
},
{
  "type": "node",
  "id": 4388650344,
  "lat": -21.3549707,
  "lon": 55.5149106,
  "tags": {
    "highway": "bus_stop",
    "name": "Cité Hyacinthe",
    "network": "Alterneo",
    "operator": "CIVIS"
  }
},
{
  "type": "node",
  "id": 4388650345,
  "lat": -21.3540937,
  "lon": 55.5129395,
  "tags": {
    "highway": "bus_stop",
    "name": "Cafrine",
    "network": "Alterneo",
    "operator": "CIVIS"
  }
},
{
  "type": "node",
  "id": 4388651643,
  "lat": -21.3529145,
  "lon": 55.5090336,
  "tags": {
    "highway": "bus_stop",
    "name": "Bassin 18",
    "network": "Alterneo",
    "operator": "CIVIS"
  }
},
{
  "type": "node",
  "id": 4388651644,
  "lat": -21.3485708,
  "lon": 55.4991635,
  "tags": {
    "bus": "yes",
    "highway": "bus_stop",
    "name": "Terre Rouge",
    "network": "Alterneo",
    "operator": "CIVIS",
    "public_transport": "platform"
  }
},
{
  "type": "node",
  "id": 4388651645,
  "lat": -21.3486687,
  "lon": 55.4991367,
  "tags": {
    "bus": "yes",
    "highway": "bus_stop",
    "name": "Terre Rouge",
    "network": "Alterneo",
    "operator": "CIVIS",
    "public_transport": "platform"
  }
},
{
  "type": "node",
  "id": 4698611254,
  "lat": -21.3394228,
  "lon": 55.4880442,
  "tags": {
    "bench": "yes",
    "bus": "yes",
    "highway": "bus_stop",
    "network": "Alterneo",
    "public_transport": "platform",
    "shelter": "yes"
  }
},
{
  "type": "node",
  "id": 4698611255,
  "lat": -21.3397290,
  "lon": 55.4878602,
  "tags": {
    "bus": "yes",
    "highway": "bus_stop",
    "network": "Alterneo",
    "public_transport": "platform"
  }
},
{
  "type": "node",
  "id": 4711484214,
  "lat": -21.3421483,
  "lon": 55.4870911,
  "tags": {
    "bus": "yes",
    "highway": "bus_stop",
    "public_transport": "platform",
    "shelter": "no"
  }
},
{
  "type": "node",
  "id": 4711484215,
  "lat": -21.3421699,
  "lon": 55.4871820,
  "tags": {
    "bus": "yes",
    "highway": "bus_stop",
    "public_transport": "platform",
    "shelter": "no"
  }
},
{
  "type": "node",
  "id": 4711504277,
  "lat": -21.3396592,
  "lon": 55.4864183,
  "tags": {
    "bench": "no",
    "bus": "yes",
    "highway": "bus_stop",
    "name": "Bellevue",
    "network": "Alternéo Ligne 10",
    "public_transport": "platform",
    "shelter": "no"
  }
},
{
  "type": "node",
  "id": 4711504278,
  "lat": -21.3398357,
  "lon": 55.4862527,
  "tags": {
    "bench": "no",
    "bus": "yes",
    "highway": "bus_stop",
    "name": "Bellevue",
    "network": "Alternéo Ligne 10",
    "public_transport": "platform",
    "shelter": "no"
  }
},
{
  "type": "node",
  "id": 4727162319,
  "lat": -21.3471848,
  "lon": 55.4928006,
  "tags": {
    "bus": "yes",
    "highway": "bus_stop",
    "name": "Hôpital Terre Sainte",
    "network": "Alterneo",
    "operator": "Car Jaune;CIVIS",
    "public_transport": "platform",
    "ref": "4420",
    "shelter": "yes"
  }
},
{
  "type": "node",
  "id": 4784613477,
  "lat": -21.3309387,
  "lon": 55.4721519,
  "tags": {
    "bench": "yes",
    "highway": "bus_stop",
    "name": "Piscine de casabona",
    "network": "Alterneo",
    "shelter": "yes"
  }
},
{
  "type": "node",
  "id": 4784613478,
  "lat": -21.3311546,
  "lon": 55.4722161,
  "tags": {
    "bench": "yes",
    "highway": "bus_stop",
    "name": "Piscine de casbona",
    "network": "Alterneo",
    "shelter": "yes"
  }
},
{
  "type": "node",
  "id": 4784613480,
  "lat": -21.3342904,
  "lon": 55.4710679,
  "tags": {
    "bench": "yes",
    "highway": "bus_stop",
    "name": "Casabona",
    "network": "Alterneo",
    "shelter": "yes"
  }
},
{
  "type": "node",
  "id": 4840101621,
  "lat": -21.3142154,
  "lon": 55.5428115,
  "tags": {
    "bus": "yes",
    "highway": "bus_stop",
    "name": "Marie Annexe Mont-Vert",
    "operator": "Car Jaune",
    "public_transport": "platform",
    "ref": "94430"
  }
},
{
  "type": "node",
  "id": 4840101622,
  "lat": -21.3140229,
  "lon": 55.5427122,
  "tags": {
    "bus": "yes",
    "highway": "bus_stop",
    "name": "Marie Annexe Mont-Vert",
    "operator": "Car Jaune",
    "public_transport": "platform",
    "ref": "4430"
  }
},
{
  "type": "node",
  "id": 4974176155,
  "lat": -21.3054742,
  "lon": 55.4962035,
  "tags": {
    "bus": "yes",
    "highway": "bus_stop",
    "name": "Ancienne RN 3",
    "public_transport": "platform"
  }
},
{
  "type": "node",
  "id": 4974176156,
  "lat": -21.3063234,
  "lon": 55.4974506,
  "tags": {
    "bus": "yes",
    "highway": "bus_stop",
    "name": "Ancienne RN 3",
    "public_transport": "platform"
  }
},
{
  "type": "node",
  "id": 4974176162,
  "lat": -21.3249058,
  "lon": 55.4861800,
  "tags": {
    "bus": "yes",
    "highway": "bus_stop",
    "name": "Balance",
    "public_transport": "platform"
  }
},
{
  "type": "node",
  "id": 4974176163,
  "lat": -21.3247359,
  "lon": 55.4865394,
  "tags": {
    "bus": "yes",
    "highway": "bus_stop",
    "name": "Balance",
    "public_transport": "platform",
    "shelter": "no"
  }
},
{
  "type": "node",
  "id": 4974176164,
  "lat": -21.3263387,
  "lon": 55.4844620,
  "tags": {
    "bus": "yes",
    "highway": "bus_stop",
    "name": "Chambre des Métiers",
    "public_transport": "platform"
  }
},
{
  "type": "node",
  "id": 4974176166,
  "lat": -21.3266198,
  "lon": 55.4841945,
  "tags": {
    "bus": "yes",
    "highway": "bus_stop",
    "name": "Chambre des Métiers",
    "public_transport": "platform"
  }
},
{
  "type": "node",
  "id": 4974176167,
  "lat": -21.3294568,
  "lon": 55.4804910,
  "tags": {
    "bus": "yes",
    "highway": "bus_stop",
    "name": "Stade des Casernes",
    "public_transport": "platform"
  }
},
{
  "type": "node",
  "id": 4974176168,
  "lat": -21.3294363,
  "lon": 55.4803382,
  "tags": {
    "bus": "yes",
    "highway": "bus_stop",
    "name": "Stade des Casernes",
    "public_transport": "platform"
  }
},
{
  "type": "node",
  "id": 4974176170,
  "lat": -21.3307799,
  "lon": 55.4790890,
  "tags": {
    "bus": "yes",
    "highway": "bus_stop",
    "name": "Casernes",
    "public_transport": "platform"
  }
},
{
  "type": "node",
  "id": 4974176186,
  "lat": -21.3330494,
  "lon": 55.4790299,
  "tags": {
    "bus": "yes",
    "highway": "bus_stop",
    "name": "Rond Point des Casernes",
    "public_transport": "platform"
  }
},
{
  "type": "node",
  "id": 4974176188,
  "lat": -21.3327677,
  "lon": 55.4790165,
  "tags": {
    "bus": "yes",
    "highway": "bus_stop",
    "name": "Rond Point des Casernes",
    "public_transport": "platform"
  }
},
{
  "type": "node",
  "id": 4974176190,
  "lat": -21.3343935,
  "lon": 55.4798125,
  "tags": {
    "bus": "yes",
    "highway": "bus_stop",
    "name": "DDASS",
    "public_transport": "platform"
  }
},
{
  "type": "node",
  "id": 4974176192,
  "lat": -21.3355696,
  "lon": 55.4794222,
  "tags": {
    "bus": "yes",
    "highway": "bus_stop",
    "name": "Conseil Général",
    "public_transport": "platform"
  }
},
{
  "type": "node",
  "id": 4974176195,
  "lat": -21.3373831,
  "lon": 55.4788305,
  "tags": {
    "bus": "yes",
    "highway": "bus_stop",
    "name": "Tribunal",
    "public_transport": "platform"
  }
},
{
  "type": "node",
  "id": 4974176197,
  "lat": -21.3386679,
  "lon": 55.4779433,
  "tags": {
    "bus": "yes",
    "highway": "bus_stop",
    "name": "Sous Préfecture",
    "public_transport": "platform"
  }
},
{
  "type": "node",
  "id": 4974176199,
  "lat": -21.3360315,
  "lon": 55.4769536,
  "tags": {
    "bus": "yes",
    "highway": "bus_stop",
    "name": "Sous Préfecture",
    "public_transport": "platform"
  }
},
{
  "type": "node",
  "id": 4974176201,
  "lat": -21.3380077,
  "lon": 55.4756346,
  "tags": {
    "bus": "yes",
    "highway": "bus_stop",
    "name": "La Providence",
    "public_transport": "platform"
  }
},
{
  "type": "node",
  "id": 4974176203,
  "lat": -21.3372206,
  "lon": 55.4729265,
  "tags": {
    "bus": "yes",
    "highway": "bus_stop",
    "name": "CGSS",
    "public_transport": "platform"
  }
},
{
  "type": "node",
  "id": 4974176205,
  "lat": -21.3367471,
  "lon": 55.4712951,
  "tags": {
    "bus": "yes",
    "highway": "bus_stop",
    "name": "Rue Marius et Ary Leblond",
    "public_transport": "platform"
  }
},
{
  "type": "node",
  "id": 4974176206,
  "lat": -21.3372944,
  "lon": 55.4701625,
  "tags": {
    "bus": "yes",
    "highway": "bus_stop",
    "name": "Luc Lorion",
    "public_transport": "platform"
  }
},
{
  "type": "node",
  "id": 4974176208,
  "lat": -21.3372767,
  "lon": 55.4700888,
  "tags": {
    "bus": "yes",
    "highway": "bus_stop",
    "name": "Luc Lorion",
    "public_transport": "platform"
  }
},
{
  "type": "node",
  "id": 4974176210,
  "lat": -21.3385948,
  "lon": 55.4699863,
  "tags": {
    "bus": "yes",
    "highway": "bus_stop",
    "name": "Raymond Chane",
    "network": "AlterNeo",
    "public_transport": "platform",
    "shelter": "yes"
  }
},
{
  "type": "node",
  "id": 4974176212,
  "lat": -21.3392518,
  "lon": 55.4722338,
  "tags": {
    "bus": "yes",
    "highway": "bus_stop",
    "name": "La Poste",
    "public_transport": "platform"
  }
},
{
  "type": "node",
  "id": 4983457552,
  "lat": -21.2930129,
  "lon": 55.5106213,
  "tags": {
    "highway": "bus_stop",
    "source": "Kaart Ground Survey 2017"
  }
},
{
  "type": "node",
  "id": 4983546918,
  "lat": -21.2882747,
  "lon": 55.5103251,
  "tags": {
    "highway": "bus_stop",
    "source": "Kaart Ground Survey 2017"
  }
},
{
  "type": "node",
  "id": 4983752560,
  "lat": -21.2893949,
  "lon": 55.5077649,
  "tags": {
    "highway": "bus_stop",
    "source": "Kaart Ground Survey 2017"
  }
},
{
  "type": "node",
  "id": 4985120903,
  "lat": -21.2964885,
  "lon": 55.5044934,
  "tags": {
    "highway": "bus_stop",
    "source": "Kaart Ground Survey 2017"
  }
},
{
  "type": "node",
  "id": 4985120904,
  "lat": -21.2965984,
  "lon": 55.5045417,
  "tags": {
    "highway": "bus_stop",
    "source": "Kaart Ground Survey 2017"
  }
},
{
  "type": "node",
  "id": 4985120906,
  "lat": -21.3011644,
  "lon": 55.5015568,
  "tags": {
    "highway": "bus_stop",
    "source": "Kaart Ground Survey 2017"
  }
},
{
  "type": "node",
  "id": 4985120907,
  "lat": -21.3012196,
  "lon": 55.5017164,
  "tags": {
    "highway": "bus_stop",
    "source": "Kaart Ground Survey 2017"
  }
},
{
  "type": "node",
  "id": 4985150535,
  "lat": -21.3233983,
  "lon": 55.4850687,
  "tags": {
    "highway": "bus_stop",
    "source": "Kaart Ground Survey 2017"
  }
},
{
  "type": "node",
  "id": 4985162704,
  "lat": -21.3236634,
  "lon": 55.4811025,
  "tags": {
    "highway": "bus_stop",
    "source": "Kaart Ground Survey 2017"
  }
},
{
  "type": "node",
  "id": 4985162705,
  "lat": -21.3238381,
  "lon": 55.4811256,
  "tags": {
    "highway": "bus_stop",
    "source": "Kaart Ground Survey 2017"
  }
},
{
  "type": "node",
  "id": 4985248905,
  "lat": -21.3296796,
  "lon": 55.4789985,
  "tags": {
    "highway": "bus_stop",
    "source": "Kaart Ground Survey 2017"
  }
},
{
  "type": "node",
  "id": 4985403438,
  "lat": -21.3344949,
  "lon": 55.4600907,
  "tags": {
    "highway": "bus_stop",
    "source": "Kaart Ground Survey 2017"
  }
},
{
  "type": "node",
  "id": 4985418711,
  "lat": -21.3384282,
  "lon": 55.4673182,
  "tags": {
    "bus": "yes",
    "highway": "bus_stop",
    "public_transport": "platform",
    "source": "Kaart Ground Survey 2017"
  }
},
{
  "type": "node",
  "id": 4985435340,
  "lat": -21.3315700,
  "lon": 55.4778549,
  "tags": {
    "highway": "bus_stop",
    "source": "Kaart Ground Survey 2017"
  }
},
{
  "type": "node",
  "id": 4985457969,
  "lat": -21.3352190,
  "lon": 55.4707175,
  "tags": {
    "highway": "bus_stop",
    "source": "Kaart Ground Survey 2017"
  }
},
{
  "type": "node",
  "id": 4985480411,
  "lat": -21.3345811,
  "lon": 55.4599050,
  "tags": {
    "highway": "bus_stop",
    "source": "Kaart Ground Survey 2017"
  }
},
{
  "type": "node",
  "id": 4985480419,
  "lat": -21.3372445,
  "lon": 55.4595595,
  "tags": {
    "bus": "yes",
    "highway": "bus_stop",
    "public_transport": "platform",
    "source": "Kaart Ground Survey 2017"
  }
},
{
  "type": "node",
  "id": 4985489158,
  "lat": -21.3384432,
  "lon": 55.4672061,
  "tags": {
    "bus": "yes",
    "highway": "bus_stop",
    "public_transport": "platform",
    "source": "Kaart Ground Survey 2017"
  }
},
{
  "type": "node",
  "id": 4985499988,
  "lat": -21.3389994,
  "lon": 55.4629301,
  "tags": {
    "bus": "yes",
    "highway": "bus_stop",
    "public_transport": "platform",
    "source": "Kaart Ground Survey 2017"
  }
},
{
  "type": "node",
  "id": 4985593125,
  "lat": -21.3390235,
  "lon": 55.4587722,
  "tags": {
    "bus": "yes",
    "highway": "bus_stop",
    "public_transport": "platform",
    "source": "Kaart Ground Survey 2017"
  }
},
{
  "type": "node",
  "id": 4985593126,
  "lat": -21.3373533,
  "lon": 55.4576390,
  "tags": {
    "bus": "yes",
    "highway": "bus_stop",
    "public_transport": "platform",
    "source": "Kaart Ground Survey 2017"
  }
},
{
  "type": "node",
  "id": 4985610099,
  "lat": -21.3393000,
  "lon": 55.4593628,
  "tags": {
    "bus": "yes",
    "highway": "bus_stop",
    "public_transport": "platform",
    "source": "Kaart Ground Survey 2017"
  }
},
{
  "type": "node",
  "id": 4985661800,
  "lat": -21.3428329,
  "lon": 55.4682799,
  "tags": {
    "bus": "yes",
    "highway": "bus_stop",
    "public_transport": "platform",
    "source": "Kaart Ground Survey 2017"
  }
},
{
  "type": "node",
  "id": 4985661806,
  "lat": -21.3399965,
  "lon": 55.4692479,
  "tags": {
    "bus": "yes",
    "highway": "bus_stop",
    "public_transport": "platform",
    "source": "Kaart Ground Survey 2017"
  }
},
{
  "type": "node",
  "id": 4985742408,
  "lat": -21.3431125,
  "lon": 55.4667292,
  "tags": {
    "bus": "yes",
    "highway": "bus_stop",
    "public_transport": "platform",
    "source": "Kaart Ground Survey 2017"
  }
},
{
  "type": "node",
  "id": 5101274125,
  "lat": -21.3435050,
  "lon": 55.4752594,
  "tags": {
    "bench": "no",
    "bus": "yes",
    "flickr": "https://www.flickr.com/photos/145224554@N02/36374726753/",
    "highway": "bus_stop",
    "name": "Port",
    "public_transport": "platform",
    "shelter": "no",
    "wheelchair": "yes"
  }
},
{
  "type": "node",
  "id": 5101274126,
  "lat": -21.3436813,
  "lon": 55.4766904,
  "tags": {
    "bench": "yes",
    "bus": "yes",
    "highway": "bus_stop",
    "name": "Port",
    "public_transport": "platform",
    "shelter": "yes",
    "wheelchair": "yes"
  }
},
{
  "type": "node",
  "id": 5601384021,
  "lat": -21.2855091,
  "lon": 55.4701895,
  "tags": {
    "bus": "yes",
    "highway": "bus_stop",
    "public_transport": "platform"
  }
},
{
  "type": "node",
  "id": 5603583525,
  "lat": -21.3172724,
  "lon": 55.4794678,
  "tags": {
    "highway": "bus_stop",
    "name": "Luspot"
  }
},
{
  "type": "node",
  "id": 5603583526,
  "lat": -21.3217492,
  "lon": 55.4838724,
  "tags": {
    "highway": "bus_stop"
  }
},
{
  "type": "node",
  "id": 5603583527,
  "lat": -21.3215472,
  "lon": 55.4834576,
  "tags": {
    "highway": "bus_stop"
  }
},
{
  "type": "node",
  "id": 5603590221,
  "lat": -21.3173562,
  "lon": 55.4794481,
  "tags": {
    "highway": "bus_stop",
    "name": "Luspot"
  }
},
{
  "type": "node",
  "id": 5606244023,
  "lat": -21.2919765,
  "lon": 55.4709471,
  "tags": {
    "bus": "yes",
    "highway": "bus_stop",
    "public_transport": "platform"
  }
},
{
  "type": "node",
  "id": 6332978485,
  "lat": -21.3351198,
  "lon": 55.4782697,
  "tags": {
    "highway": "bus_stop",
    "name": "Aloés"
  }
},
{
  "type": "node",
  "id": 6437503285,
  "lat": -21.3319640,
  "lon": 55.5352499,
  "tags": {
    "highway": "bus_stop",
    "name": "Chemin Grosset",
    "operator": "Alternéo"
  }
},
{
  "type": "node",
  "id": 6712195283,
  "lat": -21.3097123,
  "lon": 55.4699167,
  "tags": {
    "bench": "no",
    "bus": "yes",
    "highway": "bus_stop",
    "name": "Chemin Rouania",
    "passenger_information_display": "yes",
    "public_transport": "platform",
    "shelter": "no",
    "wheelchair": "yes"
  }
},
{
  "type": "node",
  "id": 6712195284,
  "lat": -21.3098794,
  "lon": 55.4700981,
  "tags": {
    "bench": "yes",
    "bus": "yes",
    "highway": "bus_stop",
    "name": "Chemin Rouania",
    "passenger_information_display": "yes",
    "public_transport": "platform",
    "shelter": "yes",
    "wheelchair": "yes"
  }
},
{
  "type": "node",
  "id": 6742563163,
  "lat": -21.3079620,
  "lon": 55.4669557,
  "tags": {
    "bench": "yes",
    "bus": "yes",
    "covered": "yes",
    "highway": "bus_stop",
    "name": "Ligne Paradis",
    "passenger_information_display": "yes",
    "public_transport": "platform",
    "shelter": "yes",
    "wheelchair": "yes"
  }
},
{
  "type": "node",
  "id": 6742563164,
  "lat": -21.3079227,
  "lon": 55.4669433,
  "tags": {
    "bench": "no",
    "bus": "yes",
    "highway": "bus_stop",
    "name": "Ligne Paradis",
    "passenger_information_display": "yes",
    "public_transport": "platform",
    "shelter": "no",
    "wheelchair": "yes"
  }
},
{
  "type": "node",
  "id": 6742563166,
  "lat": -21.3088326,
  "lon": 55.4684045,
  "tags": {
    "bench": "no",
    "bus": "yes",
    "highway": "bus_stop",
    "name": "Frédeline",
    "passenger_information_display": "yes",
    "public_transport": "platform",
    "shelter": "no",
    "wheelchair": "yes"
  }
},
{
  "type": "node",
  "id": 6742563167,
  "lat": -21.3087755,
  "lon": 55.4683787,
  "tags": {
    "bench": "no",
    "bus": "yes",
    "highway": "bus_stop",
    "name": "Frédeline",
    "passenger_information_display": "yes",
    "public_transport": "platform",
    "shelter": "no",
    "wheelchair": "yes"
  }
},
{
  "type": "node",
  "id": 7152117566,
  "lat": -21.3394088,
  "lon": 55.4725612,
  "tags": {
    "bus": "yes",
    "highway": "bus_stop",
    "name": "La Poste",
    "network": "AlterNeo",
    "public_transport": "platform",
    "shelter": "no"
  }
},
{
  "type": "node",
  "id": 7152117568,
  "lat": -21.3386785,
  "lon": 55.4700178,
  "tags": {
    "bus": "yes",
    "highway": "bus_stop",
    "name": "Raymond Chane",
    "network": "AlterNeo",
    "public_transport": "platform",
    "shelter": "yes"
  }
},
{
  "type": "node",
  "id": 7272532619,
  "lat": 46.5799024,
  "lon": 5.9297187,
  "tags": {
    "bus": "yes",
    "highway": "bus_stop",
    "name": "Saint-Pierre RD678",
    "public_transport": "platform"
  }
},
{
  "type": "node",
  "id": 7272532620,
  "lat": 46.5798835,
  "lon": 5.9293617,
  "tags": {
    "bus": "yes",
    "highway": "bus_stop",
    "name": "Saint-Pierre RD678",
    "public_transport": "platform"
  }
},
{
  "type": "node",
  "id": 7632896783,
  "lat": -21.3370222,
  "lon": 55.4885118,
  "tags": {
    "bus": "yes",
    "departures_board": "yes",
    "highway": "bus_stop",
    "name": "Mas Fleuri",
    "operator": "Alterneo",
    "public_transport": "platform",
    "shelter": "yes",
    "source": "survey"
  }
},
{
  "type": "node",
  "id": 7632978120,
  "lat": -21.3368692,
  "lon": 55.4884441,
  "tags": {
    "bus": "yes",
    "departures_board": "yes",
    "highway": "bus_stop",
    "name": "Mas Fleuri",
    "operator": "Alterneo",
    "public_transport": "platform",
    "shelter": "yes",
    "source": "survey"
  }
},
{
  "type": "node",
  "id": 9360674817,
  "lat": -21.3450878,
  "lon": 55.4802005,
  "tags": {
    "highway": "bus_stop",
    "name": "Amiral Lacaze ligne Kvi2"
  }
},
{
  "type": "node",
  "id": 9382030553,
  "lat": -21.3014628,
  "lon": 55.4927599,
  "tags": {
    "highway": "bus_stop",
    "name": "Ligne 1 Chemin Reboul"
  }
},
{
  "type": "node",
  "id": 9401744932,
  "lat": -21.3116574,
  "lon": 55.4729003,
  "tags": {
    "highway": "bus_stop",
    "name": "Ester"
  }
},
{
  "type": "node",
  "id": 9401751517,
  "lat": -21.3117146,
  "lon": 55.4728537,
  "tags": {
    "highway": "bus_stop",
    "name": "Ester"
  }
},
{
  "type": "node",
  "id": 9407302937,
  "lat": -21.3412131,
  "lon": 55.4660995,
  "tags": {
    "description": "ligne Kvi2 en direction de rue des Tisserins\nligne 11 en direction de Grand Anse",
    "highway": "bus_stop",
    "name": "Centre pénitencier"
  }
},
{
  "type": "node",
  "id": 9409597423,
  "lat": -21.3317123,
  "lon": 55.4776021,
  "tags": {
    "highway": "bus_stop",
    "name": "Boulevard Bank"
  }
}

  ]
}
