{
  "version": 0.6,
  "generator": "Overpass API 0.7.57.1 74a55df1",
  "osm3s": {
    "timestamp_osm_base": "2022-02-13T13:18:30Z",
    "timestamp_areas_base": "2022-02-13T02:36:10Z",
    "copyright": "The data included in this document is from www.openstreetmap.org. The data is made available under ODbL."
  },
  "elements": [

{
  "type": "way",
  "id": 44427201,
  "nodes": [
    1744515850,
    6084770484,
    6084770785,
    6084770786,
    6084770787,
    6084770790,
    6084770791,
    6084770792,
    6084770793,
    6084770794,
    6084770795,
    1363278598,
    1363278591,
    6084770798,
    6084770797,
    6084770799,
    5586618492,
    6084770800,
    1363278590,
    6084770801,
    6084770802,
    671171892,
    6084767480,
    6049205204,
    6084770806,
    6084770805,
    6049205205,
    6084770804,
    6084770803,
    2751547410,
    6084770412
  ],
  "tags": {
    "access": "no",
    "foot": "no",
    "highway": "cycleway",
    "note": "Cyclway blocked by roadworks 13/01/2010. Set to no access to prevent routing using the cycleway.",
    "source": "survey",
    "surface": "asphalt"
  }
},
{
  "type": "way",
  "id": 44446827,
  "nodes": [
    7537957837,
    564904120,
    564904119,
    564904117
  ],
  "tags": {
    "description:covid19": "bretelle fermée remplacée par une piste cyclable temporaire",
    "highway": "cycleway",
    "lanes": "1",
    "surface": "asphalt",
    "was:highway": "unclassified",
    "was:oneway": "yes"
  }
},
{
  "type": "way",
  "id": 44781639,
  "nodes": [
    1188299790,
    3218753561,
    593960870,
    567899007,
    1525626229,
    1525626226,
    1525626213,
    1525626218,
    1525626234,
    567899009,
    567898992,
    567899015,
    567899012
  ],
  "tags": {
    "highway": "cycleway",
    "lit": "yes",
    "name": "Rue de Strasbourg",
    "source": "Microsoft Bing satellite 2012",
    "surface": "asphalt"
  }
},
{
  "type": "way",
  "id": 159478453,
  "nodes": [
    7425277087,
    4442204335,
    2747604406,
    1715909663,
    1715909662,
    1715909661,
    1715909660,
    1715909657,
    1514395292
  ],
  "tags": {
    "highway": "cycleway",
    "oneway": "yes",
    "source": "survey"
  }
},
{
  "type": "way",
  "id": 183432234,
  "nodes": [
    205488622,
    1938031260,
    7994868376,
    5586618505,
    1938031265,
    6064806184,
    1938031297,
    1938031301,
    7994936721,
    1938031307,
    6064806180,
    7994936714,
    1938031328,
    1938031337,
    1616972604
  ],
  "tags": {
    "highway": "cycleway",
    "oneway": "yes"
  }
},
{
  "type": "way",
  "id": 306377385,
  "nodes": [
    7970080623,
    7554305245,
    7970080614,
    7970080607,
    7554305244,
    2605326494,
    7970080621
  ],
  "tags": {
    "highway": "cycleway",
    "oneway": "yes",
    "surface": "asphalt"
  }
},
{
  "type": "way",
  "id": 483025045,
  "nodes": [
    4757813134,
    4757813131,
    3588429232,
    5073068907,
    4757813133,
    4757813132
  ],
  "tags": {
    "highway": "cycleway",
    "lit": "yes",
    "name": "Boulevard de la Paix",
    "oneway": "yes",
    "surface": "asphalt"
  }
},
{
  "type": "way",
  "id": 568295302,
  "nodes": [
    5026422718,
    5467573828,
    5026422095,
    5026422873
  ],
  "tags": {
    "highway": "cycleway",
    "lit": "yes",
    "surface": "asphalt",
    "width": "2"
  }
},
{
  "type": "way",
  "id": 584435545,
  "nodes": [
    7994936725,
    5586618503,
    5586618504,
    7994936724,
    5586618505
  ],
  "tags": {
    "cycleway": "crossing",
    "highway": "cycleway",
    "lit": "yes",
    "oneway": "yes",
    "surface": "asphalt"
  }
},
{
  "type": "way",
  "id": 584435549,
  "nodes": [
    1516882111,
    4590972160,
    1516882039,
    1516882034,
    1516882131,
    4590607049,
    4590607053,
    1516882031,
    1516882026,
    1516882122
  ],
  "tags": {
    "highway": "cycleway",
    "surface": "asphalt"
  }
},
{
  "type": "way",
  "id": 643063748,
  "nodes": [
    529915747,
    6052464869,
    6052464868,
    6052464867,
    6052464866,
    6052464865,
    6052464860,
    6052464859
  ],
  "tags": {
    "bicycle": "yes",
    "description:covid19": "piste cyclable temporaire",
    "highway": "cycleway",
    "layer": "2",
    "oneway": "no",
    "was:highway": "service",
    "was:oneway": "yes"
  }
},
{
  "type": "way",
  "id": 645068481,
  "nodes": [
    6064806296,
    6064806295,
    6064806294,
    6064806293,
    6064806292,
    6064806291,
    6064806290,
    6064806289,
    6064806288,
    6064806287,
    7994936720,
    6064806286,
    6064807508
  ],
  "tags": {
    "highway": "cycleway",
    "oneway": "yes",
    "segregated": "yes",
    "smoothness": "excellent",
    "surface": "asphalt"
  }
},
{
  "type": "way",
  "id": 750055108,
  "nodes": [
    205420314,
    7970080619,
    6064806171
  ],
  "tags": {
    "highway": "cycleway",
    "oneway": "yes",
    "surface": "asphalt",
    "width": "1"
  }
},
{
  "type": "way",
  "id": 750055328,
  "nodes": [
    6064806173,
    7970152520,
    7013734118,
    7013734117,
    6064806138,
    1667187335
  ],
  "tags": {
    "highway": "cycleway",
    "oneway": "yes",
    "surface": "asphalt",
    "width": "2"
  }
},
{
  "type": "way",
  "id": 750056151,
  "nodes": [
    1342102907,
    7013716647,
    7013716648,
    7013716649,
    7013716650,
    7013716651,
    6064806330
  ],
  "tags": {
    "highway": "cycleway",
    "surface": "asphalt",
    "width": "2"
  }
},
{
  "type": "way",
  "id": 750056336,
  "nodes": [
    7013716651,
    6064806296
  ],
  "tags": {
    "highway": "cycleway",
    "surface": "asphalt",
    "width": "2"
  }
},
{
  "type": "way",
  "id": 801408799,
  "nodes": [
    7495332863,
    8388564039,
    8388564040,
    8388564041,
    8388564042,
    6056842363,
    8388564043,
    8388564044,
    8388564045,
    8388564046,
    8388564047,
    8388564048,
    8388564049,
    8388564050,
    8388564051,
    8388564052,
    8388564053,
    8388564054,
    6056842372,
    1363278500,
    6054946565
  ],
  "tags": {
    "highway": "cycleway",
    "oneway": "no",
    "start_date": "2021-02-02",
    "surface": "asphalt",
    "temporary": "no"
  }
},
{
  "type": "way",
  "id": 806057387,
  "nodes": [
    7495332859,
    7495332860,
    7495332861,
    7495332862,
    7495332863
  ],
  "tags": {
    "bridge": "yes",
    "description:covid19": "piste cyclable temporaire",
    "highway": "cycleway",
    "layer": "1",
    "oneway": "no",
    "surface": "asphalt",
    "temporary": "yes"
  }
},
{
  "type": "way",
  "id": 806057391,
  "nodes": [
    7495332862,
    7537831474,
    7537831473
  ],
  "tags": {
    "bridge": "yes",
    "description:covid19": "piste cyclable temporaire",
    "highway": "cycleway",
    "layer": "1",
    "oneway": "no",
    "temporary": "yes"
  }
},
{
  "type": "way",
  "id": 806064282,
  "nodes": [
    8364980621,
    8364980617,
    8364980619,
    8364980618,
    8364980620,
    7537957853,
    7537957852,
    7537957851,
    7537957850,
    7537957849,
    7537957848,
    568063269,
    7537957847,
    7537957846,
    7537957834,
    7537957845,
    7537957844,
    7537957843,
    7537957842
  ],
  "tags": {
    "description:covid19": "piste cyclable temporaire",
    "highway": "cycleway",
    "layer": "2",
    "oneway": "no",
    "ref": "D 106",
    "source": "survey",
    "surface": "asphalt",
    "temporary": "yes"
  }
},
{
  "type": "way",
  "id": 806181211,
  "nodes": [
    7537957840,
    7537957839,
    7537957838,
    7537957837
  ],
  "tags": {
    "description:covid19": "piste cyclable temporaire",
    "highway": "cycleway",
    "oneway": "no",
    "ref": "D 106",
    "source": "survey",
    "surface": "asphalt",
    "temporary": "yes"
  }
},
{
  "type": "way",
  "id": 807632587,
  "nodes": [
    7537957842,
    4171193198,
    7537957841,
    7537957840
  ],
  "tags": {
    "description:covid19": "piste cyclable temporaire",
    "highway": "cycleway",
    "layer": "2",
    "oneway": "no",
    "ref": "D 106",
    "source": "survey",
    "surface": "asphalt",
    "temporary": "yes"
  }
},
{
  "type": "way",
  "id": 816444219,
  "nodes": [
    7994868379,
    1516882119,
    4590607017,
    4590607023,
    1516881998,
    1516882064
  ],
  "tags": {
    "highway": "cycleway",
    "surface": "asphalt"
  }
},
{
  "type": "way",
  "id": 816444220,
  "nodes": [
    5549774345,
    8334586371,
    4590606838,
    8334586370,
    1188299775,
    568063153,
    8334586369,
    4590606854,
    4590606856,
    4590606857,
    4590606858,
    4590606859,
    4590606860,
    564733190,
    564733189,
    1188300189,
    1188300204,
    4590606889,
    4590606903,
    4590606984,
    7994868378
  ],
  "tags": {
    "highway": "cycleway",
    "surface": "asphalt"
  }
},
{
  "type": "way",
  "id": 853351993,
  "nodes": [
    7960055877,
    7960055876,
    7960055875
  ],
  "tags": {
    "foot": "no",
    "highway": "cycleway",
    "lit": "yes",
    "smoothness": "excellent",
    "start_date": "2021-01-26",
    "surface": "asphalt"
  }
},
{
  "type": "way",
  "id": 853351994,
  "nodes": [
    7960055874,
    7960055873,
    7960055872
  ],
  "tags": {
    "foot": "no",
    "highway": "cycleway",
    "lit": "yes",
    "smoothness": "excellent",
    "start_date": "2021-01-26",
    "surface": "asphalt"
  }
},
{
  "type": "way",
  "id": 854642658,
  "nodes": [
    7969755074,
    4597747080,
    7969755073
  ],
  "tags": {
    "cycleway": "crossing",
    "highway": "cycleway",
    "lit": "yes",
    "oneway": "yes",
    "surface": "asphalt"
  }
},
{
  "type": "way",
  "id": 854642659,
  "nodes": [
    1616972618,
    7970080603,
    4597747023,
    7970080609,
    4597747025,
    4597747029,
    7970080594,
    7970080589,
    7970080625,
    7970080587,
    7969755074
  ],
  "tags": {
    "highway": "cycleway",
    "lit": "yes",
    "oneway": "yes",
    "surface": "asphalt"
  }
},
{
  "type": "way",
  "id": 854642668,
  "nodes": [
    7970080614,
    7970080613,
    7970080612
  ],
  "tags": {
    "cycleway": "crossing",
    "highway": "cycleway",
    "lit": "yes",
    "surface": "asphalt"
  }
},
{
  "type": "way",
  "id": 854642670,
  "nodes": [
    6064806173,
    7970080618,
    6064806161,
    6064806160,
    6064806172,
    6064806296
  ],
  "tags": {
    "cycleway": "crossing",
    "highway": "cycleway",
    "oneway": "yes",
    "smoothness": "excellent",
    "surface": "asphalt"
  }
},
{
  "type": "way",
  "id": 854642671,
  "nodes": [
    6064806165,
    6064806166,
    6064806168,
    6064806170,
    6064806171,
    6064806173
  ],
  "tags": {
    "highway": "cycleway",
    "oneway": "yes",
    "smoothness": "excellent",
    "surface": "asphalt"
  }
},
{
  "type": "way",
  "id": 854642672,
  "nodes": [
    7970080620,
    4597747018,
    7970080599,
    2605326489,
    2605326496,
    7970152523,
    6064806165
  ],
  "tags": {
    "bicycle": "designated",
    "highway": "cycleway",
    "oneway": "yes",
    "surface": "asphalt"
  }
},
{
  "type": "way",
  "id": 854642673,
  "nodes": [
    7970080621,
    2605326495,
    7970080620
  ],
  "tags": {
    "cycleway": "crossing",
    "highway": "cycleway",
    "oneway": "yes",
    "surface": "asphalt"
  }
},
{
  "type": "way",
  "id": 854642674,
  "nodes": [
    7970080624,
    7970080622,
    7970080623
  ],
  "tags": {
    "cycleway": "crossing",
    "highway": "cycleway",
    "lit": "yes",
    "oneway": "yes",
    "surface": "asphalt"
  }
},
{
  "type": "way",
  "id": 854642675,
  "nodes": [
    7970080627,
    2605326491,
    7970080591,
    7970080624
  ],
  "tags": {
    "highway": "cycleway",
    "lit": "yes",
    "oneway": "yes",
    "surface": "asphalt"
  }
},
{
  "type": "way",
  "id": 854642676,
  "nodes": [
    7970080625,
    7970080626
  ],
  "tags": {
    "highway": "cycleway",
    "lit": "yes",
    "oneway": "yes",
    "surface": "asphalt"
  }
},
{
  "type": "way",
  "id": 854642677,
  "nodes": [
    7970080628,
    2605326488,
    7970080627
  ],
  "tags": {
    "cycleway": "crossing",
    "highway": "cycleway",
    "oneway": "yes",
    "surface": "asphalt"
  }
},
{
  "type": "way",
  "id": 857517434,
  "nodes": [
    566564402,
    7994868379
  ],
  "tags": {
    "cycleway": "crossing",
    "highway": "cycleway",
    "surface": "asphalt"
  }
},
{
  "type": "way",
  "id": 857517435,
  "nodes": [
    7994868378,
    566564402
  ],
  "tags": {
    "cycleway": "crossing",
    "highway": "cycleway",
    "surface": "asphalt"
  }
},
{
  "type": "way",
  "id": 857517436,
  "nodes": [
    4590607026,
    4590607025,
    1516882111
  ],
  "tags": {
    "cycleway": "crossing",
    "highway": "cycleway",
    "surface": "asphalt"
  }
},
{
  "type": "way",
  "id": 857517437,
  "nodes": [
    1516882064,
    1516882002,
    1516882093,
    1516882097,
    4590607026
  ],
  "tags": {
    "highway": "cycleway",
    "surface": "asphalt"
  }
},
{
  "type": "way",
  "id": 857517438,
  "nodes": [
    7994868383,
    568063008
  ],
  "tags": {
    "cycleway": "crossing",
    "highway": "cycleway",
    "surface": "asphalt"
  }
},
{
  "type": "way",
  "id": 857517439,
  "nodes": [
    7994936699,
    6776826457,
    7994936698,
    7994936697
  ],
  "tags": {
    "cycleway": "crossing",
    "highway": "cycleway",
    "oneway": "yes"
  }
},
{
  "type": "way",
  "id": 857517440,
  "nodes": [
    7994936685,
    7994868384,
    7994868383
  ],
  "tags": {
    "cycleway": "crossing",
    "highway": "cycleway",
    "oneway": "yes"
  }
},
{
  "type": "way",
  "id": 857517441,
  "nodes": [
    7994936688,
    7994936687,
    7994936686,
    7994936685
  ],
  "tags": {
    "highway": "cycleway",
    "oneway": "yes"
  }
},
{
  "type": "way",
  "id": 857517442,
  "nodes": [
    7994936690,
    7994936689,
    7994936688
  ],
  "tags": {
    "cycleway": "crossing",
    "highway": "cycleway",
    "oneway": "yes"
  }
},
{
  "type": "way",
  "id": 857517444,
  "nodes": [
    7994936697,
    7994936696,
    7994936695,
    7994868382,
    7994936694,
    7994868381,
    7994936693,
    7994936692,
    7994936691,
    7994936690
  ],
  "tags": {
    "highway": "cycleway",
    "oneway": "yes"
  }
},
{
  "type": "way",
  "id": 857517445,
  "nodes": [
    5586618502,
    7994936713,
    7994936712,
    7994936711,
    7994936710,
    7994936709,
    7994936708,
    6776939624
  ],
  "tags": {
    "highway": "cycleway",
    "oneway": "yes"
  }
},
{
  "type": "way",
  "id": 857517446,
  "nodes": [
    6776939624,
    6776939594,
    7994936707,
    7994936706,
    7994936700,
    6776825743,
    7994936705,
    7994936704,
    7994936703,
    7994936702,
    7994936701
  ],
  "tags": {
    "cycleway": "crossing",
    "highway": "cycleway",
    "oneway": "yes"
  }
},
{
  "type": "way",
  "id": 857517447,
  "nodes": [
    7994936720,
    7994936719,
    7994936718,
    7994936717,
    7994936716,
    7994936715,
    7994936714
  ],
  "tags": {
    "cycleway": "crossing",
    "highway": "cycleway",
    "oneway": "yes"
  }
},
{
  "type": "way",
  "id": 857517448,
  "nodes": [
    7994936726,
    5586618502,
    7994936725
  ],
  "tags": {
    "cycleway": "crossing",
    "highway": "cycleway",
    "oneway": "yes",
    "surface": "asphalt"
  }
},
{
  "type": "way",
  "id": 857517449,
  "nodes": [
    6092764170,
    5586618501,
    7994936726
  ],
  "tags": {
    "cycleway": "crossing",
    "highway": "cycleway",
    "lit": "yes",
    "oneway": "yes",
    "surface": "asphalt"
  }
},
{
  "type": "way",
  "id": 857517450,
  "nodes": [
    6064807508,
    6665873365,
    6665873363,
    6665873362,
    6665873361,
    7994936723,
    7994936722,
    6092764170
  ],
  "tags": {
    "highway": "cycleway",
    "oneway": "yes"
  }
},
{
  "type": "way",
  "id": 857887619,
  "nodes": [
    9135774529,
    7997908909,
    7997908908,
    7997908907
  ],
  "tags": {
    "cycleway": "crossing",
    "highway": "cycleway",
    "oneway": "yes"
  }
},
{
  "type": "way",
  "id": 900456016,
  "nodes": [
    8364980633,
    7960055858,
    7960055857,
    8364959504,
    8364959505,
    8364959503,
    7960055856,
    8364959502,
    8364959506,
    8364959501,
    7960055877
  ],
  "tags": {
    "construction": "cycleway",
    "foot": "no",
    "highway": "cycleway",
    "incline": "up",
    "smoothness": "intermediate",
    "start_date": "2021-01-26",
    "surface": "sett"
  }
},
{
  "type": "way",
  "id": 900456017,
  "nodes": [
    6052464859,
    7537957858,
    8364980627,
    8364959512,
    8364980628,
    8364959513,
    8364980629,
    8364980630,
    8364980631,
    8364980632,
    8364980633
  ],
  "tags": {
    "description:covid19": "piste cyclable temporaire",
    "foot": "no",
    "highway": "cycleway",
    "incline": "up",
    "layer": "2",
    "oneway": "no",
    "ref": "D 106",
    "smoothness": "intermediate",
    "source": "survey",
    "surface": "asphalt",
    "temporary": "yes"
  }
},
{
  "type": "way",
  "id": 900456018,
  "nodes": [
    7960055872,
    8364980626,
    8364980625,
    8364980624,
    8364980623,
    8364980622,
    8364980621
  ],
  "tags": {
    "foot": "no",
    "highway": "cycleway",
    "lit": "yes",
    "smoothness": "intermediate",
    "start_date": "2021-01-26",
    "surface": "sett"
  }
},
{
  "type": "way",
  "id": 900456019,
  "nodes": [
    7960055875,
    7960055874
  ],
  "tags": {
    "foot": "no",
    "highway": "cycleway",
    "lit": "yes",
    "smoothness": "intermediate",
    "start_date": "2021-01-26",
    "surface": "sett"
  }
},
{
  "type": "way",
  "id": 917108949,
  "nodes": [
    7970080612,
    7970080611,
    8518191711
  ],
  "tags": {
    "cycleway": "crossing",
    "highway": "cycleway",
    "lit": "yes",
    "surface": "paving_stones"
  }
},
{
  "type": "way",
  "id": 917108950,
  "nodes": [
    8518191711,
    7970080610,
    7970080609
  ],
  "tags": {
    "cycleway": "crossing",
    "highway": "cycleway",
    "lit": "yes",
    "surface": "asphalt"
  }
},
{
  "type": "area",
  "id": 3600091768,
  "tags": {
    "admin_level": "8",
    "boundary": "administrative",
    "name": "Courbevoie",
    "name:el": "Κουρμπεβουά",
    "name:fr": "Courbevoie",
    "name:ja": "クールブヴォア",
    "name:ru": "Курбевуа",
    "population": "81558",
    "population:date": "2019",
    "postal_code": "92400",
    "ref:INSEE": "92026",
    "source": "bing",
    "source:population": "INSEE 2022",
    "type": "boundary",
    "wikidata": "Q189715",
    "wikipedia": "fr:Courbevoie"
  }
},
{
  "type": "node",
  "id": 564733189,
  "lat": 48.8927626,
  "lon": 2.2449900
},
{
  "type": "node",
  "id": 564733190,
  "lat": 48.8925391,
  "lon": 2.2444359
},
{
  "type": "node",
  "id": 568063153,
  "lat": 48.8923691,
  "lon": 2.2445366
},
{
  "type": "node",
  "id": 568063269,
  "lat": 48.8909282,
  "lon": 2.2476909
},
{
  "type": "node",
  "id": 1188299775,
  "lat": 48.8922481,
  "lon": 2.2446528
},
{
  "type": "node",
  "id": 1188300189,
  "lat": 48.8928108,
  "lon": 2.2450224
},
{
  "type": "node",
  "id": 1188300204,
  "lat": 48.8928688,
  "lon": 2.2450162
},
{
  "type": "node",
  "id": 4171193198,
  "lat": 48.8924426,
  "lon": 2.2456360
},
{
  "type": "node",
  "id": 4590606838,
  "lat": 48.8921628,
  "lon": 2.2447371
},
{
  "type": "node",
  "id": 4590606854,
  "lat": 48.8924501,
  "lon": 2.2444588
},
{
  "type": "node",
  "id": 4590606856,
  "lat": 48.8924823,
  "lon": 2.2444279
},
{
  "type": "node",
  "id": 4590606857,
  "lat": 48.8925024,
  "lon": 2.2444063
},
{
  "type": "node",
  "id": 4590606858,
  "lat": 48.8925115,
  "lon": 2.2444013
},
{
  "type": "node",
  "id": 4590606859,
  "lat": 48.8925214,
  "lon": 2.2444030
},
{
  "type": "node",
  "id": 4590606860,
  "lat": 48.8925293,
  "lon": 2.2444144
},
{
  "type": "node",
  "id": 4590606889,
  "lat": 48.8930782,
  "lon": 2.2448670
},
{
  "type": "node",
  "id": 5549774345,
  "lat": 48.8921113,
  "lon": 2.2447899
},
{
  "type": "node",
  "id": 7537957834,
  "lat": 48.8913065,
  "lon": 2.2468918
},
{
  "type": "node",
  "id": 7537957839,
  "lat": 48.8929735,
  "lon": 2.2451511
},
{
  "type": "node",
  "id": 7537957840,
  "lat": 48.8928179,
  "lon": 2.2452939
},
{
  "type": "node",
  "id": 7537957841,
  "lat": 48.8925053,
  "lon": 2.2455667
},
{
  "type": "node",
  "id": 7537957842,
  "lat": 48.8924030,
  "lon": 2.2456839
},
{
  "type": "node",
  "id": 7537957843,
  "lat": 48.8919158,
  "lon": 2.2461529
},
{
  "type": "node",
  "id": 7537957844,
  "lat": 48.8916002,
  "lon": 2.2464868
},
{
  "type": "node",
  "id": 7537957845,
  "lat": 48.8913546,
  "lon": 2.2468154
},
{
  "type": "node",
  "id": 7537957846,
  "lat": 48.8911782,
  "lon": 2.2470957
},
{
  "type": "node",
  "id": 7537957847,
  "lat": 48.8909636,
  "lon": 2.2475870
},
{
  "type": "node",
  "id": 7537957848,
  "lat": 48.8908722,
  "lon": 2.2477971
},
{
  "type": "node",
  "id": 8334586369,
  "lat": 48.8924308,
  "lon": 2.2444773
},
{
  "type": "node",
  "id": 8334586370,
  "lat": 48.8922059,
  "lon": 2.2446938
},
{
  "type": "node",
  "id": 8334586371,
  "lat": 48.8921379,
  "lon": 2.2447626
},
{
  "type": "node",
  "id": 529915747,
  "lat": 48.8883444,
  "lon": 2.2512280
},
{
  "type": "node",
  "id": 567898992,
  "lat": 48.8925221,
  "lon": 2.2499512
},
{
  "type": "node",
  "id": 567899007,
  "lat": 48.8924472,
  "lon": 2.2504671
},
{
  "type": "node",
  "id": 567899009,
  "lat": 48.8924520,
  "lon": 2.2501985
},
{
  "type": "node",
  "id": 567899012,
  "lat": 48.8926014,
  "lon": 2.2496740
},
{
  "type": "node",
  "id": 567899015,
  "lat": 48.8925789,
  "lon": 2.2497560
},
{
  "type": "node",
  "id": 593960870,
  "lat": 48.8930042,
  "lon": 2.2514660
},
{
  "type": "node",
  "id": 671171892,
  "lat": 48.8898722,
  "lon": 2.2504360
},
{
  "type": "node",
  "id": 1363278500,
  "lat": 48.8875109,
  "lon": 2.2529173
},
{
  "type": "node",
  "id": 1363278590,
  "lat": 48.8898529,
  "lon": 2.2505373
},
{
  "type": "node",
  "id": 1363278591,
  "lat": 48.8898644,
  "lon": 2.2506601
},
{
  "type": "node",
  "id": 1363278598,
  "lat": 48.8899002,
  "lon": 2.2507579
},
{
  "type": "node",
  "id": 1525626213,
  "lat": 48.8924173,
  "lon": 2.2503488
},
{
  "type": "node",
  "id": 1525626218,
  "lat": 48.8924218,
  "lon": 2.2503112
},
{
  "type": "node",
  "id": 1525626226,
  "lat": 48.8924225,
  "lon": 2.2503909
},
{
  "type": "node",
  "id": 1525626229,
  "lat": 48.8924293,
  "lon": 2.2504239
},
{
  "type": "node",
  "id": 1525626234,
  "lat": 48.8924345,
  "lon": 2.2502600
},
{
  "type": "node",
  "id": 1744515850,
  "lat": 48.8905766,
  "lon": 2.2513795
},
{
  "type": "node",
  "id": 2751547410,
  "lat": 48.8900037,
  "lon": 2.2499111
},
{
  "type": "node",
  "id": 5586618492,
  "lat": 48.8898519,
  "lon": 2.2506032
},
{
  "type": "node",
  "id": 6049205204,
  "lat": 48.8900046,
  "lon": 2.2500147
},
{
  "type": "node",
  "id": 6049205205,
  "lat": 48.8900134,
  "lon": 2.2499563
},
{
  "type": "node",
  "id": 6052464859,
  "lat": 48.8886118,
  "lon": 2.2509889
},
{
  "type": "node",
  "id": 6052464860,
  "lat": 48.8885818,
  "lon": 2.2510137
},
{
  "type": "node",
  "id": 6052464865,
  "lat": 48.8885567,
  "lon": 2.2510305
},
{
  "type": "node",
  "id": 6052464866,
  "lat": 48.8884791,
  "lon": 2.2510734
},
{
  "type": "node",
  "id": 6052464867,
  "lat": 48.8884570,
  "lon": 2.2510888
},
{
  "type": "node",
  "id": 6052464868,
  "lat": 48.8884403,
  "lon": 2.2511056
},
{
  "type": "node",
  "id": 6052464869,
  "lat": 48.8883874,
  "lon": 2.2511727
},
{
  "type": "node",
  "id": 6054946565,
  "lat": 48.8875584,
  "lon": 2.2525976
},
{
  "type": "node",
  "id": 6056842363,
  "lat": 48.8873525,
  "lon": 2.2529738
},
{
  "type": "node",
  "id": 6056842372,
  "lat": 48.8875047,
  "lon": 2.2529590
},
{
  "type": "node",
  "id": 6084767480,
  "lat": 48.8899464,
  "lon": 2.2501999
},
{
  "type": "node",
  "id": 6084770412,
  "lat": 48.8900008,
  "lon": 2.2499053
},
{
  "type": "node",
  "id": 6084770484,
  "lat": 48.8903132,
  "lon": 2.2511626
},
{
  "type": "node",
  "id": 6084770785,
  "lat": 48.8902991,
  "lon": 2.2511512
},
{
  "type": "node",
  "id": 6084770786,
  "lat": 48.8902841,
  "lon": 2.2511375
},
{
  "type": "node",
  "id": 6084770787,
  "lat": 48.8902663,
  "lon": 2.2511190
},
{
  "type": "node",
  "id": 6084770790,
  "lat": 48.8902107,
  "lon": 2.2510413
},
{
  "type": "node",
  "id": 6084770791,
  "lat": 48.8901858,
  "lon": 2.2510171
},
{
  "type": "node",
  "id": 6084770792,
  "lat": 48.8899843,
  "lon": 2.2508522
},
{
  "type": "node",
  "id": 6084770793,
  "lat": 48.8899578,
  "lon": 2.2508300
},
{
  "type": "node",
  "id": 6084770794,
  "lat": 48.8899336,
  "lon": 2.2508059
},
{
  "type": "node",
  "id": 6084770795,
  "lat": 48.8899168,
  "lon": 2.2507845
},
{
  "type": "node",
  "id": 6084770797,
  "lat": 48.8898557,
  "lon": 2.2506302
},
{
  "type": "node",
  "id": 6084770798,
  "lat": 48.8898590,
  "lon": 2.2506436
},
{
  "type": "node",
  "id": 6084770799,
  "lat": 48.8898539,
  "lon": 2.2506198
},
{
  "type": "node",
  "id": 6084770800,
  "lat": 48.8898514,
  "lon": 2.2505712
},
{
  "type": "node",
  "id": 6084770801,
  "lat": 48.8898573,
  "lon": 2.2505011
},
{
  "type": "node",
  "id": 6084770802,
  "lat": 48.8898642,
  "lon": 2.2504659
},
{
  "type": "node",
  "id": 6084770803,
  "lat": 48.8900097,
  "lon": 2.2499271
},
{
  "type": "node",
  "id": 6084770804,
  "lat": 48.8900127,
  "lon": 2.2499429
},
{
  "type": "node",
  "id": 6084770805,
  "lat": 48.8900125,
  "lon": 2.2499730
},
{
  "type": "node",
  "id": 6084770806,
  "lat": 48.8900099,
  "lon": 2.2499935
},
{
  "type": "node",
  "id": 7495332861,
  "lat": 48.8868777,
  "lon": 2.2543350
},
{
  "type": "node",
  "id": 7495332862,
  "lat": 48.8872456,
  "lon": 2.2531736
},
{
  "type": "node",
  "id": 7495332863,
  "lat": 48.8872992,
  "lon": 2.2530124
},
{
  "type": "node",
  "id": 7537831473,
  "lat": 48.8872806,
  "lon": 2.2531596
},
{
  "type": "node",
  "id": 7537831474,
  "lat": 48.8872603,
  "lon": 2.2531815
},
{
  "type": "node",
  "id": 7537957849,
  "lat": 48.8905650,
  "lon": 2.2485501
},
{
  "type": "node",
  "id": 7537957850,
  "lat": 48.8903410,
  "lon": 2.2490923
},
{
  "type": "node",
  "id": 7537957851,
  "lat": 48.8902510,
  "lon": 2.2493233
},
{
  "type": "node",
  "id": 7537957852,
  "lat": 48.8901033,
  "lon": 2.2496425
},
{
  "type": "node",
  "id": 7537957853,
  "lat": 48.8899788,
  "lon": 2.2498607
},
{
  "type": "node",
  "id": 7537957858,
  "lat": 48.8889326,
  "lon": 2.2508284
},
{
  "type": "node",
  "id": 7960055856,
  "lat": 48.8895840,
  "lon": 2.2504793
},
{
  "type": "node",
  "id": 7960055857,
  "lat": 48.8895628,
  "lon": 2.2504847
},
{
  "type": "node",
  "id": 7960055858,
  "lat": 48.8895108,
  "lon": 2.2504753
},
{
  "type": "node",
  "id": 7960055872,
  "lat": 48.8897247,
  "lon": 2.2503258
},
{
  "type": "node",
  "id": 7960055873,
  "lat": 48.8897037,
  "lon": 2.2503494
},
{
  "type": "node",
  "id": 7960055874,
  "lat": 48.8896805,
  "lon": 2.2503755
},
{
  "type": "node",
  "id": 7960055875,
  "lat": 48.8896528,
  "lon": 2.2504068
},
{
  "type": "node",
  "id": 7960055876,
  "lat": 48.8896293,
  "lon": 2.2504331
},
{
  "type": "node",
  "id": 7960055877,
  "lat": 48.8896020,
  "lon": 2.2504639
},
{
  "type": "node",
  "id": 8364959501,
  "lat": 48.8895977,
  "lon": 2.2504684
},
{
  "type": "node",
  "id": 8364959502,
  "lat": 48.8895893,
  "lon": 2.2504760
},
{
  "type": "node",
  "id": 8364959503,
  "lat": 48.8895788,
  "lon": 2.2504821
},
{
  "type": "node",
  "id": 8364959504,
  "lat": 48.8895680,
  "lon": 2.2504847
},
{
  "type": "node",
  "id": 8364959505,
  "lat": 48.8895737,
  "lon": 2.2504838
},
{
  "type": "node",
  "id": 8364959506,
  "lat": 48.8895936,
  "lon": 2.2504724
},
{
  "type": "node",
  "id": 8364959512,
  "lat": 48.8891361,
  "lon": 2.2507296
},
{
  "type": "node",
  "id": 8364959513,
  "lat": 48.8893324,
  "lon": 2.2505486
},
{
  "type": "node",
  "id": 8364980617,
  "lat": 48.8898057,
  "lon": 2.2501047
},
{
  "type": "node",
  "id": 8364980618,
  "lat": 48.8898121,
  "lon": 2.2500864
},
{
  "type": "node",
  "id": 8364980619,
  "lat": 48.8898083,
  "lon": 2.2500954
},
{
  "type": "node",
  "id": 8364980620,
  "lat": 48.8898164,
  "lon": 2.2500795
},
{
  "type": "node",
  "id": 8364980621,
  "lat": 48.8898037,
  "lon": 2.2501150
},
{
  "type": "node",
  "id": 8364980622,
  "lat": 48.8897947,
  "lon": 2.2502142
},
{
  "type": "node",
  "id": 8364980623,
  "lat": 48.8897921,
  "lon": 2.2502324
},
{
  "type": "node",
  "id": 8364980624,
  "lat": 48.8897876,
  "lon": 2.2502489
},
{
  "type": "node",
  "id": 8364980625,
  "lat": 48.8897805,
  "lon": 2.2502642
},
{
  "type": "node",
  "id": 8364980626,
  "lat": 48.8897723,
  "lon": 2.2502767
},
{
  "type": "node",
  "id": 8364980627,
  "lat": 48.8891217,
  "lon": 2.2507386
},
{
  "type": "node",
  "id": 8364980628,
  "lat": 48.8891516,
  "lon": 2.2507170
},
{
  "type": "node",
  "id": 8364980629,
  "lat": 48.8894085,
  "lon": 2.2504712
},
{
  "type": "node",
  "id": 8364980630,
  "lat": 48.8894167,
  "lon": 2.2504646
},
{
  "type": "node",
  "id": 8364980631,
  "lat": 48.8894246,
  "lon": 2.2504624
},
{
  "type": "node",
  "id": 8364980632,
  "lat": 48.8894349,
  "lon": 2.2504612
},
{
  "type": "node",
  "id": 8364980633,
  "lat": 48.8894417,
  "lon": 2.2504624
},
{
  "type": "node",
  "id": 8388564039,
  "lat": 48.8873062,
  "lon": 2.2530015
},
{
  "type": "node",
  "id": 8388564040,
  "lat": 48.8873111,
  "lon": 2.2529948
},
{
  "type": "node",
  "id": 8388564041,
  "lat": 48.8873165,
  "lon": 2.2529895
},
{
  "type": "node",
  "id": 8388564042,
  "lat": 48.8873238,
  "lon": 2.2529847
},
{
  "type": "node",
  "id": 8388564043,
  "lat": 48.8873723,
  "lon": 2.2529666
},
{
  "type": "node",
  "id": 8388564044,
  "lat": 48.8873908,
  "lon": 2.2529595
},
{
  "type": "node",
  "id": 8388564045,
  "lat": 48.8874130,
  "lon": 2.2529539
},
{
  "type": "node",
  "id": 8388564046,
  "lat": 48.8874298,
  "lon": 2.2529527
},
{
  "type": "node",
  "id": 8388564047,
  "lat": 48.8874465,
  "lon": 2.2529527
},
{
  "type": "node",
  "id": 8388564048,
  "lat": 48.8874627,
  "lon": 2.2529555
},
{
  "type": "node",
  "id": 8388564049,
  "lat": 48.8874778,
  "lon": 2.2529607
},
{
  "type": "node",
  "id": 8388564050,
  "lat": 48.8874921,
  "lon": 2.2529672
},
{
  "type": "node",
  "id": 8388564051,
  "lat": 48.8874957,
  "lon": 2.2529678
},
{
  "type": "node",
  "id": 8388564052,
  "lat": 48.8874989,
  "lon": 2.2529672
},
{
  "type": "node",
  "id": 8388564053,
  "lat": 48.8875012,
  "lon": 2.2529658
},
{
  "type": "node",
  "id": 8388564054,
  "lat": 48.8875033,
  "lon": 2.2529630
},
{
  "type": "node",
  "id": 205420314,
  "lat": 48.8976960,
  "lon": 2.2400179
},
{
  "type": "node",
  "id": 205488622,
  "lat": 48.8953184,
  "lon": 2.2407283
},
{
  "type": "node",
  "id": 568063008,
  "lat": 48.8944459,
  "lon": 2.2410300
},
{
  "type": "node",
  "id": 1342102907,
  "lat": 48.8972685,
  "lon": 2.2389260
},
{
  "type": "node",
  "id": 1616972604,
  "lat": 48.8977956,
  "lon": 2.2402247
},
{
  "type": "node",
  "id": 1667187335,
  "lat": 48.8973756,
  "lon": 2.2388266
},
{
  "type": "node",
  "id": 1938031260,
  "lat": 48.8953892,
  "lon": 2.2407865
},
{
  "type": "node",
  "id": 1938031265,
  "lat": 48.8956341,
  "lon": 2.2405648
},
{
  "type": "node",
  "id": 1938031297,
  "lat": 48.8965362,
  "lon": 2.2404334
},
{
  "type": "node",
  "id": 1938031301,
  "lat": 48.8966688,
  "lon": 2.2404152
},
{
  "type": "node",
  "id": 1938031307,
  "lat": 48.8970314,
  "lon": 2.2403643
},
{
  "type": "node",
  "id": 1938031328,
  "lat": 48.8976070,
  "lon": 2.2402798
},
{
  "type": "node",
  "id": 1938031337,
  "lat": 48.8977447,
  "lon": 2.2402627
},
{
  "type": "node",
  "id": 2605326489,
  "lat": 48.8994020,
  "lon": 2.2397050
},
{
  "type": "node",
  "id": 2605326496,
  "lat": 48.8989517,
  "lon": 2.2397948
},
{
  "type": "node",
  "id": 5586618501,
  "lat": 48.8954010,
  "lon": 2.2403997
},
{
  "type": "node",
  "id": 5586618502,
  "lat": 48.8954057,
  "lon": 2.2404698
},
{
  "type": "node",
  "id": 5586618503,
  "lat": 48.8954208,
  "lon": 2.2405193
},
{
  "type": "node",
  "id": 5586618504,
  "lat": 48.8954561,
  "lon": 2.2406211
},
{
  "type": "node",
  "id": 5586618505,
  "lat": 48.8954797,
  "lon": 2.2406891
},
{
  "type": "node",
  "id": 6064806138,
  "lat": 48.8973998,
  "lon": 2.2388487
},
{
  "type": "node",
  "id": 6064806160,
  "lat": 48.8975722,
  "lon": 2.2398588
},
{
  "type": "node",
  "id": 6064806161,
  "lat": 48.8976359,
  "lon": 2.2398211
},
{
  "type": "node",
  "id": 6064806165,
  "lat": 48.8977468,
  "lon": 2.2399481
},
{
  "type": "node",
  "id": 6064806166,
  "lat": 48.8977400,
  "lon": 2.2399469
},
{
  "type": "node",
  "id": 6064806168,
  "lat": 48.8977273,
  "lon": 2.2399399
},
{
  "type": "node",
  "id": 6064806170,
  "lat": 48.8977139,
  "lon": 2.2399235
},
{
  "type": "node",
  "id": 6064806171,
  "lat": 48.8977086,
  "lon": 2.2399107
},
{
  "type": "node",
  "id": 6064806172,
  "lat": 48.8975464,
  "lon": 2.2398741
},
{
  "type": "node",
  "id": 6064806173,
  "lat": 48.8976746,
  "lon": 2.2397981
},
{
  "type": "node",
  "id": 6064806180,
  "lat": 48.8970978,
  "lon": 2.2403545
},
{
  "type": "node",
  "id": 6064806184,
  "lat": 48.8962770,
  "lon": 2.2404711
},
{
  "type": "node",
  "id": 6064806286,
  "lat": 48.8962657,
  "lon": 2.2400046
},
{
  "type": "node",
  "id": 6064806287,
  "lat": 48.8973002,
  "lon": 2.2398558
},
{
  "type": "node",
  "id": 6064806288,
  "lat": 48.8973123,
  "lon": 2.2398561
},
{
  "type": "node",
  "id": 6064806289,
  "lat": 48.8973251,
  "lon": 2.2398584
},
{
  "type": "node",
  "id": 6064806290,
  "lat": 48.8973359,
  "lon": 2.2398631
},
{
  "type": "node",
  "id": 6064806291,
  "lat": 48.8973451,
  "lon": 2.2398695
},
{
  "type": "node",
  "id": 6064806292,
  "lat": 48.8973841,
  "lon": 2.2398980
},
{
  "type": "node",
  "id": 6064806293,
  "lat": 48.8973996,
  "lon": 2.2399054
},
{
  "type": "node",
  "id": 6064806294,
  "lat": 48.8974168,
  "lon": 2.2399081
},
{
  "type": "node",
  "id": 6064806295,
  "lat": 48.8974287,
  "lon": 2.2399081
},
{
  "type": "node",
  "id": 6064806296,
  "lat": 48.8975206,
  "lon": 2.2398920
},
{
  "type": "node",
  "id": 6064806330,
  "lat": 48.8975244,
  "lon": 2.2397930
},
{
  "type": "node",
  "id": 6064807508,
  "lat": 48.8962462,
  "lon": 2.2400071
},
{
  "type": "node",
  "id": 6092764170,
  "lat": 48.8953990,
  "lon": 2.2403597
},
{
  "type": "node",
  "id": 6665873361,
  "lat": 48.8953890,
  "lon": 2.2401920
},
{
  "type": "node",
  "id": 6665873362,
  "lat": 48.8954057,
  "lon": 2.2401607
},
{
  "type": "node",
  "id": 6665873363,
  "lat": 48.8954703,
  "lon": 2.2401260
},
{
  "type": "node",
  "id": 6665873365,
  "lat": 48.8957721,
  "lon": 2.2400894
},
{
  "type": "node",
  "id": 6776825743,
  "lat": 48.8946779,
  "lon": 2.2405181
},
{
  "type": "node",
  "id": 6776826457,
  "lat": 48.8943029,
  "lon": 2.2406261
},
{
  "type": "node",
  "id": 6776939594,
  "lat": 48.8947281,
  "lon": 2.2405867
},
{
  "type": "node",
  "id": 6776939624,
  "lat": 48.8947382,
  "lon": 2.2406343
},
{
  "type": "node",
  "id": 7013716647,
  "lat": 48.8972751,
  "lon": 2.2389954
},
{
  "type": "node",
  "id": 7013716648,
  "lat": 48.8972943,
  "lon": 2.2390829
},
{
  "type": "node",
  "id": 7013716649,
  "lat": 48.8973250,
  "lon": 2.2391179
},
{
  "type": "node",
  "id": 7013716650,
  "lat": 48.8974961,
  "lon": 2.2397447
},
{
  "type": "node",
  "id": 7013716651,
  "lat": 48.8975056,
  "lon": 2.2397956
},
{
  "type": "node",
  "id": 7013734117,
  "lat": 48.8974133,
  "lon": 2.2388891
},
{
  "type": "node",
  "id": 7013734118,
  "lat": 48.8975487,
  "lon": 2.2393601
},
{
  "type": "node",
  "id": 7970080618,
  "lat": 48.8976519,
  "lon": 2.2398116
},
{
  "type": "node",
  "id": 7970080619,
  "lat": 48.8977038,
  "lon": 2.2399514
},
{
  "type": "node",
  "id": 7970152520,
  "lat": 48.8976657,
  "lon": 2.2397672
},
{
  "type": "node",
  "id": 7970152523,
  "lat": 48.8979234,
  "lon": 2.2399256
},
{
  "type": "node",
  "id": 7994868376,
  "lat": 48.8954577,
  "lon": 2.2407127
},
{
  "type": "node",
  "id": 7994868381,
  "lat": 48.8943192,
  "lon": 2.2408197
},
{
  "type": "node",
  "id": 7994868382,
  "lat": 48.8943060,
  "lon": 2.2408130
},
{
  "type": "node",
  "id": 7994868383,
  "lat": 48.8944957,
  "lon": 2.2410227
},
{
  "type": "node",
  "id": 7994868384,
  "lat": 48.8944868,
  "lon": 2.2409299
},
{
  "type": "node",
  "id": 7994936685,
  "lat": 48.8944829,
  "lon": 2.2408885
},
{
  "type": "node",
  "id": 7994936686,
  "lat": 48.8944819,
  "lon": 2.2408793
},
{
  "type": "node",
  "id": 7994936687,
  "lat": 48.8944625,
  "lon": 2.2408797
},
{
  "type": "node",
  "id": 7994936688,
  "lat": 48.8944555,
  "lon": 2.2408628
},
{
  "type": "node",
  "id": 7994936689,
  "lat": 48.8944379,
  "lon": 2.2408227
},
{
  "type": "node",
  "id": 7994936690,
  "lat": 48.8944204,
  "lon": 2.2407831
},
{
  "type": "node",
  "id": 7994936691,
  "lat": 48.8944129,
  "lon": 2.2407704
},
{
  "type": "node",
  "id": 7994936692,
  "lat": 48.8944019,
  "lon": 2.2407734
},
{
  "type": "node",
  "id": 7994936693,
  "lat": 48.8943265,
  "lon": 2.2408170
},
{
  "type": "node",
  "id": 7994936694,
  "lat": 48.8943113,
  "lon": 2.2408187
},
{
  "type": "node",
  "id": 7994936695,
  "lat": 48.8943044,
  "lon": 2.2407969
},
{
  "type": "node",
  "id": 7994936696,
  "lat": 48.8943035,
  "lon": 2.2407788
},
{
  "type": "node",
  "id": 7994936697,
  "lat": 48.8943065,
  "lon": 2.2407364
},
{
  "type": "node",
  "id": 7994936698,
  "lat": 48.8943046,
  "lon": 2.2406793
},
{
  "type": "node",
  "id": 7994936699,
  "lat": 48.8943021,
  "lon": 2.2405997
},
{
  "type": "node",
  "id": 7994936700,
  "lat": 48.8947049,
  "lon": 2.2405119
},
{
  "type": "node",
  "id": 7994936701,
  "lat": 48.8944960,
  "lon": 2.2405507
},
{
  "type": "node",
  "id": 7994936702,
  "lat": 48.8945192,
  "lon": 2.2405470
},
{
  "type": "node",
  "id": 7994936703,
  "lat": 48.8945420,
  "lon": 2.2405431
},
{
  "type": "node",
  "id": 7994936704,
  "lat": 48.8945785,
  "lon": 2.2405364
},
{
  "type": "node",
  "id": 7994936705,
  "lat": 48.8946179,
  "lon": 2.2405323
},
{
  "type": "node",
  "id": 7994936706,
  "lat": 48.8947111,
  "lon": 2.2405156
},
{
  "type": "node",
  "id": 7994936707,
  "lat": 48.8947154,
  "lon": 2.2405239
},
{
  "type": "node",
  "id": 7994936708,
  "lat": 48.8947537,
  "lon": 2.2406664
},
{
  "type": "node",
  "id": 7994936709,
  "lat": 48.8947730,
  "lon": 2.2406732
},
{
  "type": "node",
  "id": 7994936710,
  "lat": 48.8948185,
  "lon": 2.2406705
},
{
  "type": "node",
  "id": 7994936711,
  "lat": 48.8950808,
  "lon": 2.2406403
},
{
  "type": "node",
  "id": 7994936712,
  "lat": 48.8951090,
  "lon": 2.2406054
},
{
  "type": "node",
  "id": 7994936713,
  "lat": 48.8952434,
  "lon": 2.2405370
},
{
  "type": "node",
  "id": 7994936714,
  "lat": 48.8971104,
  "lon": 2.2403529
},
{
  "type": "node",
  "id": 7994936715,
  "lat": 48.8971069,
  "lon": 2.2402797
},
{
  "type": "node",
  "id": 7994936716,
  "lat": 48.8970977,
  "lon": 2.2401538
},
{
  "type": "node",
  "id": 7994936717,
  "lat": 48.8970950,
  "lon": 2.2401089
},
{
  "type": "node",
  "id": 7994936718,
  "lat": 48.8970912,
  "lon": 2.2400396
},
{
  "type": "node",
  "id": 7994936719,
  "lat": 48.8970880,
  "lon": 2.2399974
},
{
  "type": "node",
  "id": 7994936720,
  "lat": 48.8970812,
  "lon": 2.2398873
},
{
  "type": "node",
  "id": 7994936721,
  "lat": 48.8966991,
  "lon": 2.2404291
},
{
  "type": "node",
  "id": 7994936722,
  "lat": 48.8953953,
  "lon": 2.2402972
},
{
  "type": "node",
  "id": 7994936723,
  "lat": 48.8953927,
  "lon": 2.2402539
},
{
  "type": "node",
  "id": 7994936724,
  "lat": 48.8954698,
  "lon": 2.2406606
},
{
  "type": "node",
  "id": 7994936725,
  "lat": 48.8954112,
  "lon": 2.2404915
},
{
  "type": "node",
  "id": 7994936726,
  "lat": 48.8954030,
  "lon": 2.2404405
},
{
  "type": "node",
  "id": 1616972618,
  "lat": 48.8999540,
  "lon": 2.2399887
},
{
  "type": "node",
  "id": 2605326488,
  "lat": 48.9022177,
  "lon": 2.2394238
},
{
  "type": "node",
  "id": 2605326491,
  "lat": 48.9012646,
  "lon": 2.2395507
},
{
  "type": "node",
  "id": 2605326494,
  "lat": 48.8999771,
  "lon": 2.2397142
},
{
  "type": "node",
  "id": 2605326495,
  "lat": 48.8999063,
  "lon": 2.2396981
},
{
  "type": "node",
  "id": 4597747018,
  "lat": 48.8998113,
  "lon": 2.2396532
},
{
  "type": "node",
  "id": 4597747023,
  "lat": 48.9000601,
  "lon": 2.2401270
},
{
  "type": "node",
  "id": 4597747025,
  "lat": 48.9000941,
  "lon": 2.2401337
},
{
  "type": "node",
  "id": 4597747029,
  "lat": 48.9002792,
  "lon": 2.2401149
},
{
  "type": "node",
  "id": 4597747080,
  "lat": 48.9023001,
  "lon": 2.2398221
},
{
  "type": "node",
  "id": 7554305244,
  "lat": 48.9000564,
  "lon": 2.2397230
},
{
  "type": "node",
  "id": 7554305245,
  "lat": 48.9002984,
  "lon": 2.2397102
},
{
  "type": "node",
  "id": 7969755073,
  "lat": 48.9023295,
  "lon": 2.2398175
},
{
  "type": "node",
  "id": 7969755074,
  "lat": 48.9022679,
  "lon": 2.2398267
},
{
  "type": "node",
  "id": 7970080587,
  "lat": 48.9021900,
  "lon": 2.2398377
},
{
  "type": "node",
  "id": 7970080589,
  "lat": 48.9016818,
  "lon": 2.2399114
},
{
  "type": "node",
  "id": 7970080591,
  "lat": 48.9011076,
  "lon": 2.2395791
},
{
  "type": "node",
  "id": 7970080594,
  "lat": 48.9011393,
  "lon": 2.2399901
},
{
  "type": "node",
  "id": 7970080599,
  "lat": 48.8997638,
  "lon": 2.2396590
},
{
  "type": "node",
  "id": 7970080603,
  "lat": 48.9000334,
  "lon": 2.2401103
},
{
  "type": "node",
  "id": 7970080607,
  "lat": 48.9000825,
  "lon": 2.2397215
},
{
  "type": "node",
  "id": 7970080609,
  "lat": 48.9000881,
  "lon": 2.2401324
},
{
  "type": "node",
  "id": 7970080610,
  "lat": 48.9000921,
  "lon": 2.2400131
},
{
  "type": "node",
  "id": 7970080611,
  "lat": 48.9000965,
  "lon": 2.2399144
},
{
  "type": "node",
  "id": 7970080612,
  "lat": 48.9000995,
  "lon": 2.2398596
},
{
  "type": "node",
  "id": 7970080613,
  "lat": 48.9001031,
  "lon": 2.2397894
},
{
  "type": "node",
  "id": 7970080614,
  "lat": 48.9001066,
  "lon": 2.2397203
},
{
  "type": "node",
  "id": 7970080620,
  "lat": 48.8998721,
  "lon": 2.2396820
},
{
  "type": "node",
  "id": 7970080621,
  "lat": 48.8999379,
  "lon": 2.2397053
},
{
  "type": "node",
  "id": 7970080622,
  "lat": 48.9006565,
  "lon": 2.2396577
},
{
  "type": "node",
  "id": 7970080623,
  "lat": 48.9006068,
  "lon": 2.2396640
},
{
  "type": "node",
  "id": 7970080624,
  "lat": 48.9007112,
  "lon": 2.2396508
},
{
  "type": "node",
  "id": 7970080625,
  "lat": 48.9021484,
  "lon": 2.2398437
},
{
  "type": "node",
  "id": 7970080626,
  "lat": 48.9021444,
  "lon": 2.2397604
},
{
  "type": "node",
  "id": 7970080627,
  "lat": 48.9021595,
  "lon": 2.2394420
},
{
  "type": "node",
  "id": 7970080628,
  "lat": 48.9022614,
  "lon": 2.2394101
},
{
  "type": "node",
  "id": 8518191711,
  "lat": 48.9000948,
  "lon": 2.2399531
},
{
  "type": "node",
  "id": 564904117,
  "lat": 48.8946419,
  "lon": 2.2441014
},
{
  "type": "node",
  "id": 564904119,
  "lat": 48.8945320,
  "lon": 2.2442051
},
{
  "type": "node",
  "id": 564904120,
  "lat": 48.8944421,
  "lon": 2.2442636
},
{
  "type": "node",
  "id": 566564402,
  "lat": 48.8945463,
  "lon": 2.2439203
},
{
  "type": "node",
  "id": 1516881998,
  "lat": 48.8948048,
  "lon": 2.2435685
},
{
  "type": "node",
  "id": 1516882002,
  "lat": 48.8948273,
  "lon": 2.2434727
},
{
  "type": "node",
  "id": 1516882026,
  "lat": 48.8949346,
  "lon": 2.2423503
},
{
  "type": "node",
  "id": 1516882031,
  "lat": 48.8949434,
  "lon": 2.2424290
},
{
  "type": "node",
  "id": 1516882034,
  "lat": 48.8948838,
  "lon": 2.2428467
},
{
  "type": "node",
  "id": 1516882039,
  "lat": 48.8948362,
  "lon": 2.2429822
},
{
  "type": "node",
  "id": 1516882064,
  "lat": 48.8948248,
  "lon": 2.2435165
},
{
  "type": "node",
  "id": 1516882093,
  "lat": 48.8948220,
  "lon": 2.2434385
},
{
  "type": "node",
  "id": 1516882097,
  "lat": 48.8947956,
  "lon": 2.2433292
},
{
  "type": "node",
  "id": 1516882111,
  "lat": 48.8947301,
  "lon": 2.2431816
},
{
  "type": "node",
  "id": 1516882119,
  "lat": 48.8946112,
  "lon": 2.2438605
},
{
  "type": "node",
  "id": 1516882122,
  "lat": 48.8949106,
  "lon": 2.2422550
},
{
  "type": "node",
  "id": 1516882131,
  "lat": 48.8949247,
  "lon": 2.2426714
},
{
  "type": "node",
  "id": 4590606903,
  "lat": 48.8933568,
  "lon": 2.2447343
},
{
  "type": "node",
  "id": 4590606984,
  "lat": 48.8944735,
  "lon": 2.2440074
},
{
  "type": "node",
  "id": 4590607017,
  "lat": 48.8946776,
  "lon": 2.2437717
},
{
  "type": "node",
  "id": 4590607023,
  "lat": 48.8947543,
  "lon": 2.2436570
},
{
  "type": "node",
  "id": 4590607025,
  "lat": 48.8947588,
  "lon": 2.2432341
},
{
  "type": "node",
  "id": 4590607026,
  "lat": 48.8947733,
  "lon": 2.2432607
},
{
  "type": "node",
  "id": 4590607049,
  "lat": 48.8949364,
  "lon": 2.2425948
},
{
  "type": "node",
  "id": 4590607053,
  "lat": 48.8949448,
  "lon": 2.2425003
},
{
  "type": "node",
  "id": 4590972160,
  "lat": 48.8947771,
  "lon": 2.2431151
},
{
  "type": "node",
  "id": 7537957837,
  "lat": 48.8943020,
  "lon": 2.2443310
},
{
  "type": "node",
  "id": 7537957838,
  "lat": 48.8937309,
  "lon": 2.2446549
},
{
  "type": "node",
  "id": 7994868378,
  "lat": 48.8945140,
  "lon": 2.2439590
},
{
  "type": "node",
  "id": 7994868379,
  "lat": 48.8945667,
  "lon": 2.2439015
},
{
  "type": "node",
  "id": 1188299790,
  "lat": 48.8933875,
  "lon": 2.2521852
},
{
  "type": "node",
  "id": 1514395292,
  "lat": 48.8978755,
  "lon": 2.2539113
},
{
  "type": "node",
  "id": 1715909657,
  "lat": 48.8980402,
  "lon": 2.2542759
},
{
  "type": "node",
  "id": 1715909660,
  "lat": 48.8980944,
  "lon": 2.2544308
},
{
  "type": "node",
  "id": 3218753561,
  "lat": 48.8933542,
  "lon": 2.2521227
},
{
  "type": "node",
  "id": 7495332859,
  "lat": 48.8862956,
  "lon": 2.2562246
},
{
  "type": "node",
  "id": 7495332860,
  "lat": 48.8863759,
  "lon": 2.2559316
},
{
  "type": "node",
  "id": 1715909661,
  "lat": 48.8985929,
  "lon": 2.2558555
},
{
  "type": "node",
  "id": 1715909662,
  "lat": 48.8987173,
  "lon": 2.2562112
},
{
  "type": "node",
  "id": 1715909663,
  "lat": 48.8987456,
  "lon": 2.2562902
},
{
  "type": "node",
  "id": 2747604406,
  "lat": 48.8987822,
  "lon": 2.2563724
},
{
  "type": "node",
  "id": 4442204335,
  "lat": 48.8987876,
  "lon": 2.2564117
},
{
  "type": "node",
  "id": 7425277087,
  "lat": 48.8987965,
  "lon": 2.2565628
},
{
  "type": "node",
  "id": 3588429232,
  "lat": 48.9011196,
  "lon": 2.2627133
},
{
  "type": "node",
  "id": 4757813131,
  "lat": 48.9014099,
  "lon": 2.2635321
},
{
  "type": "node",
  "id": 4757813132,
  "lat": 48.9007365,
  "lon": 2.2616630
},
{
  "type": "node",
  "id": 4757813133,
  "lat": 48.9007526,
  "lon": 2.2616784
},
{
  "type": "node",
  "id": 4757813134,
  "lat": 48.9014072,
  "lon": 2.2635514
},
{
  "type": "node",
  "id": 5026422095,
  "lat": 48.9017847,
  "lon": 2.2643202
},
{
  "type": "node",
  "id": 5026422718,
  "lat": 48.9026662,
  "lon": 2.2659691
},
{
  "type": "node",
  "id": 5026422873,
  "lat": 48.9017080,
  "lon": 2.2643262
},
{
  "type": "node",
  "id": 5073068907,
  "lat": 48.9009781,
  "lon": 2.2623143
},
{
  "type": "node",
  "id": 5467573828,
  "lat": 48.9026690,
  "lon": 2.2658899
},
{
  "type": "node",
  "id": 7997908907,
  "lat": 48.9063965,
  "lon": 2.2594097
},
{
  "type": "node",
  "id": 7997908908,
  "lat": 48.9064483,
  "lon": 2.2593762
},
{
  "type": "node",
  "id": 7997908909,
  "lat": 48.9065142,
  "lon": 2.2593340
},
{
  "type": "node",
  "id": 9135774529,
  "lat": 48.9065275,
  "lon": 2.2593248
}

  ]
}
